OBJECTID,IPEDSID,NAME,ADDRESS,CITY,STATE,ZIP,ZIP4,TELEPHONE
1053,107619,PHILLIPS COMMUNITY COLLEGE OF THE UNIVERSITY OF ARKANSAS,1000 CAMPUS DRIVE,HELENA,AR,72342,0785,(870) 338-6474
1914,107080,HENDRIX COLLEGE,1600 WASHINGTON AVE,CONWAY,AR,72032,3080,(501) 329-6811
5153,107743,UNIVERSITY OF ARKANSAS COMMUNITY COLLEGE RICH MOUNTAIN,1100 COLLEGE DR,MENA,AR,71953,NOT AVAILABLE,(479) 394-7622
563,106485,UNIVERSITY OF ARKANSAS AT MONTICELLO,HIGHWAY 425 SOUTH,MONTICELLO,AR,71656,NOT AVAILABLE,(870) 367-6811
1897,454458,BRYAN UNIVERSITY,3704 W. WALNUT ST.,ROGERS,AR,72756,NOT AVAILABLE,(479) 899-6644
2293,106458,ARKANSAS STATE UNIVERSITY,2105 E. AGGIE ROAD,JONESBORO,AR,72401,NOT AVAILABLE,(870) 972-2100
4369,420538,ARKANSAS STATE UNIVERSITY-MOUNTAIN HOME,1600 SOUTH COLLEGE STREET,MOUNTAIN HOME,AR,72653,NOT AVAILABLE,(870) 508-6100
102,485591,NEW BEGINNINGS BEAUTY ACADEMY,1609 WEST 26TH STREET,PINE BLUFF,AR,71601,5257,(870) 850-7788
2455,106999,UNIVERSITY OF ARKANSAS COMMUNITY COLLEGE-BATESVILLE,2005 WHITE DRIVE,BATESVILLE,AR,72503,3350,(870) 612-2000
4250,107044,HARDING UNIVERSITY,915 E. MARKET AVE.,SEARCY,AR,72149,5615,(501) 279-4000
1915,107123,JEFFERSON REGIONAL MEDICAL CENTER SCHOOL OF NURSING,1600 WEST 40TH AVENUE,PINE BLUFF,AR,71603,NOT AVAILABLE,(870) 541-7858
2294,107637,SOUTHEAST ARKANSAS COLLEGE,1900 S HAZEL STREET,PINE BLUFF,AR,71603,NOT AVAILABLE,(870) 543-5900
3833,106397,UNIVERSITY OF ARKANSAS,ADMINISTRATION BLDG 425,FAYETTEVILLE,AR,72701,NOT AVAILABLE,(479) 575-2000
1050,107220,CAREER ACADEMY OF HAIR DESIGN,346 E. ROBINSON AVE,SPRINGDALE,AR,72764,7128,(479) 633-8110
6321,492069,CHAMPION CHRISTIAN COLLEGE,600 GARLAND AVENUE,HOT SPRINGS,AR,71913,NOT AVAILABLE,(501) 623-2272
4249,106810,CROWLEY'S RIDGE COLLEGE,100 COLLEGE DR,PARAGOULD,AR,72450,NOT AVAILABLE,(870) 236-6901
5531,106315,ARKANSAS BEAUTY SCHOOL-LITTLE ROCK,8521 GEYER SPRINGS ROAD UNIT 30,LITTLE ROCK,AR,72209,NOT AVAILABLE,(501) 562-5673
1154,107460,NORTH ARKANSAS COLLEGE,1515 PIONEER DR,HARRISON,AR,72601,5508,(870) 743-3000
3084,490540,DELTA DESIGNS COSMETOLOGY SCHOOL,671 ADDISON DRIVE,WYNNE,AR,72396,1602,(870) 208-8787
3306,486619,ACADEMY OF PROFESSIONAL COSMETOLOGY,2600 WEST HUDSON ROAD SUITE A,ROGERS,AR,72756,2028,(479) 246-0046
3480,488527,ARKANSAS COLLEGES OF HEALTH EDUCATION,7000 CHAD COLLEY BLVD.,FORT SMITH,AR,72916,0366,(479) 308-2200
5223,460987,THE SALON PROFESSIONAL ACADEMY-NORTH LITTLE ROCK,13125 HWY 107,SHERWOOD,AR,72120,NOT AVAILABLE,(501) 753-2400
3290,457192,WASHINGTON BARBER COLLEGE INC,5300 WEST 65TH STREET,LITTLE ROCK,AR,72209,3820,(501) 568-8800
5532,106360,ARTHUR'S BEAUTY COLLEGE,2000 NORTH B STREET,FORT SMITH,AR,72901,3342,(479) 783-3301
6472,493725,UNIVERSITY OF ARKANSAS SYSTEM EVERSITY,2402 NORTH UNIVERSITY AVENUE,LITTLE ROCK,AR,72207,3608,(844) 837-7489
2738,107442,NEW TYLER BARBER COLLEGE INC,1221 E 7TH ST,NORTH LITTLE ROCK,AR,72114,4973,(501) 375-0377
4252,107488,NORTHWEST TECHNICAL INSTITUTE,709 S OLD MISSOURI RD,SPRINGDALE,AR,72764,NOT AVAILABLE,(479) 751-8824 EXT 0
2291,106342,LYON COLLEGE,2300 HIGHLAND ROAD,BATESVILLE,AR,72501,NOT AVAILABLE,(870) 307-7000
5207,458885,STRAYER UNIVERSITY-ARKANSAS,10825 FINANCIAL CENTRE PKWY STE 400,LITTLE ROCK,AR,72211,NOT AVAILABLE,(877) 445-7180
5684,107983,SOUTHERN ARKANSAS UNIVERSITY MAIN CAMPUS,100 E. UNIVERSITY,MAGNOLIA,AR,71753,NOT AVAILABLE,(870) 235-4000
4740,106324,ARKANSAS BEAUTY COLLEGE,109 N COMMERCE ST,RUSSELLVILLE,AR,72801,NOT AVAILABLE,(479) 968-3075
1059,107992,SOUTHERN ARKANSAS UNIVERSITY TECH,6415 SPELLMAN ROAD,CAMDEN,AR,71701,1906,(870) 574-4500
4253,108092,UNIVERSITY OF ARKANSAS-FORT SMITH,5210 GRAND AVE,FORT SMITH,AR,72913,3649,(479) 788-7000
5755,108065,VELVATEX COLLEGE OF BEAUTY CULTURE,1520 MARTIN LUTHER KING DR,LITTLE ROCK,AR,72202,5452,(501) 372-9678
1051,107318,ARKANSAS STATE UNIVERSITY MID-SOUTH,2000 W. BROADWAY,WEST MEMPHIS,AR,72301,3829,(870) 733-6722
1052,107585,UNIVERSITY OF ARKANSAS COMMUNITY COLLEGE-MORRILTON,1537 UNIVERSITY BLVD.,MORRILTON,AR,72110,NOT AVAILABLE,(501) 977-2000
1917,107877,WILLIAMS BAPTIST UNIVERSITY,60 W FULBRIGHT AVENUE,WALNUT RIDGE,AR,72476,NOT AVAILABLE,(870) 886-6741
3834,106467,ARKANSAS TECH UNIVERSITY,"ADMINISTRATION BLDG 200, 1509 N BOULDER AVE",RUSSELLVILLE,AR,72801,2222,(844) 804-2628
4370,107071,HENDERSON STATE UNIVERSITY,1100 HENDERSON STREET,ARKADELPHIA,AR,71999,0001,(870) 230-5000
5174,107664,UNIVERSITY OF ARKANSAS-PULASKI TECHNICAL COLLEGE,3000 W SCENIC DR,NORTH LITTLE ROCK,AR,72118,3347,(501) 812-2200
1047,106625,BLACK RIVER TECHNICAL COLLEGE,1410 HWY 304 EAST,POCAHONTAS,AR,72455,NOT AVAILABLE,(870) 248-4000
1916,107558,UNIVERSITY OF THE OZARKS,415 N COLLEGE AVE,CLARKSVILLE,AR,72830,NOT AVAILABLE,(479) 979-1000
4251,107327,ARKANSAS NORTHEASTERN COLLEGE,2501 S DIVISION,BLYTHEVILLE,AR,72316,1109,(870) 762-1020 EXT 1114
6446,492281,GOODFELLAS BARBER COLLEGE,4306 ASHER AVE,LITTLE ROCK,AR,72204,NOT AVAILABLE,(501) 707-7983
45,485731,THE BEAUTY SCHOOL,1058 HIGHLAND CIRCLE SUITE #4,MOUNTAIN HOME,AR,72653,NOT AVAILABLE,(870) 425-4225
567,107549,OZARKA COLLEGE,218 COLLEGE DR,MELBOURNE,AR,72556,0010,(870) 368-7371
568,106449,ARKANSAS STATE UNIVERSITY-BEEBE,1000 IOWA STREET,BEEBE,AR,72012,1000,(501) 882-3600
847,480921,DESIGNER BARBER & STYLIST SCHOOL,"2409 SOUTH 56TH STREET, SUITE 118",FT SMITH,AR,72903,3753,(479) 478-8388
1157,106494,ARTHUR'S BEAUTY COLLEGE,2600 JOHN HARDEN DRIVE,JACKSONVILLE,AR,72076,NOT AVAILABLE,(501) 982-8987
2737,106892,EASTERN COLLEGE OF HEALTH VOCATIONS-LITTLE ROCK,200 SOUTH UNIVERSITY AVENUE,LITTLE ROCK,AR,72205,NOT AVAILABLE,(501) 568-0211
3356,485704,RIVER VALLEY SCHOOL OF MASSAGE,2003 EAST PARKWAY DRIVE,RUSSELLVILLE,AR,72802,NOT AVAILABLE,(479) 890-7876
3137,492281,GOODFELLAS BARBER COLLEGE,4306 ASHER AVENUE,LITTLE ROCK,AR,72204,NOT AVAILABLE,(501) 707-7983
4076,367459,NORTHWEST ARKANSAS COMMUNITY COLLEGE,ONE COLLEGE DRIVE,BENTONVILLE,AR,72712,5091,(479) 986-4000
5129,448336,ARKANSAS STATE UNIVERSITY SYSTEM,"501 WOODLANE DRIVE, SUITE 600",LITTLE ROCK,AR,72201,NOT AVAILABLE,(501) 660-1000
2081,445540,ARTHUR'S BEAUTY COLLEGE,2320 WASHINGTON AVENUE,CONWAY,AR,72032,NOT AVAILABLE,(501) 329-7770
2292,106412,UNIVERSITY OF ARKANSAS AT PINE BLUFF,1200 N UNIVERSITY MAIL SLOT 4789,PINE BLUFF,AR,71601,NOT AVAILABLE,(870) 575-8000
3088,491075,ARKANSAS WELDING ACADEMY,1920 NORTH REDMOND ROAD,JACKSONVILLE,AR,72076,NOT AVAILABLE,(501) 982-9353
5155,108056,UNIVERSITY OF ARKANSAS SYSTEM OFFICE,2404 N UNIVERSITY,LITTLE ROCK,AR,72207,3608,(501) 686-2500
5526,450119,BLUE CLIFF COLLEGE-FAYETTEVILLE,3448 N. COLLEGE,FAYETTEVILLE,AR,72703,NOT AVAILABLE,(479) 442-2914
6360,493725,UNIVERSITY OF ARKANSAS SYSTEM EVERSITY,2402 NORTH UNIVERSITY AVENUE,LITTLE ROCK,AR,72207,3608,(844) 837-7489
2530,107600,PHILANDER SMITH COLLEGE,900 W. DAISY BATES DRIVE,LITTLE ROCK,AR,72202,3799,(501) 375-9845
5154,106263,UNIVERSITY OF ARKANSAS FOR MEDICAL SCIENCES,4301 W MARKHAM,LITTLE ROCK,AR,72205,7199,(501) 296-1275
5683,107512,OUACHITA BAPTIST UNIVERSITY,410 OUACHITA ST,ARKADELPHIA,AR,71998,0001,(870) 245-5000
1049,106980,NATIONAL PARK COLLEGE,101 COLLEGE DR,HOT SPRINGS,AR,71913,NOT AVAILABLE,(501) 760-4222
1543,107293,ACADEMY OF SALON AND SPA,311 S 16TH ST,FORT SMITH,AR,72901,NOT AVAILABLE,(479) 782-5059
4649,106908,PAUL MITCHELL THE SCHOOL-LITTLE ROCK,4201 E MCCAIN BLVD,NORTH LITTLE ROCK,AR,72117,NOT AVAILABLE,(405) 928-5200
5141,106546,BAPTIST HEALTH COLLEGE LITTLE ROCK,11900 COLONEL GLENN RD STE 1000,LITTLE ROCK,AR,72210,2827,(501) 202-6200
5954,107831,SEARCY BEAUTY COLLEGE,1004 S MAIN ST,SEARCY,AR,72143,NOT AVAILABLE,(501) 268-6300
2457,107974,SOUTH ARKANSAS COMMUNITY COLLEGE,300 S WEST AVE,EL DORADO,AR,71731,7010,(870) 862-8131
5530,106306,ARKANSAS BAPTIST COLLEGE,1600 DR. MARTIN LUTHER KING JR. DRIVE,LITTLE ROCK,AR,72202,6068,(501) 420-1200
5533,107655,PROFESSIONAL COSMETOLOGY EDUCATION CENTER,460 NORTH WASHINGTON,EL DORADO,AR,71730,4009,(870) 776-8865
262,489830,ARTHUR'S BEAUTY COLLEGE,"1903 GRANT AVENUE SUITES, K, L, M",JONESBORO,AR,72401,NOT AVAILABLE,(870) 932-4330
1048,106713,CENTRAL BAPTIST COLLEGE,1501 COLLEGE AVENUE,CONWAY,AR,72034,NOT AVAILABLE,(501) 329-6872
2529,106351,ARKANSAS COLLEGE OF BARBERING AND HAIR DESIGN,200 E WASHINGTON AVE,NORTH LITTLE ROCK,AR,72114,NOT AVAILABLE,(501) 891-6283
2739,107789,PAUL MITCHELL THE SCHOOL-ARKANSAS,4156 N STEELE BLVD,FAYETTEVILLE,AR,72703,NOT AVAILABLE,(479) 442-5181
5142,107521,ARKANSAS STATE UNIVERSITY THREE RIVERS,ONE COLLEGE CIRCLE,MALVERN,AR,72104,0816,(501) 337-5000 EXT 1100
5529,106245,UNIVERSITY OF ARKANSAS AT LITTLE ROCK,2801 S UNIVERSITY AVE,LITTLE ROCK,AR,72204,NOT AVAILABLE,(501) 569-3000
5685,106795,COSSATOT COMMUNITY COLLEGE OF THE UNIVERSITY OF ARKANSAS,183 COLLEGE DRIVE,DE QUEEN,AR,71832,NOT AVAILABLE,(870) 584-4471
1153,107141,JOHN BROWN UNIVERSITY,2000 W UNIVERSITY ST,SILOAM SPRINGS,AR,72761,NOT AVAILABLE,(479) 524-9500
2453,106704,UNIVERSITY OF CENTRAL ARKANSAS,201 DONAGHEY AVE,CONWAY,AR,72035,0001,(501) 450-5000
2456,106883,EAST ARKANSAS COMMUNITY COLLEGE,1700 NEWCASTLE RD,FORREST CITY,AR,72335,2204,(870) 633-4480 EXT 200
5128,446233,ECCLESIA COLLEGE,9653 NATIONS DR,SPRINGDALE,AR,72762,NOT AVAILABLE,(479) 248-7236
5953,107099,HOT SPRINGS BEAUTY COLLEGE,100 CONES RD,HOT SPRINGS,AR,71901,NOT AVAILABLE,(501) 624-4258
1010,107840,SHORTER COLLEGE,604 LOCUST ST,N LITTLE ROCK,AR,72114,NOT AVAILABLE,(501) 374-6305 EXT 107
2129,440402,ARKANSAS STATE UNIVERSITY-NEWPORT,7648 VICTORY BLVD,NEWPORT,AR,72112,NOT AVAILABLE,(870) 512-7800
1889,438869,REMINGTON COLLEGE-LITTLE ROCK CAMPUS,"10600 COLONEL GLENN RD, SUITE 100",LITTLE ROCK,AR,72204,NOT AVAILABLE,(501) 312-0007
2454,107725,UNIVERSITY OF ARKANSAS HOPE-TEXARKANA,2500 S MAIN,HOPE,AR,71801,NOT AVAILABLE,(870) 777-5722
3085,490744,NORTHERN TECHNICAL COLLEGE,2215 EAST HARDING STE 8 & 9,PINE BLUFF,AR,71601,NOT AVAILABLE,(870) 329-5136
