OBJECTID,IPEDSID,NAME,ADDRESS,CITY,STATE,ZIP,ZIP4,TELEPHONE
26,199148,UNIVERSITY OF NORTH CAROLINA AT GREENSBORO,1400 SPRING GARDEN ST,GREENSBORO,NC,27402,6170,(336) 334-5000
332,199731,SOUTHWESTERN COMMUNITY COLLEGE,447 COLLEGE DRIVE,SYLVA,NC,28779,NOT AVAILABLE,(828) 339-4000
971,198622,GUILFORD TECHNICAL COMMUNITY COLLEGE,601 E. MAIN STREET,JAMESTOWN,NC,27282,NOT AVAILABLE,(336) 334-4822
1159,198871,LOUISBURG COLLEGE,501 N. MAIN ST.,LOUISBURG,NC,27549,2399,(919) 496-2521
1402,199953,WILSON COMMUNITY COLLEGE,902 HERRING AVE,WILSON,NC,27893,3310,(252) 291-1195
2711,451352,SOUTHEASTERN COLLEGE-CHARLOTTE,207 REGENCY EXECUTIVE PARK DRIVE,CHARLOTTE,NC,28217,NOT AVAILABLE,(704) 527-4979
3010,199962,WINGATE UNIVERSITY,301 E. WILSON STREET,WINGATE,NC,28174,0159,(704) 233-8000
3175,494764,AVIATION INSTITUTE OF MAINTENANCE-CHARLOTTE,7421 E. INDEPENDENCE BOULEVARD,CHARLOTTE,NC,28227,9403,(980) 785-0700
4011,481720,SOUTH UNIVERSITY-HIGH POINT,3975 PREMIER DRIVE,HIGH POINT,NC,27265,8320,(336) 812-7200
4254,199281,UNIVERSITY OF NORTH CAROLINA AT PEMBROKE,ONE UNIVERSITY DRIVE,PEMBROKE,NC,28372,1510,(910) 521-6000
4549,199412,QUEENS UNIVERSITY OF CHARLOTTE,1900 SELWYN AVE,CHARLOTTE,NC,28274,0001,(704) 337-2200
6087,199263,PAMLICO COMMUNITY COLLEGE,5049 HWY 306 SOUTH,GRANTSBORO,NC,28529,NOT AVAILABLE,(252) 249-1851 EXT 3084
735,199759,SOUTHEASTERN BAPTIST THEOLOGICAL SEMINARY,120 S. WINGATE STREET,WAKE FOREST,NC,27587,1889,(919) 761-2100
1327,198677,HERITAGE BIBLE COLLEGE,494 ANTIOCH CHURCH ROAD,DUNN,NC,28334,NOT AVAILABLE,(910) 892-3178
1336,199689,PAUL MITCHELL THE SCHOOL-FAYETTEVILLE,505A CROSS CREEK MALL,FAYETTEVILLE,NC,28303,5364,(910) 485-6310
1788,455910,CENTER FOR MASSAGE,"16 EAGLE STREET, SUITE 100",ASHEVILLE,NC,28801,NOT AVAILABLE,(828) 658-0814
3430,489937,CAROLINA UNIVERSITY,420 S. BROAD ST.,WINSTON-SALEM,NC,27101,NOT AVAILABLE,(336) 725-8344
3574,199795,TRI-COUNTY COMMUNITY COLLEGE,21 CAMPUS CIRCLE,MURPHY,NC,28906,NOT AVAILABLE,(828) 837-6810
3575,199908,WESTERN PIEDMONT COMMUNITY COLLEGE,1001 BURKEMONT AVE,MORGANTON,NC,28655,4511,(828) 448-3500
4636,199139,UNIVERSITY OF NORTH CAROLINA AT CHARLOTTE,9201 UNIVERSITY CITY BLVD,CHARLOTTE,NC,28223,0001,(704) 687-2000
6221,198756,JOHNSON C SMITH UNIVERSITY,100 BEATTIES FORD ROAD,CHARLOTTE,NC,28216,5398,(704) 378-1000
326,198817,LENOIR COMMUNITY COLLEGE,231 HIGHWAY 58 SOUTH,KINSTON,NC,28502,0188,(252) 527-6223
1060,199883,WATTS SCHOOL OF NURSING,2828 CROADSAILE DRIVE SUITE 200,DURHAM,NC,27705,2505,(919) 470-7348
2849,199087,NASH COMMUNITY COLLEGE,522 N. OLD CARRIAGE ROAD,ROCKY MOUNT,NC,27804,NOT AVAILABLE,(252) 443-4011
2850,199476,ROBESON COMMUNITY COLLEGE,5160 FAYETTEVILLE ROAD,LUMBERTON,NC,28360,NOT AVAILABLE,(910) 272-3700
4552,199607,SALEM COLLEGE,601 S CHURCH ST,WINSTON-SALEM,NC,27101,NOT AVAILABLE,(336) 721-2600
4553,199847,WAKE FOREST UNIVERSITY,1834 WAKE FOREST ROAD,WINSTON-SALEM,NC,27106,NOT AVAILABLE,(336) 758-5000
4999,198950,MEREDITH COLLEGE,3800 HILLSBOROUGH ST,RALEIGH,NC,27607,5298,(919) 760-8600
6078,199111,UNIVERSITY OF NORTH CAROLINA AT ASHEVILLE,ONE UNIVERSITY HEIGHTS,ASHEVILLE,NC,28804,8510,(828) 251-6600
6086,198330,COASTAL CAROLINA COMMUNITY COLLEGE,444 WESTERN BLVD,JACKSONVILLE,NC,28546,6816,(910) 455-1221
6217,198321,CLEVELAND COMMUNITY COLLEGE,137 S POST RD,SHELBY,NC,28152,6224,(704) 669-4081
327,198987,MITCHELL COMMUNITY COLLEGE,500 W BROAD STREET,STATESVILLE,NC,28677,5293,(704) 878-3200
1564,443076,HOOD THEOLOGICAL SEMINARY,1810 LUTHERAN SYNOD DRIVE,SALISBURY,NC,28144,NOT AVAILABLE,(704) 636-7611
3296,459046,EMPIRE BEAUTY SCHOOL-WINSTON-SALEM,7740 N POINT BLVD,WINSTON-SALEM,NC,27106,NOT AVAILABLE,(800) 920-4593
4637,199120,UNIVERSITY OF NORTH CAROLINA AT CHAPEL HILL,103 SOUTH BLDG CB 9100,CHAPEL HILL,NC,27599,NOT AVAILABLE,(919) 962-2211
5093,199458,MID-ATLANTIC CHRISTIAN UNIVERSITY,715 N POINDEXTER ST,ELIZABETH CITY,NC,27909,4054,(252) 334-2000
5805,198464,EAST CAROLINA UNIVERSITY,EAST 5TH STREET,GREENVILLE,NC,27858,4353,(252) 328-6131
5902,475556,PAUL MITCHELL THE SCHOOL-RALEIGH,"8551 GLENWOOD AVENUE, SUITE 100",RALEIGH,NC,27612,7358,(919) 789-4500
6089,199582,SAINT AUGUSTINE'S UNIVERSITY,1315 OAKWOOD AVENUE,RALEIGH,NC,27610,2298,(919) 516-4000
345,198233,CATAWBA VALLEY COMMUNITY COLLEGE,2550 HWY 70 SE,HICKORY,NC,28602,0699,(828) 327-7000
828,482565,DEVRY UNIVERSITY-NORTH CAROLINA,"2015 AYRSLEY TOWN BLVD., STE. 109",CHARLOTTE,NC,28273,NOT AVAILABLE,(704) 697-1020
1846,198640,HALIFAX COMMUNITY COLLEGE,100 COLLEGE DRIVE,WELDON,NC,27890,NOT AVAILABLE,(252) 536-2551
1847,198969,METHODIST UNIVERSITY,5400 RAMSEY ST,FAYETTEVILLE,NC,28311,1420,(910) 630-7000
5026,456968,HEALTH AND STYLE INSTITUTE,500 FOUR SEASONS TOWN CENTRE,GREENSBORO,NC,27407,NOT AVAILABLE,(336) 885-3452
5867,436632,GWINNETT COLLEGE,"3200 SPRING FOREST ROAD, SUITE 214",RALEIGH,NC,27616,NOT AVAILABLE,(919) 872-6386
6220,197984,BELMONT ABBEY COLLEGE,100 BELMONT-MT HOLLY ROAD,BELMONT,NC,28012,1802,(704) 461-6700
1742,198215,CATAWBA COLLEGE,2300 W INNES ST,SALISBURY,NC,28144,NOT AVAILABLE,(800) 228-2922
6085,198978,PLATT COLLEGE-MILLER-MOTTE-WILMINGTON,5000 MARKET STREET,WILMINGTON,NC,28405,NOT AVAILABLE,(910) 392-4660
6199,199272,WILLIAM PEACE UNIVERSITY,15 E PEACE ST,RALEIGH,NC,27604,1194,(919) 508-2000
6330,492421,NO GREASE BARBER SCHOOL,3120 WILKINSON BLVD,CHARLOTTE,NC,28208,NOT AVAILABLE,(980) 819-9481
314,198367,CRAVEN COMMUNITY COLLEGE,800 COLLEGE CT,NEW BERN,NC,28562,4900,(252) 638-7200
1335,199634,SANDHILLS COMMUNITY COLLEGE,3395 AIRPORT RD,PINEHURST,NC,28374,NOT AVAILABLE,(910) 692-6185
1502,408163,PINNACLE INSTITUTE OF COSMETOLOGY,461-C EAST PLAZA DRIVE,MOORESVILLE,NC,28115,NOT AVAILABLE,(704) 235-0185
4551,199485,ROCKINGHAM COMMUNITY COLLEGE,215 WRENN MEMORIAL ROAD,WENTWORTH,NC,27375,NOT AVAILABLE,(336) 342-4261
6081,198835,LENOIR-RHYNE UNIVERSITY,625 7TH AVENUE NE,HICKORY,NC,28601,NOT AVAILABLE,(828) 328-1741
1401,199892,WAYNE COMMUNITY COLLEGE,3000 WAYNE MEMORIAL DR,GOLDSBORO,NC,27534,8002,(919) 735-5151
1849,199078,COLLEGE OF WILMINGTON,3500 OLEANDER DRIVE SUITE 1111,WILMINGTON,NC,28403,NOT AVAILABLE,(910) 763-4418
1995,461528,GRACE COLLEGE OF DIVINITY,5117 CLIFFDALE ROAD,FAYETTEVILLE,NC,28314,2343,(910) 221-2224
2101,198118,CALDWELL COMMUNITY COLLEGE AND TECHNICAL INSTITUTE,2855 HICKORY BOULEVARD,HUDSON,NC,28638,NOT AVAILABLE,(828) 726-2200
2102,199926,WILKES COMMUNITY COLLEGE,1328 SOUTH COLLEGIATE DR,WILKESBORO,NC,28697,NOT AVAILABLE,(336) 838-6100
3569,198914,MAYLAND COMMUNITY COLLEGE,200 MAYLAND DRIVE,SPRUCE PINE,NC,28777,NOT AVAILABLE,(828) 765-7351
5803,198136,CAMPBELL UNIVERSITY,143 MAIN STREET,BUIES CREEK,NC,27506,NOT AVAILABLE,(800) 334-4111
3731,460817,PLATT COLLEGE-MILLER-MOTTE-JACKSONVILLE,105 NEW FRONTIER WAY,JACKSONVILLE,NC,28546,NOT AVAILABLE,(910) 478-4300
3742,461485,SHEPHERDS THEOLOGICAL SEMINARY,6051 TRYON ROAD,CARY,NC,27518,9316,(919) 573-5350
4643,444486,PAUL MITCHELL THE SCHOOL-GASTONIA,284 E GARRISON BLVD,GASTONIA,NC,28054,NOT AVAILABLE,(704) 864-8723
1331,199449,RICHMOND COMMUNITY COLLEGE,1042 W HAMLET AVE,HAMLET,NC,28345,1189,(910) 410-1700
2853,413972,MITCHELLS ACADEMY,1301 BUCK JONES RD,RALEIGH,NC,27606,NOT AVAILABLE,(919) 469-5807
3558,198455,DURHAM TECHNICAL COMMUNITY COLLEGE,1637 LAWSON STREET,DURHAM,NC,27703,5023,(919) 536-7200
4001,199324,PIEDMONT COMMUNITY COLLEGE,1715 COLLEGE DR,ROXBORO,NC,27573,NOT AVAILABLE,(336) 599-1181
1623,421832,LIVING ARTS COLLEGE,3000 WAKEFIELD CROSSING DRIVE,RALEIGH,NC,27614,7076,(919) 488-8500
5801,197993,BENNETT COLLEGE,900 E WASHINGTON ST,GREENSBORO,NC,27401,3239,(336) 517-2100
5807,198543,FAYETTEVILLE STATE UNIVERSITY,1200 MURCHISON RD,FAYETTEVILLE,NC,28301,4298,(910) 672-1111
184,434292,ANSON COLLEGE OF COSMETOLOGY,1217 EAST CASWELL STREET,WADESBORO,NC,28170,2147,(704) 694-6677
316,198552,FORSYTH TECHNICAL COMMUNITY COLLEGE,2100 SILAS CREEK PKY,WINSTON-SALEM,NC,27103,5197,(336) 723-0371
1769,198862,LIVINGSTONE COLLEGE,701 W MONROE ST,SALISBURY,NC,28144,NOT AVAILABLE,(704) 216-6000
2100,197887,ASHEVILLE-BUNCOMBE TECHNICAL COMMUNITY COLLEGE,340 VICTORIA RD,ASHEVILLE,NC,28801,4897,(828) 254-1921
3267,199980,WINSTON SALEM BARBER SCHOOL,1531 SILAS CREEK PKY,WINSTON-SALEM,NC,27127,NOT AVAILABLE,(336) 763-4740
3560,198710,ISOTHERMAL COMMUNITY COLLEGE,286 ICC LOOP ROAD,SPINDALE,NC,28160,0804,(828) 286-3636
4000,197814,COLLEGE OF THE ALBEMARLE,1208 N ROAD ST,ELIZABETH CITY,NC,27906,2327,(252) 335-0821 EXT 0
5091,198598,GREENSBORO COLLEGE,815 W MARKET ST,GREENSBORO,NC,27401,1875,(336) 272-7102
5092,199102,NORTH CAROLINA A & T STATE UNIVERSITY,1601 E MARKET ST,GREENSBORO,NC,27411,NOT AVAILABLE,(336) 334-7500
6090,199005,MITCHELLS ACADEMY,2616 FOREST HILLS ROAD,WILSON,NC,27893,NOT AVAILABLE,(919) 469-5807
3703,199467,ROANOKE-CHOWAN COMMUNITY COLLEGE,109 COMMUNITY COLLEGE RD,AHOSKIE,NC,27910,9522,(252) 862-1200
5220,460765,CAROLINA COLLEGE OF HAIR DESIGN,1302 PATTON AVE SUITE 20,ASHEVILLE,NC,28806,2711,(828) 253-2875
5800,197911,BARTON COLLEGE,200 E. ACC DRIVE,WILSON,NC,27893,7000,(252) 399-6300
5806,198507,ELIZABETH CITY STATE UNIVERSITY,1704 WEEKSVILLE RD,ELIZABETH CITY,NC,27909,NOT AVAILABLE,(252) 335-3400
252,489344,CHAMBERLAIN UNIVERSITY-NORTH CAROLINA,"2015 AYRSLEY TOWN BOULEVARD, SUITE 204",CHARLOTTE,NC,28273,NOT AVAILABLE,(980) 939-6241
747,198774,JOHNSTON COMMUNITY COLLEGE,245 COLLEGE ROAD,SMITHFIELD,NC,27577,2350,(919) 934-3051
2576,198516,ELON UNIVERSITY,100 CAMPUS DRIVE,ELON,NC,27244,2010,(336) 278-2000
2845,198808,LEES-MCRAE COLLEGE,191 MAIN STREET,BANNER ELK,NC,28604,NOT AVAILABLE,(828) 898-5241
2852,199838,VANCE-GRANVILLE COMMUNITY COLLEGE,200 COMMUNITY COLLEGE ROAD,HENDERSON,NC,27537,NOT AVAILABLE,(252) 492-2061
3295,459019,EMPIRE BEAUTY SCHOOL-CHARLOTTE,4901-B N TRYON ST,CHARLOTTE,NC,28213,NOT AVAILABLE,(800) 920-4593
5804,198190,CAROLINA SCHOOL OF BROADCASTING,3435 PERFORMANCE RD,CHARLOTTE,NC,28214,NOT AVAILABLE,(704) 395-9272
5944,450614,EMPIRE BEAUTY SCHOOL-CONCORD,SHOPPES AT KINGS GRANT 10075 WEDDINGTON RD,CONCORD,NC,28027,NOT AVAILABLE,(800) 920-4593
6544,494764,AVIATION INSTITUTE OF MAINTENANCE-CHARLOTTE,7421 E. INDEPENDENCE BOULEVARD,CHARLOTTE,NC,28227,9403,(980) 785-0700
510,461139,JUNG TAO SCHOOL OF CLASSICAL CHINESE MEDICINE,207 DALE ADAMS ROAD,SUGAR GROVE,NC,28679,9657,(828) 297-4181
1333,199494,ROWAN-CABARRUS COMMUNITY COLLEGE,"1333 JAKE ALEXANDER BLVD, SOUTH",SALISBURY,NC,28146,NOT AVAILABLE,(704) 216-7222
1542,433174,CAROLINAS COLLEGE OF HEALTH SCIENCES,2110 WATER RIDGE PARKWAY,CHARLOTTE,NC,28217,NOT AVAILABLE,(704) 355-5043
1562,442611,NASCAR TECHNICAL INSTITUTE,220 BYERS CREEK ROAD,MOORESVILLE,NC,28117,NOT AVAILABLE,(877) 201-2597
2846,197966,BEAUFORT COUNTY COMMUNITY COLLEGE,5337 US HIGHWAY 264 EAST,WASHINGTON,NC,27889,NOT AVAILABLE,(252) 946-6194
3559,198561,GARDNER-WEBB UNIVERSITY,MAIN ST,BOILING SPRINGS,NC,28017,0997,(704) 406-2361
5233,480037,MYCOMPUTERCAREER.EDU-RALEIGH,5511 CAPITAL CENTER DR STE 500,RALEIGH,NC,27606,NOT AVAILABLE,(919) 371-4820
5,455141,AVEDA INSTITUTE-CHAPEL HILL,"201 S. ESTES DRIVE, SPACE 200 B",CHAPEL HILL,NC,27514,7001,(919) 960-4769
972,199421,RANDOLPH COMMUNITY COLLEGE,629 INDUSTRIAL PARK AVE,ASHEBORO,NC,27205,NOT AVAILABLE,(336) 633-0200
1328,198844,LEONS BEAUTY SCHOOL INC,1305 COLISEUM BLVD,GREENSBORO,NC,27403,2604,(336) 274-4601 EXT 13
1330,199306,PFEIFFER UNIVERSITY,48380 US HWY 52N,MISENHEIMER,NC,28109,0960,(704) 463-1360
2848,198899,MARS HILL UNIVERSITY,100 ATHLETIC ST,MARS HILL,NC,28754,NOT AVAILABLE,(828) 689-4968
95,453163,STRAYER UNIVERSITY-NORTH CAROLINA,4 COPLEY PKWY,MORRISVILLE,NC,27560,NOT AVAILABLE,(877) 445-7180
370,459064,EMPIRE BEAUTY SCHOOL-PINEVILLE,8700 PINEVILLE-MATTHEWS RD,CHARLOTTE,NC,28226,NOT AVAILABLE,(800) 920-4593
3572,199768,SURRY COMMUNITY COLLEGE,630 S. MAIN ST.,DOBSON,NC,27017,8432,(336) 386-8121 EXT 3264
5094,200004,WESTERN CAROLINA UNIVERSITY,HIGHWAY 107,CULLOWHEE,NC,28723,9646,(828) 227-7100
6344,233602,SOUTHEASTERN FREE WILL BAPTIST BIBLE COLLEGE,532 EAGLE ROCK ROAD,WENDELL,NC,27591,9072,(919) 365-7711 EXT 100
313,198039,BLUE RIDGE COMMUNITY COLLEGE,180 WEST CAMPUS DRIVE,FLAT ROCK,NC,28731,4728,(828) 694-1700
3573,199786,ALAMANCE COMMUNITY COLLEGE,1247 JIMMIE KERR ROAD,GRAHAM,NC,27253,8000,(336) 578-2002
6218,199999,WINSTON-SALEM STATE UNIVERSITY,601 MARTIN LUTHER KING JR DR,WINSTON-SALEM,NC,27110,0001,(336) 750-2000
748,198251,CENTRAL CAROLINA COMMUNITY COLLEGE,1105 KELLY DR,SANFORD,NC,27330,9840,(919) 775-5401
1158,197869,APPALACHIAN STATE UNIVERSITY,287 RIVERS ST,BOONE,NC,28608,NOT AVAILABLE,(828) 262-2000
1784,455178,DAOIST TRADITIONS COLLEGE OF CHINESE MEDICAL ARTS,382 MONTFORD AVE,ASHEVILLE,NC,28801,NOT AVAILABLE,(828) 225-3993
3557,198084,BRUNSWICK COMMUNITY COLLEGE,50 COLLEGE RD,BOLIVIA,NC,28422,9021,(910) 755-7300
3624,198376,DAVIDSON COUNTY COMMUNITY COLLEGE,297 DCCC ROAD,THOMASVILLE,NC,27360,7385,(336) 249-8186
3958,478616,EMPIRE BEAUTY SCHOOL-WEST GREENSBORO,"1312 BRIDFORD PARKWAY, SUITE 105",GREENSBORO,NC,27407,2693,(800) 920-4593
4100,483425,ALEXANDER PAUL INSTITUTE OF HAIR DESIGN,1011 CHARLES BLVD STE A,GREENVILLE,NC,27858,3344,(252) 830-5536 EXT 2
4858,198491,EDGECOMBE COMMUNITY COLLEGE,2009 W WILSON ST,TARBORO,NC,27886,NOT AVAILABLE,(252) 823-5166
2851,199698,ST. ANDREWS UNIVERSITY,1700 DOGWOOD MILE,LAURINBURG,NC,28352,NOT AVAILABLE,(910) 277-5555
3589,458405,PLATT COLLEGE-MILLER-MOTTE-FAYETTEVILLE,3725 RAMSEY ST.,FAYETTEVILLE,NC,28311,NOT AVAILABLE,(910) 354-1900
5802,198011,BLADEN COMMUNITY COLLEGE,7418 NC HWY 41 WEST,DUBLIN,NC,28332,NOT AVAILABLE,(910) 879-5500
6079,199032,MONTREAT COLLEGE,310 GAITHER CIRCLE,MONTREAT,NC,28757,1267,(828) 669-8012
4129,484020,BEYOND MEASURE BARBERING INSTITUTE,CENTER STREET PLAZA,MEBANE,NC,27302,2323,(919) 415-1437
5933,445708,JOHNSON & WALES UNIVERSITY-CHARLOTTE,"ACADEMIC CENTER, 801 WEST TRADE STREET",CHARLOTTE,NC,28202,NOT AVAILABLE,(866) 598-2427
6083,198923,MCDOWELL TECHNICAL COMMUNITY COLLEGE,54 COLLEGE DRIVE,MARION,NC,28752,8728,(828) 652-6021
6219,198570,GASTON COLLEGE,201 HWY 321 S,DALLAS,NC,28034,NOT AVAILABLE,(704) 922-6200
312,197850,SOUTH PIEDMONT COMMUNITY COLLEGE,680 HIGHWAY 74 WEST,POLKTON,NC,28135,NOT AVAILABLE,(704) 272-5300
315,198534,FAYETTEVILLE TECHNICAL COMMUNITY COLLEGE,2201 HULL RD,FAYETTEVILLE,NC,28303,0236,(910) 678-8400
1789,456205,PLATT COLLEGE-MILLER-MOTTE-RALEIGH,3901 CAPITAL BLVD STE 151,RALEIGH,NC,27604,6072,(919) 723-2820
2866,199184,UNIVERSITY OF NORTH CAROLINA SCHOOL OF THE ARTS,1533 SOUTH MAIN ST.,WINSTON SALEM,NC,27127,2738,(336) 770-3399
3364,199175,UNIVERSITY OF NORTH CAROLINA SYSTEM,910 RALEIGH RD,CHAPEL HILL,NC,27514,NOT AVAILABLE,(919) 962-1000
4554,199971,CAROLINA CHRISTIAN COLLEGE,4209 INDIANA AVENUE,WINSTON SALEM,NC,27105,NOT AVAILABLE,(336) 744-0900
1329,199023,MONTGOMERY COMMUNITY COLLEGE,1011 PAGE ST,TROY,NC,27371,NOT AVAILABLE,(910) 898-9600
1845,198613,GUILFORD COLLEGE,5800 W FRIENDLY AVENUE,GREENSBORO,NC,27410,4108,(336) 316-2000
2691,444778,CHARLOTTE CHRISTIAN COLLEGE AND THEOLOGICAL SEMINARY,"7520 EAST INDEPENDENCE BLVD, SUITE 100",CHARLOTTE,NC,28227,NOT AVAILABLE,(704) 334-6882 EXT 100
3587,198260,CENTRAL PIEDMONT COMMUNITY COLLEGE,1201 ELIZABETH AVENUE,CHARLOTTE,NC,28204,NOT AVAILABLE,(704) 330-2722
6080,198206,CARTERET COMMUNITY COLLEGE,3505 ARENDELL ST,MOREHEAD CITY,NC,28557,NOT AVAILABLE,(252) 222-6000
6088,198066,BREVARD COLLEGE,ONE BREVARD COLLEGE DRIVE,BREVARD,NC,28712,NOT AVAILABLE,(828) 884-8332
344,198154,CAPE FEAR COMMUNITY COLLEGE,411 NORTH FRONT STREET,WILMINGTON,NC,28401,3910,(910) 362-7000
930,484729,UNIVERSITY OF PHOENIX-NORTH CAROLINA,3800 ARCO CORPORATE DR,CHARLOTTE,NC,28273,NOT AVAILABLE,(866) 766-0766
1620,199722,SOUTHEASTERN COMMUNITY COLLEGE,4564 CHADBOURN HWY,WHITEVILLE,NC,28472,5422,(910) 642-7141 EXT 224
1765,198419,DUKE UNIVERSITY,103 ALLEN BLDG,DURHAM,NC,27708,NOT AVAILABLE,(919) 684-8111
1982,461032,CAROLINA COLLEGE OF BIBLICAL STUDIES,817 SOUTH MCPHERSON CHURCH ROAD,FAYETTEVILLE,NC,28303,5157,(910) 323-5614
4548,198729,JAMES SPRUNT COMMUNITY COLLEGE,133 JAMES SPRUNT DRIVE,KENANSVILLE,NC,28349,NOT AVAILABLE,(910) 296-2400
6282,490948,BULL CITY DURHAM BEAUTY AND BARBER COLLEGE,931 E MAIN ST,DURHAM,NC,27701,NOT AVAILABLE,(984) 439-2400
1334,199625,SAMPSON COMMUNITY COLLEGE,HIGHWAY 24 WEST,CLINTON,NC,28328,0318,(910) 592-8081 EXT 2017
1760,199193,NORTH CAROLINA STATE UNIVERSITY AT RALEIGH,2101 HILLSBOROUGH STREET,RALEIGH,NC,27695,7001,(919) 515-2011
1848,199069,UNIVERSITY OF MOUNT OLIVE,634 HENDERSON ST,MOUNT OLIVE,NC,28365,0919,(919) 658-2502
6200,199157,NORTH CAROLINA CENTRAL UNIVERSITY,1801 FAYETTEVILLE STREET,DURHAM,NC,27707,NOT AVAILABLE,(919) 530-6100
328,199333,PITT COMMUNITY COLLEGE,1986 PITT TECH ROAD,WINTERVILLE,NC,28590,NOT AVAILABLE,(252) 493-7200
1064,199218,UNIVERSITY OF NORTH CAROLINA WILMINGTON,601 SOUTH COLLEGE ROAD,WILMINGTON,NC,28403,5963,(910) 962-3000
1393,199865,WARREN WILSON COLLEGE,701 WARREN WILSON RD,SWANNANOA,NC,28778,2099,(828) 771-2000
3009,198695,HIGH POINT UNIVERSITY,ONE UNIVERSITY PARKWAY,HIGH POINT,NC,27268,NOT AVAILABLE,(336) 841-9000
6367,494001,ELEVATE SALON INSTITUTE,"300 EAST MAIN STREET, #100",DURHAM,NC,27701,0000,(919) 670-3070 EXT 91967
6488,494001,ELEVATE SALON INSTITUTE,"300 EAST MAIN STREET, #100",DURHAM,NC,27701,0000,(919) 670-3070
1622,198668,HAYWOOD COMMUNITY COLLEGE,185 FREEDLANDER DRIVE,CLYDE,NC,28721,9901,(828) 627-2821
1761,199643,SHAW UNIVERSITY,118 EAST SOUTH STREET,RALEIGH,NC,27601,NOT AVAILABLE,(919) 546-8200
2867,198385,DAVIDSON COLLEGE,405 N. MAIN STREET,DAVIDSON,NC,28035,NOT AVAILABLE,(704) 894-2000
4859,198303,CHOWAN UNIVERSITY,ONE UNIVERSITY PLACE,MURFREESBORO,NC,27855,NOT AVAILABLE,(252) 398-6500
6084,199209,NORTH CAROLINA WESLEYAN COLLEGE,3400 N WESLEYAN BLVD,ROCKY MOUNT,NC,27804,NOT AVAILABLE,(252) 985-5100
752,199740,STANLY COMMUNITY COLLEGE,141 COLLEGE DRIVE,ALBEMARLE,NC,28001,NOT AVAILABLE,(704) 982-0121
1759,199856,WAKE TECHNICAL COMMUNITY COLLEGE,9101 FAYETTEVILLE ROAD,RALEIGH,NC,27603,5696,(919) 866-5000
2847,198109,CABARRUS COLLEGE OF HEALTH SCIENCES,401 MEDICAL PARK DRIVE,CONCORD,NC,28025,3959,(704) 403-1555
6082,198905,MARTIN COMMUNITY COLLEGE,1161 KEHUKEE PK RD,WILLIAMSTON,NC,27892,9988,(252) 792-1521
