OBJECTID,IPEDSID,NAME,ADDRESS,CITY,STATE,ZIP,ZIP4,TELEPHONE
2077,444866,SOUTHEASTERN COLLEGE-COLUMBIA,1628 BROWNING ROAD,COLUMBIA,SC,29210,NOT AVAILABLE,(803) 798-8800
2083,445841,KENNETH SHULER SCHOOL OF COSMETOLOGY-SPARTANBURG,1515 JOHN B WHITE SR BLVD,SPARTANBURG,SC,29301,NOT AVAILABLE,(864) 587-6000
3109,491923,SOUTHEASTERN ESTHETICS INSTITUTE,823 GERVAIS STREET,COLUMBIA,SC,29201,0000,(803) 814-1772
3925,218025,FLORENCE-DARLINGTON TECHNICAL COLLEGE,2715 W. LUCAS STREET,FLORENCE,SC,29501,0548,(843) 661-8324
4224,451510,CHARLESTON SCHOOL OF LAW,81 MARY STREET,CHARLESTON,SC,29403,NOT AVAILABLE,(843) 329-1000
4956,217828,CHARZANNE BEAUTY COLLEGE,1549 HWY 72 E,GREENWOOD,SC,29649,NOT AVAILABLE,(864) 223-7321
875,218690,UNIVERSITY OF SOUTH CAROLINA-SUMTER,200 MILLER RD,SUMTER,SC,29150,2498,(803) 775-8727
1110,445850,KENNETH SHULER SCHOOL OF COSMETOLOGY-COLUMBIA,7474 GARNERS FERRY ROAD,COLUMBIA,SC,29209,NOT AVAILABLE,(803) 776-9100
4960,218867,SUMTER BEAUTY COLLEGE,921 CAROLINA AVE,SUMTER,SC,29150,2871,(803) 773-7311
526,217925,COLUMBIA INTERNATIONAL UNIVERSITY,7435 MONTICELLO RD,COLUMBIA,SC,29203,1513,(800) 777-2227
2240,251312,SOUTH UNIVERSITY-COLUMBIA,9 SCIENCE COURT,COLUMBIA,SC,29203,NOT AVAILABLE,(803) 799-9082
2962,376446,ACADEMY OF HAIR TECHNOLOGY,3715 E NORTH ST STE F,GREENVILLE,SC,29615,2363,(864) 322-0300
3755,218195,KENNETH SHULER SCHOOL OF COSMETOLOGY AND NAILS-COLUMBIA,449 SAINT ANDREWS RD,COLUMBIA,SC,29210,NOT AVAILABLE,(803) 772-6042
5289,441025,PLATT COLLEGE-MILLER-MOTTE TECHNICAL-CHARLESTON,"8085 RIVERS AVE., STE E",CHARLESTON,SC,29418,NOT AVAILABLE,(843) 574-0101
536,218724,COASTAL CAROLINA UNIVERSITY,103 TOM TROUT DRIVE,CONWAY,SC,29526,NOT AVAILABLE,(843) 347-3161
684,218645,UNIVERSITY OF SOUTH CAROLINA AIKEN,471 UNIVERSITY PKWY,AIKEN,SC,29801,NOT AVAILABLE,(803) 648-6851
3749,217749,BOB JONES UNIVERSITY,1700 WADE HAMPTON BOULAVARD,GREENVILLE,SC,29614,0001,(864) 242-5100
3751,217882,CLEMSON UNIVERSITY,201 SIKES HALL,CLEMSON,SC,29634,NOT AVAILABLE,(864) 656-4636
4321,218973,WOFFORD COLLEGE,429 N CHURCH ST,SPARTANBURG,SC,29303,3663,(864) 597-4000
873,218113,GREENVILLE TECHNICAL COLLEGE,506 S PLEASANTBURG DR,GREENVILLE,SC,29606,NOT AVAILABLE,(864) 250-8000
3757,218830,SPARTANBURG COMMUNITY COLLEGE,107 COMMUNITY COLLEGE DRIVE,SPARTANBURG,SC,29303,NOT AVAILABLE,(864) 592-4500
3845,467906,KENNETH SHULER SCHOOL OF COSMETOLOGY-GREENVILLE,3528-A EARL E. MORRIS JR. HIGHWAY,GREENVILLE,SC,29611,7553,(864) 269-6886
4958,218399,MORRIS COLLEGE,100 WEST COLLEGE STREET,SUMTER,SC,29150,3599,(803) 934-3200
1400,457174,REMINGTON COLLEGE-COLUMBIA CAMPUS,607 BUSH RIVER RD,COLUMBIA,SC,29210,NOT AVAILABLE,(803) 214-9000
1723,218751,SHERMAN COLLEGE OF CHIROPRACTIC,2020 SPRINGFIELD RD,SPARTANBURG,SC,29316,NOT AVAILABLE,(864) 578-8770
3390,457998,AIKEN SCHOOL OF COSMETOLOGY AND BARBERING,225 RICHLAND AVE EAST,AIKEN,SC,29801,NOT AVAILABLE,(803) 644-7133
3754,217989,DENMARK TECHNICAL COLLEGE,1126 SOLOMON BLATT BLVD,DENMARK,SC,29042,NOT AVAILABLE,(803) 793-5100
5794,217688,CHARLESTON SOUTHERN UNIVERSITY,9200 UNIVERSITY BLVD,CHARLESTON,SC,29406,9121,(843) 863-7000
872,217712,TECHNICAL COLLEGE OF THE LOWCOUNTRY,921 RIBAUT ROAD,BEAUFORT,SC,29901,1288,(800) 768-8252
525,217864,CITADEL MILITARY COLLEGE OF SOUTH CAROLINA,171 MOULTRIE ST,CHARLESTON,SC,29409,NOT AVAILABLE,(843) 225-3294
537,218742,UNIVERSITY OF SOUTH CAROLINA-UPSTATE,800 UNIVERSITY WAY,SPARTANBURG,SC,29303,4999,(864) 503-5000
3766,218964,WINTHROP UNIVERSITY,701 OAKLAND AVE,ROCK HILL,SC,29733,NOT AVAILABLE,(803) 323-2211
3844,467872,PAUL MITCHELL THE SCHOOL-CHARLESTON,"4952 CENTRE POINTE DRIVE, SUITE 114",NORTH CHARLESTON,SC,29418,6993,(843) 725-0246
753,218070,FURMAN UNIVERSITY,3300 POINSETT HIGHWAY,GREENVILLE,SC,29613,6162,(864) 294-2000
874,218520,PIEDMONT TECHNICAL COLLEGE,620 NORTH EMERALD ROAD,GREENWOOD,SC,29646,NOT AVAILABLE,(864) 941-8324
1377,434496,STRAND COLLEGE OF HAIR DESIGN,423 79TH AVE N,MYRTLE BEACH,SC,29572,NOT AVAILABLE,(843) 467-2397
1399,218894,TRIDENT TECHNICAL COLLEGE,7000 RIVERS AVENUE,CHARLESTON,SC,29423,8067,(843) 574-6111
3712,460020,FORTIS COLLEGE-COLUMBIA,246 STONERIDGE DR STE 101,COLUMBIA,SC,29210,NOT AVAILABLE,(803) 678-4800
4098,483337,PAUL MITCHELL THE SCHOOL-GREENVILLE,"1215 WOODRUFF ROAD, BLDG A",GREENVILLE,SC,29607,NOT AVAILABLE,(864) 640-8111
3453,488040,CONSTRUCTION TRAINING CENTER,7355 GARNERS FERRY ROAD,COLUMBIA,SC,29209,NOT AVAILABLE,(803) 403-1990
533,218654,UNIVERSITY OF SOUTH CAROLINA BEAUFORT,1 UNIVERSITY BOULEVARD,BLUFFTON,SC,29909,NOT AVAILABLE,(843) 208-8000
2088,446613,W L BONNER COLLEGE,4430 ARGENT CT,COLUMBIA,SC,29203,5901,(803) 726-3503
2627,432117,KENNETH SHULER SCHOOL OF COSMETOLOGY-ROCK HILL,2383 CHERRY ROAD,ROCK HILL,SC,29730,NOT AVAILABLE,(803) 328-5166
3389,457989,ACADEMY FOR CAREERS AND TECHNOLOGY,2697 E HWY 76,MULLINS,SC,29574,6009,(843) 423-1941
4085,218672,UNIVERSITY OF SOUTH CAROLINA-LANCASTER,476 HUBBARD DRIVE,LANCASTER,SC,29720,0889,(803) 313-7000
4302,218858,CENTRAL CAROLINA TECHNICAL COLLEGE,506 N GUIGNARD DR,SUMTER,SC,29150,2499,(803) 778-1961
544,218955,WILLIAMSBURG TECHNICAL COLLEGE,601 MARTIN LUTHER KING JR AVE,KINGSTREE,SC,29556,4197,(843) 355-4110
744,218821,SPARTANBURG METHODIST COLLEGE,1000 POWELL MILL ROAD,SPARTANBURG,SC,29301,5899,(864) 587-4000 EXT 4117
3924,217615,AIKEN TECHNICAL COLLEGE,2276 JEFFERSON DAVIS HIGHWAY,GRANITEVILLE,SC,29829,NOT AVAILABLE,(803) 508-7263
542,218885,TRI-COUNTY TECHNICAL COLLEGE,7900 U.S. HWY 76,PENDLETON,SC,29670,NOT AVAILABLE,(864) 646-8282
1720,217794,CHARLESTON COSMETOLOGY INSTITUTE,8484 DORCHESTER ROAD,CHARLESTON,SC,29420,NOT AVAILABLE,(843) 552-3670
5302,443261,SOUTHEASTERN COLLEGE-CHARLESTON,"2431 AVIATION AVENUE, SUITE 703",NORTH CHARLESTON,SC,29406,NOT AVAILABLE,(843) 747-1279
543,218919,VOORHEES COLLEGE,491 PORTER DRIVE,DENMARK,SC,29042,NOT AVAILABLE,(803) 780-1234
3733,460835,PLATT COLLEGE-MILLER-MOTTE TECHNICAL-CONWAY,2451 EAST HIGHWAY 501,CONWAY,SC,29526,9508,(843) 591-1100
243,488925,INTERNATIONAL DIVING INSTITUTE,2340 AVENUE F,NORTH CHARLESTON,SC,29405,2206,(843) 740-1124
534,218663,UNIVERSITY OF SOUTH CAROLINA-COLUMBIA,COLUMBIA-CAMPUS,COLUMBIA,SC,29208,NOT AVAILABLE,(803) 777-7000
4087,217776,SOUTHERN WESLEYAN UNIVERSITY,907 WESLEYAN DRIVE,CENTRAL,SC,29630,1020,(864) 644-5000
249,489159,KENNETH SHULER SCHOOL OF COSMETOLOGY-GOOSE CREEK,98 DAVENPORT STREET SUITE 10,GOOSE CREEK,SC,29445,6694,(843) 285-5470
3750,217819,COLLEGE OF CHARLESTON,66 GEORGE ST,CHARLESTON,SC,29424,0001,(843) 953-5500
3756,218335,MEDICAL UNIVERSITY OF SOUTH CAROLINA,179 ASHLEY AVE,CHARLESTON,SC,29425,NOT AVAILABLE,(843) 792-2300
4086,218733,SOUTH CAROLINA STATE UNIVERSITY,300 COLLEGE ST NE,ORANGEBURG,SC,29117,0001,(803) 536-7000
5901,475538,PALMETTO BEAUTY SCHOOL,2601 EAST MAIN STREET,SPARTANBURG,SC,29307,1424,(864) 579-2550
6442,485698,AMERICAN COLLEGE OF THE BUILDING ARTS,649 MEETING STREET,CHARLESTON,SC,29403,4223,(843) 577-5245
6477,493770,VSKI COSMETOLOGY SCHOOL,2070 SAM RITTENBERG BOULEVARD,CHARLESTON,SC,29407,4610,(843) 203-0000
3926,218061,FRANCIS MARION UNIVERSITY,4822 EAST PALMETTO STREET,FLORENCE,SC,29506,NOT AVAILABLE,(843) 661-1362
532,218441,NORTH GREENVILLE UNIVERSITY,7801 N. TIGERVILLE ROAD,TIGERVILLE,SC,29688,1892,(864) 977-7000
2070,444228,LEGRAND INSTITUTE OF COSMETOLOGY INC,2418 BROAD ST,CAMDEN,SC,29020,NOT AVAILABLE,(803) 425-8449
3752,217891,CLINTON COLLEGE,1029 CRAWFORD RD,ROCK HILL,SC,29730,NOT AVAILABLE,(803) 327-7402 EXT 8151
2212,217721,BENEDICT COLLEGE,1600 HARDEN STREET,COLUMBIA,SC,29204,1086,(803) 256-4220
2357,218706,UNIVERSITY OF SOUTH CAROLINA-UNION,309 EAST ACADEMY ST,UNION,SC,29379,0729,(864) 429-8728
3700,460011,KENNETH SHULER SCHOOL OF COSMETOLOGY-FLORENCE,2443 WEST LUCAS STREET,FLORENCE,SC,29501,NOT AVAILABLE,(843) 679-3778
3927,217873,CLAFLIN UNIVERSITY,400 MAGNOLIA STREET,ORANGEBURG,SC,29115,4498,(803) 535-5000
1718,218159,KENNETH SHULER SCHOOL OF COSMETOLOGY-NORTH AUGUSTA,1113 KNOX AVENUE,NORTH AUGUSTA,SC,29841,NOT AVAILABLE,(803) 278-1200
3448,487898,B-UNIQUE BEAUTY AND BARBER ACADEMY,10 LIBERTY LANE,GREENVILLE,SC,29607,2314,(864) 233-0056
6171,217934,COLUMBIA COLLEGE,1301 COLUMBIA COLLEGE DR,COLUMBIA,SC,29203,NOT AVAILABLE,(803) 786-3012
524,217837,NORTHEASTERN TECHNICAL COLLEGE,1201 CHESTERFIELD HWY.,CHERAW,SC,29520,NOT AVAILABLE,(843) 921-6900
3451,488022,BARBER TECH ACADEMY,1650 RUSSELL STREET,ORANGEBURG,SC,29115,6069,(803) 937-5730
535,218681,UNIVERSITY OF SOUTH CAROLINA-SALKEHATCHIE,465 JAMES BRANDT BLVD,ALLENDALE,SC,29810,0617,(800) 922-5500
803,217624,ALLEN UNIVERSITY,1530 HARDEN STREET,COLUMBIA,SC,29204,NOT AVAILABLE,(803) 376-5700
3447,487807,TOP OF THE LINE BARBER COLLEGE,"1904 SAVANNAH HIGHWAY, UNIT 101, 102, 201",CHARLESTON,SC,29407,2228,(843) 573-0078
528,218140,HORRY-GEORGETOWN TECHNICAL COLLEGE,2050 HIGHWAY 501 EAST,CONWAY,SC,29526,NOT AVAILABLE,(843) 347-3186
531,218353,MIDLANDS TECHNICAL COLLEGE,1260 LEXINGTON DRIVE,WEST COLUMBIA,SC,29170,2176,(803) 738-8324
367,458964,STRAYER UNIVERSITY-SOUTH CAROLINA,777 LOWNDES HILL ROAD,GREENVILLE,SC,29607,NOT AVAILABLE,(877) 445-7180
3928,218487,ORANGEBURG CALHOUN TECHNICAL COLLEGE,3250 SAINT MATTHEWS RD,ORANGEBURG,SC,29118,8299,(803) 536-0311
745,218991,YORK TECHNICAL COLLEGE,452 S ANDERSON RD,ROCK HILL,SC,29730,NOT AVAILABLE,(803) 327-8000
1722,218414,NEWBERRY COLLEGE,2100 COLLEGE ST,NEWBERRY,SC,29108,NOT AVAILABLE,(803) 276-5010
3134,485698,AMERICAN COLLEGE OF THE BUILDING ARTS,649 MEETING STREET,CHARLESTON,SC,29403,4223,(843) 577-5245
3446,487791,ARCLABS,"2615 HIGHWAY 153, B-3",PIEDMONT,SC,29673,6729,(864) 236-9995
6170,217633,ANDERSON UNIVERSITY,316 BOULEVARD,ANDERSON,SC,29621,4035,(864) 231-2000
4955,218043,FORREST COLLEGE,601 E RIVER STREET,ANDERSON,SC,29624,2405,(864) 225-7653
685,218229,LANDER UNIVERSITY,320 STANLEY AVENUE,GREENWOOD,SC,29649,2099,(864) 388-8000
1111,217961,CONVERSE COLLEGE,580 E MAIN ST,SPARTANBURG,SC,29302,0006,(864) 596-9000
1721,218539,PRESBYTERIAN COLLEGE,503 SOUTH BROAD STREET,CLINTON,SC,29325,NOT AVAILABLE,(864) 833-2820
3155,493770,VSKI COSMETOLOGY SCHOOL,2070 SAM RITTENBERG BOULEVARD,CHARLESTON,SC,29407,4610,(843) 203-0000
4002,218238,LIMESTONE UNIVERSITY,1115 COLLEGE DRIVE,GAFFNEY,SC,29340,3799,(800) 795-7151 EXT 0
6169,217998,ERSKINE COLLEGE,2 WASHINGTON ST,DUE WEST,SC,29639,NOT AVAILABLE,(864) 379-2131
1719,217907,COKER UNIVERSITY,300 E COLLEGE AVE,HARTSVILLE,SC,29550,NOT AVAILABLE,(843) 383-8000
3843,467863,PAUL MITCHELL THE SCHOOL-COLUMBIA,700 GERVAIS STREET SUITE D,COLUMBIA,SC,29201,3126,(803) 772-2232
