OBJECTID,IPEDSID,NAME,ADDRESS,CITY,STATE,ZIP,ZIP4,TELEPHONE
374,229841,WHARTON COUNTY JUNIOR COLLEGE,911 BOLING HWY,WHARTON,TX,77488,NOT AVAILABLE,(979) 532-4560
713,478014,NATIONAL AMERICAN UNIVERSITY-MESQUITE,18600 LBJ FREEWAY,MESQUITE,TX,75150,5628,(972) 773-8800
893,224615,DALLAS COLLEGE,1601 SOUTH LAMAR,DALLAS,TX,75215,3604,(214) 378-1824
900,225423,HOUSTON COMMUNITY COLLEGE,3100 MAIN STREET,HOUSTON,TX,77002,NOT AVAILABLE,(877) 422-6111
936,484905,UNIVERSITY OF NORTH TEXAS AT DALLAS,7300 UNIVERSITY HILLS DRIVE,DALLAS,TX,75241,NOT AVAILABLE,(972) 780-3600
943,484996,HOUSTON TRAINING SCHOOLS-GESSNER,3722 SOUTH GESSNER,HOUSTON,TX,77063,0000,(281) 867-9099
1445,225201,HALLMARK UNIVERSITY,10401 IH 10 W,SAN ANTONIO,TX,78230,1736,(210) 690-9000
1969,460206,CONCORDE CAREER COLLEGE-SAN ANTONIO,4803 NW LOOP 410,SAN ANTONIO,TX,78229,NOT AVAILABLE,(210) 428-2000
2011,224013,BK COSMO COLLEGE OF COSMETOLOGY,320 W. WATER STREET SUITE E,KERRVILLE,TX,78028,4312,(830) 896-2380
2165,225627,UNIVERSITY OF THE INCARNATE WORD,4301 BROADWAY,SAN ANTONIO,TX,78209,NOT AVAILABLE,(210) 829-6000
3945,224891,FRANK PHILLIPS COLLEGE,1301 W. ROOSEVELT ST.,BORGER,TX,79008,5118,(806) 457-4200
3971,480125,OGLE SCHOOL HAIR SKIN NAILS-SAN ANTONIO,742 N. LOOP 410 STE 226,SAN ANTONIO,TX,78216,NOT AVAILABLE,(210) 424-0555
4405,456153,MEDIATECH INSTITUTE-HOUSTON,3324 WALNUT BEND LN,HOUSTON,TX,77042,NOT AVAILABLE,(832) 242-3426
4693,225548,HOWARD PAYNE UNIVERSITY,1000 FISK ST.,BROWNWOOD,TX,76801,2794,(325) 646-2502
4983,388520,COLLEGE OF BIBLICAL STUDIES-HOUSTON,7000 REGENCY SQUARE BLVD.,HOUSTON,TX,77036,3211,(713) 785-5995
5313,444556,AUGUSTE ESCOFFIER SCHOOL OF CULINARY ARTS-AUSTIN,6020-B DILLARD CIRCLE,AUSTIN,TX,78752,NOT AVAILABLE,(512) 451-5743
5457,228200,SOUTH TEXAS VOCATIONAL TECHNICAL INSTITUTE-WESLACO,"1600 NORTH WESTGATE DRIVE, SUITE 400",WESLACO,TX,78599,NOT AVAILABLE,(956) 969-1564
6529,494588,PIMA MEDICAL INSTITUTION-SAN ANTONIO,6550 FIRST PARK TEN BLVD,SAN ANTONIO,TX,78213,NOT AVAILABLE,(210) 966-9764
75,450711,TREND BARBER COLLEGE,14806 ELLA BLVD.,HOUSTON,TX,77090,NOT AVAILABLE,(281) 440-8383
232,224660,WESTERN TECHNICAL COLLEGE,9451 DIANA DRIVE,EL PASO,TX,79924,NOT AVAILABLE,(915) 566-9621
550,223773,CEDAR VALLEY COLLEGE,3030 NORTH DALLAS AVE,LANCASTER,TX,75134,3799,NOT AVAILABLE
553,223816,CENTRAL TEXAS COLLEGE,6200 WEST CENTRAL TEXAS EXPRESSWAY,KILLEEN,TX,76549,4199,(254) 526-7161
821,225511,UNIVERSITY OF HOUSTON,212 E. CULLEN BUILDING,HOUSTON,TX,77204,2018,(713) 743-1000
915,228547,TARRANT COUNTY COLLEGE DISTRICT,1500 HOUSTON ST,FORT WORTH,TX,76102,6524,(817) 515-8223
1140,227331,OUR LADY OF THE LAKE UNIVERSITY,411 SW 24TH ST.,SAN ANTONIO,TX,78207,4689,(210) 434-6711
1171,455354,AVEDA ARTS & SCIENCES INSTITUTE-SAN ANTONIO,21003 ENCINO COMMONS STE 121,SAN ANTONIO,TX,78259,2792,(985) 415-7569
2169,227757,RICE UNIVERSITY,6100 S MAIN ST,HOUSTON,TX,77005,1827,(713) 348-0000
2214,229780,WAYLAND BAPTIST UNIVERSITY,1900 W 7TH ST.,PLAINVIEW,TX,79072,NOT AVAILABLE,(806) 291-1000
2673,475608,CRISWELL COLLEGE,4010 GASTON AVENUE,DALLAS,TX,75246,1537,(214) 821-5433
3241,496131,SAN JACINTO COMMUNITY COLLEGE DISTRICT - GENERATION PARK CAMPUS,13455 LOCKWOOD ROAD,HOUSTON,TX,77044,0000,NOT AVAILABLE
3639,459967,SOUTHERN CAREERS INSTITUTE-BROWNSVILLE,935 N. EXPRESSWAY,BROWNSVILLE,TX,78520,NOT AVAILABLE,(512) 437-7500
3655,226383,LUBBOCK CHRISTIAN UNIVERSITY,5601 19TH STREET,LUBBOCK,TX,79407,2099,(806) 796-8800
3781,226277,LINCOLN COLLEGE OF TECHNOLOGY-GRAND PRAIRIE,2915 ALOUETTE DRIVE,GRAND PRAIRIE,TX,75052,NOT AVAILABLE,(972) 660-5701 EXT 41100
3823,451714,PAUL MITCHELL THE SCHOOL-SAN ANTONIO,"18402 US HIGHWAY 281, SUITE 124",SAN ANTONIO,TX,78259,NOT AVAILABLE,(210) 523-8333 EXT 5104
3943,223232,BAYLOR UNIVERSITY,NOT AVAILABLE,WACO,TX,76798,NOT AVAILABLE,(254) 710-1011
3949,229814,WEST TEXAS A & M UNIVERSITY,2501 4TH AVE,CANYON,TX,79016,0001,(806) 651-0000
5456,228149,ST. MARY'S UNIVERSITY,ONE CAMINO SANTA MARIA,SAN ANTONIO,TX,78228,NOT AVAILABLE,(210) 436-3011
5492,369686,NORTHWEST EDUCATIONAL CENTER,2910 ANTOINE B-100,HOUSTON,TX,77092,NOT AVAILABLE,(713) 680-2929 EXT 2369
6335,492722,THE COLLEGE OF HEALTH CARE PROFESSIONS-SOUTH SAN ANTONIO,1964 SW MILITARY DRIVE,SAN ANTONIO,TX,78221,1474,(210) 957-3826
6527,494560,GUIDANCE COLLEGE,1902 BAKER RD,HOUSTON,TX,77094,NOT AVAILABLE,(713) 231-7391
387,459514,PELOTON COLLEGE,8150 NORTH CENTRAL EXPRESSWAY M2240,DALLAS,TX,75206,NOT AVAILABLE,(214) 777-6433
556,224350,DEL MAR COLLEGE,101 BALDWIN BLVD.,CORPUS CHRISTI,TX,78404,3897,(361) 698-1200
1146,377342,VISTA COLLEGE-ONLINE,"300 N. COIT RD, SUITE 300",RICHARDSON,TX,75080,NOT AVAILABLE,(972) 733-3431
3455,488110,NATURAL IMAGES BEAUTY COLLEGE,236 OLD ANGLETON ROAD,CLUTE,TX,77531,3603,(979) 265-6200
3594,225520,HOWARD COLLEGE,1001 BIRDWELL LANE,BIG SPRING,TX,79720,NOT AVAILABLE,(432) 264-5000
3723,441742,CONCORDE CAREER COLLEGE-GRAND PRAIRIE,305 W. INTERSTATE 20,GRAND PRAIRIE,TX,75052,3831,(469) 348-2500
3951,229799,WEATHERFORD COLLEGE,225 COLLEGE PARK DRIVE,WEATHERFORD,TX,76086,5699,(800) 287-5471
3985,480833,THE COLLEGE OF HEALTH CARE PROFESSIONS-FORT WORTH,4248 NORTH FREEWAY,FORT WORTH,TX,76137,5021,(817) 632-5900
4235,451857,REMINGTON COLLEGE-HOUSTON SOUTHEAST CAMPUS,20985 INTERSTATE 45 SOUTH,WEBSTER,TX,77598,NOT AVAILABLE,(281) 885-4450
5199,458061,TEXAS BEAUTY COLLEGE,4123 DENTON HWY,HALTOM CITY,TX,76117,NOT AVAILABLE,(682) 647-1505
5420,456214,LAMSON INSTITUTE,5819 NW LOOP 410-STE 160,SAN ANTONIO,TX,78238,NOT AVAILABLE,(210) 520-1800 EXT 102
5450,227322,OGLE SCHOOL HAIR SKIN NAILS-FT WORTH,"6125 SOUTHWEST LOOP 820, SUITE 128",FORT WORTH,TX,76132,3638,(817) 294-2950
5484,248703,OGLE SCHOOL HAIR SKIN NAILS-HURST,720-B ARCADIA STREET,HURST,TX,76053,4650,(817) 284-9231
5497,377193,UCAS UNIVERSITY OF COSMETOLOGY ARTS & SCIENCES,"910 SOUTHEAST MILITARY, SUITE 100",SAN ANTONIO,TX,78214,NOT AVAILABLE,(210) 433-7222
6403,495129,AUSTIN CAREER INSTITUTE,8711 BURNET ROAD,AUSTIN,TX,78757,7066,(512) 677-7776
6445,492157,HOUSTON SCHOOL OF CARPENTRY,3522 POLK ST,HOUSTON,TX,77003,NOT AVAILABLE,(713) 225-1955
6454,493549,MCALLEN CAREERS INSTITUTE,304 SOUTH COLONEL ROWE BOULEVARD,MCALLEN,TX,78501,2702,(956) 618-5800
6473,493734,CAREERS INSTITUTE OF AMERICA,13614 MIDWAY ROAD,DALLAS,TX,75244,4310,(972) 239-3630
6480,493804,DELUXE BARBER COLLEGE,12636 NACOGDOCHES ROAD,SAN ANTONIO,TX,78217,2118,(210) 655-9999
558,226134,LAREDO COLLEGE,WEST END WASHINGTON ST,LAREDO,TX,78040,4395,(956) 721-5140
598,443322,VALLEY GRANDE INSTITUTE FOR ACADEMIC STUDIES,345 S. TEXAS BLVD.,WESLACO,TX,78596,NOT AVAILABLE,(956) 973-1945
703,226152,TEXAS A & M INTERNATIONAL UNIVERSITY,5201 UNIVERSITY BLVD,LAREDO,TX,78041,1900,(956) 326-2001
737,480824,THE COLLEGE OF HEALTH CARE PROFESSIONS-DALLAS,"8585 N. STEMMONS FREEWAY, SUITE 300, NORTH TOWER",DALLAS,TX,75247,NOT AVAILABLE,(214) 420-3400
1746,367361,INTERACTIVE COLLEGE OF TECHNOLOGY,2950 S. GESSNER,HOUSTON,TX,77063,NOT AVAILABLE,(713) 771-5336
3169,494603,SOUTHWESTERN BAPTIST THEOLOGICAL SEMINARY,2001 W. SEMINARY DR.,FORT WORTH,TX,76115,NOT AVAILABLE,(817) 923-1921
3538,227191,NORTH LAKE COLLEGE,5001 NORTH MACARTHUR BLVD.,IRVING,TX,75038,3899,NOT AVAILABLE
3939,228699,TEXARKANA COLLEGE,2500 N ROBISON RD,TEXARKANA,TX,75599,NOT AVAILABLE,(903) 823-3456
4065,482981,ALAMO CITY BARBER COLLEGE,8910 BANDERA ROAD SUITE 209,SAN ANTONIO,TX,78250,3227,(210) 523-7777
4343,229504,VERNON COLLEGE,4400 COLLEGE DR.,VERNON,TX,76384,4092,(940) 552-6291
4504,475662,UCAS UNIVERSITY OF COSMETOLOGY ARTS & SCIENCES-LA JOYA,724 EAST EXPRESSWAY 83,LA JOYA,TX,78560,4018,(956) 581-8227
4679,482015,SOUTHERN CAREERS INSTITUTE-SAN ANTONIO,6963 NW LOOP 410,SAN ANTONIO,TX,78238,4114,(512) 437-7500
5304,443711,UNIVERSITY OF NORTH TEXAS SYSTEM,1901 MAIN STREET,DALLAS,TX,75201,NOT AVAILABLE,(214) 752-8585
5483,247825,AUSTIN GRADUATE SCHOOL OF THEOLOGY,7640 GUADALUPE ST,AUSTIN,TX,78752,NOT AVAILABLE,(512) 476-2772
5737,224271,DALLAS INSTITUTE OF FUNERAL SERVICE,3909 S BUCKNER BLVD,DALLAS,TX,75227,4314,(214) 388-5466
6539,494719,TONSORIAL ARTS BARBER COLLEGE,2831 NEW BOSTON ROAD,TEXARKANA,TX,75501,3264,(903) 255-7003
227,224776,MIAMI INTERNATIONAL UNIVERSITY OF ART & DESIGN-ART INSTITUTE DALLAS,"8080 PARK LANE, SUITE 100",DALLAS,TX,75231,5993,(214) 692-8080
369,458982,THE ART INSTITUTE OF SAN ANTONIO,10000 IH-10 W STE 200,SAN ANTONIO,TX,78230,NOT AVAILABLE,(210) 338-7408
555,224244,DALLAS CHRISTIAN COLLEGE,2700 CHRISTIAN PKWY.,DALLAS,TX,75234,7299,(972) 241-3371
889,483513,NEECEE'S BARBER COLLEGE,1813 INDUSTRIAL BLVD,ABILENE,TX,79602,NOT AVAILABLE,(325) 673-7970
1500,466930,CHAMBERLAIN UNIVERSITY-TEXAS,11025 EQUITY DRIVE,HOUSTON,TX,77041,NOT AVAILABLE,(713) 277-9800
2173,228343,SOUTHWESTERN UNIVERSITY,1001 E. UNIVERSITY AVENUE,GEORGETOWN,TX,78626,NOT AVAILABLE,(512) 863-6511
2237,246415,UCAS UNIVERSITY OF COSMETOLOGY ARTS & SCIENCES-SAN ANTONIO 410,"4522 FREDERICKSBURG RD, A-85",SAN ANTONIO,TX,78201,NOT AVAILABLE,(210) 654-9734
2554,224572,EASTFIELD COLLEGE,3737 MOTLEY DR,MESQUITE,TX,75150,2099,NOT AVAILABLE
2620,420398,NORTHWEST VISTA COLLEGE,3535 N. ELLISON DRIVE,SAN ANTONIO,TX,78251,NOT AVAILABLE,(210) 486-4000
3391,458052,ADVANCED BEAUTY COLLEGE,3959 N. BELTLINE RD.,IRVING,TX,75038,NOT AVAILABLE,(214) 492-2076
3705,481003,M T TRAINING CENTER,1801 S. GREAT SOUTHWEST PARKWAY,GRAND PRAIRIE,TX,75051,NOT AVAILABLE,(972) 262-5395
4046,225885,JARVIS CHRISTIAN COLLEGE,"PR 7631, HWY 80 E",HAWKINS,TX,75765,1470,(903) 730-4890
4985,228486,SOUTHWESTERN CHRISTIAN COLLEGE,200 BOWSER CIRCLE,TERRELL,TX,75160,4812,(972) 524-3341 EXT 107
5350,228866,TEXAS CHIROPRACTIC COLLEGE FOUNDATION INC,5912 SPENCER HWY,PASADENA,TX,77505,1699,(281) 487-1170
5522,449782,CHAMPION BEAUTY COLLEGE,3920 FM 1960 WEST #210,HOUSTON,TX,77068,NOT AVAILABLE,(281) 583-9117
5785,223524,BROOKHAVEN COLLEGE,3939 VALLEY VIEW LN,FARMERS BRANCH,TX,75244,4997,NOT AVAILABLE
6181,223852,CHARLES AND SUES SCHOOL OF HAIR DESIGN,1711 BRIARCREST DR,BRYAN,TX,77802,NOT AVAILABLE,(979) 776-4375
6393,494472,EVVAYLOIS ACADEMY SCHOOL OF BEAUTY,2244 SOUTH MARKET STREET,BRENHAM,TX,77833,NOT AVAILABLE,(979) 421-8262
368,458973,STRAYER UNIVERSITY-TEXAS,8501 N. MOPAC EXPRESSWAY,AUSTIN,TX,78759,NOT AVAILABLE,(877) 445-7180
983,447591,THE COLLEGE OF HEALTH CARE PROFESSIONS-SOUTHWEST HOUSTON,7322 SOUTHWEST FREEWAY SUITE 110,HOUSTON,TX,77074,NOT AVAILABLE,(713) 470-2427
3261,459523,ABC BEAUTY ACADEMY,2109 BUCKINGHAM RD.,RICHARDSON,TX,75081,NOT AVAILABLE,(469) 872-0889
3301,485953,THE RECORDING CONSERVATORY OF AUSTIN,4615 CITY PARK ROAD,AUSTIN,TX,78730,3004,(512) 231-0344
4966,377218,SCHOOL OF AUTOMOTIVE MACHINISTS & TECHNOLOGY,1911 ANTOINE DRIVE,HOUSTON,TX,77055,1803,(713) 683-3817
5453,227766,RICHLAND COLLEGE,12800 ABRAMS RD.,DALLAS,TX,75243,2199,NOT AVAILABLE
6540,494728,MICHAEL'S BARBER & HAIR STYLIST ACADEMY,2413 WEST AIRPORT FREEWAY,IRVING,TX,75062,6016,(972) 594-7700
513,461388,DIAMONDS COSMETOLOGY COLLEGE,3321 LOY LAKE RD,SHERMAN,TX,75090,2657,(903) 891-0758 EXT 51277
549,223463,REMINGTON COLLEGE-DALLAS CAMPUS,1800 EASTGATE DR,GARLAND,TX,75041,NOT AVAILABLE,(972) 686-7878
916,222831,ANGELO STATE UNIVERSITY,2601 W. AVENUE N,SAN ANGELO,TX,76909,NOT AVAILABLE,(325) 942-2555
3152,493734,CAREERS INSTITUTE OF AMERICA,13614 MIDWAY ROAD,DALLAS,TX,75244,4310,(972) 239-3630
3153,493743,HOUSTON BARBER SCHOOL,313 RANKIN ROAD,HOUSTON,TX,77073,4400,(281) 821-0681
3483,224961,GALVESTON COLLEGE,4015 AVE Q,GALVESTON,TX,77550,7496,(409) 944-1220
3656,226675,COVENANT SCHOOL OF NURSING AND ALLIED HEALTH,1919 FRANKFORD AVE.,LUBBOCK,TX,79407,NOT AVAILABLE,(806) 725-8900
3780,225308,TRINITY VALLEY COMMUNITY COLLEGE,100 CARDINAL DRIVE,ATHENS,TX,75751,NOT AVAILABLE,(903) 675-6200
3941,228705,TEXAS A & M UNIVERSITY-KINGSVILLE,955 UNIVERSITY BLVD,KINGSVILLE,TX,78363,NOT AVAILABLE,(361) 593-2111
4045,225432,UNIVERSITY OF HOUSTON-DOWNTOWN,1 MAIN STREET,HOUSTON,TX,77002,1014,(713) 221-8000
4111,229018,THE UNIVERSITY OF TEXAS PERMIAN BASIN,4901 E UNIVERSITY,ODESSA,TX,79762,0001,(432) 552-2020
4648,456931,PLATT COLLEGE-STVT-CORPUS CHRISTI,2000 SOUTH PADRE ISLAND DR,CORPUS CHRISTI,TX,78416,NOT AVAILABLE,(361) 232-5057 EXT 35821
5197,458034,HOUSTON INTERNATIONAL COLLEGE CARDIOTECH ULTRASOUND SCHOOL,12135 BISSONNET STE E,HOUSTON,TX,77099,NOT AVAILABLE,(281) 495-0078
5303,443696,INTERACTIVE COLLEGE OF TECHNOLOGY,16801 GREENSPOINT PARK DRIVE SUITE 150,HOUSTON,TX,77060,2303,(281) 931-7717
5409,227845,SAINT EDWARD'S UNIVERSITY,3001 S CONGRESS AVE,AUSTIN,TX,78704,6489,(512) 448-8400
5740,226833,MIDWESTERN STATE UNIVERSITY,3410 TAFT BLVD,WICHITA FALLS,TX,76308,2099,(940) 397-4000
6465,493655,MONTANA BARBER INSTITUTE,1920 N ZARAGOZA SUITE 101 - 103,EL PASO,TX,79938,4655,(915) 760-7964
424,226879,WADE COLLEGE,"1950 N. STEMMONS FREEWAY, SUITE 4080 DALLAS INFOMART",DALLAS,TX,75207,NOT AVAILABLE,(214) 637-3530
557,224642,EL PASO COMMUNITY COLLEGE,9050 VISCOUNT BLVD,EL PASO,TX,79925,6507,(915) 831-2000
1744,222983,AUSTIN COLLEGE,900 N GRAND AVE,SHERMAN,TX,75090,4400,(903) 813-2000
2258,377315,TEXAS COLLEGE OF COSMETOLOGY-ABILENE,117 SAYLES BLVD.,ABILENE,TX,79605,NOT AVAILABLE,(325) 677-0532
2264,385549,MILAN INSTITUTE OF COSMETOLOGY,2400 SOUTHEAST 27TH AVENUE,AMARILLO,TX,79103,NOT AVAILABLE,(806) 349-4100
2582,228219,PLATT COLLEGE-STVT-MCALLEN,"1800 SOUTH MAIN, SUITE 500",MCALLEN,TX,78503,NOT AVAILABLE,(956) 631-1107
3166,494560,GUIDANCE COLLEGE,1902 BAKER RD,HOUSTON,TX,77094,NOT AVAILABLE,(713) 231-7391
3653,227058,TINT SCHOOL OF MAKEUP & COSMETOLOGY,2716 W IRVING BLVD,IRVING,TX,75061,4235,(972) 513-1176
3778,223320,COASTAL BEND COLLEGE,3800 CHARCO RD,BEEVILLE,TX,78102,NOT AVAILABLE,(361) 354-2200
4108,225991,KD CONSERVATORY COLLEGE OF FILM AND DRAMATIC ARTS,2600 STEMMONS FWY STE 117,DALLAS,TX,75207,NOT AVAILABLE,(214) 638-0484
4117,226408,COLLEGE OF THE MAINLAND,1200 AMBURN ROAD,TEXAS CITY,TX,77591,2499,(409) 938-1211
4988,228884,TEXAS COLLEGE,2404 N. GRAND AVENUE,TYLER,TX,75702,NOT AVAILABLE,(903) 593-8311 EXT 2297
5404,228459,TEXAS STATE UNIVERSITY,601 UNIVERSITY DR,SAN MARCOS,TX,78666,NOT AVAILABLE,(512) 245-2111
5513,408385,SOUTHERN CAREERS INSTITUTE-PHARR,1500 N. JACKSON RD,PHARR,TX,78577,NOT AVAILABLE,(512) 437-7500
5739,226930,MOUNTAIN VIEW COLLEGE,4849 WEST ILLINOIS AVE.,DALLAS,TX,75211,6599,NOT AVAILABLE
554,224156,COSMETOLOGY CAREER CENTER LLC,"2389 MIDWAY ROAD, STE A",CARROLLTON,TX,75006,NOT AVAILABLE,(972) 669-0494
559,227182,LONE STAR COLLEGE SYSTEM,5000 RESEARCH FOREST DRIVE,THE WOODLANDS,TX,77381,4399,(832) 813-6500
698,229115,TEXAS TECH UNIVERSITY,BROADWAY AND UNIVERSITY AVENUE,LUBBOCK,TX,79409,5005,(806) 742-2011
895,228787,THE UNIVERSITY OF TEXAS AT DALLAS,800 WEST CAMPBELL ROAD,RICHARDSON,TX,75080,3021,(972) 883-2111
1748,377281,NUVANI INSTITUTE,272 COMMERICAL ST,EAGLE PASS,TX,78852,4859,(830) 626-7007
2253,369695,SEBRING CAREER SCHOOLS-HOUSTON,6672 HWY 06 S,HOUSTON,TX,77083,NOT AVAILABLE,(281) 561-0138
2581,227289,OBLATE SCHOOL OF THEOLOGY,285 OBLATE DR,SAN ANTONIO,TX,78216,6693,(210) 341-1366
3067,490674,MANUEL AND THERESA'S SCHOOL OF HAIR DESIGN,1315 HIGHWAY 105 #102,BRENHAM,TX,77833,3033,(979) 277-0078
3167,494588,PIMA MEDICAL INSTITUTE-SAN ANTONIO,6550 FIRST PARK TEN BLVD,SAN ANTONIO,TX,78213,NOT AVAILABLE,(210) 966-9764
3462,488299,MISSION BEAUTY INSTITUTE,1123 EAST 9TH STREET,MISSION,TX,78572,4404,(956) 584-5816
3562,225247,HARDIN-SIMMONS UNIVERSITY,2200 HICKORY,ABILENE,TX,79698,0001,(325) 670-1000
3651,224004,CONCORDIA UNIVERSITY TEXAS,11400 CONCORDIA UNIVERSITY DRIVE,AUSTIN,TX,78726,NOT AVAILABLE,(512) 313-3000
3727,460172,PLATT COLLEGE-STVT-SAN ANTONIO,734 SE MILITARY,SAN ANTONIO,TX,78216,NOT AVAILABLE,(210) 782-8000
4595,430245,SOUTHERN CAREERS INSTITUTE-SAN ANTONIO,"238 SW MILITARY DRIVE, SUITE 101",SAN ANTONIO,TX,78221,NOT AVAILABLE,(512) 437-7500
5252,228732,TEXAS A & M UNIVERSITY-SYSTEM OFFICE,301 TARROW,COLLEGE STATION,TX,77840,7896,(979) 458-6000
538,449250,THE COLLEGE OF HEALTH CARE PROFESSIONS-SAN ANTONIO,4738 N. W. LOOP 410,SAN ANTONIO,TX,78229,NOT AVAILABLE,(210) 298-3600
693,222628,AMBERTON UNIVERSITY,1700 EASTGATE DR,GARLAND,TX,75041,5595,(972) 279-6511
898,226019,KILGORE COLLEGE,1100 BROADWAY,KILGORE,TX,75662,3299,(903) 984-8531
1174,455974,SOUTH TEXAS TRAINING CENTER,1901 W HWY 77,SAN BENITO,TX,78586,NOT AVAILABLE,(956) 399-9698
1959,458070,AVENUE FIVE INSTITUTE,8620 BURNET RD STE 300,AUSTIN,TX,78757,NOT AVAILABLE,(512) 968-2835
3141,493549,MCI,304 SOUTH COLONEL ROWE BOULEVARD,MCALLEN,TX,78501,2702,(956) 618-5800
3196,495244,PEARLANDS INNOVATIVE SCHOOL OF BEAUTY,9330 BROADWAY STREET,PEARLAND,TX,77584,7891,(281) 670-5119
3202,495305,THE PROFESSIONAL COSMETOLOGY ACADEMY,1407 CALLE DEL NORTE,LAREDO,TX,78041,5930,(956) 744-6139
3297,485360,THE VOCATIONAL NURSING INSTITUTE INC,11201 STEEPLE PARK DRIVE,HOUSTON,TX,77065,NOT AVAILABLE,(832) 237-2525 EXT 1003
3539,227429,PAUL QUINN COLLEGE,3837 SIMPSON STUART RD,DALLAS,TX,75241,NOT AVAILABLE,(214) 379-5577
4109,227687,RANGER COLLEGE,1100 COLLEGE CIRCLE,RANGER,TX,76470,NOT AVAILABLE,(254) 647-3234
4617,437635,THE COLLEGE OF HEALTH CARE PROFESSIONS-AUSTIN,6330 E. HIGHWAY 290 SUITE 180,AUSTIN,TX,78723,NOT AVAILABLE,(512) 617-5700
4620,437778,MILAN INSTITUTE-SAN ANTONIO INGRAM,6804 INGRAM ROAD,SAN ANTONIO,TX,78238,NOT AVAILABLE,(210) 647-5100
4647,456922,SOUTH TEXAS VOCATIONAL TECHNICAL INSTITUTE-BROWNSVILLE,"1900 NORTH EXPRESSWAY, SUITE O",BROWNSVILLE,TX,78521,NOT AVAILABLE,(956) 554-3515
5405,228158,SOUTH PLAINS COLLEGE,1401 S. COLLEGE AVE,LEVELLAND,TX,79336,NOT AVAILABLE,(806) 894-9611 EXT 2542
5451,227526,PRAIRIE VIEW A & M UNIVERSITY,FM 1098 ROAD & UNIVERSITY DRIVE,PRAIRIE VIEW,TX,77446,NOT AVAILABLE,(936) 261-3311
5459,229407,UNIVERSITY OF HOUSTON-SYSTEM ADMINISTRATION,212 EZEKIEL CULLEN BUILDING,HOUSTON,TX,77204,2018,(713) 743-1000
6366,493992,SOUTHERN CAREERS INSTITUTE-WACO,3700 SOUTH IH-35 SUITE A,WACO,TX,76706,3756,(512) 387-7528
113,487232,TEXAS COLLEGE OF COSMETOLOGY-LUBBOCK,"3602 SLIDE ROAD, SUITE B-18",LUBBOCK,TX,79414,2532,(806) 785-0677
123,486503,LAREDO CHI ACADEMY BEAUTY SCHOOL,1710 PEACEFUL MEADOW COURT,LAREDO,TX,78041,6540,(956) 717-2838
297,228246,SOUTHERN METHODIST UNIVERSITY,6425 BOAZ ST,DALLAS,TX,75275,0221,(214) 768-2000
322,222178,ABILENE CHRISTIAN UNIVERSITY,NOT AVAILABLE,ABILENE,TX,79699,NOT AVAILABLE,(325) 674-2000
548,223056,BALDWIN BEAUTY SCHOOL-SOUTH AUSTIN,3005 S LAMAR,AUSTIN,TX,78704,4785,(512) 441-6898
601,445203,REMINGTON COLLEGE-NORTH HOUSTON CAMPUS,"11310 GREENS CROSSING BLVD, STE 300",HOUSTON,TX,77067,NOT AVAILABLE,(281) 885-4450
897,418913,PIPO ACADEMY OF HAIR DESIGN,3000 PERSHING DR,EL PASO,TX,79903,NOT AVAILABLE,(915) 565-3491
908,484048,BARBER INSTITUTE OF TEXAS,2430 SOUTH HIGH STREET STE B4,LONGVIEW,TX,75602,3456,(903) 236-9695
2060,443298,TREND BARBER COLLEGE,8250 W BELLFORT,HOUSTON,TX,77071,2202,(713) 721-0000
3064,490522,ALLGOOD BEAUTY INSTITUTE,9741 PRESTON ROAD SUITE 106,FRISCO,TX,75033,4112,(469) 252-1747
4210,449807,SOUTHEAST TEXAS CAREER INSTITUTE,975 HWY 327 E SUITE 150,SILSBEE,TX,77656,NOT AVAILABLE,(409) 386-2020 EXT 104
4991,226125,LAREDO BEAUTY COLLEGE INC,3020 N MEADOW AVE,LAREDO,TX,78040,NOT AVAILABLE,(956) 723-2059
5403,225070,GRAYSON COLLEGE,6101 GRAYSON DRIVE,DENISON,TX,75020,8299,(903) 415-2592
5452,227748,AVIATION INSTITUTE OF MAINTENANCE-HOUSTON,7651 AIRPORT BLVD.,HOUSTON,TX,77061,NOT AVAILABLE,(713) 644-7777
829,482635,DEVRY UNIVERSITY-TEXAS,"4800 REGENT BLVD., STE. 200",IRVING,TX,75063,NOT AVAILABLE,(972) 929-6777
919,484136,YAHWEH BEAUTY ACADEMY,431 NORTH 38TH STREET,KILLEEN,TX,76543,4153,(254) 554-7771
1747,379782,CENTER FOR ADVANCED LEGAL STUDIES,"800 W SAM HOUSTON PARKWAY S, SUITE 100",HOUSTON,TX,77042,1912,(713) 529-2778
2628,432269,CET-EL PASO,294 CANDELARIA STREET,EL PASO,TX,79907,NOT AVAILABLE,(408) 287-7924
3172,494728,MICHAEL'S BARBER & HAIR STYLIST ACADEMY,2413 WEST AIRPORT FREEWAY,IRVING,TX,75062,6016,(972) 594-7700
3782,227216,UNIVERSITY OF NORTH TEXAS,1501 W.CHESTNUT AVE.,DENTON,TX,76203,1277,(940) 565-2000
3938,228608,TEMPLE COLLEGE,2600 S 1ST ST,TEMPLE,TX,76504,7435,(254) 298-8282
4004,480888,CYBERTEX INSTITUTE OF TECHNOLOGY,"6300 LA CALMA DR. SUITE ,350",AUSTIN,TX,78752,NOT AVAILABLE,(512) 454-6116
4732,482325,NATIONAL AMERICAN UNIVERSITY-GEORGETOWN,"1015 W. UNIVERSITY AVENUE, SUITE 700",GEORGETOWN,TX,78628,5355,(512) 942-6750
4969,224527,EAST TEXAS BAPTIST UNIVERSITY,ONE TIGER DRIVE,MARSHALL,TX,75670,1498,(903) 935-7963
5248,461740,BUCKNER BARBER SCHOOL,"1515 SOUTH BUCKNER BOULEVARD, SUITE 147",DALLAS,TX,75217,1775,(214) 398-6416
5734,223506,BRAZOSPORT COLLEGE,500 COLLEGE DR,LAKE JACKSON,TX,77566,NOT AVAILABLE,(979) 230-3000
43,482972,THE HEALTHCARE INSTITUTE,1822 FREDERICKSBURG ROAD,SAN ANTONIO,TX,78201,5035,(210) 692-3262
240,488730,NORTHEAST LAKEVIEW COLLEGE,1201 KITTY HAWK RD,UNIVERSAL CITY,TX,78145,NOT AVAILABLE,(210) 486-5000
714,478591,OGLE SCHOOL HAIR SKIN NAILS-DENTON,2324 SAN JACINTO BOULEVARD,DENTON,TX,76205,7534,(940) 535-5642
899,366261,COMMONWEALTH INSTITUTE OF FUNERAL SERVICE,415 BARREN SPRINGS DR,HOUSTON,TX,77090,5918,(281) 873-0262
1029,483036,TEXAS A&M UNIVERSITY-CENTRAL TEXAS,1001 LEADERSHIP PLACE,KILLEEN,TX,76549,NOT AVAILABLE,(254) 519-5400
2046,441788,AVIATION INSTITUTE OF MAINTENANCE-DALLAS,400 E. AIRPORT FREEWAY,IRVING,TX,75061,NOT AVAILABLE,(214) 333-9711
2167,222567,ALVIN COMMUNITY COLLEGE,3110 MUSTANG RD,ALVIN,TX,77511,4898,(281) 756-3500
2605,414489,BALDWIN BEAUTY SCHOOL-NORTH AUSTIN,"8440 BURNET RD., STE 140",AUSTIN,TX,78757,7068,(512) 458-4127
3171,494719,TONSORIAL ARTS BARBER COLLEGE,2831 NEW BOSTON ROAD,TEXARKANA,TX,75501,3264,(903) 255-7003
3497,226116,LAMAR STATE COLLEGE-PORT ARTHUR,1500 PROCTOR ST,PORT ARTHUR,TX,77640,NOT AVAILABLE,(409) 984-6342
4041,482200,COSMETOLOGY ACADEMY OF TEXARKANA,4115 N KINGS HWY SUITE 110,TEXARKANA,TX,75503,NOT AVAILABLE,(903) 838-0340
4191,440989,TEXAS BARBER COLLEGE,"8201 S. GESSNER ROAD, SUITE A",HOUSTON,TX,77036,NOT AVAILABLE,(713) 953-0262 EXT 1407
4905,407683,UCAS UNIVERSITY OF COSMETOLOGY ARTS & SCIENCES-HARLINGEN,801 N. 13TH STREET SUITE 2,HARLINGEN,TX,78550,5034,(956) 412-1212
6101,439701,THE KING'S UNIVERSITY,2121 E. SOUTHLAKE BOULEVARD,SOUTHLAKE,TX,76092,NOT AVAILABLE,(817) 722-1700
6273,490425,ANN WEBB SKIN INSTITUTE,11701 JOLLYVILLE ROAD,AUSTIN,TX,78759,3936,(512) 614-4012
6289,491394,PLATT COLLEGE-EDGE TECH ACADEMY,2241 S WATSON RD #181,ARLINGTON,TX,76010,NOT AVAILABLE,(682) 478-3018
6375,494524,AVENUE FIVE INSTITUTE-SOUTH AUSTIN CAMPUS,500 E BEN WHITE BOULEVARD BLD E STE 100,AUSTIN,TX,78704,3259,(512) 968-2835
247,488989,PAUL MITCHELL THE SCHOOL-CLEAR LAKE,20807 GULF FWY,WEBSTER,TX,77598,0000,(832) 632-2333
250,226091,LAMAR UNIVERSITY,4400 MLK BLVD,BEAUMONT,TX,77705,NOT AVAILABLE,(409) 880-7011
1170,455336,MEDIATECH INSTITUTE-DALLAS,13300 BRANCH VIEW LANE,DALLAS,TX,75234,NOT AVAILABLE,(972) 869-1122
1387,439154,TEXAS TECH UNIVERSITY SYSTEM ADMINISTRATION,1508 KNOXVILLE AVENUE,LUBBOCK,TX,79409,2013,(806) 742-9000
1530,429085,AMERICAN COLLEGE OF ACUPUNCTURE AND ORIENTAL MED,9100 PARK WEST DRIVE,HOUSTON,TX,77063,4104,(713) 780-9777
2116,226471,UNIVERSITY OF MARY HARDIN-BAYLOR,900 COLLEGE ST,BELTON,TX,76513,2599,(800) 727-8642
3120,492573,NATIONAL AMERICAN UNIVERSITY-KILLEEN,203 W. JASPER STE. 200,KILLEEN,TX,76542,1321,(254) 251-3710
3340,459949,TEXAS A&M UNIVERSITY-SAN ANTONIO,ONE UNIVERSITY WAY,SAN ANTONIO,TX,78224,NOT AVAILABLE,(210) 784-1000
3784,228644,THE UNIVERSITY OF TEXAS HEALTH SCIENCE CENTER AT SAN ANTONIO,7703 FLOYD CURL DR,SAN ANTONIO,TX,78229,3900,(210) 567-2620
4694,226860,WILLIAM EDGE INSTITUTE,"651 NORTH BUSINESS IH 35, SUITE 330",NEW BRAUNFELS,TX,78130,8216,(830) 387-4094
4982,227298,OCEAN CORPORATION,10840 ROCKLEY RD,HOUSTON,TX,77099,NOT AVAILABLE,(281) 776-3321
5402,229267,TRINITY UNIVERSITY,ONE TRINITY PLACE,SAN ANTONIO,TX,78212,7200,(210) 999-7011
6355,493655,MONTANA BARBER INSTITUTE,1920 N ZARAGOZA SUITE 101 - 103,EL PASO,TX,79938,4655,(915) 760-7964
6387,496229,COLUMBIA COLLEGE - EASTFIELD PLEASANT GROVE,802 SOUTH BUCKNER BLVD,DALLAS,TX,75217,4503,NOT AVAILABLE
6395,494977,AMERICAN MEDICAL INSTITUTE INC.,6902 COOK RD,HOUSTON,TX,77099,NOT AVAILABLE,(713) 772-5300
6474,493743,HOUSTON BARBER SCHOOL,313 RANKIN ROAD,HOUSTON,TX,77073,4400,(281) 821-0681
6498,494162,ARIZONA COLLEGE-DALLAS,8330 LBJ FREEWAY SUITE 100,DALLAS,TX,75243,1200,(855) 706-8382
61,487320,TEXAS STATE TECHNICAL COLLEGE,3801 CAMPUS DRIVE,WACO,TX,76705,NOT AVAILABLE,(800) 792-8784
695,226204,LEE COLLEGE,511 S WHITING,BAYTOWN,TX,77520,NOT AVAILABLE,(281) 427-5611
914,229355,TYLER JUNIOR COLLEGE,1400 EAST FIFTH STREET,TYLER,TX,75701,NOT AVAILABLE,(903) 510-2200
1411,420705,BAKKE GRADUATE UNIVERSITY,8515 GREENVILLE AVE S206,DALLAS,TX,75243,7039,(214) 329-4447 EXT 115
1412,475486,PAUL MITCHELL THE SCHOOL-ARLINGTON,"309 CURTIS MATHES WAY, #101",ARLINGTON,TX,76018,6032,(817) 865-6963
3613,459532,SALON & SPA INSTITUTE,2695 NORTH CORIA STREET,BROWNSVILLE,TX,78520,8809,(956) 541-3330
3640,459985,SOUTHERN CAREERS INSTITUTE-HARLINGEN,1122 MORGAN BOULEVARD,HARLINGEN,TX,78550,NOT AVAILABLE,(512) 437-7500
3786,228778,THE UNIVERSITY OF TEXAS AT AUSTIN,110 INNER CAMPUS DRIVE,AUSTIN,TX,78705,NOT AVAILABLE,(512) 471-3434
3950,228802,THE UNIVERSITY OF TEXAS AT TYLER,3900 UNIVERSITY BLVD,TYLER,TX,75799,6699,(903) 566-7000
4120,483735,TOTAL TRANSFORMATION INSTITUTE OF COSMETOLOGY,907 HIGHWAY 80,SAN MARCOS,TX,78666,8115,(512) 392-8862
4396,455327,HANDS ON THERAPY,1804 N GALLOWAY AVE,MESQUITE,TX,75149,NOT AVAILABLE,(214) 514-6133
5314,444565,CULINARY INSTITUTE INC,7070 ALLENSBY,HOUSTON,TX,77022,4322,(713) 358-5092
5406,222877,ARLINGTON BAPTIST UNIVERSITY,3001 W DIVISION,ARLINGTON,TX,76012,3425,(817) 461-8741
6313,491835,SALON PROFESSIONAL ACADEMY OF SAN ANTONIO,16640 SAN PEDRO AVENUE,SAN ANTONIO,TX,78232,2242,(210) 560-8772
56,487490,FLORIDA CAREER COLLEGE-HOUSTON,70-A FARM TO MARKET ROAD 1960 WEST,HOUSTON,TX,77090,1111,(281) 943-6261
140,475750,CARRINGTON COLLEGE-MESQUITE,3733 W. EMPORIUM CIRCLE,MESQUITE,TX,75150,6509,(972) 682-2800
432,229179,TEXAS WOMAN'S UNIVERSITY,304 ADMINISTRATION DR,DENTON,TX,76204,NOT AVAILABLE,(940) 898-2000
560,229337,TEXAS TECH UNIVERSITY HEALTH SCIENCES CENTER,3601 4TH STREET,LUBBOCK,TX,79430,NOT AVAILABLE,(806) 743-1000
694,225414,UNIVERSITY OF HOUSTON-CLEAR LAKE,2700 BAY AREA BLVD,HOUSTON,TX,77058,1002,(281) 283-7600
2168,224110,NORTH CENTRAL TEXAS COLLEGE,1525 W CALIFORNIA STREET,GAINESVILLE,TX,76240,4699,(940) 668-7731
2172,228909,UNIVERSITY OF NORTH TEXAS HEALTH SCIENCE CENTER,3500 CAMP BOWIE BLVD,FORT WORTH,TX,76107,2699,(817) 735-2000
2968,377111,REMINGTON COLLEGE-FORT WORTH CAMPUS,300 E. LOOP 820,FORT WORTH,TX,76112,1225,(817) 451-0011
3373,486813,PIMA MEDICAL INSTITUTE-EL PASO,6926 GATEWAY BOULEVARD E.,EL PASO,TX,79915,1525,(915) 633-1133
3652,226903,SOUTHERN CAREERS INSTITUTE-AUSTIN,"1701 W BEN WHITE BLVD, STE 100",AUSTIN,TX,78744,NOT AVAILABLE,(512) 437-7500
3785,228723,TEXAS A & M UNIVERSITY-COLLEGE STATION,"JKW ADMINISTRATION BUILDING, SUITE 200",COLLEGE STATION,TX,77843,1248,(979) 845-3211
4104,483559,BELLA COSMETOLOGY AND BARBER COLLEGE,5015A WESLEY,GREENVILLE,TX,75402,NOT AVAILABLE,(903) 494-5170
4134,409315,SOUTH TEXAS COLLEGE,3201 W PECAN,MCALLEN,TX,78502,9701,(956) 872-8311
4987,228185,SOUTH TEXAS BARBER COLLEGE INC,3917 AYERS,CORPUS CHRISTI,TX,78415,NOT AVAILABLE,(361) 855-0262
5299,443021,DALLAS BARBER & STYLIST COLLEGE,9357 FOREST LANE,DALLAS,TX,75243,NOT AVAILABLE,(214) 575-2168
5521,449773,CCI TRAINING CENTER-ARLINGTON,770 E. ROAD TO SIX FLAGS # 140,ARLINGTON,TX,76011,NOT AVAILABLE,(817) 226-1900 EXT 228
5796,223083,BAPTIST HEALTH SYSTEM SCHOOL OF HEALTH PROFESSIONS,8400 DATAPOINT DR,SAN ANTONIO,TX,78229,NOT AVAILABLE,(210) 297-9636
6062,417752,MESSENGER COLLEGE,"2701 BROWN TRAIL, SUITE 408",BEDFORD,TX,76021,4202,(817) 554-5950 EXT 100
6183,223117,BAPTIST MISSIONARY ASSOCIATION THEOLOGICAL SEMINARY,1530 E PINE ST,JACKSONVILLE,TX,75766,5407,(903) 586-2501
6319,491996,THE SALON PROFESSIONAL ACADEMY-GEORGETOWN,901 SOUTH IH 35,GEORGETOWN,TX,78626,5470,(512) 868-8079
6380,494694,TEXAS HEALTHTECH INSTITUTE,9615 COLLEGE STREET,BEAUMONT,TX,77707,2604,(409) 866-0555
372,229540,VICTORIA COLLEGE,2200 E RED RIVER,VICTORIA,TX,77901,NOT AVAILABLE,(361) 573-3291
575,247834,COLLIN COUNTY COMMUNITY COLLEGE DISTRICT,3452 SPUR 399,MCKINNEY,TX,75069,NOT AVAILABLE,(972) 881-5790
696,227368,THE UNIVERSITY OF TEXAS RIO GRANDE VALLEY,1201 W UNIVERSITY DR,EDINBURG,TX,78539,2999,(956) 665-2011
702,229832,WESTERN TEXAS COLLEGE,6200 COLLEGE AVE,SNYDER,TX,79549,NOT AVAILABLE,(325) 573-8511
882,406033,GALEN COLLEGE OF NURSING-SAN ANTONIO,"7411 JOHN SMITH DRIVE, SUITE 300",SAN ANTONIO,TX,78229,NOT AVAILABLE,(210) 733-3056
2080,445461,ALTIERUS CAREER COLLEGE-BISSONNET,9700 BISSONNET ST-STE 1400,HOUSTON,TX,77036,8001,(713) 772-4200
2164,229027,THE UNIVERSITY OF TEXAS AT SAN ANTONIO,ONE UTSA CIRCLE,SAN ANTONIO,TX,78249,1644,(210) 458-4011
2170,228468,SOUTHWESTERN ADVENTIST UNIVERSITY,100 W HILLCREST,KEENE,TX,76059,NOT AVAILABLE,(817) 645-3921
2624,431284,INTERNATIONAL BEAUTY COLLEGE,1225 BELTLINE RD STE 7,GARLAND,TX,75040,3294,(972) 530-1103
3043,491251,THE CULINARY SCHOOL OF FORT WORTH,6550 CAMP BOWIE BLVD #110,FORT WORTH,TX,76116,NOT AVAILABLE,(817) 737-8427
3136,492157,HOUSTON SCHOOL OF CARPENTRY,3522 POLK ST,HOUSTON,TX,77003,NOT AVAILABLE,(713) 225-1955 EXT 4055
3774,222497,ALAMO COMMUNITY COLLEGE DISTRICT CENTRAL OFFICE,2222 N. ALAMO ST.,SAN ANTONIO,TX,78215,NOT AVAILABLE,(210) 485-8000
3776,222992,AUSTIN COMMUNITY COLLEGE DISTRICT,5930 MIDDLE FISKVILLE RD,AUSTIN,TX,78752,NOT AVAILABLE,(512) 223-7000
4110,227304,ODESSA COLLEGE,201 W UNIVERSITY BLVD,ODESSA,TX,79764,NOT AVAILABLE,(432) 335-6400
4603,434283,PATHWAY VOCATIONAL ACADEMY,"3141 COLLEGE, SUITE A10",BEAUMONT,TX,77701,4650,(409) 673-5884
4965,246345,HOUSTON GRADUATE SCHOOL OF THEOLOGY,4300C WEST BELLFORT,HOUSTON,TX,77035,3602,(713) 942-9505
5504,383792,HOUSTON TRAINING SCHOOL-GULFGATE,6630 GULF FWY,HOUSTON,TX,77087,NOT AVAILABLE,(281) 867-9099
5736,224226,DALLAS BAPTIST UNIVERSITY,3000 MOUNTAIN CREEK PARKWAY,DALLAS,TX,75211,9299,(214) 333-7100
6182,225876,JACKSONVILLE COLLEGE-MAIN CAMPUS,105 B J ALBRITTON DR,JACKSONVILLE,TX,75766,4759,(903) 586-2518
6279,490735,PELOTON COLLEGE,1200 EAST COPELAND ROAD,ARLINGTON,TX,76011,9998,(214) 777-6433
6332,492607,CHICAGO SCHOOL OF PROFESSIONAL PSYCHOLOGY AT DALLAS,2101 WATERVIEW PARKWAY,RICHARDSON,TX,75080,2208,(469) 941-8380
6377,494630,CHRIST MISSION COLLEGE,10822 FM 1560 NORTH,SAN ANTONIO,TX,78254,1000,(210) 688-3101 EXT 103
6531,494603,SOUTHWESTERN BAPTIST THEOLOGICAL SEMINARY,2001 W. SEMINARY DR.,FORT WORTH,TX,76115,NOT AVAILABLE,(817) 923-1921
479,229656,VOGUE COLLEGE OF COSMETOLOGY-MCALLEN,800 FERN AVENUE,MCALLEN,TX,78501,1945,(956) 687-6149
495,441760,LAMAR INSTITUTE OF TECHNOLOGY,855 E LAVACA,BEAUMONT,TX,77705,NOT AVAILABLE,(409) 880-8321
822,227225,NORTHEAST TEXAS COMMUNITY COLLEGE,2886 FM 1735,MOUNT PLEASANT,TX,75455,NOT AVAILABLE,(903) 434-8100
896,223898,CISCO COLLEGE,101 COLLEGE HEIGHTS,CISCO,TX,76437,NOT AVAILABLE,(254) 442-5000
911,225371,HILL COLLEGE,112 LAMAR DR,HILLSBORO,TX,76645,NOT AVAILABLE,(254) 659-7500
1415,480912,GEMINI SCHOOL OF VISUAL ARTS & COMMUNICATION,501 PRIZE OAKS DRIVE,CEDAR PARK,TX,78613,NOT AVAILABLE,(512) 249-0187
1883,418968,TINT SCHOOL OF MAKEUP AND COSMETOLOGY-DALLAS,311 A E PIONEER PKWY HWY 303,GRAND PRAIRIE,TX,75051,NOT AVAILABLE,(972) 237-1988
1893,447449,ACADEMY OF HAIR DESIGN-JASPER,348 SPRING HILL ST,JASPER,TX,75951,NOT AVAILABLE,(409) 384-8200
3345,485537,UNIVERSITY OF TEXAS HEALTH SCIENCE CENTER AT TYLER,11937 US HIGHWAY 271,TYLER,TX,75708,3154,(903) 877-7777
3500,489283,THE COLLEGE OF HEALTH CARE PROFESSIONS-MCALLEN CAMPUS,1917 W. NOLANA AVE SUITE 100,MCALLEN,TX,78504,4398,(956) 800-1500
4618,437732,CHICAGO SCHOOL OF PROFESSIONAL PSYCHOLOGY - COLLEGE OF NURSING,2101 WATERVIEW PKWY,RICHARDSON,TX,75080,NOT AVAILABLE,(469) 941-8300
4967,380067,HOUSTON TRAINING SCHOOL-MAIN CAMPUS,10314 I-10 EAST FWY,HOUSTON,TX,77029,NOT AVAILABLE,(281) 867-9099
5455,228088,SEGUIN BEAUTY SCHOOL-SEGUIN,102 E COURT ST,SEGUIN,TX,78155,NOT AVAILABLE,(830) 372-0935
913,222576,AMARILLO COLLEGE,2011 S. WASHINGTON,AMARILLO,TX,79109,NOT AVAILABLE,(806) 371-5000
1373,434274,ACADEMY OF HAIR DESIGN-LUFKIN,512 S CHESTNUT,LUFKIN,TX,75904,NOT AVAILABLE,(936) 634-8440
1678,229887,WILEY COLLEGE,711 WILEY AVE,MARSHALL,TX,75670,NOT AVAILABLE,(903) 927-3300
1749,226587,MCMURRY UNIVERSITY,S 14TH AND SAYLES BLVD,ABILENE,TX,79697,NOT AVAILABLE,(325) 793-3800
3638,459958,FORTIS INSTITUTE,450 N SAM HOUSTON PKWY E STE 200,HOUSTON,TX,77060,NOT AVAILABLE,(713) 332-0062
3775,222886,ARLINGTON CAREER INSTITUTE,901 AVE K,GRAND PRAIRIE,TX,75050,2636,(972) 647-1607 EXT 223
4717,481401,GRACE SCHOOL OF THEOLOGY,3705 COLLEGE PARK DR STE 140,CONROE,TX,77384,4894,(877) 476-8674
5225,477039,WEST COAST UNIVERSITY-DALLAS,8435 NORTH STEMMONS FREEWAY,DALLAS,TX,75247,3900,(214) 453-4533
6184,223472,VET TECH INSTITUTE OF HOUSTON,4669 SOUTHWEST FWY STE 100,HOUSTON,TX,77027,NOT AVAILABLE,(713) 629-1500
6292,485926,GA BEAUTY & BARBER SCHOOL,3301 NORTH WARE ROAD SUITE A,MCALLEN,TX,78501,3309,(956) 664-2233
6363,493804,DELUXE BARBER COLLEGE,12636 NACOGDOCHES ROAD,SAN ANTONIO,TX,78217,2118,(210) 655-9999
325,227854,ST PHILIP'S COLLEGE,1801 MARTIN LUTHER KING DR,SAN ANTONIO,TX,78203,2098,(210) 486-2000
2118,228316,SOUTHWEST TEXAS JUNIOR COLLEGE,2401 GARNER FIELD RD,UVALDE,TX,78801,6297,(830) 278-4401
2262,381404,OGLE SCHOOL HAIR SKIN NAILS-DALLAS,"6333 EAST MOCKINGBIRD LANE, SUITE 201",DALLAS,TX,75214,2389,(214) 821-0819
3482,224253,DALLAS COUNTY COMMUNITY COLLEGE DISTRICT,1601 SOUTH LAMAR,DALLAS,TX,75215,NOT AVAILABLE,(214) 378-1824
3911,476726,RIO GRANDE VALLEY COLLEGE,5419 NORTH CAGE BOULEVARD,PHARR,TX,78577,2106,(956) 781-6800
4984,222938,THE ART INSTITUTE OF HOUSTON,4140 SOUTHWEST FREEWAY,HOUSTON,TX,77027,9625,(713) 623-2040
5858,430704,TEXAS HEALTH AND SCIENCE UNIVERSITY,4005 MENCHACA RD,AUSTIN,TX,78704,NOT AVAILABLE,(512) 444-8082
6525,494524,AVENUE FIVE INSTITUTE-SOUTH AUSTIN CAMPUS,500 E BEN WHITE BOULEVARD BLD E STE 100,AUSTIN,TX,78704,3259,(512) 968-2835
46,485810,K & G 5 STAR BARBER COLLEGE,409 CRIMSON COAST DR,LEAGUE CITY,TX,77573,NOT AVAILABLE,(409) 655-5718
233,224679,WESTERN TECHNICAL COLLEGE,9624 PLAZA CIRCLE,EL PASO,TX,79927,NOT AVAILABLE,(915) 532-3737
324,227881,SAM HOUSTON STATE UNIVERSITY,1806 AVE J,HUNTSVILLE,TX,77340,NOT AVAILABLE,(936) 294-1111
551,224147,TEXAS A & M UNIVERSITY-CORPUS CHRISTI,6300 OCEAN DR.,CORPUS CHRISTI,TX,78412,5503,(361) 825-5700
749,225399,HOUSTON BAPTIST UNIVERSITY,7502 FONDREN RD,HOUSTON,TX,77074,3298,(281) 649-3000
912,227146,NAVARRO COLLEGE,3200 W 7TH AVENUE,CORSICANA,TX,75110,NOT AVAILABLE,(903) 874-6501
1389,439507,QUEST COLLEGE,5430 FREDERICKSBURG RD STE 310,SAN ANTONIO,TX,78229,NOT AVAILABLE,(210) 366-2701
1989,480073,SOUTH UNIVERSITY-AUSTIN,1220 WEST LOUIS HENNA BOULEVARD,ROUND ROCK,TX,78681,2300,(877) 659-5706
2012,228769,THE UNIVERSITY OF TEXAS AT ARLINGTON,701 S. NEDDERMAN DR.,ARLINGTON,TX,76013,NOT AVAILABLE,(817) 272-2011
3368,487065,WADE GORDON HAIRDRESSING ACADEMY-LUBBOCK,7615 UNIVERSITY AVE #B,LUBBOCK,TX,79423,2125,(806) 731-4465
3940,226231,LETOURNEAU UNIVERSITY,2100 S MOBBERLY AVE,LONGVIEW,TX,75602,NOT AVAILABLE,(903) 233-3000
3944,228431,STEPHEN F AUSTIN STATE UNIVERSITY,"2008 ALUMNI DRIVE, RUSK 206",NACOGDOCHES,TX,75961,NOT AVAILABLE,(936) 468-2011
4112,365204,VISTA COLLEGE,6101 MONTANA AVE,EL PASO,TX,79925,2021,(915) 779-8031
4116,228529,TARLETON STATE UNIVERSITY,1333 W. WASHINGTON,STEPHENVILLE,TX,76401,0000,(254) 968-9000
5733,228501,SUL ROSS STATE UNIVERSITY,HWY 90 EAST,ALPINE,TX,79832,NOT AVAILABLE,(432) 837-8011
6300,491589,MYSTROS BARBER ACADEMY,1434 STE. B CYPRESS CREEK PARKWAY,HOUSTON,TX,77090,3300,(832) 286-4248
6368,494162,ARIZONA COLLEGE-DALLAS,8330 LBJ FREEWAY SUITE 100,DALLAS,TX,75243,1200,(855) 706-8382
6487,493992,SOUTHERN CAREERS INSTITUTE-WACO,3700 SOUTH IH-35 SUITE A,WACO,TX,76706,3756,(512) 387-7528
281,436775,TONI & GUY HAIRDRESSING ACADEMY-PLANO,1921 PRESTON ROAD #2022,PLANO,TX,75093,NOT AVAILABLE,(972) 416-8396
298,229416,UNIVERSAL TECHNICAL INSTITUTE OF TEXAS INC.,721 LOCK HAVEN DR.,HOUSTON,TX,77073,NOT AVAILABLE,(800) 510-5072
990,448196,TEXAS HEALTH SCHOOL,11511 KATY FWY STE 200,HOUSTON,TX,77079,NOT AVAILABLE,(713) 932-9333
1880,392257,THE COLLEGE OF HEALTH CARE PROFESSIONS-NORTHWEST,240 NORTHWEST MALL,HOUSTON,TX,77092,NOT AVAILABLE,(713) 425-3100
2039,440776,INTERACTIVE COLLEGE OF TECHNOLOGY,213 W SOUTHMORE ST SUITE 101,PASADENA,TX,77502,NOT AVAILABLE,(713) 920-1120
3473,224758,EXPOSITO SCHOOL OF HAIR DESIGN,3710 MOCKINGBIRD LN.,AMARILLO,TX,79109,3208,(806) 355-9111 EXT 2
4225,451547,MANUEL AND THERESA'S SCHOOL OF HAIR DESIGN-BRYAN,715 S TEXAS AVE,BRYAN,TX,77803,NOT AVAILABLE,(979) 821-2050
4344,229522,VICTORIA BEAUTY COLLEGE INC,1508 N LAURENT,VICTORIA,TX,77901,6233,(361) 575-4526
5349,222822,ANGELINA COLLEGE,3500 SOUTH FIRST,LUFKIN,TX,75902,1768,(936) 639-1301
5816,227313,OGLE SCHOOL HAIR SKIN NAILS-ARLINGTON,2200 PARK ROW,ARLINGTON,TX,76013,NOT AVAILABLE,(817) 460-8181
5832,383464,CENTRAL TEXAS BEAUTY COLLEGE-TEMPLE,2010 SOUTH 57TH STREET,TEMPLE,TX,76504,6948,(254) 773-9911
255,229090,THE UNIVERSITY OF TEXAS SYSTEM OFFICE,210 W. 7TH ST,AUSTIN,TX,78701,2982,(512) 499-4200
894,224323,UNIVERSITY OF DALLAS,1845 E NORTHGATE DRIVE,IRVING,TX,75062,4736,(972) 721-5000
2004,461795,NORTH AMERICAN UNIVERSITY,11929 WEST AIRPORT BLVD.,STAFFORD,TX,77477,0000,(832) 230-5555
2166,246354,PALO ALTO COLLEGE,1400 W VILLARET BLVD,SAN ANTONIO,TX,78224,2499,(210) 486-3000
2555,224305,DALLAS THEOLOGICAL SEMINARY,3909 SWISS AVE,DALLAS,TX,75204,NOT AVAILABLE,(214) 887-5000
3300,485874,SALON BOUTIQUE ACADEMY,4135 BELT LINE ROAD SUITE 102,ADDISON,TX,75001,4399,(214) 263-3276
4921,229425,UCAS UNIVERSITY OF COSMETOLOGY ARTS & SCIENCES-MCALLEN,8401 N 10TH ST,MCALLEN,TX,78504,NOT AVAILABLE,(956) 687-9444
5288,440855,MILAN INSTITUTE-AMARILLO,7001 I-40 WEST,AMARILLO,TX,79106,NOT AVAILABLE,(806) 353-3500
5493,369783,PCI HEALTH TRAINING CENTER,8101 JOHN CARPENTER FWY,DALLAS,TX,75247,4720,(214) 630-0568 EXT 207
697,224554,TEXAS A & M UNIVERSITY-COMMERCE,2600 SOUTH NEAL STREET,COMMERCE,TX,75428,3011,(888) 868-2682
1731,223223,BAYLOR COLLEGE OF MEDICINE,ONE BAYLOR PLAZA,HOUSTON,TX,77030,3498,(713) 798-4951
2117,227863,UNIVERSITY OF ST THOMAS,3800 MONTROSE BLVD,HOUSTON,TX,77006,4696,(713) 522-7911
2616,419633,TEXAS COLLEGE OF COSMETOLOGY-SAN ANGELO,3504 KNICKERBOCKER ROAD,SAN ANGELO,TX,76904,NOT AVAILABLE,(325) 659-2622
2967,379746,COLLEGE OF HEALTH CARE PROFESSIONS (THE),2656 SOUTH LOOP WEST SUITE 380,HOUSTON,TX,77054,NOT AVAILABLE,(713) 664-5300
3374,486770,CORTIVA INSTITUTE-ARLINGTON,"808 WEST I-20, STE. 100",ARLINGTON,TX,76017,5818,(954) 962-2624
3726,460136,PIMA MEDICAL INSTITUTE-HOUSTON,"11125 EQUITY DRIVE, SUITE 100",HOUSTON,TX,77041,NOT AVAILABLE,(713) 778-0778
3779,223922,CLARENDON COLLEGE,1122 COLLEGE DRIVE,CLARENDON,TX,79226,NOT AVAILABLE,(806) 874-3571 EXT 107
3783,227979,SAN JACINTO COMMUNITY COLLEGE,8060 SPENCER HWY,PASADENA,TX,77505,NOT AVAILABLE,(281) 998-6150
4986,228042,SCHREINER UNIVERSITY,2100 MEMORIAL BLVD,KERRVILLE,TX,78028,5697,(800) 343-4919
5198,458043,DUVALL'S SCHOOL OF COSMETOLOGY,201 HARWOOD RD STE 218,BEDFORD,TX,76021,NOT AVAILABLE,(817) 281-8819
5222,460978,OGLE SCHOOL HAIR SKIN NAILS-NORTH DALLAS,17174 PRESTON ROAD,DALLAS,TX,75248,1216,(214) 743-7700
5407,229160,TEXAS WESLEYAN UNIVERSITY,1201 WESLEYAN ST,FORT WORTH,TX,76105,1536,(817) 531-4444
5454,227924,SAN ANTONIO COLLEGE,"1819 N. MAIN AVE.,",SAN ANTONIO,TX,78212,3941,(210) 486-0000
5510,405076,SOUTHERN CAREERS INSTITUTE-CORPUS CHRISTI,2422 AIRLINE ROAD,CORPUS CHRISTI,TX,78414,NOT AVAILABLE,(512) 437-7500
6246,470296,MANUEL AND THERESA'S SCHOOL OF HAIR DESIGN-VICTORIA,1405 EAST NORTH,VICTORIA,TX,77902,7076,(979) 821-2050
6314,491871,VOGUE INTERNATIONAL ACADEMY,14099 WESTHEIMER RD.,HOUSTON,TX,77077,5423,(713) 384-5855
6533,494630,CHRIST MISSION COLLEGE,10822 FM 1560 NORTH,SAN ANTONIO,TX,78254,1000,(210) 688-3101
68,460543,UNIVERSAL TECHNICAL INSTITUTE-DALLAS FORT WORTH,5151 REGENT BLVD.,IRVING,TX,75063,NOT AVAILABLE,(800) 504-8786
70,476540,VOGUE COLLEGE OF COSMETOLOGY-SAN ANTONIO FREDERICKSBURG,1836 FREDERICKSBURG ROAD,SAN ANTONIO,TX,78201,5035,(512) 916-0077
295,227377,TEXAS SOUTHMOST COLLEGE,80 FORT BROWN,BROWNSVILLE,TX,78520,NOT AVAILABLE,(956) 295-3600
892,224545,TEXAS A&M UNIVERSITY-TEXARKANA,7101 UNIVERSITY AVENUE,TEXARKANA,TX,75503,NOT AVAILABLE,(903) 223-3000
1745,228981,TEXAS LUTHERAN UNIVERSITY,1000 W. COURT ST,SEGUIN,TX,78155,5999,(830) 372-8000
3505,229063,TEXAS SOUTHERN UNIVERSITY,3100 CLEBURNE ST,HOUSTON,TX,77004,NOT AVAILABLE,(713) 313-7011
3942,227401,PARIS JUNIOR COLLEGE,2400 CLARKSVILLE ST,PARIS,TX,75460,NOT AVAILABLE,(903) 785-7661
4990,246406,SEBRING CAREER SCHOOLS-HUNTSVILLE,"2505 LAKE ROAD , SUITE 1",HUNTSVILLE,TX,77340,NOT AVAILABLE,(936) 291-6299
5216,476896,WADE GORDON HAIRDRESSING ACADEMY,2520 PARAMOUNT BLVD,AMARILLO,TX,79109,NOT AVAILABLE,(806) 331-9233
5316,445133,AMERICAN INTERCONTINENTAL UNIVERSITY-HOUSTON,9999 RICHMOND AVENUE,HOUSTON,TX,77042,NOT AVAILABLE,(832) 201-3600
5738,228635,UNIVERSITY OF TEXAS SOUTHWESTERN MEDICAL CENTER,5323 HARRY HINES BLVD,DALLAS,TX,75390,9096,(214) 648-3606
5786,228325,SOUTHWESTERN ASSEMBLIES OF GOD UNIVERSITY,1200 SYCAMORE,WAXAHACHIE,TX,75165,NOT AVAILABLE,(888) 937-7248
5787,228796,THE UNIVERSITY OF TEXAS AT EL PASO,500 W. UNIVERSITY AVE,EL PASO,TX,79968,0691,(915) 747-5000
6537,494694,TEXAS HEALTHTECH INSTITUTE,9615 COLLEGE STREET,BEAUMONT,TX,77707,2604,(409) 866-0555
121,486798,TULSA WELDING SCHOOL-HOUSTON,243A GREENS ROAD,HOUSTON,TX,77060,2100,(844) 242-1213
502,460181,CONCORDE CAREER COLLEGE-DALLAS,12606 GREENVILLE AVE STE 130,DALLAS,TX,75243,NOT AVAILABLE,(469) 221-3400
910,416801,THE UNIVERSITY OF TEXAS MD ANDERSON CANCER CENTER,1515 HOLCOMBE BLVD.,HOUSTON,TX,77030,4009,(800) 392-1611
2171,226806,MIDLAND COLLEGE,3600 N GARFIELD,MIDLAND,TX,79705,NOT AVAILABLE,(432) 685-4500
2266,392415,FORTIS COLLEGE,1201 WEST OAKS MALL,HOUSTON,TX,77082,NOT AVAILABLE,(713) 266-6594 EXT 6854
3121,492591,WADE GORDON HAIRDRESSING ACADEMY,2520 PARAMOUNT BLVD,AMARILLO,TX,79109,NOT AVAILABLE,(806) 331-9233
3392,458098,THE SALON PROFESSIONAL ACADEMY-LEWISVILLE,2440 B S STEMMONS FWY,LEWISVILLE,TX,75067,NOT AVAILABLE,(972) 420-7036
3474,224828,FORT WORTH BEAUTY SCHOOL,4760 HWY 377 SOUTH,BENBROOK,TX,76116,NOT AVAILABLE,(817) 244-5444
3503,228875,TEXAS CHRISTIAN UNIVERSITY,2800 S UNIVERSITY DR,FORT WORTH,TX,76129,NOT AVAILABLE,(817) 257-7000
3567,451565,PAUL MITCHELL THE SCHOOL-AUSTIN,9503 RESEARCH BLVD BUILDING 3 SUITE 310,AUSTIN,TX,78759,NOT AVAILABLE,(512) 251-1644
4113,402800,TRI-STATE COSMETOLOGY INSTITUTE,1120 VISTA DE ORO DR,EL PASO,TX,79935,NOT AVAILABLE,(915) 533-8274
4145,484756,UNIVERSITY OF PHOENIX-TEXAS,11451 KATY FREEWAY,HOUSTON,TX,77079,NOT AVAILABLE,(866) 766-0766
5300,443146,JAY'S TECHNICAL INSTITUTE,11910 FONDREN MEADOW,HOUSTON,TX,77071,NOT AVAILABLE,(713) 772-2410
5408,225575,HUSTON-TILLOTSON UNIVERSITY,900 CHICON ST,AUSTIN,TX,78702,2795,(512) 505-3000
5458,229300,THE UNIVERSITY OF TEXAS HEALTH SCIENCE CENTER AT HOUSTON,7000 FANNIN,HOUSTON,TX,77030,NOT AVAILABLE,(713) 500-4472
5735,423412,MID CITIES BARBER COLLEGE,"2345 SOUTHWEST 3RD STREET, SUITE101",GRAND PRAIRIE,TX,75051,4892,(972) 642-1892
245,226107,LAMAR STATE COLLEGE-ORANGE,410 FRONT ST,ORANGE,TX,77630,NOT AVAILABLE,(409) 883-7750
323,225502,UNIVERSITY OF HOUSTON-VICTORIA,3007 N. BEN WILSON,VICTORIA,TX,77901,NOT AVAILABLE,(361) 570-4848
699,226578,MCLENNAN COMMUNITY COLLEGE,1400 COLLEGE DR,WACO,TX,76708,NOT AVAILABLE,(254) 299-8622
824,482334,NATIONAL AMERICAN UNIVERSITY-RICHARDSON,"300 NORTH COIT ROAD, SUITE 225",RICHARDSON,TX,75080,5400,(972) 773-8650
928,484604,OGLE SCHOOL HAIR SKIN NAILS-STAFFORD,12788 FOUNTAIN LAKE CIRCLE,STAFFORD,TX,77477,NOT AVAILABLE,(281) 494-0106
1369,429094,AOMA GRADUATE SCHOOL OF INTEGRATIVE MEDICINE,4701 WESTGATE BLVD,AUSTIN,TX,78745,NOT AVAILABLE,(512) 454-1188
1421,481322,SOUTHERN TEXAS CAREERS ACADEMY,601 EAST NOLANA SUITE C,MCALLEN,TX,78504,2569,(956) 687-7772
1729,228194,SOUTH TEXAS COLLEGE OF LAW HOUSTON,1303 SAN JACINTO STREET,HOUSTON,TX,77002,NOT AVAILABLE,(713) 659-8040
1972,460534,MILAN INSTITUTE OF COSMETOLOGY-EL PASO,"1580 GEORGE DIETER DR., STE 207",EL PASO,TX,79936,NOT AVAILABLE,(915) 857-4444
2282,449904,MILAN INSTITUTE OF COSMETOLOGY-SAN ANTONIO MILITARY,605 SW MILITARY DRIVE,SAN ANTONIO,TX,78221,NOT AVAILABLE,(210) 922-5900
3039,476559,VOGUE COLLEGE OF COSMETOLOGY,6012 INGRAM ROAD,SAN ANTONIO,TX,78238,4402,(512) 916-0077 EXT 101
3472,224712,EPISCOPAL THEOLOGICAL SEMINARY OF THE SOUTHWEST,501 E. 32ND ST.,AUSTIN,TX,78705,NOT AVAILABLE,(512) 472-4133
3566,223001,AUSTIN PRESBYTERIAN THEOLOGICAL SEMINARY,100 E 27TH ST,AUSTIN,TX,78705,5711,(512) 404-4800
3948,227386,PANOLA COLLEGE,1109 W PANOLA STREET,CARTHAGE,TX,75633,2397,(903) 693-2000
4078,368540,SEGUIN BEAUTY SCHOOL-NEW BRAUNFELS,214 W SAN ANTONIO STREET,NEW BRAUNFELS,TX,78130,NOT AVAILABLE,(830) 372-0935
4090,382911,SOUTHWEST COLLEGIATE INSTITUTE FOR THE DEAF,3200 AVE C,BIG SPRING,TX,79720,7298,(432) 264-3700
5788,228653,THE UNIVERSITY OF TEXAS MEDICAL BRANCH AT GALVESTON,301 UNIVERSITY BLVD,GALVESTON,TX,77555,0129,(409) 772-1011
6425,495776,ELITE WELDING ACADEMY,7119 VILLAGE WAY,HOUSTON,TX,77087,2904,(713) 640-9074
296,243823,PARKER UNIVERSITY,2540 WALNUT HILL LANE,DALLAS,TX,75229,5668,(972) 438-6932
373,223427,BLINN COLLEGE,902 COLLEGE AVE,BRENHAM,TX,77833,4098,(979) 830-4000
1021,451556,SOUTHWEST UNIVERSITY AT EL PASO,1414 GERONIMO,EL PASO,TX,79925,NOT AVAILABLE,(915) 778-4001
1750,246460,CENTRAL TEXAS BEAUTY COLLEGE-ROUND ROCK,1400 N. MAYS,ROUND ROCK,TX,78664,4604,(512) 244-2235
2073,444398,BAPTIST UNIVERSITY OF THE AMERICAS,7838 BARLITE BLVD.,SAN ANTONIO,TX,78224,1364,(210) 924-4338 EXT 200
2583,228282,SOUTHWEST SCHOOL OF BUSINESS AND TECHNICAL CAREERS-SAN ANTONIO,229 SW MILITARY DRIVE,SAN ANTONIO,TX,78221,0138,(830) 626-7007
2637,437608,ADVANCED BARBER COLLEGE AND HAIR DESIGN,2818 S INTERNATIONAL,WESLACO,TX,78596,NOT AVAILABLE,(956) 969-0341
3087,491066,STRAND INSTITUTE OF BEAUTY & ESTHETICS,1018 US HWY 181,PORTLAND,TX,78374,NOT AVAILABLE,(361) 643-2373
3124,492689,TEXAS TECH UNIVERSITY HEALTH SCIENCES CENTER-EL PASO,5001 EL PASO DRIVE,EL PASO,TX,79905,2827,(915) 215-8000
3765,450304,BRITE DIVINITY SCHOOL,2800 S. UNIVERSITY DR.,FORT WORTH,TX,76129,NOT AVAILABLE,(817) 257-7575
3777,451820,THE ART INSTITUTE OF AUSTIN,1204 CHESTNUT ST.,BASTROP,TX,78602,NOT AVAILABLE,(512) 691-1707
4084,377272,NUVANI INSTITUTE,2402 SAN PEDRO AVE.,SAN ANTONIO,TX,78212,1901,(830) 626-7007
5486,249238,PAUL MITCHELL THE SCHOOL-HOUSTON,"10516 KATY FWY, SUITE A",HOUSTON,TX,77043,NOT AVAILABLE,(713) 465-6300
