OBJECTID,IPEDSID,NAME,ADDRESS,CITY,STATE,ZIP,ZIP4,TELEPHONE
251,489247,AMERICAN BEAUTY ACADEMY-WEST VALLEY CAMPUS,3695 S REDWOOD RD,WEST VALLEY CITY,UT,84119,NOT AVAILABLE,(801) 281-6708
1994,461494,TAYLOR ANDREWS ACADEMY OF HAIR DESIGN-WEST JORDAN,9052 SOUTH 1510 WEST,WEST JORDAN,UT,84088,6577,(801) 748-2288
2513,230144,COLLECTIV ACADEMY,10301 S. 1300 E.,SANDY,UT,84094,NOT AVAILABLE,(801) 561-5610
3411,230621,STEVENS-HENAGER COLLEGE,1350 W. 1890 S.,WEST HAVEN,UT,84401,NOT AVAILABLE,(801) 622-1567 EXT 1000
4686,475723,TOOELE TECHNICAL COLLEGE,88 SOUTH TOOELE BLVD.,TOOELE,UT,84074,2093,(435) 248-1800
5741,230597,SNOW COLLEGE,150 E COLLEGE AVE,EPHRAIM,UT,84627,NOT AVAILABLE,(435) 283-7000
620,474924,AVALON SCHOOL OF COSMETOLOGY-LAYTON,1992 W ANTELOPE DRIVE,LAYTON,UT,84041,NOT AVAILABLE,(801) 614-5040
2095,447263,AMERITECH COLLEGE-DRAPER,12257 SOUTH BUSINESS PARK DRIVE-STE 100,DRAPER,UT,84020,6545,(801) 816-1444
2261,380465,UNIVERSITY OF PHOENIX-UTAH,5373 S. GREEN STREET,SALT LAKE CITY,UT,84123,4642,(866) 766-0766
1413,475495,ROCKY MOUNTAIN UNIVERSITY OF HEALTH PROFESSIONS,122 EAST 1700 SOUTH,PROVO,UT,84606,NOT AVAILABLE,(801) 375-5125
5105,230366,EAGLE GATE COLLEGE-MURRAY,5588 SOUTH GREEN STREET,MURRAY,UT,84123,6965,(801) 333-8100
763,481456,BONNIE JOSEPH ACADEMY OF COSMETOLOGY & BARBERING,164 SOUTH MAIN STREET,HEBER CITY,UT,84032,2044,(435) 654-9800
2182,455381,SKIN SCIENCE INSTITUTE,10299 S. 1300 E.,SANDY,UT,84094,NOT AVAILABLE,(801) 983-0619
3798,230746,SALT LAKE COMMUNITY COLLEGE,4600 S REDWOOD RD,SALT LAKE CITY,UT,84123,NOT AVAILABLE,(801) 957-4111
5318,445692,NEUMONT COLLEGE OF COMPUTER SCIENCE,143 SOUTH MAIN STREET,SALT LAKE CITY,UT,84111,1917,(801) 302-2800
2512,230764,UNIVERSITY OF UTAH,"201 PRESIDENTS CIRCLE, ROOM 201",SALT LAKE CITY,UT,84112,9008,(801) 581-7200
3207,495411,PAUL MITCHELL THE SCHOOL-RICHLAND-PROVO,480 NORTH 900 EAST,PROVO,UT,84606,3424,(801) 494-0214
4742,465812,INDEPENDENCE UNIVERSITY,4021 S 700 E STE 400,SALT LAKE CITY,UT,84107,NOT AVAILABLE,(800) 972-5149
774,456454,FORTIS COLLEGE-SALT LAKE CITY,3949 S 700 E STE 150,SALT LAKE CITY,UT,84107,NOT AVAILABLE,(801) 713-0915
3892,476294,PAUL MITCHELL THE SCHOOL-OGDEN,2285 GRANT AVENUE,OGDEN,UT,84401,NOT AVAILABLE,(801) 392-2104
4957,459541,AMERICAN BEAUTY ACADEMY,87 W 600 S,PAYSON,UT,84651,NOT AVAILABLE,(801) 465-1650
5461,230728,UTAH STATE UNIVERSITY,OLD MAIN HILL,LOGAN,UT,84322,1400,(435) 797-1000
2260,380456,PAUL MITCHELL THE SCHOOL-PROVO,480 N 900 E,PROVO,UT,84606,NOT AVAILABLE,(801) 374-5111
4508,461926,TAYLOR ANDREWS ACADEMY-ST GEORGE,2214 E RIVERSIDE DRIVE,ST. GEORGE,UT,84790,NOT AVAILABLE,(435) 673-8150
570,230782,WEBER STATE UNIVERSITY,3850 DIXON PARKWAY DR. DEPT. 1031,OGDEN,UT,84408,1031,(801) 626-6000
2511,230676,UINTAH BASIN TECHNICAL COLLEGE,1100 E LAGOON ST 124-5,ROOSEVELT,UT,84066,NOT AVAILABLE,(435) 722-6900
3170,494649,ESTEEM ACADEMY OF BEAUTY,1682 EAST 5600 SOUTH,SOUTH OGDEN,UT,84403,4374,(801) 689-3031
6402,495101,ZION MASSAGE COLLEGE,567 S. VALLEY VIEW DR. SUITE 4,ST. GEORGE,UT,84770,8819,(435) 261-4203
4372,230162,DAVIS TECHNICAL COLLEGE,550 E 300 S,KAYSVILLE,UT,84037,2699,(801) 593-2500
5201,458104,RENAISSANCE ACADEMIE,1460 N. MOONRIVER DRIVE,PROVO,UT,84604,NOT AVAILABLE,(801) 373-2887 EXT 2
1751,230056,BROADVIEW UNIVERSITY-WEST JORDAN,1902 W 7800 S,WEST JORDAN,UT,84088,NOT AVAILABLE,(385) 501-4803
2076,444857,SKINWORKS SCHOOL OF ADVANCED SKINCARE,2121 SOUTH 230 EAST,SALT LAKE CITY,UT,84115,NOT AVAILABLE,(801) 530-0001
2174,230807,WESTMINSTER COLLEGE,1840 SOUTH 1300 EAST,SALT LAKE CITY,UT,84105,NOT AVAILABLE,(801) 484-7651
1857,230171,DIXIE STATE UNIVERSITY,225 S UNIVERSITY AVENUE,SAINT GEORGE,UT,84770,3876,(435) 652-7500
4194,447421,EAGLE GATE COLLEGE-LAYTON,915 N 400 W,LAYTON,UT,84041,NOT AVAILABLE,(801) 546-7500
3791,448248,MOUNTAINLAND TECHNICAL COLLEGE,2301 WEST ASHTON BLVD.,LEHI,UT,84043,NOT AVAILABLE,(801) 753-4100
1382,438151,STEVENS-HENAGER COLLEGE,383 W VINE ST,MURRAY,UT,84123,5671,(801) 281-7620
1858,230214,PAUL MITCHELL THE SCHOOL-SALT LAKE CITY,1969 EAST MURRAY HOLLADAY ROAD,HOLLADAY,UT,84117,NOT AVAILABLE,(801) 266-4693
5460,229957,AMERITECH COLLEGE-PROVO,,PROVO,UT,84604,NOT AVAILABLE,(801) 377-2900
4669,481100,TOP NAILS & HAIR BEAUTY SCHOOL,1735 WEST 5400 SOUTH,TAYLORSVILLE,UT,84118,0000,(801) 964-5400
4992,230418,ENSIGN COLLEGE,95 NORTH 300 WEST,SALT LAKE CITY,UT,84101,3500,(801) 524-8100
5315,444787,NIGHTINGALE COLLEGE,175 S MAIN ST SUITE 400,SALT LAKE CITY,UT,84111,NOT AVAILABLE,(801) 689-2160
992,448239,CAREERS UNLIMITED,1176 SOUTH 1480 WEST,OREM,UT,84058,NOT AVAILABLE,(801) 426-8234
1752,406486,MYOTHERAPY COLLEGE OF UTAH,"3950 SOUTH 700 EAST, SUITE 100",MILLCREEK CITY,UT,84107,NOT AVAILABLE,(801) 484-7624
5103,230065,CAMEO COLLEGE OF ESSENTIAL BEAUTY,124 EAST 5770 SOUTH,MURRAY,UT,84107,NOT AVAILABLE,(801) 747-5700
5104,230205,EVANS HAIRSTYLING COLLEGE-ST GEORGE,1028 E TABERNACLE,SAINT GEORGE,UT,84770,NOT AVAILABLE,(435) 673-6128
5462,230737,UTAH VALLEY UNIVERSITY,800 W UNIVERSITY PARKWAY,OREM,UT,84058,5999,(801) 863-8000
134,230199,EVANS HAIRSTYLING COLLEGE-CEDAR CITY,169 N 100 W,CEDAR CITY,UT,84720,NOT AVAILABLE,(435) 590-3375
4139,484394,TAYLOR ANDREWS ACADEMY OF HAIR DESIGN-PROVO,2035 N 550 W,PROVO,UT,84604,NOT AVAILABLE,(801) 655-0797
1022,451574,AVEDA INSTITUTE-PROVO,210 N. UNIVERSITY AVENUE,PROVO,UT,84601,NOT AVAILABLE,(801) 375-1501 EXT 2023
3412,230630,STEVENS-HENAGER COLLEGE,1476 SANDHILL ROAD,OREM,UT,84058,NOT AVAILABLE,(801) 418-1450 EXT 2001
4598,380438,PROVO COLLEGE,1450 W 820 N,PROVO,UT,84601,NOT AVAILABLE,(801) 818-8901
5293,441830,HEALING MOUNTAIN MASSAGE SCHOOL,"363 SOUTH 500 EAST, SUITE 210",SALT LAKE CITY,UT,84102,4002,(801) 355-6300
991,448220,PAUL MITCHELL THE SCHOOL-LOGAN,"1300 N MAIN STREET, SUITE 1136",LOGAN,UT,84341,NOT AVAILABLE,(435) 752-3599
1984,477950,STEVENS-HENAGER COLLEGE,720 SOUTH RIVER ROAD,ST. GEORGE,UT,84790,2111,(435) 628-9902 EXT 2125
3410,230603,SOUTHERN UTAH UNIVERSITY,351 WEST UNIVERSITY BLVD,CEDAR CITY,UT,84720,NOT AVAILABLE,(435) 586-7700
3909,476708,THE BARBER SCHOOL,16 WEST 7200 SOUTH,MIDVALE,UT,84047,3723,(801) 304-7000 EXT 106
4604,433387,WESTERN GOVERNORS UNIVERSITY,4001 SOUTH 700 EAST SUITE 700,SALT LAKE CITY,UT,84107,NOT AVAILABLE,(801) 274-3280
2090,446677,STEVENS-HENAGER COLLEGE,755 S MAIN ST,LOGAN,UT,84321,NOT AVAILABLE,(435) 792-6970 EXT 5001
3395,461342,ACAYDIA SCHOOL OF AESTHETICS,"86 NORTH UNIVERSITY AVENUE, SUITE 130",PROVO,UT,84601,0000,(801) 377-0025 EXT 3
4228,451583,DIXIE TECHNICAL COLLEGE,610 S. TECH RIDGE DRIVE,SAINT GEORGE,UT,84770,NOT AVAILABLE,(435) 674-8400
3605,230490,OGDEN-WEBER TECHNICAL COLLEGE,200 N WASHINGTON BLVD,OGDEN,UT,84404,4089,(801) 627-8300
6247,476993,MEDSPA ACADEMIES,10714 SOUTH RIVER FRONT PARKWAY,SOUTH JORDAN,UT,84095,3519,(801) 302-1650
1987,461272,MANDALYN ACADEMY,"648 EAST STATE ROAD, UNIT B",AMERICAN FORK,UT,84003,2161,(801) 772-3131
2215,230038,BRIGHAM YOUNG UNIVERSITY,MAIN CAMPUS,PROVO,UT,84602,NOT AVAILABLE,(801) 422-4636
3604,230010,BRIDGERLAND TECHNICAL COLLEGE,1301 NORTH 600 WEST,LOGAN,UT,84321,NOT AVAILABLE,(435) 753-6780
4211,449816,SOUTHWEST TECHNICAL COLLEGE,757 WEST 800 SOUTH,CEDAR CITY,UT,84720,NOT AVAILABLE,(435) 586-2899
4584,421610,PAUL MITCHELL THE SCHOOL-ST. GEORGE,1487 S SILICON WAY STE #A3,SAINT GEORGE,UT,84770,0000,(435) 673-5233
4668,480985,MIDWIVES COLLEGE OF UTAH,"1174 EAST GRAYSTONE WAY, SUITE #2",SALT LAKE CITY,UT,84106,NOT AVAILABLE,(801) 649-5230
6534,494649,ESTEEM ACADEMY OF BEAUTY,1682 EAST 5600 SOUTH,SOUTH OGDEN,UT,84403,4374,(801) 689-3031
