OBJECTID,NCESID,NAME,ADDRESS,CITY,STATE,ZIP,ZIP4,TELEPHONE
10083,200813001966,SOUTH BARBER 7-12,1220 N. 8TH STREET,KIOWA,KS,67070,NOT AVAILABLE,(833) 722-7237
14326,200573001333,EL DORADO HIGH,401 MCCOLLUM ROAD,EL DORADO,KS,67042,NOT AVAILABLE,(316) 322-4810
19295,201200001400,SUNSET RIDGE ELEMENTARY,14901 ENGLAND ST.,OVERLAND PARK,KS,66221,2273,(913) 239-7400
5705,200479000582,CHEYLIN ELEMENTARY,121 E.SIXTH,BIRD CITY,KS,67731,0028,(785) 734-2351
8901,200654002052,EISENHOWER HIGH SCHOOL,1230 S 167TH ST. W.,GODDARD,KS,67052,NOT AVAILABLE,(316) 794-4190
9187,200001400454,CENTRAL HEIGHTS ELEM,3521 ELLIS ROAD,RICHMOND,KS,66080,NOT AVAILABLE,(785) 869-3355
40349,200780000107,HODGEMAN COUNTY ELEMENTARY,401 DOUGLAS,JETMORE,KS,67854,0398,(620) 357-8396
40489,201278001381,VALLEY HEIGHTS ELEM,508 CHESTNUT,BLUE RAPIDS,KS,66411,NOT AVAILABLE,(785) 363-7693
42243,201110000820,RILEY COUNTY HIGH SCHOOL,12451 FAIRVIEW CHURCH ROAD,RILEY,KS,66531,NOT AVAILABLE,(785) 485-4020
45336,201161000169,WALLACE COUNTY HIGH,521 N. MAIN,SHARON SPRINGS,KS,67758,NOT AVAILABLE,(785) 852-4240
45868,200951000669,JEFFERSON WEST MIDDLE,210 N MILLER,MERIDEN,KS,66512,NOT AVAILABLE,(785) 484-2900
48962,200789001266,JUNCTION CITY MIDDLE SCHOOL,700 WILDCAT LANE,JUNCTION CITY,KS,66441,NOT AVAILABLE,(785) 717-4400
60732,200807001985,NORWICH ELEMENTARY SCHOOL,209 PARKWAY,NORWICH,KS,67118,NOT AVAILABLE,(620) 478-2235
62061,200834001920,LANSING ELEMENTARY SCHOOL,450 W MARY ST.,LANSING,KS,66043,NOT AVAILABLE,(913) 727-1128
62178,200795001416,WEST MIDDLE,2600 N 44TH STREET,KANSAS CITY,KS,66104,NOT AVAILABLE,(913) 627-6000
64296,200813001933,SOUTH BARBER PRE-K-6,913 MAIN,KIOWA,KS,67070,NOT AVAILABLE,(833) 722-7237
64315,200843002036,DAVID BREWER ELEMENTARY,401 N 17TH ST,LEAVENWORTH,KS,66048,NOT AVAILABLE,(913) 684-1490
65207,201176000883,SOLOMON ELEM,411 NORTH PINE,SOLOMON,KS,67480,0247,(785) 655-2521
66177,200336001183,MEADOWLARK ELEMENTARY,1122 N. 159TH ST. EAST,WICHITA,KS,67230,NOT AVAILABLE,(316) 218-4630
66696,200580000527,ELL-SALINE MIDDLE/HIGH SCHOOL,414 E ANDERSON,BROOKVILLE,KS,67425,0097,(785) 225-6633
67589,200672001009,KIOWA COUNTY ELEM/JR. HIGH,730 S. MAIN,GREENSBURG,KS,67054,1940,(620) 723-2332
67789,200459000973,CHANUTE HIGH,1501 WEST 36TH STREET,CHANUTE,KS,66720,NOT AVAILABLE,(620) 432-2510
68489,201014001670,HERITAGE ELEMENTARY,1700 E PAWNEE DR,OLATHE,KS,66062,3200,(913) 780-7490
100631,201050000776,PAOLA MIDDLE,405 HOSPITAL DRIVE,PAOLA,KS,66071,NOT AVAILABLE,(913) 294-8030
105000,200002402104,LAWRENCE GARDNER HIGH SCHOOL,1430 NW 25TH ST,TOPEKA,KS,66618,NOT AVAILABLE,(785) 746-7266
20691,201200000112,BLUE VALLEY HIGH,6001 W. 159TH ST.,STILWELL,KS,66085,8808,(913) 239-4800
20839,200708001225,HEALY ELEM,5006 NORTH DODGE RD,HEALY,KS,67850,NOT AVAILABLE,(620) 398-2248
22356,200546001599,TANGLEWOOD ELEM,830 RIDGECREST RD,DERBY,KS,67037,3599,(316) 788-8565
22786,200993000499,NESS CITY ELEM,500 E CHESTNUT,NESS CITY,KS,67560,1709,(785) 798-2222
25989,200477001907,ST. PAUL MIDDLE SCHOOL,118 FIRST STREET,ST. PAUL,KS,66771,NOT AVAILABLE,(620) 449-2245
26749,200696001679,HAVEN MIDDLE SCHOOL,320 NORTH EMPORIA,HAVEN,KS,67543,NOT AVAILABLE,(620) 465-2587
83948,200402000923,OTIS-BISON JUNIOR/SENIOR HIGH SCHOOL,301 EAGLE ST.,OTIS,KS,67565,NOT AVAILABLE,(785) 387-2337
84428,200819001298,KISMET ELEM,505 KANSAS AVENUE,KISMET,KS,67859,NOT AVAILABLE,(620) 563-7248
87115,200327000061,ALMENA ELEM,512 W BRYANT,ALMENA,KS,67622,NOT AVAILABLE,(785) 664-2446
30259,200318001062,ABILENE MIDDLE SCHOOL,500 NORTHWEST 14TH,ABILENE,KS,67410,NOT AVAILABLE,(785) 263-1471
31469,200426001161,BURLINGAME JUNIOR/SENIOR HIGH,417 NORTH DACOTAH,BURLINGAME,KS,66413,NOT AVAILABLE,(785) 654-3315
31655,201125000886,ROSE HILL HIGH,710 S ROSE HILL ROAD,ROSE HILL,KS,67133,9785,(316) 776-3360
32009,200654001856,EXPLORER ELEMENTARY SCHOOL,16746 W EXPLORER,GODDARD,KS,67052,NOT AVAILABLE,(316) 794-4181
33667,200735000798,HOLCOMB MIDDLE,500 N HENDERSON,HOLCOMB,KS,67851,NOT AVAILABLE,(620) 277-2699
34880,200345001237,ROOSEVELT ELEM,300 NORTH B,ARKANSAS CITY,KS,67005,2297,(620) 441-2070
38039,201164001555,RUSHTON ELEM,6001 W 52ND ST,SHAWNEE MISSION,KS,66202,1699,(913) 993-4900
39287,200549000127,DE SOTO HIGH SCHOOL,35000 W 91ST STREET,DE SOTO,KS,66018,8419,(913) 667-6250
39766,201092000557,PRETTY PRAIRIE MIDDLE,101 N MAPLE,PRETTY PRAIRIE,KS,67570,0307,(620) 459-6911
92533,200914000384,MAIZE SOUTH MIDDLE SCHOOL,3403 N TYLER RD,WICHITA,KS,67205,NOT AVAILABLE,(316) 722-0421
92767,200768001272,INGALLS ELEM,100 BULLDOG DRIVE,INGALLS,KS,67853,NOT AVAILABLE,(620) 335-5134
92802,201299000258,CALDWELL ELEM,1441 S EDGEMOOR,WICHITA,KS,67218,3308,(316) 973-0800
93113,201137000513,OAKDALE ELEM,811 E IRON,SALINA,KS,67401,NOT AVAILABLE,(785) 309-4310
94457,200795001392,CHELSEA ELEM,2500 WOOD,KANSAS CITY,KS,66104,5346,(913) 627-5000
96810,200345001241,ARKANSAS CITY HIGH,1200 W RADIO LANE,ARKANSAS CITY,KS,67005,4099,(620) 441-2010
50903,200639002067,GARDEN CITY ALTERNATE EDUCATION CENTER,1312 N. 7TH STREET,GARDEN CITY,KS,67846,NOT AVAILABLE,(620) 805-8600
52325,201014001541,SUNNYSIDE ELEMENTARY SCHOOL,16025 S. LINDENWOOD DR,OLATHE,KS,66062,NOT AVAILABLE,(913) 780-7680
52345,200525002014,CHASE COUNTY ELEMENTARY SCHOOL,410 PALMER,STRONG CITY,KS,66869,NOT AVAILABLE,(620) 273-6676
52997,201299001086,KELLY LIBERAL ARTS ACADEMY,3143 S MILLWOOD,WICHITA,KS,67217,2569,(316) 973-4150
58426,201108000389,GARDEN PLAIN ELEM,700 SECTION LINE,GARDEN PLAIN,KS,67050,NOT AVAILABLE,(316) 531-2261
70792,201014000130,CENTRAL ELEM,305 E CEDAR ST,OLATHE,KS,66061,4492,(913) 780-7370
74486,200000301607,CENTRAL ELEM,900 7TH STREET,WAMEGO,KS,66547,1426,(785) 456-7278
77016,201221001865,TONGANOXIE MIDDLE SCHOOL,824 WASHINGTON STREET,TONGANOXIE,KS,66086,NOT AVAILABLE,(913) 416-1470
77093,201299000302,MUELLER AEROSPACE/ENGINEERING DISCOVERY MAGNE,2500 E 18TH,WICHITA,KS,67214,4817,(316) 973-8300
78056,201260001999,VICTORIA JUNIOR-SENIOR HIGH SCHOOL,1107 10TH ST.,VICTORIA,KS,67671,NOT AVAILABLE,(785) 735-9211
78218,200996002006,SANTA FE 5/6 CENTER,130 W. BROADWAY,NEWTON,KS,67114,NOT AVAILABLE,(316) 284-6270
3427,200000201809,SMOKY VALLEY VIRTUAL CHARTER SCHOOL,121 S MAIN,LINDSBORG,KS,67456,1911,(785) 227-4292
6478,200001502101,SUNFLOWER ELEMENTARY SCHOOL,1325 FALCON WAY,OTTAWA,KS,66067,NOT AVAILABLE,(785) 229-8050
7573,201131000942,BICKERDYKE ELEM,348 N MAPLE ST,RUSSELL,KS,67665,2741,(785) 483-6066
40487,200867000181,SOUTHERN COFFEY COUNTY ELEMENTARY,300 THIRD,GRIDLEY,KS,66852,0426,(620) 836-2182
42226,200840001377,LAWRENCE WEST MIDDLE SCHOOL,2700 HARVARD ROAD,LAWRENCE,KS,66049,2629,(785) 832-5500
48141,200795001423,J C HARMON HIGH,2400 STEELE RD,KANSAS CITY,KS,66106,4318,(913) 627-7050
61679,200870001479,LEWIS ELEM,401 SUNNYSIDE DRIVE,LEWIS,KS,67552,0097,(620) 324-5547
62974,200000400599,WESTMORELAND ELEM,205 S FOURTH,WESTMORELAND,KS,66549,0350,(785) 457-3462
63164,200609001964,EUDORA ELEMENTARY SCHOOL,801 E. 10TH,EUDORA,KS,66025,NOT AVAILABLE,(785) 542-4940
65063,200327000063,LONG ISLAND MIDDLE SCHOOL,101 MAIN STREET,LONG ISLAND,KS,67647,0098,(785) 854-7681
65881,200840001376,BILLY MILLS MIDDLE SCHOOL,2734 LOUISIANA ST,LAWRENCE,KS,66046,4699,(785) 832-5450
66132,200789001265,FORT RILEY MIDDLE SCHOOL,4020 FIRST DIVISION RD,FORT RILEY,KS,66442,NOT AVAILABLE,(785) 717-4500
69838,200795001409,NEW STANLEY ELEM,3604 METROPOLITAN,KANSAS CITY,KS,66106,NOT AVAILABLE,(913) 627-3950
50032,200318001063,ABILENE HIGH SCHOOL,1300 N CEDAR,ABILENE,KS,67410,NOT AVAILABLE,(785) 263-1260
57592,201226002090,JARDINE ELEMENTARY,2600 SW 33RD ST,TOPEKA,KS,66611,NOT AVAILABLE,(785) 295-3000
90165,201226001474,MARJORIE FRENCH MIDDLE SCHOOL,5257 SW 33RD ST,TOPEKA,KS,66614,4099,(785) 438-4150
92471,201226001595,CHASE MIDDLE SCHOOL,2250 NE STATE ST,TOPEKA,KS,66616,1390,(785) 295-3840
92776,201299001904,GORDON PARKS ACADEMY,2201 E. 25TH ST.,WICHITA,KS,67219,4701,(316) 973-7500
98444,201164001571,INDIAN WOODS MIDDLE,9700 WOODSON,SHAWNEE MISSION,KS,66207,2800,(913) 993-0600
98650,200002801883,WASHINGTON ELEMENTARY,114 NORTH E. STREET,WASHINGTON,KS,66968,NOT AVAILABLE,(785) 325-2261
82673,200000401708,ROCK CREEK HIGH SCHOOL,9355 FLUSH ROAD,ST GEORGE,KS,66535,NOT AVAILABLE,(785) 494-8591
85008,200585000868,ELLIS JR/SR HIGH,1706 S MONROE,ELLIS,KS,67637,NOT AVAILABLE,(785) 726-3151
85010,201002000060,NORTON HIGH,513 W. WILBERFORCE STREET,NORTON,KS,67654,1298,(785) 877-3338
87348,200693000219,OLPE JR./SR. HIGH SCHOOL,220 W LISTERSCHEID ST,OLPE,KS,66865,0206,(620) 475-3223
87980,200873001279,MACARTHUR ELEMENTARY SCHOOL,925 SOUTH HOLLY,LIBERAL,KS,67901,NOT AVAILABLE,(620) 604-1700
101702,200705001906,HAYSVILLE WEST MIDDLE SCHOOL,1956 W. GRAND AVE.,HAYSVILLE,KS,67060,NOT AVAILABLE,(316) 554-2370
102101,200711001307,HERINGTON ELEM,1403 NORTH D STREET,HERINGTON,KS,67449,3098,(785) 258-3234
11396,200795001430,LINDBERGH ELEM,641 N 57TH ST,KANSAS CITY,KS,66102,3309,(913) 627-5150
12162,200795001421,ARROWHEAD MIDDLE,1715 N 82ND STREET,KANSAS CITY,KS,66112,2003,(913) 627-6600
14516,201299000262,CHISHOLM TRAIL ELEM,6015 INDEPENDENCE,PARK CITY,KS,67219,2260,(316) 973-9400
19712,201176000884,SOLOMON HIGH,409 N. PINE,SOLOMON,KS,67480,0247,(785) 655-2551
31544,200795001778,MCKINLEY ELEMENTARY SCHOOL,1301 ARMSTRONG,KANSAS CITY,KS,66102,NOT AVAILABLE,(913) 627-7350
33799,200645000206,ANDERSON COUNTY JR/SR HIGH SCHOOL,1100 W. HIGHWAY 31,GARNETT,KS,66032,0328,(785) 448-3115
34387,200942000106,MEADE HIGH,409 SCHOOL ADDITION,MEADE,KS,67864,0400,(620) 873-2981
35588,201014001601,INDIAN TRAIL MIDDLE SCHOOL,1440 E 151ST ST,OLATHE,KS,66062,2855,(913) 780-7230
35715,200345001234,JEFFERSON ELEM,131 OSAGE AVE,ARKANSAS CITY,KS,67005,1299,(620) 441-2060
37227,201299000339,PLEASANT VALLEY MIDDLE SCHOOL,2220 W 29TH N,WICHITA,KS,67204,4835,(316) 973-8000
37314,200624000045,REMINGTON MIDDLE SCHOOL,316 E TOPEKA,WHITEWATER,KS,67154,NOT AVAILABLE,(316) 799-2131
39426,200795001394,THOMAS A EDISON ELEM,1000 LOCUST STREET,KANSAS CITY,KS,66103,2408,(913) 627-4900
72374,201014001590,TOMAHAWK ELEM,13820 BROUGHAM DR,OLATHE,KS,66062,1984,(913) 780-7690
72520,200840001368,HILLCREST ELEM,1045 HILLTOP DR,LAWRENCE,KS,66044,4599,(785) 832-5720
73652,201299000312,SELTZER ELEM,11660 E LINCOLN,WICHITA,KS,67207,4300,(316) 973-4001
74712,201014001705,PLEASANT RIDGE ELEM,12235 ROSEHILL RD,OVERLAND PARK,KS,66213,NOT AVAILABLE,(913) 780-7590
77114,200000400597,ST GEORGE ELEM,200 BLACKJACK ROAD,ST GEORGE,KS,66535,0031,(785) 494-2482
77681,201299000350,HEIGHTS HIGH,5301 N HILLSIDE,WICHITA,KS,67219,3099,(316) 973-1400
77772,201014001669,COUNTRYSIDE ELEMENTARY,15800 W 124TH TERR,OLATHE,KS,66062,1116,(913) 780-7390
77851,200324000622,WABAUNSEE JUNIOR HIGH,112 ELM,PAXICO,KS,66526,0128,(785) 636-5353
23636,200480000010,CIMARRON HIGH,400 N 5TH,CIMARRON,KS,67835,0489,(620) 855-3323
24181,200414001190,BUCKLIN ELEM,422 S MAIN,BUCKLIN,KS,67834,0008,(620) 826-3828
24183,200918001639,AMANDA ARNOLD ELEM,1435 HUDSON,MANHATTAN,KS,66503,NOT AVAILABLE,(785) 587-2020
25024,200774000242,MCKINLEY ELEM,209 S KENTUCKY,IOLA,KS,66749,3598,(620) 365-4860
29093,200546001721,PARK HILL ELEMENTARY,1500 E WOODBROOK LANE,DERBY,KS,67037,NOT AVAILABLE,(316) 788-8095
72306,200918001875,BLUEMONT ELEMENTARY SCHOOL,714 BLUEMONT AVE.,MANHATTAN,KS,66502,NOT AVAILABLE,(785) 587-2030
72944,200489000829,WAKEFIELD HIGH,502 THIRD,WAKEFIELD,KS,67487,0040,(785) 461-5437
73930,200549000906,LEXINGTON TRAILS MIDDLE SCHOOL,8800 PENNER AVENUE,DE SOTO,KS,66018,0509,(913) 667-6260
77776,200696000561,YODER CHARTER ELEM SCHOOL,9808 S YODER RD,YODER,KS,67585,0078,(620) 465-2605
79353,200900001007,LYNDON ELEM,421 EAST 6TH ST,LYNDON,KS,66451,0488,(785) 828-4622
79749,200381001505,LINCOLN ELEM,801 LINCOLN,BAXTER SPRINGS,KS,66713,NOT AVAILABLE,(620) 856-3322
91077,200549001724,MIZE ELEMENTARY SCHOOL,7301 MIZE ROAD,SHAWNEE,KS,66227,NOT AVAILABLE,(913) 441-0880
91526,200378001186,BASEHOR-LINWOOD HIGH SCHOOL,2108 NORTH 155 STREET,BASEHOR,KS,66007,0255,(913) 724-2266
93876,200636001385,LIBERTY ELEM,624 E. 8TH STREET,GALENA,KS,66739,NOT AVAILABLE,(620) 783-4499
97428,201305001826,WINFIELD MIDDLE SCHOOL,130 VIKING BLVD.,WINFIELD,KS,67156,NOT AVAILABLE,(620) 221-5130
101996,200585000867,WASHINGTON ELEM,100 EAST 13TH,ELLIS,KS,67637,1721,(785) 726-3136
81131,201014001759,MANCHESTER PARK ELEMENTARY,9810 PRAIRIE CREEK RD,LENEXA,KS,66220,NOT AVAILABLE,(913) 780-7540
85009,200594000226,EMPORIA HIGH,3302 W 18TH AVE,EMPORIA,KS,66801,5958,(620) 341-2365
85395,200705001725,RUTH CLARK ELEMENTARY K-5,1900 W. 55TH STREET SOUTH,WICHITA,KS,67217,NOT AVAILABLE,(316) 554-2333
88584,201299000264,CLEAVELAND TRADITIONAL MAGNET ELEMENTARY,3345 W 33RD S,WICHITA,KS,67217,1262,(316) 973-8750
50180,200000201649,SMOKY VALLEY HIGH,1 VIKING BLVD,LINDSBORG,KS,67456,1911,(785) 227-2909
53388,201026000772,SWENSON EARLY CHILDHOOD EDUCATION CENTER,1901 PARKER AVE,OSAWATOMIE,KS,66064,1505,(913) 755-3220
59651,201218001134,SHAWNEE HEIGHTS ELEM,2410 SE BURTON DR,TOPEKA,KS,66605,1913,(785) 357-5400
20039,200405000029,BONNER SPRINGS ELEMENTARY,212 S NECONI,BONNER SPRINGS,KS,66012,NOT AVAILABLE,(913) 441-1777
20386,201131000944,RUPPENTHAL MIDDLE,400 N ELM ST,RUSSELL,KS,67665,2136,(785) 483-3174
21814,201164001516,EAST ANTIOCH ELEM,7342 LOWELL,SHAWNEE MISSION,KS,66204,1832,(913) 993-3200
23801,201164001552,ROESLAND ELEM,4900 PARISH DR,SHAWNEE MISSION,KS,66205,1370,(913) 993-4700
28571,201014000131,FAIRVIEW ELEM,600 N MARION ST,OLATHE,KS,66061,2497,(913) 780-7430
61577,201299000251,ALLEN ELEM,1881 S ELPYCO,WICHITA,KS,67218,4328,(316) 973-1750
63838,201226001454,MCCARTER ELEM,5512 SW 16TH ST,TOPEKA,KS,66604,2271,(785) 438-4660
31185,201149001942,NORTH FAIRVIEW,1941 NE 39TH,TOPEKA,KS,66617,NOT AVAILABLE,(785) 286-8500
32053,200825000752,LACYGNE ELEM,710 WALNUT ST.,LACYGNE,KS,66040,NOT AVAILABLE,(913) 757-4417
34632,200654000698,GODDARD MIDDLE SCHOOL,2700 S 199TH ST W,GODDARD,KS,67052,0279,(316) 794-4230
35081,200456000831,CENTRALIA HIGH,507 JOHN RIGGINS AVE,CENTRALIA,KS,66415,0367,(785) 857-3324
37662,200795001429,JOHN F KENNEDY ELEM,2600 N 72ND ST,KANSAS CITY,KS,66109,2541,(913) 627-4950
37966,201299000331,HAMILTON MIDDLE SCHOOL,1407 S BROADWAY,WICHITA,KS,67211,3129,(316) 973-5350
38078,200564001130,PLEASANT RIDGE MIDDLE,32504 EASTON RD,EASTON,KS,66020,7260,(913) 651-5522
14397,200320001070,PAULINE SOUTH INTERMEDIATE,7035 SW MORRILL RD,WAKARUSA,KS,66546,9650,(785) 339-4750
16528,201299000326,ALLISON TRADITIONAL MAGNET MIDDLE,221 S SENECA,WICHITA,KS,67213,4784,(316) 973-4800
18219,201200001645,VALLEY PARK ELEMENTARY,12301 LAMAR AVE.,OVERLAND PARK,KS,66209,2702,(913) 239-7600
19392,201278001383,VALLEY HEIGHTS JR/SR HIGH,2274 6TH ROAD,BLUE RAPIDS,KS,66411,NOT AVAILABLE,(785) 363-2508
19853,201281000174,LEBO HIGH,4TH & OGDEN,LEBO,KS,66856,0045,(620) 256-6341
40702,201164000932,SUNFLOWER ELEM,8955 LOIRET BLVD,SHAWNEE MISSION,KS,66219,1427,(913) 993-5400
42223,200618000149,FORT SCOTT SR HIGH,1005 S MAIN,FORT SCOTT,KS,66701,2697,(620) 223-0600
42244,201074000400,PLAINVILLE HIGH,202 SE CARDINAL AVENUE,PLAINVILLE,KS,67663,NOT AVAILABLE,(785) 434-4547
42663,200990001196,NORTH LAWN ELEM,620 GRANBY,NEODESHA,KS,66757,1279,(620) 325-3011
44504,200618000148,FORT SCOTT MIDDLE SCHOOL,1105 E 12TH ST,FORT SCOTT,KS,66701,2396,(620) 223-3262
44506,200327000062,NORTHERN VALLEY HIGH,512 W BRYANT,ALMENA,KS,67622,0217,(785) 669-2445
44507,200396000165,BENNINGTON JUNIOR HIGH/HIGH SCHOOL,301 N. PUTNAM,BENNINGTON,KS,67422,0008,(785) 488-3321
48370,200903000929,LYONS MIDDLE SCHOOL,501 E AMERICAN ROAD,LYONS,KS,67554,NOT AVAILABLE,(620) 257-3961
48713,200924000949,MARION ELEM,1400 E LAWRENCE,MARION,KS,66861,NOT AVAILABLE,(620) 382-3771
4617,201149002085,NORTHERN HILLS ELEMENTARY,5620 NW TOPEKA BLVD,TOPEKA,KS,66617,NOT AVAILABLE,(785) 286-2992
6193,201014002088,OLATHE WEST HIGH SCHOOL,2200 W SANTA FE ST,OLATHE,KS,66061,NOT AVAILABLE,(913) 780-7180
7347,200035001978,SABETHA ELEMENTARY SCHOOL,101 OREGON,SABETHA,KS,66534,2899,(785) 284-3448
9574,200354000956,ATCHISON HIGH SCHOOL,1500 W. RILEY ST,ATCHISON,KS,66002,1513,(913) 367-4162
94453,201137000504,CORONADO ELEM,2725 RAY AVE,SALINA,KS,67401,NOT AVAILABLE,(785) 309-4100
94722,200642001824,PIONEER RIDGE MIDDLE SCHOOL,16200 KILL CREEK ROAD,GARDNER,KS,66030,NOT AVAILABLE,(913) 856-3850
63142,201299000843,BOSTIC TRADITIONAL MAGNET ELEM,8103 E GILBERT,WICHITA,KS,67207,2341,(316) 973-1800
64531,200000600976,HIAWATHA SR HIGH,600 RED HAWK DRIVE,HIAWATHA,KS,66434,2697,(785) 742-3312
65325,201200000012,HARMONY MIDDLE,10101 W. 141ST ST.,OVERLAND PARK,KS,66221,2165,(913) 239-5200
66877,201188000483,ST FRANCIS ELEM,307 E. WEBSTER STREET,ST FRANCIS,KS,67756,1110,(785) 332-8143
80270,200840001378,LAWRENCE HIGH,1901 LOUISIANA ST,LAWRENCE,KS,66046,2999,(785) 832-5050
80344,201226001476,HIGHLAND PARK HIGH,2424 SE CALIFORNIA AVE,TOPEKA,KS,66605,1797,(785) 274-6000
80845,200672002055,21ST CENTURY LEARNING ACADEMY/KIOWA COUNTY,730 S. MAIN,GREENSBURG,KS,67054,NOT AVAILABLE,(620) 723-1130
81688,201299000279,GRIFFITH ELEM,1802 S BLUFF,WICHITA,KS,67218,4199,(316) 973-8900
82695,201218001136,SHAWNEE HEIGHTS MIDDLE,4335 SE SHAWNEE HEIGHTS ROAD,TECUMSEH,KS,66542,9796,(785) 379-5830
82717,201122001338,FLINTHILLS INTERMEDIATE SCHOOL,806 SE ROSALIA RD.,ROSALIA,KS,67132,0188,(620) 476-2218
83563,201200001990,BLUE VALLEY SOUTHWEST HIGH SCHOOL,17600 QUIVIRA ROAD,OVERLAND PARK,KS,66062,NOT AVAILABLE,(913) 624-2000
85590,200513000734,CONWAY SPRINGS KYLE TRUEBLOOD,111 N. HIGHLAND,CONWAY SPRINGS,KS,67031,NOT AVAILABLE,(620) 456-2966
87112,200693000215,HARTFORD JR./SR. HIGH SCHOOL,100 COMMERCIAL ST,HARTFORD,KS,66854,NOT AVAILABLE,(620) 392-5515
87113,200978001013,MOUNDRIDGE MIDDLE,530 E. COLE,MOUNDRIDGE,KS,67107,0607,(620) 345-5500
51114,200705000362,CAMPUS HIGH HAYSVILLE,2100 W 55TH ST SOUTH,WICHITA,KS,67217,4199,(316) 554-2236
51253,201218001135,SHAWNEE HEIGHTS HIGH,4201 SE SHAWNEE HEIGHTS RD,TECUMSEH,KS,66542,9794,(785) 379-5880
54174,201221001205,TONGANOXIE HIGH,404 E HWY 24-40,TONGANOXIE,KS,66086,0179,(913) 416-1460
55058,200765002054,JEFFERSON SCHOOL,2101 N. 13TH ST.,INDEPENDENCE,KS,67301,NOT AVAILABLE,(620) 332-1875
56081,200390001584,BELLE PLAINE MIDDLE,724 N MERCHANT,BELLE PLAINE,KS,67013,0457,(620) 488-2222
58617,201014001624,BROUGHAM ELEM,15500 S BROUGHAM DR,OLATHE,KS,66062,3100,(913) 780-7350
40354,200819001299,PLAINS ELEM,605 WEST B,PLAINS,KS,67869,NOT AVAILABLE,(620) 563-7285
40491,201226001596,HOPE STREET CHARTER ACADEMY,1900 SW HOPE STREET,TOPEKA,KS,66604,3557,(785) 438-4280
42256,200795001427,D D EISENHOWER MIDDLE,2901 N 72ND ST,KANSAS CITY,KS,66109,8331,(913) 627-6450
44883,201023001839,OSAGE CITY MIDDLE SCHOOL,420 S. 5TH STREET,OSAGE CITY,KS,66523,NOT AVAILABLE,(785) 528-3175
45961,201014001718,ARBOR CREEK ELEMENTARY,16150 S BROUGHAM DR,OLATHE,KS,66062,NOT AVAILABLE,(913) 780-7300
48474,200000700155,SMITH CENTER ELEM,216 SOUTH JEFFERSON,SMITH CENTER,KS,66967,0329,(785) 282-6614
49012,201218001135,SHAWNEE HEIGHTS HIGH,4201 SE SHAWNEE HEIGHTS RD,TECUMSEH,KS,66542,9794,(785) 379-5880
70604,200642000997,SUNFLOWER ELEMENTARY,775 NORTH CENTER,GARDNER,KS,66030,NOT AVAILABLE,(913) 856-3700
71933,200035001996,SABETHA HIGH SCHOOL,1011 BLUEJAY BLVD,SABETHA,KS,66534,9416,(785) 284-2155
73632,201299000342,WILBUR MIDDLE SCHOOL,340 N TYLER RD,WICHITA,KS,67212,3697,(316) 973-1100
74937,200840001375,LAWRENCE LIBERTY MEMORIAL CENTRAL MID SCHOOL,1400 MASSACHUSETTS ST,LAWRENCE,KS,66044,3432,(785) 832-5400
75020,200462001246,BLUE RIDGE ELEM,1539 HWY 18,ABILENE,KS,67410,0196,(785) 598-2226
76887,200822000891,LA CROSSE MIDDLE SCHOOL,400 WASHINGTON,LA CROSSE,KS,67548,0670,(785) 222-3030
30050,200696000560,HAVEN HIGH,400 E 5TH,HAVEN,KS,67543,NOT AVAILABLE,(620) 465-2585
30052,201092000556,PRETTY PRAIRIE HIGH,204 E MAIN,PRETTY PRAIRIE,KS,67570,0326,(620) 459-6313
30928,200330001496,BARTLETT ELEM,201 W 2ND,BARTLETT,KS,67332,NOT AVAILABLE,(620) 226-3414
31805,200744001288,HOPE HIGH,200 POPLAR ST,HOPE,KS,67451,0218,(785) 366-7221
34242,201290000172,WESKAN HIGH,219 COYOTE BLVD,WESKAN,KS,67762,NOT AVAILABLE,(785) 943-5222
35766,201185000119,SPRING HILL MIDDLE SCHOOL,301 E SOUTH STREET,SPRING HILL,KS,66083,NOT AVAILABLE,(913) 592-7288
36774,201014001760,CLEARWATER CREEK ELEMENTARY,930 S CLEARWATER CREEK DRIVE,OLATHE,KS,66061,NOT AVAILABLE,(913) 780-7360
38211,201299000307,PAYNE ELEM,1601 S EDWARDS,WICHITA,KS,67213,5612,(316) 973-7850
38734,200759000248,HUMBOLDT MIDDLE SCHOOL,1105 BRIDGE STREET,HUMBOLDT,KS,66748,1837,(620) 473-3348
10391,200747001041,HORTON ELEM,300 E 16TH,HORTON,KS,66439,1299,(785) 486-2616
11677,201014001602,OLATHE SOUTH SR HIGH,1640 E 151ST ST,OLATHE,KS,66062,2851,(913) 780-7160
13049,201014001626,WALNUT GROVE ELEM,11800 S PFLUMM ROAD,OLATHE,KS,66062,9600,(913) 780-7710
13090,200000100524,SOUTHEAST SALINE ELEM,5056 E K-4 HIGHWAY,GYPSUM,KS,67448,NOT AVAILABLE,(785) 536-4215
14570,200762001734,HUTCHINSON MAGNET SCHOOL AT ALLEN,403 WEST 10TH,HUTCHINSON,KS,67501,NOT AVAILABLE,(620) 615-4900
15100,201041001055,OVERBROOK ATTENDANCE CENTER,202 W 7TH,OVERBROOK,KS,66524,NOT AVAILABLE,(800) 836-9525
15768,201164001554,ROSEHILL ELEM,9801 ROSEHILL,SHAWNEE MISSION,KS,66215,1499,(913) 993-4800
15829,200471000185,SOUTHEAST MIDDLE SCHOOL,206 W MAGNOLIA,CHEROKEE,KS,66724,NOT AVAILABLE,(620) 457-8315
17752,201299001762,JACKSON ELEMENTARY,2717 N WOODLAWN,WICHITA,KS,67220,2747,(316) 973-1200
1398,201242000068,SULLIVAN ELEM,600 W. NEBRASKA,ULYSSES,KS,67880,NOT AVAILABLE,(620) 356-1742
1975,201014001703,GREEN SPRINGS ELEM,14675 S ALDEN ST,OLATHE,KS,66062,4888,(913) 780-7450
5615,201230000804,CIRCLE OIL HILL ELEMENTARY,2700 W 6TH AVE,EL DORADO,KS,67042,3064,(316) 321-9515
9058,201239001202,UDALL ELEM,308 W. 3RD ST.,UDALL,KS,67146,NOT AVAILABLE,(620) 782-3632
20187,200417001872,ALTOONA-MIDWAY MIDDLE/HIGH SCHOOL,20704 US 75 HWY,BUFFALO,KS,66717,NOT AVAILABLE,(620) 537-7711
23773,200444001004,CANTON-GALVA ELEMENTARY,116 S. SANTA FE,GALVA,KS,67443,0096,(620) 654-3321
27899,200441001961,CANEY VALLEY CHARTER ACADEMY,601 E. BULLPUPS BLVD,CANEY,KS,67333,NOT AVAILABLE,(620) 879-9232
28127,201062000677,PERRY-LECOMPTON MIDDLE,408 LECOMPTON RD,PERRY,KS,66073,NOT AVAILABLE,(785) 597-5159
100407,200351001650,ASHLAND JUNIOR HIGH SCHOOL,311 J.E. HUMPHREYS ST.,ASHLAND,KS,67831,0187,(620) 635-2814
102668,200843002115,RICHARD WARREN INTERMEDIATE SCHOOL,3501 NEW LAWRENCE RD,LEAVENWORTH,KS,66048,5223,(913) 684-1530
91981,200993000500,NESS CITY HIGH,200 N 5TH,NESS CITY,KS,67560,1735,(785) 798-3991
92721,200495000102,CLIFTON-CLYDE SR HIGH,616 NORTH HIGH ST.; SUITE 1,CLYDE,KS,66938,9637,(785) 446-3444
96741,201014000134,WESTVIEW ELEM,500 S TROOST ST,OLATHE,KS,66061,4300,(913) 780-7750
99475,200666001027,EISENHOWER ELEM,1212 GARFIELD,GREAT BEND,KS,67530,3512,(620) 793-1501
30051,200696000559,HAVEN ELEM,202 EAST FOURTH,HAVEN,KS,67543,0489,(620) 465-2501
31050,200035001991,WETMORE HIGH,321 6TH STREET,WETMORE,KS,66550,0246,(785) 866-2860
31179,200320001710,WASHBURN RURAL MIDDLE SCHOOL,5620 SW 61ST,TOPEKA,KS,66619,2005,(785) 339-4300
33954,200666001036,GREAT BEND HIGH SCHOOL,2027 MORTON,GREAT BEND,KS,67530,2593,(620) 793-1521
36548,201137000522,SALINA HIGH SOUTH,730 E MAGNOLIA RD,SALINA,KS,67401,NOT AVAILABLE,(785) 309-3700
38175,200001400453,CENTRAL HEIGHTS HIGH,3521 ELLIS ROAD,RICHMOND,KS,66080,NOT AVAILABLE,(785) 869-3455
10012,201226001447,ROSS ELEMENTARY,1400 SE 34TH ST,TOPEKA,KS,66605,2684,(785) 274-6280
10249,200711001308,HERINGTON MIDDLE SCH,1317 N D STREET,HERINGTON,KS,67449,2494,(785) 258-2448
11367,200684001078,BENTLEY PRIMARY SCHOOL,221 N PHELPS,BENTLEY,KS,67016,NOT AVAILABLE,(316) 835-3000
11398,201095000473,QUINTER JR-SR HIGH,600 LONG,QUINTER,KS,67752,0459,(785) 754-3660
13505,200795001422,BETHEL ELEM,7850 YECKER,KANSAS CITY,KS,66109,1658,(913) 627-3000
13871,200840000876,LAWRENCE SOUTHWEST MIDDLE SCHOOL,2511 INVERNESS DRIVE,LAWRENCE,KS,66047,1973,(785) 832-5550
14089,200693000218,OLPE ELEMENTARY,314 W LISTERSCHEID,OLPE,KS,66865,0203,(620) 475-3277
14383,200408000569,BREWSTER ELEM,127 KANSAS AVENUE,BREWSTER,KS,67732,0220,(785) 694-2236
14610,200996001982,SLATE CREEK ELEMENTARY,901 E. 4TH,NEWTON,KS,67114,NOT AVAILABLE,(316) 284-6550
17275,201278001382,VALLEY HEIGHTS ELEMENTARY - WATERVILLE,307 E LINCOLN,WATERVILLE,KS,66548,NOT AVAILABLE,(785) 363-2530
18622,200001200094,HANOVER ELEM,209 E NORTH,HANOVER,KS,66945,0338,(785) 337-2281
19137,200840001370,NEW YORK ELEM,936 NEW YORK STREET,LAWRENCE,KS,66044,2795,(785) 832-5780
21888,200822000889,LA CROSSE ELEMENTARY,511 ELM STREET,LA CROSSE,KS,67548,0700,(785) 222-2622
26461,201299001719,SPAGHT MULTIMEDIA MAGNET,2316 E 10TH,WICHITA,KS,67214,3196,(316) 973-7300
27388,200001601674,MARYSVILLE ELEM,1010 CAROLINA,MARYSVILLE,KS,66508,1911,(785) 562-3641
28726,200678001895,GRINNELL MIDDLE SCHOOL,402 S. MONROE,GRINNELL,KS,67738,NOT AVAILABLE,(785) 824-3277
50905,201185002068,KANSAS VIRTUAL ACADEMY (KSVA),16740 W 175TH,OLATHE,KS,66062,NOT AVAILABLE,(913) 592-4600
51610,200873001286,LIBERAL SR HIGH,1611 W 2ND,LIBERAL,KS,67901,NOT AVAILABLE,(620) 604-1200
52642,200320001066,AUBURN ELEMENTARY,810 N COMMERCIAL,AUBURN,KS,66402,0009,(785) 339-4400
55515,201014000040,OLATHE EAST SR HIGH,14545 W 127TH ST,OLATHE,KS,66062,1486,(913) 780-7120
61092,201128002033,PAWNEE HEIGHTS,100 WEST GRAND,ROZEL,KS,67574,NOT AVAILABLE,(620) 527-4211
66569,200438000744,CALDWELL SECONDARY SCHOOL,31 NORTH OSAGE STREET,CALDWELL,KS,67022,1498,(620) 845-2585
67201,201108000390,GARDEN PLAIN HIGH,720 SEDGWICK,GARDEN PLAIN,KS,67050,NOT AVAILABLE,(316) 531-2272
67885,200606001768,MISSION VALLEY ELEMENTARY,12913 MISSION VALLEY RD. STE B,ESKRIDGE,KS,66423,NOT AVAILABLE,(866) 557-6686
68490,201284000727,WELLINGTON MIDDLE SCHOOL,605 NORTH A,WELLINGTON,KS,67152,NOT AVAILABLE,(620) 326-4320
68738,200642000122,GARDNER EDGERTON HIGH,425 N. WAVERLY ROAD,GARDNER,KS,66030,1297,(913) 856-2600
69075,200001701219,SCOTT CITY HIGH,712 MAIN,SCOTT CITY,KS,67871,NOT AVAILABLE,(620) 872-7620
70133,200330001494,ALTAMONT ELEM,705 E 6TH STREET,ALTAMONT,KS,67330,0306,(620) 784-5511
71545,200894002012,CENTRE,2374 310TH STREET,LOST SPRINGS,KS,66859,9644,(785) 983-4321
75245,201089000840,SOUTHWEST ELEM,900 W. 8TH,PRATT,KS,67124,2141,(620) 672-4520
76979,200558001095,DODGE CITY HIGH SCHOOL,2201 ROSS BLVD.,DODGE CITY,KS,67801,NOT AVAILABLE,(620) 471-2110
79349,200462001251,RURAL CENTER ELEM,902 1400 AVENUE,ABILENE,KS,67410,0176,(785) 479-2213
40418,201095000472,QUINTER ELEM,601 GOVE,QUINTER,KS,67752,0429,(785) 754-3741
46249,201014001924,WOODLAND ELEM,11601 S. WOODLAND ROAD,OLATHE,KS,66061,NOT AVAILABLE,(913) 780-7770
47268,200336001567,ANDOVER CENTRAL HIGH SCHOOL,603 E. CENTRAL,ANDOVER,KS,67002,NOT AVAILABLE,(316) 218-4700
47995,200402002066,SOUTHWINDS ACADEMY,301 W. EAGLE STREET,OTIS,KS,67565,NOT AVAILABLE,(785) 387-2202
48941,201200001657,OAK HILL ELEMENTARY,10200 W. 124TH ST.,OVERLAND PARK,KS,66213,1875,(913) 239-6900
48982,200540000004,DEERFIELD MIDDLE SCHOOL,803 BEECH STREET,DEERFIELD,KS,67838,0274,(620) 426-8401
7780,200035002026,SABETHA MIDDLE SCHOOL,751 BLUEJAY BLVD,SABETHA,KS,66534,9421,(785) 284-2151
9080,200795001420,WYANDOTTE HIGH,2501 MINNEOSTA AVENUE,KANSAS CITY,KS,66102,4021,(913) 627-7650
83859,200837001355,LARNED SR HIGH,815 CORSE,LARNED,KS,67550,NOT AVAILABLE,(620) 285-2151
87118,200467000393,CHENEY ELEM,126 W 5TH,CHENEY,KS,67025,NOT AVAILABLE,(316) 542-3137
87624,201179001510,SOUTH HAVEN HIGH,229 KICKAPOO AVENUE,SOUTH HAVEN,KS,67140,0229,(620) 892-5215
88092,200750002013,WEST ELK SCHOOLS,1199 STATE HIGHWAY 99,HOWARD,KS,67349,0278,(620) 374-2147
89515,201200001473,LAKEWOOD ELEMENTARY,14600 LAMAR AVE.,OVERLAND PARK,KS,66223,9998,(913) 239-6500
24543,200035002073,AXTELL ELEMENTARY SCHOOL,504 PINE STREET,AXTELL,KS,66403,NOT AVAILABLE,(785) 736-2237
24557,200549001871,MILL CREEK MIDDLE SCHOOL,8001 MIZE BOULEVARD,LENEXA,KS,66227,NOT AVAILABLE,(913) 667-3512
25957,200417001898,ALTOONA-MIDWAY ELEMENTARY,833 RIVER STREET,ALTOONA,KS,66710,NOT AVAILABLE,(620) 568-5725
28363,201014000132,RIDGEVIEW ELEM,1201 E ELM ST,OLATHE,KS,66061,4896,(913) 780-7630
28565,200702001320,WOODROW WILSON ELEM,101 E 28TH,HAYS,KS,67601,NOT AVAILABLE,(785) 623-2550
60709,200528000986,COUNCIL GROVE ELEMENTARY SCHOOL,706 EAST MAIN STREET,COUNCIL GROVE,KS,66846,NOT AVAILABLE,(620) 767-6851
64117,201128002033,PAWNEE HEIGHTS,100 WEST GRAND,ROZEL,KS,67574,NOT AVAILABLE,(620) 527-4211
64208,201098000857,BLUE VALLEY HIGH,2 RAM WAY,RANDOLPH,KS,66554,NOT AVAILABLE,(785) 293-5255
64660,200579002003,POINT ROCK ALTERNATIVE,150 WILDCAT AVE,ELKHART,KS,67950,NOT AVAILABLE,(620) 697-1253
65273,200324000619,ALMA ELEMENTARY SCHOOL,215 E 9TH,ALMA,KS,66401,0068,(785) 765-3349
65614,200996002031,WALTON RURAL LIFE CENTER,502 MAIN,WALTON,KS,67151,NOT AVAILABLE,(620) 837-3161
68612,200642001825,NIKE ELEMENTARY,19500 S. GARDNER ROAD,GARDNER,KS,66030,NOT AVAILABLE,(913) 856-3000
7818,200642001716,MOONLIGHT ELEMENTARY SCHOOL,17960 S MOONLIGHT ROAD,GARDNER,KS,66030,NOT AVAILABLE,(913) 856-3100
9129,200405000030,ROBERT E CLARK MIDDLE,420 N BLUEGRASS,BONNER SPRINGS,KS,66012,NOT AVAILABLE,(913) 422-5115
9849,200600001932,GALESBURG MIDDLE SCHOOL,6955 KINGMAN RD,GALESBURG,KS,66740,0147,(620) 763-2470
42252,201226001478,TOPEKA WEST HIGH,2001 SW FAIRLAWN RD,TOPEKA,KS,66604,3598,(785) 438-4000
42384,201008000475,OBERLIN ELEM,201 W ASH,OBERLIN,KS,67749,1853,(785) 475-2122
43212,201065000605,PHILLIPSBURG MIDDLE,647 7TH ST,PHILLIPSBURG,KS,67661,NOT AVAILABLE,(785) 543-5114
44201,201014001924,WOODLAND ELEM,11601 S. WOODLAND ROAD,OLATHE,KS,66061,NOT AVAILABLE,(913) 780-7770
47915,200939000993,LINCOLN ELEM,900 N ASH,MCPHERSON,KS,67460,2806,(620) 241-9540
97349,201200000115,BLUE VALLEY MIDDLE,5001 W. 163RD TERRACE,OVERLAND PARK,KS,66085,9385,(913) 239-5100
56058,200492000377,CLEARWATER ELEMENTARY WEST,101 S. 1ST AVENUE,CLEARWATER,KS,67026,NOT AVAILABLE,(620) 584-2081
58185,200891000607,LOGAN ELEM,305 N SHERMAN,LOGAN,KS,67646,0098,(785) 689-4631
59909,200789001258,FRANKLIN ELEM,410 W 2ND,JUNCTION CITY,KS,66441,NOT AVAILABLE,(785) 717-4380
80775,200000400597,ST GEORGE ELEM,200 BLACKJACK ROAD,ST GEORGE,KS,66535,0031,(785) 494-2482
84237,200914001666,MAIZE SOUTH ELEMENTARY,3404 N MAIZE ROAD,WICHITA,KS,67205,NOT AVAILABLE,(316) 462-8300
84452,200001500462,OTTAWA MIDDLE SCHOOL,1230 SOUTH ASH,OTTAWA,KS,66067,NOT AVAILABLE,(785) 229-8030
86635,200555001294,DIGHTON ELEM,320 E JAMES,DIGHTON,KS,67839,1029,(620) 397-5319
100004,200474001125,CHERRYVALE SR / MIDDLE SCHOOL,700 S CARSON,CHERRYVALE,KS,67335,NOT AVAILABLE,(620) 336-8100
100620,200558001094,DODGE CITY MIDDLE SCHOOL,2000 SIXTH AVENUE,DODGE CITY,KS,67801,NOT AVAILABLE,(620) 471-2100
102669,200996002109,OPPORTUNITY ACADEMY,900 WEST BROADWAY,NEWTON,KS,67114,NOT AVAILABLE,(316) 284-6590
10367,200633000048,MACARTHUR ELEM,BUILDING 2104,FORT LEAVENWORTH,KS,66027,4505,(913) 651-6517
10617,200645000766,GREELEY ELEM,101 S MARY,GREELEY,KS,66033,NOT AVAILABLE,(785) 867-3460
10770,201056001486,PARSONS MIDDLE SCHOOL,2719 MAIN,PARSONS,KS,67357,NOT AVAILABLE,(620) 421-4190
15506,201299000266,COLLEGE HILL ELEM,211 N CLIFTON,WICHITA,KS,67208,3337,(316) 973-9600
16525,200648000191,R V HADERLEIN ELEM,520 W. PRAIRIE,GIRARD,KS,66743,1128,(620) 724-4327
17916,201311000770,YATES CENTER HIGH,105 W BELL,YATES CENTER,KS,66783,NOT AVAILABLE,(620) 625-8820
18008,200914001783,MAIZE CENTRAL ELEMENTARY,304 W. ACADEMY AVE,MAIZE,KS,67101,NOT AVAILABLE,(316) 722-0427
18132,200621000104,FOWLER HIGH,100 W 8TH AVE,FOWLER,KS,67844,0140,(620) 646-5221
19531,200363000917,ROBINSON ELEM,1301 HELEN,AUGUSTA,KS,67010,1698,(316) 775-7561
19856,200756000055,HUGOTON ELEM,304 E 6TH,HUGOTON,KS,67951,2617,(620) 544-4376
30061,200343000742,ARGONIA HIGH,504 N PINE,ARGONIA,KS,67004,9741,(620) 435-6611
30313,201299000280,PRICE-HARRIS COMMUNICATIONS MAGNET,706 N ARMOUR DR,WICHITA,KS,67206,1402,(316) 973-1650
35517,201164001522,BLUEJACKET-FLINT,11615 W 49TH TER,SHAWNEE MISSION,KS,66203,1099,(913) 993-2000
36591,201068001681,PIPER MIDDLE,4420 NORTH 107 STREET,KANSAS CITY,KS,66109,NOT AVAILABLE,(913) 721-1144
36958,201218001137,TECUMSEH NORTH ELEM,314 SE STANTON ROAD,TECUMSEH,KS,66542,NOT AVAILABLE,(785) 379-5910
38077,201164001556,SANTA FE TRAIL ELEM,7100 LAMAR,SHAWNEE MISSION,KS,66204,2199,(913) 993-5000
70175,200489000823,CLAY CENTER COMMUNITY MIDDLE,935 PROSPECT STREET,CLAY CENTER,KS,67432,1849,(785) 632-3232
72062,200771001127,INMAN ELEM,207 N MAPLE,INMAN,KS,67546,NOT AVAILABLE,(620) 585-6441
75244,200528000988,COUNCIL GROVE JUNIOR SENIOR HIGH SCHOOL,129 HOCKADAY ST.,COUNCIL GROVE,KS,66846,NOT AVAILABLE,(620) 767-5149
75995,200840001368,HILLCREST ELEM,1045 HILLTOP DR,LAWRENCE,KS,66044,4599,(785) 832-5720
78102,201299001800,JARDINE TECHNOLOGY MIDDLE MAGNET,3550 ROSS PARKWAY,WICHITA,KS,67210,1310,(316) 973-4300
78528,201254000663,VALLEY FALLS HIGH,601 ELM STREET,VALLEY FALLS,KS,66088,1263,(785) 945-3229
91979,200558001096,WILROADS GARDENS ELEM,11558 E MAIN RD,DODGE CITY,KS,67801,NOT AVAILABLE,(620) 471-2101
92826,201245000151,WEST BOURBON ELEMENTARY,602 FIFTH STREET,UNIONTOWN,KS,66779,NOT AVAILABLE,(620) 756-4335
94254,200795001413,FRANCES WILLARD ELEM,3400 ORVILLE,KANSAS CITY,KS,66102,4574,(913) 627-6100
74883,200003001834,BELLEVILLE EAST ELEMENTARY,1811 O. STREET,BELLEVILLE,KS,66935,0469,(785) 527-2330
76197,200990001195,HELLER ELEM,8TH STREET,NEODESHA,KS,66757,1414,(620) 325-3066
77015,200423001200,CENTRAL JR-SR HIGH,700 MAIN,BURDEN,KS,67019,NOT AVAILABLE,(620) 438-2215
81567,201236000020,OAK GROVE ELEM,5340 OAK GROVE RD,KANSAS CITY,KS,66106,NOT AVAILABLE,(913) 288-3900
81765,200336001610,COTTONWOOD ELEMENTARY,1747 N ANDOVER RD,ANDOVER,KS,67002,NOT AVAILABLE,(316) 218-4620
82212,200636001511,GALENA MIDDLE SCHOOL,624 EAST 8TH STREET,GALENA,KS,66739,NOT AVAILABLE,(620) 783-4499
82443,200609000542,EUDORA HIGH SCHOOL,2203 CHURCH,EUDORA,KS,66025,NOT AVAILABLE,(785) 542-4980
82822,200564001773,PLEASANT RIDGE ELEMENTARY,20753 EASTON ROAD,EASTON,KS,66020,NOT AVAILABLE,(913) 651-5595
86796,200807001993,KINGMAN MIDDLE SCHOOL,260 WEST KANSAS AVE,KINGMAN,KS,67068,NOT AVAILABLE,(620) 562-3136
89035,201299000282,HYDE INTL STUDIES/COMMUN ELEM MAGNET,210 N OLIVER,WICHITA,KS,67208,4087,(316) 973-0650
89360,201221001864,TONGANOXIE ELEM,1180 S. EAST STREET,TONGANOXIE,KS,66086,0259,(913) 416-1480
101997,200396000166,TESCOTT ELEM,305 N. MINNESOTA,TESCOTT,KS,67484,0196,(785) 283-4774
102667,200795002116,LOWELL BRUNE ELEMENTARY SCHOOL,2200 N. 89TH TERRACE,KANSAS CITY,KS,66109,NOT AVAILABLE,(913) 551-3200
10216,200000100523,SOUTHEAST SALINE HIGH,5056 E. K-4 HIGHWAY,GYPSUM,KS,67448,9762,(785) 536-4286
15909,200001901752,SCHOOL FOR DEAF ELEMENTARY,450 EAST PARK STREET,OLATHE,KS,66061,NOT AVAILABLE,(913) 210-8200
17910,200795001437,M E PEARSON ELEM,310 N 11TH ST,KANSAS CITY,KS,66102,5136,(913) 627-3150
31626,200372000703,BALDWIN JUNIOR HIGH SCHOOL,400 EISENHOWER,BALDWIN CITY,KS,66006,0067,(785) 594-2448
32503,200504000493,SOUTH CENTRAL MIDDLE SCHOOL,302 S JEFFERSON,PROTECTION,KS,67127,0038,(620) 622-4545
34637,200945000229,MEDICINE LODGE GRADE SCHOOL,320 N WALNUT ST.,MEDICINE LODGE,KS,67104,1220,(620) 886-5608
35516,200558001093,SUNNYSIDE ELEM,511 SUNNYSIDE ST,DODGE CITY,KS,67801,NOT AVAILABLE,(620) 471-2112
36103,200320001073,WASHBURN RURAL HIGH,5900 SW 61ST,TOPEKA,KS,66619,9404,(785) 339-4100
37140,200001901753,SCHOOL FOR DEAF HIGH,450 EAST PARK STREET,OLATHE,KS,66061,NOT AVAILABLE,(913) 210-8111
53048,200834001664,LANSING MIDDLE 6-8,220 LION LANE,LANSING,KS,66043,2746,(913) 727-1197
56916,200789001257,FORT RILEY ELEM,28000 RIFLE RANGE ROAD,FORT RILEY,KS,66442,NOT AVAILABLE,(785) 717-4450
57588,200837002100,FORT LARNED ELEMENTARY SCHOOL,2104 BROADWAY,LARNED,KS,67550,NOT AVAILABLE,(620) 285-2141
58303,200378001184,BASEHOR ELEMENTARY SCHOOL,15602 LEAVENWORTH RD,BASEHOR,KS,66007,0276,(913) 724-1038
21971,201122001951,FLINTHILLS MIDDLE SCHOOL,806 SE ROSALIA RD,ROSALIA,KS,67132,0188,(620) 476-2218
25500,200651000650,MILTONVALE HIGH,619 TOOTLE,MILTONVALE,KS,67466,0394,(785) 427-3250
27598,201200000033,HARMONY ELEMENTARY,14140 GRANT ST.,OVERLAND PARK,KS,66221,2148,(913) 239-6200
28566,200687000878,HAMILTON HIGH,2596 W ROAD,HAMILTON,KS,66853,NOT AVAILABLE,(620) 678-3651
28570,200963000783,SOUTH GRAY HIGH,101 S AZTEC,MONTEZUMA,KS,67867,0355,(620) 846-2281
29628,200795001393,DOUGLASS ELEM,1310 N 9TH STREET,KANSAS CITY,KS,66101,2014,(913) 627-5100
60726,201197000708,STAFFORD MIDDLE SCHOOL/HIGH SCHOOL,430 E BROADWAY,STAFFORD,KS,67578,0370,(620) 234-5248
65624,201206000401,STOCKTON ELEM,201 N CYPRESS,STOCKTON,KS,67669,NOT AVAILABLE,(785) 425-6120
68274,201251000370,VALLEY CENTER HIGH,9600 N. MERIDIAN,VALLEY CENTER,KS,67147,NOT AVAILABLE,(316) 755-7070
68973,201023001005,OSAGE CITY ELEM,420 S. 4TH STREET,OSAGE CITY,KS,66523,NOT AVAILABLE,(785) 528-3171
69875,201299001620,GAMMON ELEM,3240 N RUSHWOOD,WICHITA,KS,67226,1299,(316) 973-4900
40332,201299001908,MARSHALL MIDDLE SCHOOL,1510 PAYNE,WICHITA,KS,67203,2899,(316) 973-9000
41403,201050001726,COTTONWOOD ELEM,709 N. HEDGE LANE,PAOLA,KS,66071,NOT AVAILABLE,(913) 294-8050
41684,201014001019,CALIFORNIA TRAIL MIDDLE SCHOOL,13775 W 133 STREET,OLATHE,KS,66062,NOT AVAILABLE,(913) 780-7220
42253,201226001459,QUINCY ELEM,1500 NE QUINCY ST,TOPEKA,KS,66608,1264,(785) 235-7420
44215,200450000443,CEDAR VALE ELEM,508 DORA,CEDAR VALE,KS,67024,0458,(620) 758-2265
49116,200747001042,HORTON HIGH,1120 FIRST AVE EAST,HORTON,KS,66439,1899,(785) 486-2151
49303,201014001676,FRONTIER TRAIL MIDDLE SCHOOL,15300 W 143RD STREET,OLATHE,KS,66062,2068,(913) 780-7210
42,200546002079,DERBY NORTH MIDDLE SCHOOL,3100 N ROCK ROAD,DERBY,KS,67037,NOT AVAILABLE,(316) 788-8408
3466,201299000310,RIVERSIDE LEADERSHIP MAGNET ELEMENTARY,1001 PORTER,WICHITA,KS,67203,3024,(316) 973-4050
7226,201299000308,PETERSON ELEM,9710 W CENTRAL,WICHITA,KS,67212,4611,(316) 973-0400
7378,200960000083,MINNEOLA HIGH,111 LOCUST,MINNEOLA,KS,67865,0157,(620) 885-4611
9570,201164001528,CORINTH ELEM,8301 MISSION ROAD,SHAWNEE MISSION,KS,66206,1386,(913) 993-2900
11078,200843002030,RICHARD WARREN MIDDLE SCHOOL,3501 NEW LAWRENCE ROAD,LEAVENWORTH,KS,66048,NOT AVAILABLE,(913) 684-1530
11196,201299000253,BENTON ELEM,338 S WOODCHUCK LN,WICHITA,KS,67209,2034,(316) 973-3300
13503,200888001102,LITTLE RIVER HIGH,430 WAVERLY,LITTLE RIVER,KS,67457,NOT AVAILABLE,(620) 897-6201
840,200561000725,MARVIN SISK MIDDLE SCHOOL,910 E FIRST,DOUGLASS,KS,67039,NOT AVAILABLE,(316) 747-3340
1708,200035302050,NEMAHA CENTRAL HIGH SCHOOL,214 N. 11TH,SENECA,KS,66538,1798,(785) 336-3557
3700,201164001534,HIGHLANDS ELEM,6200 ROE,SHAWNEE MISSION,KS,66205,3052,(913) 993-3300
5442,200789001892,SPRING VALLEY ELEMENTARY,1601 HICKORY LANE,JUNCTION CITY,KS,66441,NOT AVAILABLE,(785) 717-4790
7120,201014001761,PRAIRIE TRAIL MIDDLE SCHOOL,21600 W 107TH ST,OLATHE,KS,66061,NOT AVAILABLE,(913) 780-7280
7275,200828000073,LAKIN HIGH,407 N CAMPBELL,LAKIN,KS,67860,9603,(620) 355-6411
21047,200861001221,WICHITA COUNTY ELEMENTARY,109 N. INDIAN ROAD,LEOTI,KS,67861,0807,(620) 375-2314
21503,200318001059,DWIGHT D. EISENHOWER ELEMENTARY,1101 NORTH VINE,ABILENE,KS,67410,NOT AVAILABLE,(785) 263-1643
22637,201152000446,SEDAN HIGH,416 E ELM,SEDAN,KS,67361,1499,(620) 725-3186
41071,201077000681,PLEASANTON HIGH,1001 ASH,PLEASANTON,KS,66075,NOT AVAILABLE,(913) 352-8701
43881,201005000412,OAKLEY ELEM,115 W 6TH,OAKLEY,KS,67748,NOT AVAILABLE,(785) 671-3842
45870,201143001074,SKYLINE ELEM,20269 W HIGHWAY 54,PRATT,KS,67124,8204,(620) 672-5651
48900,200705000365,OATVILLE ELEM,4335 S HOOVER,WICHITA,KS,67215,9399,(316) 554-2290
30304,200843001850,LEAVENWORTH VIRTUAL SCHOOL,1000 3RD AVE,LEAVENWORTH,KS,66048,NOT AVAILABLE,(913) 684-1540
30619,201203000809,STERLING JUNIOR HIGH/SENIOR HIGH,308 E WASHINGTON,STERLING,KS,67579,NOT AVAILABLE,(620) 278-2171
35200,201299000349,WEST HIGH,820 S OSAGE,WICHITA,KS,67213,4527,(316) 973-3600
35526,200001200096,LINN ELEM,300 PARKVIEW,LINN,KS,66953,NOT AVAILABLE,(785) 348-5531
38152,200540000074,DEERFIELD ELEM,803 BEECH STREET,DEERFIELD,KS,67838,0274,(620) 426-8301
94452,200999000548,RENO VALLEY MIDDLE SCHOOL,1616 N WILSHIRE,HUTCHINSON,KS,67501,8817,(620) 662-4573
96946,201056001986,GUTHRIDGE SCHOOL,1020 SOUTH 31ST STREET,PARSONS,KS,67357,NOT AVAILABLE,(620) 421-6800
99629,201299002062,ORTIZ ELEMENTARY SCHOOL,3361 N ARKANSAS AVE,WICHITA,KS,67204,NOT AVAILABLE,(316) 973-9785
73027,200420000565,BUHLER HIGH,611 N MAIN,BUHLER,KS,67522,NOT AVAILABLE,(620) 543-2255
73136,200378001187,LINWOOD ELEMENTARY SCHOOL,215 PARK STREET,LINWOOD,KS,66052,0001,(913) 723-3212
75754,201164001547,PAWNEE ELEM,9501 W 91ST ST,SHAWNEE MISSION,KS,66212,4738,(913) 993-4300
77005,201299000274,FRANKLIN ELEM,214 S ELIZABETH,WICHITA,KS,67213,4093,(316) 973-9850
78396,200435000781,BURRTON MS/HS,105 E LINCOLN,BURRTON,KS,67020,0369,(620) 463-3820
60932,200363000916,LINCOLN ELEM,1812 CRON,AUGUSTA,KS,67010,2196,(316) 775-5415
66586,200639001180,KENNETH HENDERSON MIDDLE,2406 FLEMING,GARDEN CITY,KS,67846,3323,(620) 805-8500
67092,200462001248,CHAPMAN MIDDLE SCHOOL,622 N MARSHALL,CHAPMAN,KS,67431,0249,(785) 922-6555
67716,201014001000,BENTWOOD ELEM,13000 BOND ST,OVERLAND PARK,KS,66213,NOT AVAILABLE,(913) 780-7320
68268,201200001684,COTTONWOOD POINT ELEMENTARY,10521 W. 129TH ST.,OVERLAND PARK,KS,66213,3459,(913) 239-6100
83170,200390000736,BELLE PLAINE ELEM,614 N MERCHANT,BELLE PLAINE,KS,67013,0338,(620) 488-2617
83395,200609000874,EUDORA MIDDLE SCHOOL,2635 CHURCH,EUDORA,KS,66025,NOT AVAILABLE,(785) 542-4960
83839,200372000704,BALDWIN HIGH SCHOOL,415 EISENHOWER,BALDWIN CITY,KS,66006,0067,(785) 594-2725
86621,200489000822,LINCOLN ELEM,1020 GRANT,CLAY CENTER,KS,67432,3100,(785) 632-2156
89713,200345001243,I X L ELEM,6758 322ND ROAD,ARKANSAS CITY,KS,67005,9101,(620) 441-2055
89895,200549001457,CLEAR CREEK ELEM,5815 MONTICELLO RD,SHAWNEE,KS,66226,NOT AVAILABLE,(913) 422-8700
51609,200531001018,PIKE VALLEY ELEM,502 GRANT,COURTLAND,KS,66939,NOT AVAILABLE,(785) 374-4221
52469,200363000918,AUGUSTA MIDDLE SCHOOL,1001 STATE ST,AUGUSTA,KS,67010,1178,(316) 775-6383
54799,200732001047,HOISINGTON HIGH,218 EAST 7TH,HOISINGTON,KS,67544,NOT AVAILABLE,(620) 653-2141
59205,200339000747,ANTHONY ELEM,215 S SPRINGFIELD,ANTHONY,KS,67003,2599,(620) 842-3743
104999,200000402114,ROCK CREEK MIDDLE SCHOOL,9357 FLUSH RD,ST. GEORGE,KS,66535,NOT AVAILABLE,(785) 494-8591
105006,201014002102,SUMMIT TRAIL MIDDLE SCHOOL,22201 W 118TH ST,OLATHE,KS,66061,NOT AVAILABLE,(913) 780-7200
105010,201185002111,WOODLAND SPRING MIDDLE SCHOOL,17450 W 175TH STREET,OLATHE,KS,66062,NOT AVAILABLE,(913) 592-7200
15141,200465000912,CHASE ELEM,312 ASH,CHASE,KS,67524,0366,(620) 938-2996
19142,200417001872,ALTOONA-MIDWAY MIDDLE/HIGH SCHOOL,20704 US 75 HWY,BUFFALO,KS,66717,NOT AVAILABLE,(620) 537-7711
87121,200654000381,GODDARD HIGH,2500 S 199 ST WEST,GODDARD,KS,67052,0189,(316) 794-4100
87439,200318001061,MCKINLEY ELEM,112 N ROGERS,ABILENE,KS,67410,NOT AVAILABLE,(785) 263-2311
3561,200462001250,ENTERPRISE ELEM,302 S HIGH,ENTERPRISE,KS,67441,0247,(785) 263-8248
7282,200972000053,MOSCOW ELEM,130 MCVICKER STREET,MOSCOW,KS,67952,0130,(620) 598-2224
41392,201005001707,OAKLEY MIDDLE SCHOOL,611 CENTER,OAKLEY,KS,67748,NOT AVAILABLE,(785) 671-3820
42250,201226001461,RANDOLPH ELEM,1400 SW RANDOLPH AVE,TOPEKA,KS,66604,2600,(785) 438-4480
44187,201164001566,HOCKER GROVE MIDDLE,10400 JOHNSON DRIVE,SHAWNEE MISSION,KS,66203,2895,(913) 993-0200
44505,200429000178,BURLINGTON HIGH,830 CROSS ST,BURLINGTON,KS,66839,1103,(620) 364-8672
93323,201311000769,YATES CENTER ELEM,802 S STATE,YATES CENTER,KS,66783,NOT AVAILABLE,(620) 625-8860
94183,200717001194,HESSTON HIGH,200 N RIDGE ROAD,HESSTON,KS,67062,NOT AVAILABLE,(620) 327-7122
95703,200549001758,PRAIRIE RIDGE ELEMENTARY SCHOOL,22405 CLEAR CREEK PARKWAY,SHAWNEE,KS,66226,NOT AVAILABLE,(913) 667-1800
95955,200948001164,MARAIS DES CYGNES VALLEY ELEM,213 N 8TH,QUENEMO,KS,66528,NOT AVAILABLE,(785) 759-3512
96955,201200001644,BLUE VALLEY NORTH HIGH,12200 LAMAR AVE.,OVERLAND PARK,KS,66209,2711,(913) 239-3000
97158,200738000656,HOLTON MIDDLE,900 IOWA STREET,HOLTON,KS,66436,1699,(785) 364-2441
98672,200795001413,FRANCES WILLARD ELEM,3400 ORVILLE,KANSAS CITY,KS,66102,4574,(913) 627-6100
30062,200343000740,ARGONIA ELEM,202 E. ALLEN,ARGONIA,KS,67004,9741,(620) 435-6716
31180,200324000621,PAXICO MIDDLE SCHOOL,227 EMPORIA,PAXICO,KS,66526,0130,(785) 636-5343
32891,201014000143,HAVENCROFT ELEM,1700 E SHERIDAN ST,OLATHE,KS,66062,2198,(913) 780-7470
34908,200795001398,GRANT ELEM,1510 N 4TH ST,KANSAS CITY,KS,66101,2319,(913) 627-4300
35518,200957000161,MINNEAPOLIS ELEMENTARY,317 ARGYLE AVE,MINNEAPOLIS,KS,67467,0048,(785) 392-2111
35527,200795001419,SUMNER ACADEMY OF ARTS & SCIENCE,1610 N 8TH STREET,KANSAS CITY,KS,66101,2024,(913) 627-7200
36211,200624000042,FREDERIC REMINGTON HIGH,8850 NW MEADOWLARK RD,WHITEWATER,KS,67154,NOT AVAILABLE,(316) 799-2123
37787,201215001347,SYRACUSE ELEM,408 N MAIN,SYRACUSE,KS,67878,1187,(620) 384-5203
20327,201185001852,PRAIRIE CREEK ELEMENTARY,17077 W 165TH ST,OLATHE,KS,66062,NOT AVAILABLE,(913) 592-7255
22689,201251000367,ABILENE ELEM,522 N ABILENE,VALLEY CENTER,KS,67147,NOT AVAILABLE,(316) 755-7020
24558,201200001605,INDIAN VALLEY ELEMENTARY,11600 KNOX ST.,OVERLAND PARK,KS,66210,3608,(913) 239-6400
26383,201023001006,OSAGE CITY HIGH,515 ELLINWOOD,OSAGE CITY,KS,66523,1358,(785) 528-3172
26779,200873001587,COTTONWOOD ELEMENTARY SCHOOL,1100 W. 11TH,LIBERAL,KS,67901,NOT AVAILABLE,(620) 604-2700
27941,200843001157,LEAVENWORTH SR HIGH,2012 10TH AVE,LEAVENWORTH,KS,66048,NOT AVAILABLE,(913) 684-1550
29035,201164001518,APACHE ELEM,8910 GODDARD,SHAWNEE MISSION,KS,66214,1998,(913) 993-1600
29991,200579001973,KANSAS CONNECTIONS ACADEMY,150 WILDCAT AVE,ELKHART,KS,67950,NOT AVAILABLE,(620) 607-1181
73031,201299000271,ENTERPRISE ELEM,3605 S GOLD,WICHITA,KS,67217,3498,(316) 973-6800
76851,200807000632,NORWICH HIGH,209 PARKWAY,NORWICH,KS,67118,NOT AVAILABLE,(620) 478-2235
77763,201149001921,SEAMAN MIDDLE SCHOOL,5530 NW TOPEKA,TOPEKA,KS,66617,1700,(785) 286-8400
78264,200576000436,ELK VALLEY HIGH SCHOOL,701 DELAWARE,LONGTON,KS,67352,0087,(620) 642-2215
61891,200402000922,OTIS-BISON ELEMENTARY,216 N 3RD,OTIS,KS,67565,NOT AVAILABLE,(785) 387-2371
63392,201008000477,DECATUR COMMUNITY JR/SR HIGH,605 E COMMERCIAL,OBERLIN,KS,67749,2104,(785) 475-2231
63460,200786001144,STANTON COUNTY ELEMENTARY,200 NORTH LONG STREET,JOHNSON,KS,67855,NOT AVAILABLE,(620) 492-6216
65696,200495000099,CLIFTON-CLYDE GRADE SCHOOL K-3,120 N CLOUD,CLIFTON,KS,66937,0302,(785) 455-3319
66037,201212002008,LUCAS/SYLVAN ELEMENTARY UNIFIED,130 N GREELEY,LUCAS,KS,67648,NOT AVAILABLE,(785) 525-6244
66343,201254000662,VALLEY FALLS ELEM,700 OAK STREET,VALLEY FALLS,KS,66088,0190,(785) 945-3221
67153,200985000905,NATOMA HIGH (6-12),710 5TH STREET,NATOMA,KS,67651,0100,(785) 885-4849
69968,200996002002,NORTHRIDGE ELEMENTARY,1900 WINDSOR DR.,NEWTON,KS,67114,NOT AVAILABLE,(316) 284-6540
38261,200001300414,WINONA ELEM,503 WILSON,WINONA,KS,67764,NOT AVAILABLE,(785) 846-7496
38982,200479000482,CHEYLIN JR/SR HIGH,605 BIRD AVE.,BIRD CITY,KS,67731,0028,(785) 734-2341
39767,201299000331,HAMILTON MIDDLE SCHOOL,1407 S BROADWAY,WICHITA,KS,67211,3129,(316) 973-5350
3583,201200001934,TIMBER CREEK ELEMENTARY SCHOOL,16451 FLINT ST,OVERLAND PARK,KS,66062,NOT AVAILABLE,(913) 239-7800
3930,201236000024,TURNER HIGH,2211 SOUTH 55TH,KANSAS CITY,KS,66106,NOT AVAILABLE,(913) 288-3300
23764,200354001868,CENTRAL SCHOOL,215 N 8TH STREET,ATCHISON,KS,66002,NOT AVAILABLE,(913) 360-6540
23800,201299000100,GREIFFENSTEIN ALTERNATIVE ELEMENTARY,1221 E GALENA SUITE 329,WICHITA,KS,67216,1603,(316) 973-6400
24644,201137000518,COTTONWOOD ELEMENTARY SCHOOL,215 S PHILLIPS,SALINA,KS,67401,NOT AVAILABLE,(785) 309-4600
29765,200867000179,LEROY ELEM,1013 N MAIN ST,LEROY,KS,66857,0188,(620) 964-2608
11983,200492000376,CLEARWATER INTERMEDIATE - MIDDLE SCHOOL,140 S 4TH,CLEARWATER,KS,67026,NOT AVAILABLE,(620) 584-2036
13958,201299000301,MINNEHA CORE KNOWLEDGE ELEM,701 N WEBB ROAD,WICHITA,KS,67206,1899,(316) 973-8800
15252,200035002016,AXTELL HIGH,504 PINE STREET,AXTELL,KS,66403,0255,(785) 736-2237
17500,200924000948,MARION HIGH,701 E MAIN,MARION,KS,66861,NOT AVAILABLE,(620) 382-2168
18469,200564001131,PLEASANT RIDGE HIGH,32500 EASTON ROAD,EASTON,KS,66020,NOT AVAILABLE,(913) 651-5556
18863,200879000487,LINCOLN JR/SR HIGH,701 EAST NORTH,LINCOLN,KS,67455,NOT AVAILABLE,(785) 524-4193
70176,200489000824,CLAY CENTER COMMUNITY HIGH,1630 NINTH ST,CLAY CENTER,KS,67432,2299,(785) 632-2131
73651,201113000926,RIVERTON HIGH,7120 SE 70TH,RIVERTON,KS,66770,0290,(620) 848-3388
73672,200002201857,ST. HOSP. TRAINING CENTER PARSONS,2601 GABRIEL,PARSONS,KS,67357,NOT AVAILABLE,(620) 421-6550
74485,201200001269,BLUE RIVER ELEMENTARY,5101 W. 163RD TERRACE,OVERLAND PARK,KS,66085,9383,(913) 239-6000
77931,201299001104,CHISHOLM LIFE SKILLS CENTER,2515 E OSIE,WICHITA,KS,67211,4641,(316) 973-9500
42225,200840001730,LANGSTON HUGHES ELEM,1101 GEORGE WILLIAMS WAY,LAWRENCE,KS,66049,5809,(785) 832-5890
42254,201197000707,STAFFORD ELEMENTARY,418 E BROADWAY,STAFFORD,KS,67578,0400,(620) 234-5255
47083,200765001711,EISENHOWER ELEM,501 SPRUCE ST.,INDEPENDENCE,KS,67301,NOT AVAILABLE,(620) 332-1854
80849,201299002009,WICHITA LEARNING CENTER,1847 N CHAUTAUQUA,WICHITA,KS,67214,NOT AVAILABLE,(316) 973-0514
81557,200633000047,EISENHOWER ELEM,BLDG 327,FORT LEAVENWORTH,KS,66027,1252,(913) 651-6663
82530,201230000803,CIRCLE HIGH,905 MAIN,TOWANDA,KS,67144,NOT AVAILABLE,(316) 541-2277
83961,201299001706,ENDERS STEM AND LEADERSHIP MAGNET,3030 S OSAGE,WICHITA,KS,67217,3125,(316) 973-6750
84116,201014001882,MADISON PLACE ELEMENTARY,16651 S. WARWICK ST,OLATHE,KS,66062,NOT AVAILABLE,(913) 780-7520
87119,200654001678,CLARK DAVIDSON ELEM,333 S WALNUT,GODDARD,KS,67052,0278,(316) 794-4260
54173,200936000672,MCLOUTH ELEM,217 SUMMIT,MCLOUTH,KS,66054,0040,(913) 796-6152
55593,200002300579,RAWLINS COUNTY ELEMENTARY,205 N 4TH STREET,ATWOOD,KS,67730,1799,(785) 626-3217
56415,200573001327,GRANDVIEW ELEM,2702 N. COUNTRY CLUB RD.,EL DORADO,KS,67042,NOT AVAILABLE,(316) 322-4830
59305,200840001371,PINCKNEY ELEM,810 W 6 STREET,LAWRENCE,KS,66044,2290,(785) 832-5800
90164,200320001071,WANAMAKER ELEM,6630 SW 10TH,TOPEKA,KS,66615,3800,(785) 339-4800
90497,200654000379,OAK STREET ELEMENTARY SCHOOL K-4,501 N OAK,GODDARD,KS,67052,0188,(316) 794-4200
91514,201230000805,CIRCLE TOWANDA ELEMENTARY,516 NORTH ST,TOWANDA,KS,67144,NOT AVAILABLE,(316) 536-2281
92782,201014001655,PIONEER TRAIL MIDDLE SCHOOL,15100 WEST 127TH ST,OLATHE,KS,66062,1441,(913) 780-7270
95734,201299000265,CLOUD ELEM,1212 W 25TH ST NO,WICHITA,KS,67204,5774,(316) 973-9200
98866,200775000696,JAYHAWK-LINN HIGH,14675 KS HWY 52,MOUND CITY,KS,66056,0603,(913) 795-2224
99390,201299000300,MCLEAN SCIENCE/TECH MAGNET ELEM,2277 MARIGOLD LANE,WICHITA,KS,67204,5599,(316) 973-8250
62524,200867001794,SOUTHERN COFFEY COUNTY MIDDLE SCHOOL,1013 N MAIN,LEROY,KS,66857,NOT AVAILABLE,(620) 964-2217
63127,200735000756,HOLCOMB ELEM 3-5,200 N MAIN,HOLCOMB,KS,67851,NOT AVAILABLE,(620) 277-2257
65441,201149000684,ELMONT ELEM,6432 NW ELMONT RD,TOPEKA,KS,66618,2040,(785) 286-8450
68240,200914000383,MAIZE ELEMENTARY,305 W. JONES,MAIZE,KS,67101,NOT AVAILABLE,(316) 722-8230
69888,200001300415,WINONA HIGH,503 WILSON,WINONA,KS,67764,NOT AVAILABLE,(785) 846-7496
102166,200654001732,DWIGHT D. EISENHOWER MIDDLE SCHOOL,16152 W EXPLORER ST,GODDARD,KS,67052,NOT AVAILABLE,(316) 794-4150
44386,201236001520,TURNER MIDDLE SCHOOL,1312 SOUTH 55TH,KANSAS CITY,KS,66106,NOT AVAILABLE,(913) 288-4000
46436,200702001680,KATHRYN O'LOUGHLIN MCCARTHY ELEM,1401 HALL,HAYS,KS,67601,NOT AVAILABLE,(785) 623-2510
31627,200797000592,ST. MARYS JUNIOR SENIOR HIGH,601 E LASLEY,ST MARYS,KS,66536,1798,(785) 437-6257
34086,201047000396,PALCO JR. HIGH,502 ASH,PALCO,KS,67657,NOT AVAILABLE,(785) 737-4645
36220,200001500461,LINCOLN ELEM,1102 MILNER,OTTAWA,KS,66067,1804,(785) 229-8080
36231,200558001089,CENTRAL ELEM,1100 CENTRAL AVENUE,DODGE CITY,KS,67801,NOT AVAILABLE,(620) 471-2104
38062,201251002038,VALLEY CENTER INTERMEDIATE SCHOOL,737 N. MERIDIAN,VALLEY CENTER,KS,67147,NOT AVAILABLE,(316) 755-7050
55525,201299001086,KELLY LIBERAL ARTS ACADEMY,3143 S MILLWOOD,WICHITA,KS,67217,2569,(316) 973-4150
57591,201200002098,WOLF SPRINGS ELEMENTARY SCHOOL,9300 W. 178TH STREET,OVERLAND PARK,KS,66013,NOT AVAILABLE,(913) 624-2400
26802,201047002074,DAMAR ELEMENTARY SCHOOL,402 3RD STREET,DAMAR,KS,67632,0038,(785) 839-4265
28096,200744001290,WHITE CITY HIGH,414 E GOODNOW,WHITE CITY,KS,66872,0008,(785) 349-2211
80342,200000200907,SODERSTROM ELEM,227 N WASHINGTON,LINDSBORG,KS,67456,2129,(785) 227-2945
80387,200330001501,MOUND VALLEY ELEM,402 WALNUT,MOUND VALLEY,KS,67354,NOT AVAILABLE,(620) 328-3121
82506,201242000070,HICKOK ELEM,810 N MISSOURI,ULYSSES,KS,67880,NOT AVAILABLE,(620) 356-3919
87951,200034801941,DONIPHAN WEST JR/SR HIGH SCHOOL,402 E MAIN,HIGHLAND,KS,66035,NOT AVAILABLE,(785) 442-3286
89265,201299000281,HARRY STREET ELEM,1605 S. MARKET,WICHITA,KS,67211,4108,(316) 973-0700
66727,200984000372,MULVANE ELEM W D MUNSON,1007 WESTVIEW DR,MULVANE,KS,67110,NOT AVAILABLE,(316) 777-0151
66926,201137000509,HEUSNER ELEM,1300 NORTON,SALINA,KS,67401,NOT AVAILABLE,(785) 309-4200
67659,200000700156,SMITH CENTER JR SR HIGH,300 ROGER BARTA WAY,SMITH CENTER,KS,66967,0329,(785) 282-6609
93369,200775000695,JAYHAWK ELEMENTARY,415 S 6TH ST,MOUND CITY,KS,66056,0305,(913) 795-2519
94519,200546000353,EL PASO ELEM,900 E CRESTWAY,DERBY,KS,67037,1999,(316) 788-8545
95116,200546000356,PLEASANTVIEW ELEM,1101 N GEORGIE,DERBY,KS,67037,2799,(316) 788-8555
97348,201113000872,RIVERTON MIDDLE,7144 SE 70TH,RIVERTON,KS,66770,0290,(620) 848-3355
70499,201071000202,LAKESIDE ELEM,709 SOUTH COLLEGE,PITTSBURG,KS,66762,5097,(620) 235-3140
73470,200345001233,FRANCES WILLARD ELEM,201 N 4TH,ARKANSAS CITY,KS,67005,2599,(620) 441-2050
73710,200546000361,DERBY HIGH SCHOOL,920 N ROCK ROAD,DERBY,KS,67037,2298,(316) 788-8500
74489,201226001463,STATE STREET ELEM,500 NE SUMNER ST,TOPEKA,KS,66616,1391,(785) 235-7280
75167,200639001170,ABE HUBERT ELEMENTARY SCHOOL,1205 A STREET,GARDEN CITY,KS,67846,5449,(620) 805-8400
2228,200034902043,CENTRAL PLAINS JR. SR. HIGH SCHOOL,700 ALBRO,CLAFLIN,KS,67525,0348,(620) 587-3801
4614,200873002086,PRAIRIE VIEW ELEMENTARY SCHOOL,615 WARREN AVENUE,LIBERAL,KS,67901,NOT AVAILABLE,(620) 604-1800
6001,200001502101,SUNFLOWER ELEMENTARY SCHOOL,1325 FALCON WAY,OTTAWA,KS,66067,NOT AVAILABLE,(785) 229-8050
9780,200034601922,THUNDER RIDGE HIGH SCHOOL,209 EAST ASH,KENSINGTON,KS,66951,0188,(785) 476-2217
13922,201164001683,RISING STAR ELEM,8600 CANDLELIGHT,SHAWNEE MISSION,KS,66215,6030,(913) 993-4500
15016,200000601728,HIAWATHA MIDDLE SCHOOL,307 SOUTH MORRILL AVE,HIAWATHA,KS,66434,NOT AVAILABLE,(785) 742-4172
19410,200960000082,MINNEOLA ELEM,111 EAST LOCUST,MINNEOLA,KS,67865,0157,(620) 885-4571
19516,200786001145,STANTON COUNTY JR./SR. HIGH SCHOOL,200 W WEAVER STREET,JOHNSON,KS,67855,NOT AVAILABLE,(620) 492-6284
2048,200942000105,MEADE ELEM,310 E GRANT,MEADE,KS,67864,0400,(620) 873-2671
4009,200035101983,RIVERSIDE MIDDLE SCHOOL,204 NORTH 12TH STREET,ELWOOD,KS,66024,NOT AVAILABLE,(913) 365-6735
6666,590010300102,KICKAPOO NATION SCHOOL,400 FIRST ST,POWHATTAN,KS,66527,NOT AVAILABLE,(785) 474-3365
7272,200669000013,GREELEY COUNTY ELEM SCHOOL,400 W LAWRENCE,TRIBUNE,KS,67879,0580,(620) 376-4274
7460,201155001077,SEDGWICK HIGH,400 W 4TH ST,SEDGWICK,KS,67135,1559,(316) 772-5783
8340,200639001227,CHARLES O STONES INTERMEDIATE CTR,401 N JENNIE BARKER RD,GARDEN CITY,KS,67846,8316,(620) 805-8300
8450,200525002024,CHASE COUNTY JUNIOR SENIOR HIGH SCHOOL,600 MAIN STREET,COTTONWOOD FALLS,KS,66845,NOT AVAILABLE,(620) 273-6354
61282,201284000723,KENNEDY ELEM,501 N WOODLAWN,WELLINGTON,KS,67152,2826,(620) 326-4350
61842,201068002041,PIPER CREEK ELEMENTARY,13021 LEAVENWORTH RD,KANSAS CITY,KS,66109,NOT AVAILABLE,(913) 721-5000
64877,200002000496,WESTERN PLAINS NORTH ELEM,100 SCHOOL ST.,RANSOM,KS,67572,NOT AVAILABLE,(785) 731-2352
65623,201002000059,NORTON JR HIGH,706 NORTH JONES STREET,NORTON,KS,67654,1297,(785) 877-5851
66788,201164001523,BRIARWOOD ELEM,5300 W. 86TH STREET,SHAWNEE MISSION,KS,66207,1799,(913) 993-2200
68560,201200002045,AUBRY BEND MIDDLE SCHOOL,12501 W. 175TH STREET,OVERLAND PARK,KS,66221,NOT AVAILABLE,(913) 624-2300
10366,201122001337,FLINTHILLS PRIMARY SCHOOL,200 N WASHINGTON,CASSODAY,KS,66842,NOT AVAILABLE,(620) 735-4428
10865,200639001174,HORACE J. GOOD MIDDLE SCHOOL,1412 N. MAIN ST.,GARDEN CITY,KS,67846,4314,(620) 805-8100
12559,200474001867,THAYER SCHOOLS,300 W. WILSON,THAYER,KS,66776,NOT AVAILABLE,(620) 522-2109
16987,200855000037,BLUESTEM ELEMENTARY SCHOOL,501 MILL ROAD,LEON,KS,67074,NOT AVAILABLE,(316) 742-3291
18072,201299000347,SOUTH HIGH,701 W 33RD S,WICHITA,KS,67217,3497,(316) 973-5450
18620,200639001177,JENNIE BARKER ELEM,5585 N JENNIE BARKER RD,GARDEN CITY,KS,67846,9256,(620) 805-7700
18621,200797000591,ST MARYS ELEM,312 GRAND AVENUE,ST MARYS,KS,66536,1754,(785) 437-6159
42230,200909000861,MADISON ELEM,1014 S FOURTH,MADISON,KS,66860,NOT AVAILABLE,(620) 437-2918
48579,200702001680,KATHRYN O'LOUGHLIN MCCARTHY ELEM,1401 HALL,HAYS,KS,67601,NOT AVAILABLE,(785) 623-2510
30539,201200001291,PLEASANT RIDGE MIDDLE,9000 W. 165TH ST.,OVERLAND PARK,KS,66085,9073,(913) 239-5700
31076,200939000995,ROOSEVELT ELEM,800 S WALNUT,MCPHERSON,KS,67460,5699,(620) 241-9550
31628,200914000978,PRAY-WOODMAN ELEMENTARY,605 W ACADEMY AVE,MAIZE,KS,67101,9409,(316) 721-0902
33348,200639001176,GERTRUDE WALKER ELEM,805 W FAIR,GARDEN CITY,KS,67846,2999,(620) 805-7600
33867,200582000733,ELLINWOOD HIGH,210 E 2ND,ELLINWOOD,KS,67526,NOT AVAILABLE,(620) 564-3136
39769,201104000574,GOLDEN PLAINS MIDDLE,335 SCHOOL STREET,REXFORD,KS,67753,0100,(785) 687-3265
50973,201200001606,LEAWOOD MIDDLE,2410 W. 123RD ST.,LEAWOOD,KS,66209,1214,(913) 239-5300
51607,200840001189,LAWRENCE FREE STATE HIGH,4700 OVERLAND DRIVE,LAWRENCE,KS,66049,4130,(785) 832-6050
91434,200699001253,HAVILAND ELEM,400 N TOPEKA,HAVILAND,KS,67059,NOT AVAILABLE,(620) 862-5277
95205,200795001411,WM A WHITE ELEM,2600 N 43RD TERRACE,KANSAS CITY,KS,66104,3461,(913) 627-6250
97159,201299000258,CALDWELL ELEM,1441 S EDGEMOOR,WICHITA,KS,67218,3308,(316) 973-0800
99937,201299000316,SOWERS ALTERNATIVE HIGH SCHOOL,2400 WASSALL ST,WICHITA,KS,67216,2399,(316) 973-1600
23276,200001701216,SCOTT CITY LOWER ELEM,410 EAST 8TH,SCOTT CITY,KS,67871,NOT AVAILABLE,(620) 872-7660
24686,200507001342,CENTRAL ELEM,810 S HIGH SCHOOL AVENUE,COLUMBUS,KS,66725,0109,(620) 429-3943
26750,200756000056,HUGOTON MIDDLE,115 W 11TH,HUGOTON,KS,67951,2999,(620) 544-4341
28185,200594001796,RIVERSIDE ELEMENTARY,327 S WEST ST,EMPORIA,KS,66801,4516,(620) 341-2276
28342,200477001786,ST. PAUL ELEMENTARY SCHOOL,118 FIRST STREET,ST. PAUL,KS,66771,NOT AVAILABLE,(620) 449-2245
80433,200914001666,MAIZE SOUTH ELEMENTARY,3404 N MAIZE ROAD,WICHITA,KS,67205,NOT AVAILABLE,(316) 462-8300
80835,201071001591,PITTSBURG MIDDLE SCHOOL,1310 N. BROADWAY,PITTSBURG,KS,66762,3095,(620) 235-3240
81150,200789001616,WARE ELEM,6795 THOMAS AVENUE,FORT RILEY,KS,66442,NOT AVAILABLE,(785) 717-4600
82869,200336001940,PRAIRIE CREEK ELEMENTARY,654 YMCA DRIVE,ANDOVER,KS,67002,NOT AVAILABLE,(316) 218-4630
84025,200945001931,MEDICINE LODGE JR/SR HIGH SCHOOL,400 W. ELDORADO AVE,MEDICINE LODGE,KS,67104,NOT AVAILABLE,(620) 886-5667
84669,200672002055,21ST CENTURY LEARNING ACADEMY/KIOWA COUNTY,730 S. MAIN,GREENSBURG,KS,67054,NOT AVAILABLE,(620) 723-1130
87117,200762000531,FARIS ELEMENTARY,301 EAST 10TH,HUTCHINSON,KS,67501,NOT AVAILABLE,(620) 615-5000
88315,200708001226,HEALY HIGH,5006 NORTH DODGE RD,HEALY,KS,67850,NOT AVAILABLE,(620) 398-2248
75021,200932000659,ROYAL VALLEY HIGH,101 E 1ST,HOYT,KS,66440,0128,(785) 986-6251
77767,201305001206,COUNTRY VIEW ELEM,16300 151ST ROAD,WINFIELD,KS,67156,3691,(620) 221-5155
79042,200339000749,CHAPARRAL JR/SR HIGH,467 KS-2,ANTHONY,KS,67003,9030,(620) 842-5155
79358,200705000363,HAYSVILLE MIDDLE SCHOOL,900 W GRAND,HAYSVILLE,KS,67060,1219,(316) 554-2251
30058,200914001105,MAIZE MIDDLE SCHOOL,4600 N MAIZE RD,MAIZE,KS,67101,9513,(316) 729-2464
30063,200906000712,MACKSVILLE ELEM,433 N. GILMORE,MACKSVILLE,KS,67557,NOT AVAILABLE,(620) 348-2835
32718,200897001911,ROCKVILLE ELEMENTARY SCHOOL,977 N ROCKVILLE ROAD,LOUISBURG,KS,66053,NOT AVAILABLE,(913) 837-1970
33962,201014001601,INDIAN TRAIL MIDDLE SCHOOL,1440 E 151ST ST,OLATHE,KS,66062,2855,(913) 780-7230
35523,201299000315,PLEASANT VALLEY ELEM,2000 W 29TH ST NO,WICHITA,KS,67204,4831,(316) 973-5200
36444,200507001340,HIGHLAND ELEM,319 N HIGH SCHOOL ST,COLUMBUS,KS,66725,1014,(620) 429-3032
36900,200825000753,PARKER ELEM,421 NORTH CENTER AVE.,PARKER,KS,66072,NOT AVAILABLE,(913) 898-3160
37052,200768001273,INGALLS HIGH SCHOOL/JUNIOR HIGH,100 BULLDOG DRIVE,INGALLS,KS,67853,NOT AVAILABLE,(620) 335-5135
37371,200909000862,MADISON HIGH,1500 SW BLVD,MADISON,KS,66860,0398,(620) 437-2912
37454,201164001574,SHAWNEE MISSION EAST HIGH,7500 MISSION RD,SHAWNEE MISSION,KS,66208,4298,(913) 993-6600
37625,200654002020,APOLLO ELEMENTARY SCHOOL,16158 W APOLLO,GODDARD,KS,67052,NOT AVAILABLE,(316) 794-4090
38632,201305001210,IRVING ELEM,311 HARTER,WINFIELD,KS,67156,3691,(620) 221-5140
10392,201299000284,IRVING ELEMENTARY,1642 N MARKET,WICHITA,KS,67214,1098,(316) 973-0050
15549,201299001694,NORTHEAST MAGNET HIGH SCHOOL,5550 N LYCEE,BEL AIRE,KS,67226,NOT AVAILABLE,(316) 973-2300
18036,201226001477,TOPEKA HIGH,800 SW 10TH ST,TOPEKA,KS,66612,1687,(785) 295-3150
18224,201278001382,VALLEY HEIGHTS ELEMENTARY - WATERVILLE,307 E LINCOLN,WATERVILLE,KS,66548,NOT AVAILABLE,(785) 363-2530
62159,200034601903,THUNDER RIDGE ELEMENTARY,128 S KANSAS STREET,KENSINGTON,KS,66951,0188,(785) 476-3241
63836,200918000851,WOODROW WILSON ELEM,312 N JULIETTE AVENUE,MANHATTAN,KS,66502,NOT AVAILABLE,(785) 587-2170
64850,200789001255,GRANDVIEW ELEM,109 E GRANDVIEW DRIVE,JUNCTION CITY,KS,66441,NOT AVAILABLE,(785) 717-4470
65638,200483001955,JACKSON HEIGHTS ELEMENTARY SCHOOL,12763 266TH ROAD,HOLTON,KS,66436,NOT AVAILABLE,(785) 364-2244
65704,201251000160,WHEATLAND ELEM,800 MEADOW,VALLEY CENTER,KS,67147,NOT AVAILABLE,(316) 755-7040
69274,200948001165,MARAIS DES CYGNES VALLEY HIGH,508 NE MAIN,MELVERN,KS,66510,NOT AVAILABLE,(785) 549-3313
21624,200618000147,WINFIELD SCOTT ELEM,316 W TENTH ST.,FORT SCOTT,KS,66701,2597,(620) 223-0450
23990,201065000606,PHILLIPSBURG HIGH,410 S 7TH,PHILLIPSBURG,KS,67661,NOT AVAILABLE,(785) 543-5251
29996,201108002034,ST. MARKS SCHOOL,19001 WEST 29TH N.,COLWICH,KS,67030,NOT AVAILABLE,(316) 796-1466
91982,200001200097,LINN HIGH,300 PARKVIEW,LINN,KS,66953,0345,(785) 348-5531
91983,201236000022,TURNER ELEM,1800 SOUTH 55TH,KANSAS CITY,KS,66106,NOT AVAILABLE,(913) 288-3400
92315,200450000444,CEDAR VALE HIGH,508 DORA,CEDAR VALE,KS,67024,0458,(620) 758-2791
99785,201014001668,BRIARWOOD ELEM,14101 S BROUGHAM DR,OLATHE,KS,66062,2085,(913) 780-7330
99938,200795001401,MARK TWAIN ELEM,2300 MINNESOTA AVENUE,KANSAS CITY,KS,66102,NOT AVAILABLE,(913) 627-5200
51252,200531001586,PIKE VALLEY JR HIGH,100 SCHOOL STREET,SCANDIA,KS,66966,NOT AVAILABLE,(785) 335-2294
53141,201149000690,WEST INDIANOLA ELEM,4201 NW BRICKYARD RD,TOPEKA,KS,66618,3531,(785) 286-8550
56059,200696002081,HAVEN VIRTUAL ACADEMY,320 NORTH EMPORIA,HAVEN,KS,67543,NOT AVAILABLE,(620) 465-2587
59050,201137001604,SCHILLING ELEM,3121 CANTERBURY,SALINA,KS,67401,NOT AVAILABLE,(785) 309-4400
80340,201014000144,SCARBOROUGH ELEM,2000 S LINDENWOOD DR,OLATHE,KS,66062,2899,(913) 780-7670
80341,201014000145,BLACK BOB ELEM,14701 S BROUGHAM DR,OLATHE,KS,66062,2628,(913) 780-7310
81931,200405000031,BONNER SPRINGS HIGH,100 MCDANIELD,BONNER SPRINGS,KS,66012,NOT AVAILABLE,(913) 422-5121
88419,200914000384,MAIZE SOUTH MIDDLE SCHOOL,3403 N TYLER RD,WICHITA,KS,67205,NOT AVAILABLE,(316) 722-0421
88483,201200001677,MISSION TRAIL ELEMENTARY,13200 MISSION ROAD,LEAWOOD,KS,66209,1750,(913) 239-6700
77249,200840001372,SCHWEGLER ELEM,2201 OUSDAHL RD,LAWRENCE,KS,66046,2757,(785) 832-5860
78584,200351000086,ASHLAND HIGH,311 J.E. HUMPHREYS ST.,ASHLAND,KS,67831,0187,(620) 635-2814
79354,200795001405,NOBLE PRENTIS ELEM,2337 S 14TH STREET,KANSAS CITY,KS,66103,1503,(913) 627-5250
7001,200639001175,GARDEN CITY HIGH SCHOOL,2720 BUFFALO WAY BLVD,GARDEN CITY,KS,67846,4445,(620) 805-5400
7799,200774000241,LINCOLN ELEM,700 N JEFFERSON,IOLA,KS,66749,2298,(620) 365-4820
40146,200810000701,KINSLEY-OFFERLE ELEMENTARY PRE-K-5,325 S ELM,OFFERLE,KS,67563,NOT AVAILABLE,(620) 659-2866
40598,200918000853,MANHATTAN HIGH SCHOOL WEST/EAST CAMPUS,2100 POYNTZ AVENUE,MANHATTAN,KS,66502,NOT AVAILABLE,(785) 587-2100
40816,201122001930,FLINTHILLS HIGH SCHOOL,806 SE ROSALIA RD,ROSALIA,KS,67132,0188,(620) 476-2215
42139,200477001492,CHETOPA ELEM,430 ELM STREET,CHETOPA,KS,67336,8852,(620) 236-7244
42229,200702001318,LINCOLN ELEM,1906 ASH,HAYS,KS,67601,NOT AVAILABLE,(785) 623-2500
42248,201299000276,GARDINER ELEM,1951 S. LAURA,WICHITA,KS,67211,4422,(316) 973-1700
43192,201113000925,RIVERTON ELEM,7166 SE 70TH,RIVERTON,KS,66770,0290,(620) 848-4078
45871,200654001551,AMELIA EARHART ELEMENTARY SCHOOL,19201 W. 23RD STREET SOUTH,GODDARD,KS,67052,NOT AVAILABLE,(316) 794-4080
100558,200658000720,WEST ELEMENTARY,912 WEST 12TH,GOODLAND,KS,67735,NOT AVAILABLE,(785) 890-6163
105003,200795002112,GLORIA WILLIS MIDDLE SCHOOL,1735 N. 64TH TERRACE,KANSAS CITY,KS,66102,NOT AVAILABLE,(913) 627-6300
105009,201185002108,TIMBER SAGE ELEMENTARY SCHOOL,15800 W 173RD TERRACE,OLATHE,KS,66062,NOT AVAILABLE,(913) 592-7244
80339,201164001542,MILL CREEK ELEM,13951 W 79TH ST,SHAWNEE MISSION,KS,66215,5300,(913) 993-3700
86103,200636001511,GALENA MIDDLE SCHOOL,624 EAST 8TH STREET,GALENA,KS,66739,NOT AVAILABLE,(620) 783-4499
86479,200774000240,JEFFERSON ELEM,300 S JEFFERSON,IOLA,KS,66749,3398,(620) 365-4840
89815,200320001069,PAULINE CENTRAL PRIMARY,6625 SW WESTVIEW,TOPEKA,KS,66619,1420,(785) 339-4700
91469,201299000257,BUCKNER PERFORMING ARTS MAGNET ELEM,3530 E 27TH N,WICHITA,KS,67220,2499,(316) 973-9350
92468,200762000544,HUTCHINSON HIGH SCHOOL,810 EAST 13TH,HUTCHINSON,KS,67501,NOT AVAILABLE,(620) 615-4100
92601,200570001962,ATCHISON COUNTY COMMUNITY ELEMENTARY SCHOOL,607 8TH STREET,EFFINGHAM,KS,66023,NOT AVAILABLE,(913) 833-4420
96053,200658002078,NORTH ELEMENTARY,700 E 4TH,GOODLAND,KS,67735,NOT AVAILABLE,(785) 890-6558
99034,201200001582,LEAWOOD ELEMENTARY,2400 W. 123RD ST.,LEAWOOD,KS,66209,1299,(913) 239-6600
105001,200546002113,STONE CREEK ELEMENTARY,3012 TRIPLE CREEK DR,DERBY,KS,67037,NOT AVAILABLE,(316) 788-8555
105011,201299002103,BRYANT OPPORTUNITY ACADEMY,4702 W 9TH,WICHITA,KS,67212,NOT AVAILABLE,(316) 973-9700
50818,201299002063,EDUCATION IMAGINE ACADEMY,1847 N. CHAUTAUQUA,WICHITA,KS,67214,NOT AVAILABLE,(316) 973-5181
51611,200756000057,HUGOTON HIGH,215 W 11TH,HUGOTON,KS,67951,2998,(620) 544-4311
51940,201152000445,SEDAN ELEM,404 N SHERMAN,SEDAN,KS,67361,1197,(620) 725-5611
55405,201068001937,PIPER PRAIRIE ELEMENTARY,3131 N. 122ND,KANSAS CITY,KS,66109,NOT AVAILABLE,(913) 721-5000
57586,200627002089,FREDONIA EARLY LEARNING CENTER,203 N. 8TH,FREDONIA,KS,66736,NOT AVAILABLE,(620) 378-4138
31214,200621000103,FOWLER ELEM,100 E 8TH AVE,FOWLER,KS,67844,0170,(620) 646-5234
33090,200645002060,GARNETT ELEMENTARY SCHOOL,403 WEST HOME RUN DR.,GARNETT,KS,66032,NOT AVAILABLE,(785) 448-3177
36156,200001500463,OTTAWA SR HIGH,1120 SOUTH ASH,OTTAWA,KS,66067,NOT AVAILABLE,(785) 229-8020
36605,201125001592,ROSE HILL MIDDLE,212 ROCKET DRIVE,ROSE HILL,KS,67133,9785,(316) 776-3320
37299,200034601900,THUNDER RIDGE MIDDLE SCHOOL,941 KANSAS AVENUE,AGRA,KS,67621,0209,(785) 638-2244
63225,200789001263,WASHINGTON ELEM,1500 N WASHINGTON,JUNCTION CITY,KS,66441,NOT AVAILABLE,(785) 717-4690
63362,200705001876,PRAIRIE ELEMENTARY SCHOOL,7101 S. MERIDIAN,HAYSVILLE,KS,67060,NOT AVAILABLE,(316) 554-2350
63716,200456000830,CENTRALIA ELEM,507 JOHN RIGGINS AVE,CENTRALIA,KS,66415,0367,(785) 857-3324
63837,200546000354,OAKLAWN ELEM,5000 S CLIFTON,WICHITA,KS,67216,3497,(316) 554-0704
65126,201014001929,FOREST VIEW ELEM,12567 S. CANYON DR,OLATHE,KS,66061,NOT AVAILABLE,(913) 780-7440
66136,201035001491,OSWEGO JUNIOR-SENIOR HIGH SCHOOL,1501 TOMAHAWK TRAIL,OSWEGO,KS,67356,0129,(620) 795-2125
66297,200459001926,CHANUTE ELEMENTARY SCHOOL,500 OSA MARTIN BOULEVARD,CHANUTE,KS,66720,NOT AVAILABLE,(620) 432-2530
67476,200001701217,SCOTT CITY MIDDLE,809 W NINTH,SCOTT CITY,KS,67871,NOT AVAILABLE,(620) 872-7640
67956,200420001585,PRAIRIE HILLS MIDDLE,3200 LUCILLE DRIVE,HUTCHINSON,KS,67502,NOT AVAILABLE,(620) 662-6027
69988,201170000784,SILVER LAKE ELEM,200 RICE RD,SILVER LAKE,KS,66539,0039,(785) 582-4081
27700,200546000355,PAUL B COOPER ELEM,4625 JUNIPER,WICHITA,KS,67216,2999,(316) 554-0934
10010,201200000111,STANLEY ELEMENTARY,6121 W. 158TH ST.,OVERLAND PARK,KS,66223,3474,(913) 239-7200
10013,201104000576,GOLDEN PLAINS ELEM,210 W 6TH,SELDEN,KS,67757,0199,(785) 386-4560
10376,201119000076,ROLLA ELEM (PREK-5),300 THIRD STREET,ROLLA,KS,67954,0167,(620) 593-4731
11395,200002300580,RAWLINS COUNTY JR/SR HIGH SCHOOL,100 N 8TH STREET,ATWOOD,KS,67730,1899,(785) 626-3289
16527,201299001619,BEECH ELEM,1830 S CYPRESS,WICHITA,KS,67207,5813,(316) 973-9800
17053,201191000710,ST JOHN ELEM,505 NORTH BROADWAY,ST. JOHN,KS,67576,1644,(620) 549-3518
70687,200684001079,HALSTEAD MIDDLE SCHOOL,221 WEST 6TH STREET,HALSTEAD,KS,67056,NOT AVAILABLE,(316) 835-2694
71086,200447001844,TIPTON COMMUNITY SCHOOL,209 STATE ST.,TIPTON,KS,67485,NOT AVAILABLE,(785) 373-5355
72305,200888001101,LITTLE RIVER JUNIOR HIGH,430 WAVERLY,LITTLE RIVER,KS,67457,0008,(620) 897-6201
74121,200984001315,MULVANE MIDDLE SCHOOL,915 WESTVIEW DR,MULVANE,KS,67110,NOT AVAILABLE,(316) 777-2022
74502,201089000842,PRATT SR HIGH,400 S HAMILTON,PRATT,KS,67124,2599,(620) 672-4540
75653,200903000930,LYONS HIGH SCHOOL,601 E. AMERICAN ROAD,LYONS,KS,67554,NOT AVAILABLE,(620) 257-5114
77250,200441001064,LINCOLN MEMORIAL ELEM,201 E FIRST,CANEY,KS,67333,1999,(620) 879-9240
79351,201164001547,PAWNEE ELEM,9501 W 91ST ST,SHAWNEE MISSION,KS,66212,4738,(913) 993-4300
41606,200795001414,CENTRAL MIDDLE,925 IVANDALE,KANSAS CITY,KS,66101,3643,(913) 627-6150
42240,200999000549,SOUTH HUTCHINSON ELEM,405 SOUTH POPLAR,S. HUTCHINSON,KS,67505,1189,(620) 665-8441
42241,200999000547,NICKERSON HIGH,305 S. NICKERSON,NICKERSON,KS,67561,9276,(620) 422-3226
43336,201155001076,R L WRIGHT ELEM,400 W 4TH ST,SEDGWICK,KS,67135,1559,(316) 772-5783
49612,201233001039,TROY HIGH AND MIDDLE SCHOOL,319 S PARK,TROY,KS,66087,NOT AVAILABLE,(785) 985-3533
11377,200897001638,LOUISBURG MIDDLE,505 E. AMITY,LOUISBURG,KS,66053,NOT AVAILABLE,(913) 837-1800
11984,200795001431,STONY POINT SOUTH,150 SOUTH 78TH ST,KANSAS CITY,KS,66111,2910,(913) 627-4600
15055,200561000895,DOUGLASS HIGH,910 E FIRST,DOUGLASS,KS,67039,NOT AVAILABLE,(316) 747-3310
17779,200996001975,CHISHOLM MIDDLE SCHOOL,900 E. FIRST,NEWTON,KS,67114,NOT AVAILABLE,(316) 284-6260
17821,200034901988,WILSON ELEMENTARY SCHOOL,3009 AVE. D,WILSON,KS,67490,NOT AVAILABLE,(785) 658-3555
18220,201164001521,BELINDER ELEM,7230 BELINDER RD,SHAWNEE MISSION,KS,66208,3302,(913) 993-1800
2326,200747001040,EVEREST MIDDLE,221 SOUTH 7TH,EVEREST,KS,66424,0226,(785) 548-7536
4612,200807002082,USD 331 VIRTUAL SCHOOL,115 NORTH MAIN STREET,KINGMAN,KS,67068,1333,(620) 532-1073
90054,200372001989,BALDWIN ELEMENTARY PRIMARY CENTER,500 LAWRENCE STREET,BALDWIN CITY,KS,66006,NOT AVAILABLE,(785) 594-2444
94563,201080001869,WEST FRANKLIN HIGH SCHOOL,511 EAST FRANKLIN,POMONA,KS,66076,NOT AVAILABLE,(785) 566-3392
95531,200474001125,CHERRYVALE SR / MIDDLE SCHOOL,700 S CARSON,CHERRYVALE,KS,67335,NOT AVAILABLE,(620) 336-8100
95956,200705001634,FREEMAN ELEM,1731 WEST GRAND,HAYSVILLE,KS,67060,1234,(316) 554-2265
97330,201185001918,INSIGHT SCHOOL OF KS AT HILLTOP ED CENTER,16740 W 175TH,OLATHE,KS,66062,NOT AVAILABLE,(913) 592-4600
98317,201035001489,OSWEGO NEOSHO HGTS ELEM,12 OREGON,OSWEGO,KS,67356,NOT AVAILABLE,(620) 795-4541
99018,200558000879,BEESON ELEMENTARY,1700 W BEESON RD,DODGE CITY,KS,67801,NOT AVAILABLE,(620) 471-2113
82447,201226001116,WILLIAMS SCIENCE AND FINE ARTS MAGNET SCHOOL,1301 SE MONROE ST,TOPEKA,KS,66612,1161,(785) 235-7330
84583,201164001575,SHAWNEE MISSION NORTH HIGH,7401 JOHNSON DRIVE,SHAWNEE MISSION,KS,66202,2394,(913) 993-6900
71612,200321000210,NLC ELEMENTARY SCHOOL,804 SIXTH STREET,AMERICUS,KS,66835,0497,(620) 481-2086
72486,200510000984,CONCORDIA ELEMENTARY,1500 EAST 9TH STREET,CONCORDIA,KS,66901,3119,(785) 243-8853
73535,201164001560,TOMAHAWK ELEM,6301 W 78TH ST,SHAWNEE MISSION,KS,66204,3199,(913) 993-5500
73728,201140001502,SATANTA ELEM,800 WICHITA,SATANTA,KS,67870,NOT AVAILABLE,(620) 649-2612
74490,200753000966,HOXIE HIGH,1625 QUEEN AVE,HOXIE,KS,67740,0989,(785) 675-3286
74794,200795001426,CLAUDE A HUYCK ELEM,1530 N 83RD STREET,KANSAS CITY,KS,66112,1712,(913) 627-4650
74889,201014001781,RAVENWOOD ELEMENTARY,12211 S. CLINTON ST,OLATHE,KS,66061,NOT AVAILABLE,(913) 780-7640
79352,200387000409,BELOIT ELEM,1201 N BELL,BELOIT,KS,67420,0586,(785) 738-3581
50815,201299002056,CHRISTA MCAULIFFE ACADEMY,2055 S 143RD E,WICHITA,KS,67230,NOT AVAILABLE,(316) 973-9985
51496,200795001433,WASHINGTON HIGH,7340 LEAVENWORTH ROAD,KANSAS CITY,KS,66109,1226,(913) 627-7800
55368,200001801750,SCHOOL FOR BLIND ELEMENTARY,1100 STATE AVENUE,KANSAS CITY,KS,66102,NOT AVAILABLE,(913) 305-3000
31625,200648000192,GIRARD MIDDLE,415 NORTH SUMMIT,GIRARD,KS,66743,1128,(620) 724-4114
34949,200381001504,CENTRAL ELEM,1501 PARK AVE,BAXTER SPRINGS,KS,66713,NOT AVAILABLE,(620) 856-3311
37141,200330001500,MEADOWVIEW ELEM,1377 21;000 ROAD,PARSONS,KS,67357,8080,(620) 421-1857
37824,201299000346,NORTH HIGH,1437 ROCHESTER,WICHITA,KS,67203,2967,(316) 973-6300
60297,200666001028,JEFFERSON ELEM,2716 24TH,GREAT BEND,KS,67530,2297,(620) 793-1502
60725,200035102005,RIVERSIDE INTERMEDIATE,203 NORTH 12TH,ELWOOD,KS,66024,NOT AVAILABLE,(913) 365-6735
61629,200513001701,CONWAY SPRINGS MIDDLE SCHOOL,112 N. CRANMER,CONWAY SPRINGS,KS,67031,NOT AVAILABLE,(620) 456-2965
68480,200918000854,OGDEN ELEM,210 ELM ST,OGDEN,KS,66517,0851,(785) 587-2080
20189,200789001267,JUNCTION CITY SR HIGH,900 N EISENHOWER DRIVE,JUNCTION CITY,KS,66441,NOT AVAILABLE,(785) 717-4200
21479,201251000369,VALLEY CENTER MIDDLE SCHOOL,800 N. MERIDIAN,VALLEY CENTER,KS,67147,NOT AVAILABLE,(316) 755-7060
21658,201251000368,WEST ELEM,501 N SHERIDAN,VALLEY CENTER,KS,67147,NOT AVAILABLE,(316) 755-7030
22807,201251000368,WEST ELEM,501 N SHERIDAN,VALLEY CENTER,KS,67147,NOT AVAILABLE,(316) 755-7030
24865,200579000079,ELKHART MIDDLE SCHOOL,151 WILDCAT AVE,ELKHART,KS,67950,NOT AVAILABLE,(620) 697-2197
24895,200795001388,BANNEKER ELEM,2026 N 4TH STREET,KANSAS CITY,KS,66101,3449,(913) 627-4700
26751,200795001415,CARL B. BRUCE MIDDLE SCHOOL,2100 N 18TH ST,KANSAS CITY,KS,66104,4711,(913) 627-4000
40002,200363000741,EWALT ELEMENTARY,2340 GREYHOUND DRIVE,AUGUSTA,KS,67010,NOT AVAILABLE,(316) 775-0056
40488,201014001617,PRAIRIE CENTER ELEM,629 N PERSIMMON DR,OLATHE,KS,66061,5918,(913) 780-7610
47585,200498001597,ROOSEVELT MIDDLE,1000 W 8TH,COFFEYVILLE,KS,67337,4198,(620) 252-6420
48527,200732001886,LINCOLN ELEMENTARY,515 N. OAK ST.,HOISINGTON,KS,67544,1894,(620) 653-4549
105007,201014002110,CANYON CREEK ELEMENTARY,24001 W 97TH TERR,LENEXA,KS,66227,NOT AVAILABLE,(913) 780-7400
6589,201014001761,PRAIRIE TRAIL MIDDLE SCHOOL,21600 W 107TH ST,OLATHE,KS,66061,NOT AVAILABLE,(913) 780-7280
73417,200639001207,BERNADINE SITTS INTERMEDIATE CTR,3101 N BELMONT,GARDEN CITY,KS,67846,9803,(620) 805-8200
81824,201014001548,CHISHOLM TRAIL MIDDLE SCHOOL,16700 W. 159TH STREET,OLATHE,KS,66062,NOT AVAILABLE,(913) 780-7240
83600,200513000735,CONWAY SPRINGS HIGH SCHOOL,607 W. ST. LOUIS,CONWAY SPRINGS,KS,67031,NOT AVAILABLE,(620) 456-2963
30773,201125000885,ROSE HILL PRIMARY,409 E SCHOOL ST,ROSE HILL,KS,67133,9785,(316) 776-3340
33065,201299001720,ISELY TRADITIONAL MAGNET ELEM,5256 N WOODLAWN,BEL AIRE,KS,67220,2114,(316) 973-8200
35199,200642001878,WHEATRIDGE MIDDLE SCHOOL,318 E. WASHINGTON STREET,GARDNER,KS,66030,NOT AVAILABLE,(913) 856-2900
35682,200546000357,SWANEY ELEM,501 E ENGLISH,DERBY,KS,67037,1398,(316) 788-8560
37081,200336001727,SUNFLOWER ELEMENTARY SCHOOL,616 E. DOUGLAS,ANDOVER,KS,67002,NOT AVAILABLE,(316) 218-4730
38446,201236000017,JUNCTION ELEMENTARY,2570 SOUTH 42ND STREET,KANSAS CITY,KS,66106,NOT AVAILABLE,(913) 288-3600
68745,201299000328,CURTIS MIDDLE SCHOOL,1031 S EDGEMOOR,WICHITA,KS,67218,3396,(316) 973-7350
69817,201200001715,LIBERTY VIEW ELEMENTARY,14800 S. GREENWOOD ST.,OLATHE,KS,66062,3477,(913) 239-7700
100225,200639001173,GEORGIA MATTHEWS ELEM,111 JOHNSON,GARDEN CITY,KS,67846,4437,(620) 805-7550
101405,201164001524,BROOKRIDGE ELEM,9920 LOWELL,SHAWNEE MISSION,KS,66212,3487,(913) 993-2400
20027,200924000947,MARION MIDDLE,125 SOUTH LINCOLN,MARION,KS,66861,1437,(620) 382-6070
20453,201278001383,VALLEY HEIGHTS JR/SR HIGH,2274 6TH ROAD,BLUE RAPIDS,KS,66411,NOT AVAILABLE,(785) 363-2508
21778,200978001011,MOUNDRIDGE ELEM,207 S. DRUCILLA,MOUNDRIDGE,KS,67107,0583,(620) 345-5500
23562,200348000184,NORTH EAST HIGH,1003 E SOUTH STREET,ARMA,KS,66712,0669,(620) 347-4115
23774,200498001772,COMMUNITY ELEMENTARY,102 S. CLINE,COFFEYVILLE,KS,67337,NOT AVAILABLE,(620) 252-6430
25080,200477001928,ST. PAUL HIGH SCHOOL,118 FIRST STREET,ST. PAUL,KS,66771,NOT AVAILABLE,(620) 449-2245
28725,201305001214,WINFIELD HIGH,300 VIKING BLVD,WINFIELD,KS,67156,3691,(620) 221-5160
29268,201299000298,MCCOLLOM ELEM,1201 WADDINGTON,WICHITA,KS,67212,4099,(316) 973-0350
90701,200972000054,MOSCOW HIGH,301 HIGH ROAD,MOSCOW,KS,67952,0160,(620) 598-2250
97913,201164001546,OVERLAND PARK ELEM,8150 SANTA FE DR,SHAWNEE MISSION,KS,66204,3608,(913) 993-4200
42232,201014000141,ROLLING RIDGE ELEM,1500 W ELM TERR,OLATHE,KS,66061,3999,(913) 780-7650
42364,201131000945,RUSSELL HIGH,565 STATE STREET,RUSSELL,KS,67665,2215,(785) 483-5631
50816,200978001012,MOUNDRIDGE HIGH,526 E. COLE,MOUNDRIDGE,KS,67107,0610,(620) 345-5500
51845,201188000484,ST FRANCIS HIGH,100 COLLEGE STREET,ST FRANCIS,KS,67756,1110,(785) 332-8153
57589,200873002096,MEADOWLARK ELEMENTARY SCHOOL,1200 N CALVERT,LIBERAL,KS,67901,NOT AVAILABLE,(620) 604-2100
58432,201299000337,MAYBERRY CULTURAL AND FINE ARTS MAGNET MIDDLE,207 S SHERIDAN,WICHITA,KS,67213,2486,(316) 973-5800
59370,201299001799,STUCKY MIDDLE SCHOOL,4545 N BROADVIEW CIRCLE,WICHITA,KS,67220,1774,(316) 973-8400
59458,200914002057,VERMILLION ELEMENTARY SCHOOL,501 JAMES,MAIZE,KS,67101,NOT AVAILABLE,(316) 722-0266
10618,200330001497,EDNA ELEM,220 W MYRTLE,EDNA,KS,67342,0220,(620) 922-7210
13086,201062000675,LECOMPTON ELEM,626 WHITFIELD ST,LECOMPTON,KS,66050,NOT AVAILABLE,(785) 887-6343
13345,201239001583,UDALL MIDDLE SCHOOL,301 W. 4TH ST.,UDALL,KS,67146,NOT AVAILABLE,(620) 782-3623
13504,200501000572,COLBY MIDDLE SCHOOL,750 W THIRD ST,COLBY,KS,67701,2000,(785) 460-5200
14945,200672001010,KIOWA COUNTY HIGH SCHOOL,720 S. MAIN,GREENSBURG,KS,67054,1852,(620) 723-2164
15758,201263000051,TREGO COMMUNITY HIGH,1200 RUSSELL AVENUE,WAKEENEY,KS,67672,NOT AVAILABLE,(785) 743-2061
15965,200642002076,TRAIL RIDGE MIDDLE SCHOOL,495 E. GRAND STREET,GARDNER,KS,66030,NOT AVAILABLE,(913) 856-3550
17425,200471000188,SOUTHEAST HIGH,126 W 400 HWY,CHEROKEE,KS,66724,NOT AVAILABLE,(620) 457-8365
18276,201032000670,OSKALOOSA ELEM,404 PARK STREET,OSKALOOSA,KS,66066,NOT AVAILABLE,(785) 863-2254
19134,200756001965,HUGOTON LEARNING ACADEMY,215 W 11TH ST,HUGOTON,KS,67951,NOT AVAILABLE,(620) 428-6374
42599,200570001957,ATCHISON COUNTY COMMUNITY JR/SR HIGH,908 TIGER ROAD,EFFINGHAM,KS,66023,NOT AVAILABLE,(913) 833-2240
51254,201284001769,WELLINGTON HIGH SCHOOL,1700 EAST 16TH STREET,WELLINGTON,KS,67152,NOT AVAILABLE,(620) 326-4310
53350,201226001451,LOWMAN HILL ELEM,1101 SW GARFIELD AVE,TOPEKA,KS,66604,1311,(785) 235-7060
54787,200717001193,HESSTON MIDDLE,100 N RIDGE ROAD,HESSTON,KS,67062,NOT AVAILABLE,(620) 327-7111
59246,200573001327,GRANDVIEW ELEM,2702 N. COUNTRY CLUB RD.,EL DORADO,KS,67042,NOT AVAILABLE,(316) 322-4830
31326,201071000208,PITTSBURG HIGH,1978 EAST 4TH,PITTSBURG,KS,66762,9101,(620) 235-3200
31932,200579000081,ELKHART HIGH,150 WILDCAT AVE,ELKHART,KS,67950,NOT AVAILABLE,(620) 697-2193
36284,200797000589,ROSSVILLE ELEM,312 E POTTAWATOMIE,ROSSVILLE,KS,66533,NOT AVAILABLE,(785) 584-6188
38236,201287000456,WELLSVILLE HIGH,602 WALNUT,WELLSVILLE,KS,66092,8323,(785) 883-2057
5826,200873002095,SEYMOUR ROGERS MIDDLE SCHOOL,721 GRIFFITH,LIBERAL,KS,67901,NOT AVAILABLE,(620) 604-1300
21529,200843001979,EARL LAWSON ELEMENTARY,820 N 5TH ST,LEAVENWORTH,KS,66048,NOT AVAILABLE,(913) 684-1570
22895,200540000075,DEERFIELD HIGH,803 BEECH STREET,DEERFIELD,KS,67838,0274,(620) 426-8401
23275,200939000996,WASHINGTON ELEM,128 N PARK,MCPHERSON,KS,67460,3406,(620) 241-9560
24159,201299000321,WELLS ALTERNATIVE MIDDLE SCHOOL,1221 E GALENA SUITE 373,WICHITA,KS,67216,1645,(316) 973-7650
25026,200855000038,BLUESTEM JR/SR HIGH,500 BLUESTEM DRIVE,LEON,KS,67074,NOT AVAILABLE,(316) 742-3281
11194,200000301608,WEST ELEM,1911 6TH ST,WAMEGO,KS,66547,1189,(785) 456-8333
12624,200351000084,ASHLAND ELEM,210 W 7TH,ASHLAND,KS,67831,0187,(620) 635-2722
14394,201164001576,SHAWNEE MISSION NORTHWEST HIGH,12701 W 67TH STREET,SHAWNEE MISSION,KS,66216,3599,(913) 993-7200
15658,200666001032,RILEY ELEM,1515 10TH,GREAT BEND,KS,67530,4598,(620) 793-1506
16524,200774000244,IOLA SR HIGH,300 E JACKSON,IOLA,KS,66749,2992,(620) 365-4715
16671,200594000223,WALNUT ELEM,801 GROVE AVE,EMPORIA,KS,66801,2641,(620) 341-2288
91782,200363000919,AUGUSTA SR HIGH,2020 OHIO,AUGUSTA,KS,67010,2198,(316) 775-5461
93854,201108000388,COLWICH ELEM,401 SOUTH MARION,COLWICH,KS,67030,NOT AVAILABLE,(316) 796-1331
96999,201164001573,TRAILRIDGE MIDDLE,7500 QUIVIRA RD,SHAWNEE MISSION,KS,66216,3597,(913) 993-1000
99826,201185002072,WOLF CREEK ELEMENTARY SCHOOL,19250 RIDGEVIEW ROAD,SPRING HILL,KS,66083,NOT AVAILABLE,(913) 592-7233
99936,200918000849,NORTHVIEW ELEM,300 GRIFFITH DR,MANHATTAN,KS,66502,NOT AVAILABLE,(785) 587-2070
70177,201137000509,HEUSNER ELEM,1300 NORTON,SALINA,KS,67401,NOT AVAILABLE,(785) 309-4200
70295,200002201857,ST. HOSP. TRAINING CENTER PARSONS,2601 GABRIEL,PARSONS,KS,67357,NOT AVAILABLE,(620) 421-6550
72307,201206000402,STOCKTON HIGH,105 N CYPRESS,STOCKTON,KS,67669,NOT AVAILABLE,(785) 425-6784
73032,200795001410,EUGENE WARE ELEM,4820 OAKLAND,KANSAS CITY,KS,66102,1742,(913) 627-5950
78010,200687000877,HAMILTON ELEM,2596 W ROAD,HAMILTON,KS,66853,NOT AVAILABLE,(620) 678-3410
79184,200519001270,COPELAND ELEM,105 THATCHER,COPELAND,KS,67837,NOT AVAILABLE,(620) 668-5565
66554,201200000541,BLUE VALLEY NORTHWEST HIGH,13260 SWITZER ROAD,OVERLAND PARK,KS,66213,3306,(913) 239-3400
67046,201050001627,SUNFLOWER ELEM,1401 E 303RD ST,PAOLA,KS,66071,NOT AVAILABLE,(913) 294-8040
67656,200957000163,MINNEAPOLIS JR-SR HIGH SCHOOL,602 WOODLAND AVE,MINNEAPOLIS,KS,67467,0317,(785) 392-2113
83354,201299000269,EARHART ENVIRON MAGNET ELEM,4401 N ARKANSAS,WICHITA,KS,67204,3307,(316) 973-3250
85083,200936000673,MCLOUTH HIGH,217 SUMMIT,MCLOUTH,KS,66054,0040,(913) 796-6122
105002,200573002105,BLACKMORE ELEMENTARY,530 N. ORCHARD ST.,EL DORADO,KS,67042,NOT AVAILABLE,(316) 322-4850
22932,200420000568,UNION VALLEY ELEM,2501 E 30TH,HUTCHINSON,KS,67502,NOT AVAILABLE,(620) 662-4891
23855,200363000915,GARFIELD ELEM,1053 OSAGE,AUGUSTA,KS,67010,NOT AVAILABLE,(316) 775-6601
23942,201299000330,HADLEY MIDDLE SCHOOL,1101 DOUGHERTY,WICHITA,KS,67212,1917,(316) 973-7800
24182,200693000216,NEOSHO RAPIDS ELEMENTARY,240 N. COMMERCIAL,NEOSHO RAPIDS,KS,66864,NOT AVAILABLE,(620) 342-7783
24917,200762000536,MCCANDLESS ELEMENTARY,700 N BAKER,HUTCHINSON,KS,67501,NOT AVAILABLE,(620) 615-5150
1976,200420000564,BUHLER ELEM,808 N MAIN,BUHLER,KS,67522,NOT AVAILABLE,(620) 543-2240
3229,200735000757,HOLCOMB HIGH,600 N JONES,HOLCOMB,KS,67851,NOT AVAILABLE,(620) 277-2063
3706,200035102032,RIVERSIDE HIGH SCHOOL,705 JESSIE,WATHENA,KS,66090,NOT AVAILABLE,(785) 989-4426
4615,200914002083,MAIZE VIRTUAL PREPARATORY SCHOOL,905 W ACADEMY AVE,MAIZE,KS,67101,NOT AVAILABLE,(316) 462-8800
5892,200795002097,500 REACH,7704 PARALLEL PARKWAY,KANSAS CITY,KS,66612,NOT AVAILABLE,(913) 287-1718
7662,200918000846,LEE ELEM,701 LEE STREET,MANHATTAN,KS,66502,NOT AVAILABLE,(785) 587-2050
9818,201164001549,PRAIRIE ELEM,6642 MISSION ROAD,SHAWNEE MISSION,KS,66208,1796,(913) 993-4400
11730,200906000713,MACKSVILLE HIGH,417 N. GILMORE,MACKSVILLE,KS,67557,NOT AVAILABLE,(620) 348-2475
12770,200600001946,ERIE ELEMENTARY,410 W 3RD ST,ERIE,KS,66733,NOT AVAILABLE,(620) 244-5161
18619,200666001034,GREAT BEND MIDDLE SCHOOL,1919 HARRISON,GREAT BEND,KS,67530,2199,(620) 793-1510
50085,200789001588,EISENHOWER ELEM,1625 ST MARYS RD,JUNCTION CITY,KS,66441,NOT AVAILABLE,(785) 717-4340
51608,200587000612,KANOPOLIS MIDDLE,210 IOWA,KANOPOLIS,KS,67454,NOT AVAILABLE,(785) 472-4477
54756,200789001264,WESTWOOD ELEM,1600 N EISENHOWER DR,JUNCTION CITY,KS,66441,NOT AVAILABLE,(785) 717-4150
56888,200819001300,SOUTHWESTERN HEIGHTS JR/SR HIGH,17222 MUSTANG ROAD,KISMET,KS,67859,9712,(620) 563-7292
57590,200999002092,CENTRAL STATE ACADEMY,305 S. NICKERSON,NICKERSON,KS,67561,NOT AVAILABLE,(620) 663-7141
58428,201164001893,OAK PARK-CARPENTER ELEMENTARY,10000 NIEMAN,SHAWNEE MISSION,KS,66214,NOT AVAILABLE,(913) 993-4100
80664,201299000274,FRANKLIN ELEM,214 S ELIZABETH,WICHITA,KS,67213,4093,(316) 973-9850
82692,201200000994,PRAIRIE STAR MIDDLE,14201 MISSION ROAD,LEAWOOD,KS,66224,9718,(913) 239-5600
83445,200612000873,EUREKA JR/SR HIGH,815 N. JEFFERSON,EUREKA,KS,67045,NOT AVAILABLE,(620) 583-7428
83931,200549001723,MILL VALLEY HIGH SCHOOL,5900 MONTICELLO ROAD,SHAWNEE,KS,66226,NOT AVAILABLE,(913) 422-4351
87692,200363000919,AUGUSTA SR HIGH,2020 OHIO,AUGUSTA,KS,67010,2198,(316) 775-5461
89506,200891000608,LOGAN HIGH,305 N SHERMAN,LOGAN,KS,67646,0098,(785) 689-7574
90199,200477001493,CHETOPA HIGH,430 ELM STREET,CHETOPA,KS,67336,8852,(620) 236-7244
91680,200948001164,MARAIS DES CYGNES VALLEY ELEM,213 N 8TH,QUENEMO,KS,66528,NOT AVAILABLE,(785) 759-3512
91980,200558000887,LINN ELEMENTARY,1900 W LINN ST,DODGE CITY,KS,67801,NOT AVAILABLE,(620) 471-2114
98617,200795001408,FRANK RUSHTON ELEM,2605 W 43RD AVENUE,KANSAS CITY,KS,66103,3122,(913) 627-3050
42238,200765001120,INDEPENDENCE MIDDLE,300 W. LOCUST ST.,INDEPENDENCE,KS,67301,3097,(620) 332-1836
42245,201074000399,PLAINVILLE ELEM,203 SE CARDINAL AVENUE,PLAINVILLE,KS,67663,NOT AVAILABLE,(785) 434-4508
42870,200828001637,LAKIN MIDDLE,1201 W. KINGMAN,LAKIN,KS,67860,NOT AVAILABLE,(620) 355-6973
43120,201226001471,CAPITAL CITY,500 SW TUFFY KELLOG DR,TOPEKA,KS,66606,2403,(785) 295-3600
43455,201014000136,OREGON TRAIL MIDDLE SCHOOL,1800 W DENNIS AVE,OLATHE,KS,66061,5100,(913) 780-7250
43717,200684001080,HALSTEAD HIGH,521 WEST 6TH STREET,HALSTEAD,KS,67056,NOT AVAILABLE,(316) 835-2682
47406,200444001002,CANTON-GALVA JR./SR. HIGH,506 S. KANSAS,CANTON,KS,67428,0275,(620) 628-4401
30044,201164001578,SHAWNEE MISSION WEST HIGH,8800 W 85TH ST,SHAWNEE MISSION,KS,66212,3898,(913) 993-7800
35797,200735001735,WILEY ELEM,204 HENDERSON,HOLCOMB,KS,67851,NOT AVAILABLE,(620) 277-4431
36590,201080001894,WEST FRANKLIN MIDDLE SCHOOL,331 TYLER ST,POMONA,KS,66076,NOT AVAILABLE,(785) 566-3451
38378,201305001212,WHITTIER ELEM,1400 MOUND,WINFIELD,KS,67156,3691,(620) 221-5150
39396,200035302048,NEMAHA CENTRAL ELEMENTARY AND MIDDLE SCHOOL,110 N. 11TH,SENECA,KS,66538,1713,(785) 336-2173
62011,200594000225,EMPORIA MIDDLE SCHOOL,2300 GRAPHIC ARTS ROAD,EMPORIA,KS,66801,6621,(620) 341-2335
69273,200639001178,JENNIE WILSON ELEM,1401 E HARDING,GARDEN CITY,KS,67846,4798,(620) 805-7750
71508,200537000634,CUNNINGHAM ELEM,104 W 4TH,CUNNINGHAM,KS,67035,0098,(620) 298-2462
73029,200918001067,DWIGHT D EISENHOWER MIDDLE SCHOOL,800 WALTERS DR,MANHATTAN,KS,66502,NOT AVAILABLE,(785) 587-2880
74271,200789001261,MORRIS HILL ELEM,4400 FIRST DIVISION RD,FORT RILEY,KS,66442,NOT AVAILABLE,(785) 717-4650
75024,200918000848,MARLATT ELEM,2715 HOBBS,MANHATTAN,KS,66502,NOT AVAILABLE,(785) 587-2060
12435,200546001630,DERBY HILLS ELEM,2230 NORTH WOODLAWN,DERBY,KS,67037,3899,(316) 788-8540
15410,201299000267,COLVIN ELEM,2820 S ROOSEVELT,WICHITA,KS,67210,1499,(316) 973-7600
15650,200001600762,MARYSVILLE JR/SR HIGH,1011 WALNUT,MARYSVILLE,KS,66508,1911,(785) 562-5386
15841,201164001568,INDIAN HILLS MIDDLE,6400 MISSION RD,SHAWNEE MISSION,KS,66208,1700,(913) 993-0400
15908,200936000992,MCLOUTH MIDDLE,217 SUMMIT,MCLOUTH,KS,66054,0040,(913) 796-6122
18228,200405001827,DELAWARE RIDGE ELEMENTARY,1601 NORTH 130TH STREET,KANSAS CITY,KS,66115,NOT AVAILABLE,(913) 441-2126
19036,201281000175,WAVERLY ELEM,607 DANE,WAVERLY,KS,66871,0589,(785) 733-2551
19648,201119000077,ROLLA JH/HS (6-12),203 VAN BUREN,ROLLA,KS,67954,0167,(620) 593-4345
50212,201242000067,KEPLEY MIDDLE SCHOOL,113 N COLORADO,ULYSSES,KS,67880,NOT AVAILABLE,(620) 356-3025
51612,200501000573,COLBY SENIOR HIGH,1890 S FRANKLIN AVE,COLBY,KS,67701,3721,(785) 460-5300
51878,200558001092,NORTHWEST ELEM,2100 SIXTH AVE,DODGE CITY,KS,67801,NOT AVAILABLE,(620) 471-2115
55718,200483001936,JACKSON HEIGHTS HIGH SCHOOL AND MIDDLE SCHOOL,12719 266TH ROAD,HOLTON,KS,66436,NOT AVAILABLE,(785) 364-2195
58724,201299001798,DODGE LITERACY MAGNET,4801 W 2ND,WICHITA,KS,67212,2370,(316) 973-3150
58872,201014002077,MILLBROOKE ELEMENTARY,11751 S SUNNYBROOK BLVD,OLATHE,KS,66061,NOT AVAILABLE,(913) 780-7560
59016,200378001188,BASEHOR-LINWOOD MIDDLE SCHOOL,15900 CONLEY ROAD,BASEHOR,KS,66007,NOT AVAILABLE,(913) 724-2976
59128,201140001503,SATANTA JR-SR HIGH,100 CADDO,SATANTA,KS,67870,NOT AVAILABLE,(620) 649-2611
59766,200825000754,PRAIRIE VIEW MIDDLE,13667 KS HWY 152,LACYGNE,KS,66040,NOT AVAILABLE,(913) 757-4497
59887,200034902022,WILSON JUNIOR/SENIOR HIGH SCHOOL,3005 AVE. D,WILSON,KS,67490,0220,(785) 658-2202
40420,201014001793,OLATHE NORTHWEST HIGH SCHOOL,21300 COLLEGE BLVD,OLATHE,KS,66061,NOT AVAILABLE,(913) 780-7150
41072,200744001289,WHITE CITY ELEM,414 GOODNOW,WHITE CITY,KS,66872,0008,(785) 349-2211
46824,200540000004,DEERFIELD MIDDLE SCHOOL,803 BEECH STREET,DEERFIELD,KS,67838,0274,(620) 426-7901
48665,200888001103,WINDOM ELEM,101 E OLIVE AVE,WINDOM,KS,67491,0067,(620) 489-6241
716,201209000801,SUBLETTE HIGH,501 ELLIS ST,SUBLETTE,KS,67877,NOT AVAILABLE,(620) 675-2232
1826,200663001891,WHEATLAND HIGH SCHOOL,2920 K 23,GRAINFIELD,KS,67737,NOT AVAILABLE,(785) 673-4223
2829,201200001533,BLUE VALLEY WEST HIGH,16200 ANTIOCH ROAD,OVERLAND PARK,KS,66085,9382,(913) 239-3700
8970,200587000611,ELLSWORTH HIGH,211 W 11TH,ELLSWORTH,KS,67439,NOT AVAILABLE,(785) 472-4471
61719,200633000049,PATTON JR HIGH,BLDG 392,FORT LEAVENWORTH,KS,66027,1251,(913) 651-7371
66815,201299000306,PARK ELEMENTARY,1025 N MAIN,WICHITA,KS,67203,3610,(316) 973-5250
69516,200459001926,CHANUTE ELEMENTARY SCHOOL,500 OSA MARTIN BOULEVARD,CHANUTE,KS,66720,NOT AVAILABLE,(620) 432-2530
21625,200762000537,MORGAN ELEMENTARY,100 W 27TH,HUTCHINSON,KS,67502,NOT AVAILABLE,(620) 615-5200
33318,201164001525,BROOKWOOD ELEM,4401 W. 103 STREET,SHAWNEE MISSION,KS,66207,3618,(913) 993-2500
33529,200034801963,DONIPHAN WEST ELEMENTARY SCHOOL,642 HWY 20 EAST,DENTON,KS,66017,NOT AVAILABLE,(785) 359-6526
35637,201071001795,MEADOWLARK ELEMENTARY,1602 EAST 20TH,PITTSBURG,KS,66762,NOT AVAILABLE,(620) 235-3130
36871,201299000249,ADAMS ELEM,1002 N OLIVER,WICHITA,KS,67208,2819,(316) 973-2650
37372,200795001425,F L SCHLAGLE HIGH,2214 N 59TH ST,KANSAS CITY,KS,66104,2821,(913) 627-7500
39425,201164001544,NIEMAN ELEM,10917 W 67TH ST,SHAWNEE MISSION,KS,66203,3898,(913) 993-4000
91108,201029000881,OSBORNE ELEM,234 N THIRD,OSBORNE,KS,67473,2024,(785) 346-5491
91732,200795001417,ARGENTINE MIDDLE,2123 RUBY AVENUE,KANSAS CITY,KS,66106,2990,(913) 627-6750
92537,201299000260,CESSNA ELEM,2101 W 45TH S,WICHITA,KS,67217,4198,(316) 973-6900
97838,200339000750,HARPER ELEM,1317 WALNUT,HARPER,KS,67058,1400,(620) 896-7614
98814,200580000528,ELL-SALINE ELEMENTARY,1757 N HALSTEAD RD,SALINA,KS,67401,9314,(785) 827-8891
70207,200423001198,CENTRAL ELEM,1045 N. OAK,BURDEN,KS,67019,NOT AVAILABLE,(620) 438-3195
76177,201050000779,PAOLA HIGH,401 N ANGELA,PAOLA,KS,66071,NOT AVAILABLE,(913) 294-8010
77281,200429001994,BURLINGTON MIDDLE SCHOOL 5 - 8,720 CROSS ST.,BURLINGTON,KS,66839,NOT AVAILABLE,(620) 364-2156
77502,201108000387,ANDALE HIGH,700 WEST RUSH,ANDALE,KS,67001,NOT AVAILABLE,(316) 444-2607
78775,200320001935,FARLEY ELEMENTARY,6701 SW 33RD STREET,TOPEKA,KS,66614,NOT AVAILABLE,(785) 408-8300
83822,200324000623,MAPLE HILL ELEM,3RD & PIERCE,MAPLE HILL,KS,66507,0068,(785) 256-4223
85208,201077000680,PLEASANTON ELEM,1205 ASH,PLEASANTON,KS,66075,NOT AVAILABLE,(913) 352-8531
85820,200828000072,LAKIN ELEM,407 N MAIN,LAKIN,KS,67860,0026,(620) 355-6191
86082,201014001971,MISSION TRAIL MIDDLE SCHOOL,1001 N. PERSIMMON DRIVE,OLATHE,KS,66061,NOT AVAILABLE,(913) 780-7260
41048,201056001998,GARFIELD SCHOOL,300 SOUTH 14TH STREET,PARSONS,KS,67357,NOT AVAILABLE,(620) 421-3530
42233,201014000133,WASHINGTON ELEM,1202 N RIDGEVIEW RD,OLATHE,KS,66061,2946,(913) 780-7730
42234,200594000222,VILLAGE ELEM,2302 W 15TH AVE,EMPORIA,KS,66801,6004,(620) 341-2282
42242,200999000546,NICKERSON ELEM,400 N. NICKERSON STREET,NICKERSON,KS,67561,9280,(620) 422-3215
42247,201299000322,WHITE ELEM,5148 S KANSAS,WICHITA,KS,67216,3230,(316) 973-1250
43317,201035001490,SERVICE VALLEY CHARTER ACADEMY,21101 WALLACE ROAD,PARSONS,KS,67357,NOT AVAILABLE,(620) 421-3449
44382,200336001171,ROBERT M. MARTIN ELEMENTARY,2342 N. 159TH ST EAST,WICHITA,KS,67228,NOT AVAILABLE,(316) 218-4720
47539,200765001121,INDEPENDENCE SR HIGH,1301 N. 10TH ST.,INDEPENDENCE,KS,67301,2299,(620) 332-1815
50904,200642002070,GRAND STAR ELEMENTARY,401 EAST GRAND STREET,GARDNER,KS,66030,NOT AVAILABLE,(913) 856-3750
52335,201281000173,LEBO ELEM,4TH & OGDEN,LEBO,KS,66856,0045,(620) 256-6161
53140,200978001012,MOUNDRIDGE HIGH,526 E. COLE,MOUNDRIDGE,KS,67107,0610,(620) 345-5500
56910,200035102051,RIVERSIDE VIRTUAL HIGH SCHOOL,705 JESSIE,WATHENA,KS,66090,NOT AVAILABLE,(785) 989-4426
30041,201215001348,SYRACUSE HIGH,502 NORTH MAIN,SYRACUSE,KS,67878,1187,(620) 384-7446
33982,200002901830,ROCK HILLS ELEMENTARY SCHOOL,303 N. WEST STREET,MANKATO,KS,66956,NOT AVAILABLE,(785) 378-3822
39381,200492000378,CLEARWATER HIGH,1201 E. ROSS,CLEARWATER,KS,67026,NOT AVAILABLE,(620) 584-2361
39587,200489000821,GARFIELD ELEM,815 4TH ST,CLAY CENTER,KS,67432,2500,(785) 632-2125
23253,200378001729,GLENWOOD RIDGE ELEMENTARY SCHOOL,17550 157TH TERRACE,BASEHOR,KS,66007,NOT AVAILABLE,(913) 724-3536
24261,201047000398,PALCO HIGH,502 ASH STREET,PALCO,KS,67657,0029,(785) 737-4645
61802,200633000046,BRADLEY ELEM,BLDG 1726,FORT LEAVENWORTH,KS,66027,1415,(913) 651-6915
65883,201170000785,SILVER LAKE JR-SR HIGH,200 E. LAKE,SILVER LAKE,KS,66539,0039,(785) 582-4639
69380,200435000780,BURRTON ELEM,105 E LINCOLN AVE.,BURRTON,KS,67020,0369,(620) 463-3820
90159,200666001031,PARK ELEM,1801 WILLIAMS,GREAT BEND,KS,67530,2596,(620) 793-1505
92227,200951002023,JEFFERSON WEST ELEMENTARY SCHOOL,301 MAIN STREET,MERIDEN,KS,66512,NOT AVAILABLE,(785) 484-2455
92469,201226001114,MEADOWS ELEMENTARY,201 SW CLAY ST,TOPEKA,KS,66606,1194,(785) 235-7150
92928,200645000768,WESTPHALIA,500 LIBERTY ST.,WESTPHALIA,KS,66093,NOT AVAILABLE,(785) 489-2511
93352,200034902044,CENTRAL PLAINS ELEMENTARY SCHOOL - HOLYROOD,600 S. MAIN ST.,HOLYROOD,KS,67450,NOT AVAILABLE,(785) 252-3666
94841,201226001445,HIGHLAND PARK CENTRAL,2717 SE ILLINOIS AVE,TOPEKA,KS,66605,1497,(785) 235-7000
97073,200495000102,CLIFTON-CLYDE SR HIGH,616 NORTH HIGH ST.; SUITE 1,CLYDE,KS,66938,9637,(785) 446-3444
97687,200035002027,WETMORE ELEMENTARY,321 6TH STREET,WETMORE,KS,66550,0246,(785) 866-2860
98998,200003001958,REPUBLIC COUNTY JR./SR. HIGH SCHOOL,24TH & P STREET,BELLEVILLE,KS,66935,0469,(785) 527-2281
2225,200549001717,RIVERVIEW ELEMENTARY,21550 WEST 47TH STREET,SHAWNEE,KS,66226,NOT AVAILABLE,(913) 441-0808
10131,201164001527,COMANCHE ELEM,8200 GRANT,SHAWNEE MISSION,KS,66212,3299,(913) 993-2800
13502,200837001354,LARNED MIDDLE SCHOOL,904 CORSE,LARNED,KS,67550,NOT AVAILABLE,(620) 285-8430
13951,200840001365,CORDLEY ELEM,1837 VERMONT ST,LAWRENCE,KS,66044,4197,(785) 832-5640
14292,201218001138,TECUMSEH SOUTH ELEM,3346 SE TECUMSEH RD,TECUMSEH,KS,66542,9754,(785) 379-5950
14532,201287000455,WELLSVILLE ELEM,218 ASH STREET,WELLSVILLE,KS,66092,4054,(785) 883-2996
16222,200732001046,HOISINGTON MIDDLE,360 W 11TH ST.,HOISINGTON,KS,67544,NOT AVAILABLE,(620) 653-4951
19095,201014000910,HEATHERSTONE ELEM,13745 W 123RD ST,OLATHE,KS,66062,NOT AVAILABLE,(913) 780-7480
19854,200840000778,SUNFLOWER ELEMENTARY,2521 INVERNESS DRIVE,LAWRENCE,KS,66047,1973,(785) 832-5870
71154,200771001128,INMAN JR/SR HIGH SCHOOL,404 S MAIN,INMAN,KS,67546,NOT AVAILABLE,(620) 585-6441
71951,200345001242,C 4 ELEM,11945 292ND ROAD,ARKANSAS CITY,KS,67005,NOT AVAILABLE,(620) 441-2045
71969,201226001464,STOUT ELEM,2303 SW COLLEGE AVE,TOPEKA,KS,66611,1405,(785) 438-4710
73297,200582000732,ELLINWOOD MIDDLE SCHOOL,210 E. 2ND ST.,ELLINWOOD,KS,67526,NOT AVAILABLE,(620) 564-3136
78180,200795001418,ROSEDALE MIDDLE,3600 SPRINGFIELD,KANSAS CITY,KS,66103,2005,(913) 627-6900
80557,200795001428,HAZEL GROVE ELEM,2401 N 67TH ST,KANSAS CITY,KS,66104,2632,(913) 627-7000
82442,200966000237,MARMATON VALLEY ELEM,210 WEST OAK STREET,MORAN,KS,66755,NOT AVAILABLE,(620) 237-4381
82444,201209001687,SUBLETTE MIDDLE,601 ELLIS ST,SUBLETTE,KS,67877,NOT AVAILABLE,(620) 675-8504
82816,200948001167,MARAIS DES CYGNES VALLEY MIDDLE,508 N E MAIN,MELVERN,KS,66510,NOT AVAILABLE,(785) 549-3313
83104,201299000254,BLACK TRADITIONAL MAGNET ELEM,1045 HIGH,WICHITA,KS,67203,4399,(316) 973-3500
83157,201164001537,SHAWANOE ELEM,11230 W 75TH,SHAWNEE MISSION,KS,66214,1203,(913) 993-5100
83966,201164001535,JOHN DIEMER ELEM,9600 LAMAR,SHAWNEE MISSION,KS,66207,2832,(913) 993-3100
85490,201062000678,PERRY LECOMPTON HIGH,404 LECOMPTON RD,PERRY,KS,66073,NOT AVAILABLE,(785) 597-5124
87111,200639001181,PLYMELL ELEMENTARY,20 W PLYMELL RD,GARDEN CITY,KS,67846,8962,(620) 805-7800
87623,200576000435,ELK VALLEY ELEMENTARY,701 DELAWARE,LONGTON,KS,67352,0087,(620) 642-3021
101894,201014001704,MAHAFFIE ELEM,1300 N NELSON RD,OLATHE,KS,66061,2746,(913) 780-7530
82445,201002000058,EISENHOWER ELEM,1100 EISENHOWER DRIVE,NORTON,KS,67654,1199,(785) 877-5113
83035,200639001172,BUFFALO JONES ELEM,708 TAYLOR AVE,GARDEN CITY,KS,67846,5136,(620) 805-7300
85515,200996002037,SOUTH BREEZE ELEMENTARY,1020 OLD MAIN,NEWTON,KS,67114,NOT AVAILABLE,(316) 284-6560
101508,200795001390,SILVER CITY ELEM,2515 LAWRENCE AVE,KANSAS CITY,KS,66106,2951,(913) 627-4550
101998,200918001049,SUSAN B ANTHONY MIDDLE SCHOOL,2501 BROWNING,MANHATTAN,KS,66502,NOT AVAILABLE,(785) 587-2890
23563,201299000297,L'OUVERTURE COMPUTER TECHNOLOGY MAGNET,1539 N OHIO,WICHITA,KS,67214,1526,(316) 973-5050
24405,200504000491,SOUTH CENTRAL HIGH SCHOOL,600 E. GARFIELD,COLDWATER,KS,67029,0578,(620) 582-2158
26425,201299000344,EAST HIGH,2301 E DOUGLAS,WICHITA,KS,67211,1613,(316) 973-7200
26527,200939000998,MCPHERSON MIDDLE SCHOOL,700 E ELIZABETH,MCPHERSON,KS,67460,5006,(620) 241-9450
28111,201287001733,WELLSVILLE MIDDLE SCHOOL,602 WALNUT STREET,WELLSVILLE,KS,66092,8323,(785) 883-4350
28362,201299000329,COLEMAN MIDDLE SCHOOL,1544 N GOVERNEOUR,WICHITA,KS,67206,1156,(316) 973-6600
28640,200984000374,MULVANE HIGH,1900 N ROCK ROAD,MULVANE,KS,67110,1051,(316) 777-1183
70969,200630001915,FRONTENAC JR. HIGH,208 S. CAYUGA,FRONTENAC,KS,66763,NOT AVAILABLE,(620) 232-6370
71610,200651000649,MILTONVALE ELEM,520 OAK STREET,MILTONVALE,KS,67466,0394,(785) 427-3365
71807,200744001287,HOPE ELEM,200 POPLAR ST,HOPE,KS,67451,0218,(785) 366-7221
73322,201017000595,ONAGA SENIOR HIGH,500 HIGH STREET,ONAGA,KS,66521,NOT AVAILABLE,(785) 889-4251
75710,201065000604,PHILLIPSBURG ELEM,300 NEBRASKA AVENUE,PHILLIPSBURG,KS,67661,NOT AVAILABLE,(785) 543-2174
77008,200678000464,GRINNELL GRADE SCHOOL,202 S MONROE,GRINNELL,KS,67738,0129,(785) 824-3296
63296,200666001028,JEFFERSON ELEM,2716 24TH,GREAT BEND,KS,67530,2297,(620) 793-1502
64604,200834001230,LANSING HIGH 9-12,1412 147TH STREET,LEAVENWORTH,KS,66048,NOT AVAILABLE,(913) 727-3357
64659,201212001976,SYLVAN-LUCAS UNIFIED JR. SR,504 WEST 4TH,SYLVAN GROVE,KS,67481,NOT AVAILABLE,(785) 526-7175
64849,201125000870,ROSE HILL INTERMEDIATE,409 E SCHOOL ST,ROSE HILL,KS,67133,9785,(316) 776-3330
65674,200381001508,BAXTER SPRINGS HIGH,100 N MILITARY,BAXTER SPRINGS,KS,66713,NOT AVAILABLE,(620) 856-3366
68958,201218001133,BERRYTON ELEM,2921 SE 69TH STREET,BERRYTON,KS,66409,9709,(785) 861-1300
10011,201226001456,MCEACHRON ELEM,4433 SW 29TH TERR,TOPEKA,KS,66614,3199,(785) 438-4430
12443,201242000069,ULYSSES HIGH,501 N MCCALL,ULYSSES,KS,67880,NOT AVAILABLE,(620) 356-1380
14494,200932000661,ROYAL VALLEY MIDDLE SCHOOL,204 S 4TH,MAYETTA,KS,66509,0155,(785) 966-2251
15356,200636001387,GALENA HIGH,602 EAST 8TH STREET,GALENA,KS,66739,NOT AVAILABLE,(620) 783-4499
15411,201108000386,ANDALE ELEM-MIDDLE,500 WEST RUSH,ANDALE,KS,67001,NOT AVAILABLE,(316) 444-2628
15696,201164001563,WESTWOOD VIEW ELEM,2511 W 50TH ST,SHAWNEE MISSION,KS,66205,2031,(913) 993-5800
19354,201185001885,SPRING HILL ELEMENTARY SCHOOL,300 S WEBSTER ST,SPRING HILL,KS,66083,NOT AVAILABLE,(913) 592-7277
31572,201230002017,CIRCLE GREENWICH ELEMENTARY,3250 N GREENWICH RD,WICHITA,KS,67226,NOT AVAILABLE,(316) 315-4000
32266,200507001341,PARK ELEM,724 E GARFIELD STREET,COLUMBUS,KS,66725,1949,(620) 429-3905
33800,201026000773,OSAWATOMIE MIDDLE SCHOOL,428 PACIFIC,OSAWATOMIE,KS,66064,1210,(913) 755-4155
35231,201014000140,MEADOW LANE ELEM,21880 COLLEGE BLVD,OLATHE,KS,66061,8706,(913) 780-7550
35825,201164001561,TRAILWOOD ELEM,5101 W 95TH ST,SHAWNEE MISSION,KS,66207,3399,(913) 993-5600
35890,200861001952,WICHITA COUNTY JUNIOR-SENIOR HIGH SCHOOL,800 WEST BRAODWAY,LEOTI,KS,67861,0967,(620) 375-2213
36445,200627001302,LINCOLN ELEMENTARY,713 N 9TH,FREDONIA,KS,66736,1100,(620) 378-4138
37091,200840001369,KENNEDY ELEM,1605 DAVIS RD,LAWRENCE,KS,66046,3233,(785) 832-5760
37211,200479000482,CHEYLIN JR/SR HIGH,605 BIRD AVE.,BIRD CITY,KS,67731,0028,(785) 734-2341
38752,201137000512,MEADOWLARK RIDGE ELEM,2200 GLEN AVE,SALINA,KS,67401,NOT AVAILABLE,(785) 309-4300
42236,200819001299,PLAINS ELEM,605 WEST B,PLAINS,KS,67869,NOT AVAILABLE,(620) 563-7285
42418,200447001801,LAKESIDE ELEMENTARY,913 7TH ST,CAWKER CITY,KS,67430,NOT AVAILABLE,(785) 781-4911
53306,201200001606,LEAWOOD MIDDLE,2410 W. 123RD ST.,LEAWOOD,KS,66209,1214,(913) 239-5300
55488,200990001197,NEODESHA HIGH,N 8TH STREET,NEODESHA,KS,66757,1399,(620) 325-3015
56061,201251002087,THE LEARNING CENTER,426 S. MERIDIAN,VALLEY CENTER,KS,67147,NOT AVAILABLE,(316) 755-7080
6272,200795002091,BRIDGES/WYANDOT ACADEMY,3101 N. 10TH STREET,KANSAS CITY,KS,66104,NOT AVAILABLE,(913) 627-6702
9112,201164001577,SHAWNEE MISSION SOUTH HIGH,5800 W 107TH ST,SHAWNEE MISSION,KS,66207,2599,(913) 993-7500
90549,200627001304,FREDONIA JR./SR. HIGH SCHOOL,916 ROBINSON,FREDONIA,KS,66736,1941,(620) 378-4172
93580,200519001713,SOUTH GRAY JR HIGH,105 THATCHER,COPELAND,KS,67837,NOT AVAILABLE,(620) 668-5565
93600,200558000888,SOULE ELEMENTARY SCHOOL,401 SOULE ST,DODGE CITY,KS,67801,NOT AVAILABLE,(620) 471-2116
94229,200985000904,NATOMA ELEM,610 3RD STREET,NATOMA,KS,67651,0010,(785) 885-4478
95494,201305001211,LOWELL ELEM,1404 MILLINGTON,WINFIELD,KS,67156,3691,(620) 221-5136
99935,200336001564,ANDOVER CENTRAL MIDDLE SCHOOL,903 E. CENTRAL,ANDOVER,KS,67002,NOT AVAILABLE,(316) 218-4710
3273,201226001115,SCOTT DUAL LANGUAGE MAGNET,401 SE MARKET ST,TOPEKA,KS,66607,2076,(785) 235-7480
41678,201284000726,WASHINGTON ELEM,1100 N WASHINGTON,WELLINGTON,KS,67152,4397,(620) 326-4370
42251,201226001455,MCCLURE ELEM,2529 SW CHELSEA DR,TOPEKA,KS,66614,1600,(785) 438-4340
42541,201226001688,LANDON MIDDLE SCHOOL,731 SW FAIRLAWN RD,TOPEKA,KS,66606,2336,(785) 438-4220
49278,200336002040,ANDOVER ECADEMY,1411 N. MAIN,ANDOVER,KS,67002,NOT AVAILABLE,(316) 218-4470
49759,200528000985,PRAIRIE HEIGHTS ELEMENTARY SCHOOL,801 CENTER STREET,ALTA VISTA,KS,66834,NOT AVAILABLE,(785) 499-6313
73426,201131000943,SIMPSON ELEM,1323 N MAIN ST,RUSSELL,KS,67665,1543,(785) 483-6180
74491,201179001509,SOUTH HAVEN ELEM,229 KICKAPOO AVENUE,SOUTH HAVEN,KS,67140,0229,(620) 892-5215
75554,200666001029,LINCOLN ELEM,5630 BROADWAY,GREAT BEND,KS,67530,6399,(620) 793-1503
77145,201164001682,BROKEN ARROW ELEM,5901 ALDEN,SHAWNEE MISSION,KS,66216,3849,(913) 993-2300
78321,200573001332,EL DORADO MIDDLE,440 E WILDCAT WAY,EL DORADO,KS,67042,NOT AVAILABLE,(316) 322-4820
53085,201044000739,OXFORD JR/SR HIGH,515 N. WATER,OXFORD,KS,67119,0970,(620) 455-2410
54644,200462001247,CHAPMAN ELEM,500 IRISH DRIVE,CHAPMAN,KS,67431,0249,(785) 922-7171
85800,200336000860,ANDOVER HIGH,1744 N ANDOVER RD,ANDOVER,KS,67002,NOT AVAILABLE,(316) 218-4600
87114,200900001008,LYNDON HIGH,421 EAST 6TH ST,LYNDON,KS,66451,0488,(785) 828-4911
87388,200612001740,MARSHALL ELEMENTARY SCHOOL,1015 N JEFFERSON,EUREKA,KS,67045,NOT AVAILABLE,(620) 583-5537
11193,200587000610,ELLSWORTH ELEM,110 E 3RD,ELLSWORTH,KS,67439,3308,(785) 472-5554
12275,200651000648,GLASCO HIGH,100 HAYNES & BUFFALO ST,GLASCO,KS,67445,0158,(785) 568-2291
13117,200831002025,FAIRFIELD SCHOOLS,16115 SOUTH LANGDON ROAD,LANGDON,KS,67583,NOT AVAILABLE,(620) 596-2152
14418,200843001997,ANTHONY ELEMENTARY,570 EVERGREEN,LEAVENWORTH,KS,66048,NOT AVAILABLE,(913) 684-1500
16248,200459000972,ROYSTER MIDDLE SCHOOL,400 W MAIN,CHANUTE,KS,66720,1697,(620) 432-2520
16526,201164001565,WESTRIDGE MIDDLE,9300 NIEMAN RD,SHAWNEE MISSION,KS,66214,1855,(913) 993-1200
90841,201299000320,WASHINGTON ACCELERATED LEARNING ELEM,424 N. PENNSYLVANIA,WICHITA,KS,67214,4153,(316) 973-1150
93849,201200000114,STILWELL ELEMENTARY,6410 W. 199TH ST.,STILWELL,KS,66085,9415,(913) 239-7300
97160,200467000395,CHENEY HIGH,800 N MARSHALL,CHENEY,KS,67025,NOT AVAILABLE,(316) 542-3113
98730,200780000108,HODGEMAN COUNTY HIGH,510 NIEDERACHER,JETMORE,KS,67854,0100,(620) 357-8378
62663,201182000837,SPEARVILLE JR/SR HIGH,305 E. AVE. B,SPEARVILLE,KS,67876,0158,(620) 385-2631
63236,201299000289,KENSLER ELEM,1030 WILBUR LANE,WICHITA,KS,67212,3026,(316) 973-1350
63761,200738000657,HOLTON HIGH,901 NEW YORK,HOLTON,KS,66436,1794,(785) 364-2181
64851,200414001191,BUCKLIN HIGH,422 S MAIN,BUCKLIN,KS,67834,0008,(620) 826-3241
67820,200840001665,QUAIL RUN ELEMENTARY,1130 INVERNESS DRIVE,LAWRENCE,KS,66049,3809,(785) 832-5820
20648,200738000654,HOLTON ELEMENTARY SCHOOL,812 W. 5TH. ST.,HOLTON,KS,66436,1323,(785) 364-3251
21672,201098000856,RANDOLPH MIDDLE,3 RAM WAY,RANDOLPH,KS,66554,NOT AVAILABLE,(785) 293-5253
22446,200558001091,MILLER ELEM,1100 AVENUE G,DODGE CITY,KS,67801,NOT AVAILABLE,(620) 471-2100
22659,200552001245,DEXTER HIGH,311 N. MAIN,DEXTER,KS,67038,0097,(620) 876-5415
23837,201137000521,SALINA HIGH CENTRAL,650 E CRAWFORD,SALINA,KS,67401,NOT AVAILABLE,(785) 309-3500
25861,201014001625,INDIAN CREEK ELEM,15800 W INDIAN CREEK PKWY,OLATHE,KS,66062,4212,(913) 780-7510
26402,200357001514,ATTICA HIGH,718 N MAIN,ATTICA,KS,67009,0415,(620) 254-7915
27231,200642001780,MADISON ELEMENTARY,800 W. MADISON ST.,GARDNER,KS,66030,NOT AVAILABLE,(913) 856-0400
28564,200648000193,GIRARD HIGH,415 NORTH SUMMIT,GIRARD,KS,66743,1128,(620) 724-4326
35522,200467000394,CHENEY MIDDLE SCHOOL 6-8,715 N. MAIN,CHENEY,KS,67025,NOT AVAILABLE,(316) 542-0060
39768,200654001557,DISCOVERY INTERMEDIATE SCHOOL,301 S. MAIN,GODDARD,KS,67052,NOT AVAILABLE,(316) 794-4030
50033,200498001112,FIELD KINDLEY HIGH,1110 W 8TH,COFFEYVILLE,KS,67337,4197,(620) 252-6410
50034,200390000737,BELLE PLAINE HIGH,901 N. MAIN STREET,BELLE PLAINE,KS,67013,0008,(620) 488-2421
51459,201236001859,TURNER SIXTH GRADE ACADEMY,6425 RIVERVIEW,KANSAS CITY,KS,66106,NOT AVAILABLE,(913) 288-3800
59068,200594000225,EMPORIA MIDDLE SCHOOL,2300 GRAPHIC ARTS ROAD,EMPORIA,KS,66801,6621,(620) 341-2335
59756,201014000142,NORTHVIEW ELEM,905 N WOODLAND RD,OLATHE,KS,66061,2899,(913) 780-7570
41366,201299000340,ROBINSON MIDDLE SCHOOL,328 N OLIVER,WICHITA,KS,67208,4099,(316) 973-8600
42255,200795001406,QUINDARO ELEM,2800 FARROW,KANSAS CITY,KS,66104,3936,(913) 627-4400
44153,200000201467,SMOKY VALLEY MIDDLE SCHOOL,401 N CEDAR,LINDSBORG,KS,67456,1900,(785) 227-4249
44508,201226001688,LANDON MIDDLE SCHOOL,731 SW FAIRLAWN RD,TOPEKA,KS,66606,2336,(785) 438-4220
80095,201041001054,CARBONDALE ATTENDANCE CENTER,315 N. FOURTH STREET,CARBONDALE,KS,66414,NOT AVAILABLE,(800) 836-9525
80737,201284000724,LINCOLN ELEM,104 SOUTH F,WELLINGTON,KS,67152,3837,(620) 326-4360
81950,201014000135,SANTA FE TRAIL MIDDLE SCHOOL,1100 N RIDGEVIEW RD,OLATHE,KS,66061,2944,(913) 780-7290
84225,200507001343,COLUMBUS HIGH,124 S HIGH SCHOOL AVENUE,COLUMBUS,KS,66725,0267,(620) 429-3821
85007,200840001363,BROKEN ARROW ELEM,2704 LOUISIANA ST,LAWRENCE,KS,66046,4698,(785) 832-5600
86292,201233001038,TROY ELEM,230 W POPLAR,TROY,KS,66087,NOT AVAILABLE,(785) 985-3538
70140,200726000429,HILL CITY ELEM,216 N 4TH AVE,HILL CITY,KS,67642,NOT AVAILABLE,(785) 421-3425
74768,201164001656,CHRISTA MCAULIFFE ELEM,15600 W 83RD ST,SHAWNEE MISSION,KS,66219,1500,(913) 993-3500
90800,201026000774,OSAWATOMIE HIGH,1200 TROJAN DR,OSAWATOMIE,KS,66064,1696,(913) 755-2191
92882,201203000808,STERLING GRADE SCHOOL,218 S 5TH,STERLING,KS,67579,NOT AVAILABLE,(620) 278-3112
97157,200963000782,MONTEZUMA ELEM,103 W. SUNNYSIDE,MONTEZUMA,KS,67867,0355,(620) 846-2283
60960,201044000738,OXFORD ELEM,319 E COLLEGE,OXFORD,KS,67119,1000,(620) 455-2422
62520,201230000802,CIRCLE BENTON ELEMENTARY,350 S KANSAS ST,BENTON,KS,67017,NOT AVAILABLE,(316) 778-1151
65882,201092000555,PRETTY PRAIRIE ELEM,320 S RHODES,PRETTY PRAIRIE,KS,67570,0098,(620) 459-6621
66145,201098000855,MCCORMICK ELEMENTARY,109 NORTH 1ST,OLSBURG,KS,66520,NOT AVAILABLE,(785) 468-3551
66568,200658000717,GOODLAND JR-SR. HIGH SCHOOL,1209 CHERRY,GOODLAND,KS,67735,NOT AVAILABLE,(785) 890-5656
66755,200914001956,MAIZE SOUTH HIGH SCHOOL,3701 N. TYLER ROAD,WICHITA,KS,67205,NOT AVAILABLE,(316) 462-8000
68334,200489000828,WAKEFIELD ELEM,502 THIRD,WAKEFIELD,KS,67487,0040,(785) 461-5437
68578,200810001944,KINSLEY JR/SR HIGH SCHOOL,716 N COLONY,KINSLEY,KS,67547,NOT AVAILABLE,(620) 659-2126
31028,200336000859,ANDOVER MIDDLE SCHOOL,1628 N ANDOVER RD,ANDOVER,KS,67002,NOT AVAILABLE,(316) 218-4610
34584,201226001469,EISENHOWER MIDDLE SCHOOL,3305 SE MINNESOTA AVE,TOPEKA,KS,66605,2500,(785) 274-6160
34956,200561000894,LEONARD C SEAL ELEM,320 S CHESTNUT,DOUGLASS,KS,67039,NOT AVAILABLE,(316) 747-3350
35519,201089000841,LIBERTY MIDDLE SCHOOL,300 S IUKA,PRATT,KS,67124,2597,(620) 672-4530
36476,200558001905,ROSS ELEMENTARY SCHOOL,3001 6TH AVENUE,DODGE CITY,KS,67801,NOT AVAILABLE,(620) 471-2103
38076,200345001232,ADAMS ELEM,1201 N 10TH,ARKANSAS CITY,KS,67005,1998,(620) 441-2040
38139,200825000755,PRAIRIE VIEW HIGH,13731 KS HWY 152,LACYGNE,KS,66040,NOT AVAILABLE,(913) 757-4447
38789,201290000171,WESKAN ELEM,219 COYOTE BLVD.,WESKAN,KS,67762,4004,(785) 943-5222
100342,200642000120,GARDNER ELEM,218 E SHAWNEE,GARDNER,KS,66030,1394,(913) 856-3300
101271,201014000134,WESTVIEW ELEM,500 S TROOST ST,OLATHE,KS,66061,4300,(913) 780-7750
105004,200795002117,WEST PARK ELEMENTARY SCHOOL,2600 N. 44TH STREET,KANSAS CITY,KS,66104,NOT AVAILABLE,(913) 627-6250
21657,201239001203,UDALL HIGH,301 W. 4TH ST.,UDALL,KS,67146,NOT AVAILABLE,(620) 782-3623
24358,200456000832,FRANKFORT ELEM,604 N KANSAS,FRANKFORT,KS,66427,1114,(785) 292-4486
25660,200354000958,ATCHISON MIDDLE SCHOOL,301 N 5TH,ATCHISON,KS,66002,2456,(913) 367-5363
25815,201299000263,CLARK ELEM,650 S. APACHE,WICHITA,KS,67207,2199,(316) 973-5850
28080,200732001884,ROOSEVELT ELEMENTARY,315 N VINE,HOISINGTON,KS,67544,1894,(620) 653-4470
10619,200657000964,GOESSEL HIGH,100 MAIN,GOESSEL,KS,67053,0006,(620) 367-2242
12335,201299000348,SOUTHEAST HIGH,2641 S. 127TH ST E,WICHITA,KS,67207,NOT AVAILABLE,(316) 973-2700
12722,201200001757,CEDAR HILLS ELEMENTARY,9100 W. 165TH ST.,OVERLAND PARK,KS,66085,9382,(913) 239-3300
14425,200939000999,MCPHERSON HIGH,801 E FIRST STREET,MCPHERSON,KS,67460,3613,(620) 241-9500
14630,201014001292,CEDAR CREEK ELEM,11150 S CLARE RD,OLATHE,KS,66061,NOT AVAILABLE,(913) 780-7360
17353,200873001589,SUNFLOWER ELEMENTARY SCHOOL,310 W. PINE,LIBERAL,KS,67901,NOT AVAILABLE,(620) 604-2800
17648,200549002021,BELMONT ELEMENTARY SCHOOL,5805 BELMONT DR,SHAWNEE,KS,66226,NOT AVAILABLE,(913) 667-1810
19296,200918000938,FRANK V BERGMAN ELEM,3430 LOMBARD,MANHATTAN,KS,66503,NOT AVAILABLE,(785) 587-2865
2249,201143001075,SKYLINE HIGH,20269 W. HWY 54,PRATT,KS,67124,8204,(620) 672-5651
2677,200357001513,PULS ELEM,718 N. MAIN,ATTICA,KS,67009,0415,(620) 254-7915
5695,201137000520,SALINA SOUTH MIDDLE,2015 SIMMONS,SALINA,KS,67401,NOT AVAILABLE,(785) 309-3900
61251,201137000515,STEWART ELEM,2123 ROACH,SALINA,KS,67401,NOT AVAILABLE,(785) 309-4450
62148,200001200095,HANOVER HIGH,209 E NORTH,HANOVER,KS,66945,0338,(785) 337-2281
67655,200702001321,HAYS MIDDLE SCHOOL,201 W. 29TH,HAYS,KS,67601,NOT AVAILABLE,(785) 623-2450
71936,200795001435,WHITE CHURCH ELEM,2226 N 85TH ST,KANSAS CITY,KS,66109,2016,(913) 627-4250
74488,201110000819,RILEY COUNTY GRADE SCHOOL,117 N. REMMELE,RILEY,KS,66531,NOT AVAILABLE,(785) 485-4010
10620,200396000167,TESCOTT JUNIOR HIGH/HIGH SCHOOL,305 N. MINNESOTA,TESCOTT,KS,67484,0196,(785) 283-4774
12276,201281000176,WAVERLY HIGH,607 PEARSON,WAVERLY,KS,66871,0008,(785) 733-2561
13854,200558001743,COMANCHE MIDDLE SCHOOL,1601 FIRST AVE.,DODGE CITY,KS,67801,NOT AVAILABLE,(620) 371-1100
16249,201299000327,BROOKS MAGNET MIDDLE SCHOOL,3802 E 27TH N,WICHITA,KS,67220,2493,(316) 973-6450
16801,200996002010,SUNSET ELEMENTARY,619 BOYD,NEWTON,KS,67114,NOT AVAILABLE,(316) 284-6570
19287,200840000793,PRAIRIE PARK ELEM,2711 KENSINGTON ROAD,LAWRENCE,KS,66046,8218,(785) 832-5740
19929,200795001434,WELBORN ELEM,5200 LEAVENWORTH RD,KANSAS CITY,KS,66104,2133,(913) 627-4450
714,200717001192,HESSTON ELEM,300 E AMOS,HESSTON,KS,67062,NOT AVAILABLE,(620) 327-7102
1397,200318001060,KENNEDY ELEM,1501 N KUNEY,ABILENE,KS,67410,NOT AVAILABLE,(785) 263-1088
1557,201185000118,SPRING HILL HIGH SCHOOL,19701 S. RIDGEVIEW,SPRING HILL,KS,66083,NOT AVAILABLE,(913) 592-7299
1709,200843001968,HENRY LEAVENWORTH,1925 VILAS,LEAVENWORTH,KS,66048,NOT AVAILABLE,(913) 684-1470
3106,200546001598,DERBY MIDDLE SCH,801 E MADISON,DERBY,KS,67037,2240,(316) 788-8580
7029,201131000942,BICKERDYKE ELEM,348 N MAPLE,RUSSELL,KS,67665,2741,(785) 483-6066
7147,200762000535,LINCOLN ELEMENTARY SCHOOL,315 EAST BIGGER,HUTCHINSON,KS,67501,NOT AVAILABLE,(620) 615-5100
20328,201263000050,TREGO GRADE SCHOOL,612 JUNCTION AVENUE,WAKEENEY,KS,67672,NOT AVAILABLE,(785) 743-2472
21655,200495001612,CLIFTON-CLYDE MIDDLE SCHOOL,405 W PARALLEL,CLIFTON,KS,66937,9764,(785) 455-3323
22931,200978001011,MOUNDRIDGE ELEM,207 S. DRUCILLA,MOUNDRIDGE,KS,67107,0583,(620) 345-5500
25222,201164001539,RAY MARSH ELEM,5642 ROSEHILL,SHAWNEE MISSION,KS,66216,1699,(913) 993-3400
27162,201299000345,WICHITA ALTERNATIVE HIGH,1847 N CHAUTAUQUA,WICHITA,KS,67214,NOT AVAILABLE,(316) 973-0500
30645,200354001126,ATCHISON ELEMENTARY SCHOOL,825 N 17TH STREET,ATCHISON,KS,66002,1516,(913) 367-1161
33481,201137000517,SUNSET ELEM,1510 W REPUBLIC,SALINA,KS,67401,NOT AVAILABLE,(785) 309-4520
34374,200321000211,NORTHERN HEIGHTS,1208 HWY 56,ALLEN,KS,66833,NOT AVAILABLE,(620) 481-2087
34802,200537000635,CUNNINGHAM HIGH,104 W 4TH,CUNNINGHAM,KS,67035,0098,(620) 298-2473
34906,200789001260,LINCOLN ELEM,300 N LINCOLN,JUNCTION CITY,KS,66441,NOT AVAILABLE,(785) 717-4570
35524,201299000333,HORACE MANN DUAL LANGUAGE MAGNET,1243 N MARKET,WICHITA,KS,67214,2834,(316) 973-3100
35525,200501000571,COLBY ELEM,210 N GRANT AVE,COLBY,KS,67701,2048,(785) 460-5100
38585,201014001793,OLATHE NORTHWEST HIGH SCHOOL,21300 COLLEGE BLVD,OLATHE,KS,66061,NOT AVAILABLE,(913) 780-7150
39995,200804001275,CREST HIGH,603 E. BROAD,COLONY,KS,66015,0325,(620) 852-3521
50854,200618000146,EUGENE WARE ELEM,900 E THIRD,FORT SCOTT,KS,66701,2199,(620) 223-3380
51251,201059000902,PEABODY-BURNS JR/SR HIGH SCHOOL,810 SYCAMORE STREET,PEABODY,KS,66866,1216,(620) 983-2196
52040,200903000928,LYONS PARK ELEMENTARY,121 S. WORKMAN,LYONS,KS,67554,NOT AVAILABLE,(620) 257-5624
58728,200789002061,LTG RICHARD J. SEITZ ELEMENTARY,27500 RIFLE RANGE RD,FT. RILEY,KS,66641,NOT AVAILABLE,(785) 717-6500
59440,200630001912,FRONTENAC SR. HIGH SCHOOL,201 S. CRAWFORD,FRONTENAC,KS,66763,NOT AVAILABLE,(620) 231-7550
80094,200879000486,LINCOLN ELEM,304 SOUTH FOURTH,LINCOLN,KS,67455,NOT AVAILABLE,(785) 524-4487
80338,200932000658,ROYAL VALLEY ELEMENTARY,1ST AND HIGHLAND,HOYT,KS,66440,0068,(785) 986-6286
81218,200654001334,CHALLENGER INTERMEDIATE SCHOOL,325 N WALNUT,GODDARD,KS,67052,NOT AVAILABLE,(316) 794-4040
85221,200002000501,WESTERN PLAINS SOUTH ELEM/JR HIGH,310 W. BURGESS,BAZINE,KS,67516,0218,(785) 398-2535
85240,201056001980,LINCOLN SCHOOL,1800 DIRR ST,PARSONS,KS,67357,NOT AVAILABLE,(620) 421-3510
87116,200396000164,BENNINGTON ELEM,223 N. PUTNAM,BENNINGTON,KS,67422,0008,(785) 488-3323
88153,200510000644,CONCORDIA JR-SR HIGH,436 W 10TH,CONCORDIA,KS,66901,4122,(785) 243-2452
93289,200579000080,ELKHART ELEM,331 S COSMOS,ELKHART,KS,67950,NOT AVAILABLE,(620) 697-2133
94577,201209000800,SUBLETTE ELEM,301 INMAN,SUBLETTE,KS,67877,NOT AVAILABLE,(620) 675-2286
98264,201108000388,COLWICH ELEM,401 SOUTH MARION,COLWICH,KS,67030,NOT AVAILABLE,(316) 796-1331
40835,200914000385,MAIZE SR HIGH,11600 W 45TH ST N,MAIZE,KS,67101,NOT AVAILABLE,(316) 722-0441
42224,200840001373,SUNSET HILL ELEM,901 SCHWARZ RD,LAWRENCE,KS,66049,2664,(785) 832-5880
42231,200780000107,HODGEMAN COUNTY ELEMENTARY,401 DOUGLAS,JETMORE,KS,67854,0398,(620) 357-8396
42246,200546000358,WINETEER ELEM,8801 ENT DR,WICHITA,KS,67210,1799,(316) 684-9373
46785,201200001657,OAK HILL ELEMENTARY,10200 W. 124TH ST.,OVERLAND PARK,KS,66213,1875,(913) 239-6900
70746,200001701217,SCOTT CITY MIDDLE,809 W NINTH,SCOTT CITY,KS,67871,NOT AVAILABLE,(620) 872-7640
71858,201026000771,TROJAN ELEM,1901 PARKER AVE,OSAWATOMIE,KS,66064,1271,(913) 755-4133
72151,201080001888,APPANOOSE ELEMENTARY SCHOOL,600 SHAWNEE ROAD,POMONA,KS,66076,NOT AVAILABLE,(785) 566-3386
73030,201299000317,STANLEY ELEM,1749 S MARTINSON,WICHITA,KS,67213,3696,(316) 973-1300
73461,200000300583,WAMEGO MIDDLE SCHOOL,1701 KAW VALLEY ROAD,WAMEGO,KS,66547,9673,(785) 456-7682
73605,201080001896,WILLIAMSBURG ELEMENTARY SCHOOL,140 NORTH LOUISA,WILLIAMSBURG,KS,66095,NOT AVAILABLE,(785) 746-5777
74062,200462001249,CHAPMAN HIGH,400 W 4TH,CHAPMAN,KS,67431,0249,(785) 922-6561
77478,200726001954,HILL CITY JUNIOR-SENIOR HIGH,#1 RINGNECK DRIVE,HILL CITY,KS,67642,NOT AVAILABLE,(785) 421-2117
79653,200471000189,SOUTHEAST ELEMENTARY SCHOOL,303 S HUMBERT,WEIR,KS,66781,0308,(620) 396-8211
92144,200795001714,WHITTIER ELEM,295 S 10TH STREET,KANSAS CITY,KS,66102,5550,(913) 627-6400
92266,200807000629,KINGMAN HIGH,260 WEST KANSAS AVENUE,KINGMAN,KS,67068,NOT AVAILABLE,(620) 532-3136
97430,200663001873,WHEATLAND ELEMENTARY SCHOOL,436 ELM,GRAINFIELD,KS,67737,0174,(785) 673-4365
61196,200606000626,MISSION VALLEY JUNIOR AND SENIOR HIGH SCHOOL,12913 MISSION VALLEY RD. STE A,ESKRIDGE,KS,66423,NOT AVAILABLE,(866) 557-6686
62525,200711001309,HERINGTON HIGH,1401 NORTH D,HERINGTON,KS,67449,1674,(785) 258-2261
63769,200951000668,JEFFERSON WEST HIGH,619 CONDRAY ST,MERIDEN,KS,66512,NOT AVAILABLE,(785) 484-3331
67760,200834001230,LANSING HIGH 9-12,1412 147TH STREET,LEAVENWORTH,KS,66048,NOT AVAILABLE,(913) 727-3357
40342,200840001373,SUNSET HILL ELEM,901 SCHWARZ RD,LAWRENCE,KS,66049,2664,(785) 832-5880
42228,200702001322,HAYS HIGH,2300 E 13TH,HAYS,KS,67601,2699,(785) 623-2600
42237,200474001122,LINCOLN CENTRAL ELEM,401 E MAIN,CHERRYVALE,KS,67335,NOT AVAILABLE,(620) 336-8140
44893,200324000620,WABAUNSEE SR HIGH,912 MISSOURI,ALMA,KS,66401,0218,(785) 765-3315
80343,201149000693,SEAMAN HIGH,4850 ROCHESTER RD,TOPEKA,KS,66617,1398,(785) 286-8300
83885,201200001671,OXFORD MIDDLE,12500 SWITZER ROAD,OVERLAND PARK,KS,66213,1804,(913) 239-5500
10328,200636001386,SPRING GROVE PRIMARY CENTER,1900 GALENA AVE.,GALENA,KS,66739,NOT AVAILABLE,(620) 783-4499
11155,200573002059,SKELLY ELEMENTARY SCHOOL,951 SKELLY STREET,EL DORADO,KS,67042,NOT AVAILABLE,(316) 322-4860
11565,200795001399,BERTRAM CARUTHERS ELEM,1100 WAVERLY,KANSAS CITY,KS,66104,5650,(913) 627-4750
12132,200639001600,FLORENCE WILSON ELEM,1709 LABRADOR BLVD,GARDEN CITY,KS,67846,3641,(620) 805-7400
12147,200795001397,JOHN FISKE ELEM,625 S VALLEY,KANSAS CITY,KS,66105,1558,(913) 627-4850
17554,200035101987,RIVERSIDE PRIMARY SCHOOL,710 HARDING AVENUE,WATHENA,KS,66090,NOT AVAILABLE,(785) 989-4425
58871,200420002075,PLUM CREEK ELEMENTARY,901 EAST 43RD AVENUE,HUTCHINSON,KS,67502,NOT AVAILABLE,(620) 662-5535
59650,200000300585,WAMEGO HIGH,801 N LINCOLN,WAMEGO,KS,66547,1539,(785) 456-2214
20520,201071000205,WESTSIDE ELEM,430 WEST 5TH,PITTSBURG,KS,66762,3799,(620) 235-3170
21378,201200001685,OVERLAND TRAIL ELEMENTARY,6225 W. 133RD ST.,OVERLAND PARK,KS,66209,3938,(913) 239-7000
21994,200594000224,W A WHITE ELEM,902 EXCHANGE STREET,EMPORIA,KS,66801,3041,(620) 341-2294
22306,200504000492,SOUTH CENTRAL ELEMENTARY SCHOOL,302 S JEFFERSON,PROTECTION,KS,67127,0038,(620) 622-4545
22593,200456000833,FRANKFORT HIGH,604 N KANSAS,FRANKFORT,KS,66427,1114,(785) 292-4486
23820,201182000836,SPEARVILLE ELEM,105 E. DAVIS,SPEARVILLE,KS,67876,0337,(620) 385-2556
34991,201005000413,OAKLEY SR HIGH,118 WEST 7TH,OAKLEY,KS,67748,NOT AVAILABLE,(785) 671-3241
35419,200645000206,ANDERSON COUNTY JR/SR HIGH SCHOOL,1100 W. HIGHWAY 31,GARNETT,KS,66032,0328,(785) 448-3115
37695,201071000201,GEO E NETTELS ELEM,2012 SOUTH HOMER,PITTSBURG,KS,66762,6398,(620) 235-3160
39765,201164001550,RHEIN BENNINGHOVEN ELEM,6720 CAENEN,SHAWNEE MISSION,KS,66216,2486,(913) 993-1900
4613,200873002080,EISENHOWER MIDDLE SCHOOL,2000 N WESTERN,LIBERAL,KS,67901,NOT AVAILABLE,(620) 604-1400
6830,200807001974,KINGMAN ELEMENTARY SCHOOL,607 NORTH SPRUCE STREET,KINGMAN,KS,67068,NOT AVAILABLE,(620) 532-5186
8678,200651000647,GLASCO ELEM,200 HAYNES & BUFFALO ST,GLASCO,KS,67445,0158,(785) 568-2291
101722,200405000032,EDWARDSVILLE ELEM,1700 S 104TH,EDWARDSVILLE,KS,66111,NOT AVAILABLE,(913) 422-4036
102290,200705000366,REX ELEM,1100 W. GRAND,HAYSVILLE,KS,67060,1221,(316) 554-2281
65880,200984001667,MULVANE GRADE SCHOOL,411 SE LOUIS BLVD,MULVANE,KS,67110,NOT AVAILABLE,(316) 777-1981
69639,201284000722,EISENHOWER ELEM,924 N PLUM,WELLINGTON,KS,67152,3566,(620) 326-4340
11195,200762000539,WILEY ELEMENTARY,900 W 21ST,HUTCHINSON,KS,67502,NOT AVAILABLE,(620) 615-5250
11944,200549001462,STARSIDE ELEM,35400 W 91ST,DE SOTO,KS,66018,NOT AVAILABLE,(913) 667-6270
15241,201260002018,VICTORIA ELEMENTARY,602 10TH STREET,VICTORIA,KS,67671,NOT AVAILABLE,(785) 735-2870
16190,201161000168,SHARON SPRINGS ELEM,521 N. MAIN,SHARON SPRINGS,KS,67758,NOT AVAILABLE,(785) 852-4267
16721,201164001568,INDIAN HILLS MIDDLE,6400 MISSION RD,SHAWNEE MISSION,KS,66208,1700,(913) 993-0400
17645,201299000351,NORTHWEST HIGH,1220 N TYLER RD,WICHITA,KS,67212,3296,(316) 973-6000
19067,201014001484,REGENCY PLACE ELEMENTARY,13250 S GREENWOOD,OLATHE,KS,66062,NOT AVAILABLE,(913) 780-7620
40500,200465000914,RAYMOND JR HIGH,308 EAST C AVENUE,CHASE,KS,67524,0366,(620) 938-2923
42227,200840001366,DEERFIELD ELEM,101 LAWRENCE AVENUE,LAWRENCE,KS,66049,1846,(785) 832-5660
43880,200630000197,FRANK LAYDEN ELEM,200 E LANYON,FRONTENAC,KS,66763,NOT AVAILABLE,(620) 231-7790
46362,200897000982,BROADMOOR ELEMENTARY,105 S 5TH STREET EAST,LOUISBURG,KS,66053,NOT AVAILABLE,(913) 837-1900
47891,200867000180,SOUTHERN COFFEY COUNTY HIGH SCHOOL,1010 N MAIN,LEROY,KS,66857,0188,(620) 964-2217
20085,201200000892,HEARTLAND ELEMENTARY,12775 GOODMAN ST.,OVERLAND PARK,KS,66213,2786,(913) 239-6300
20203,201245000150,UNIONTOWN HIGH SCHOOL,601 FIFTH STREET,UNIONTOWN,KS,66779,NOT AVAILABLE,(620) 756-4301
23943,200002801828,WASHINGTON COUNTY HIGH SCHOOL,115 NORTH D STREET,WASHINGTON,KS,66968,NOT AVAILABLE,(785) 325-2261
24980,200897000983,LOUISBURG HIGH,202 AQUATIC DRIVE,LOUISBURG,KS,66053,NOT AVAILABLE,(913) 837-1720
25807,200702001324,ROOSEVELT ELEM,2000 MACARTHUR,HAYS,KS,67601,NOT AVAILABLE,(785) 623-2520
25956,200624000044,REMINGTON ELEMENTARY AT POTWIN,200 E ELLIS,POTWIN,KS,67123,NOT AVAILABLE,(620) 752-3239
26772,201299001919,MEAD MIDDLE SCHOOL,2601 E SKINNER,WICHITA,KS,67211,4796,(316) 973-8500
28931,201236001475,MIDLAND TRAIL,3101 SOUTH 51ST STREET,KANSAS CITY,KS,66106,NOT AVAILABLE,(913) 288-3500
29399,201068000026,PIPER HIGH,4400 NORTH 107 STREET,KANSAS CITY,KS,66109,NOT AVAILABLE,(913) 721-2100
70061,200320001658,INDIAN HILLS ELEMENTARY,7445 SW 29TH,TOPEKA,KS,66614,4700,(785) 339-4500
71507,201230001738,CIRCLE MIDDLE SCHOOL,14697 SW 20TH STREET,BENTON,KS,67017,NOT AVAILABLE,(316) 778-1470
73286,200795001432,STONY POINT NORTH,8200 ELIZABETH,KANSAS CITY,KS,66112,2601,(913) 627-4500
73920,200549000898,MONTICELLO TRAILS MIDDLE SCHOOL,6100 MONTICELLO RD,SHAWNEE,KS,66226,3107,(913) 422-1100
76528,200918000850,THEO ROOSEVELT ELEM,1401 HOUSTON STREET,MANHATTAN,KS,66502,NOT AVAILABLE,(785) 587-2090
77730,201226001472,JARDINE MIDDLE SCHOOL,2600 SW 33RD ST,TOPEKA,KS,66611,1883,(785) 274-6330
4312,201032001887,OSKALOOSA JR-SR HIGH SCHOOL,404 PARK STREET,OSKALOOSA,KS,66066,NOT AVAILABLE,(785) 863-2281
31806,201014000137,OLATHE NORTH SR HIGH,600 E PRAIRIE ST,OLATHE,KS,66061,3397,(913) 780-7140
32352,201302000664,JEFFERSON CO NORTH HIGH,302 5TH STREET,WINCHESTER,KS,66097,0404,(913) 774-8515
33031,200600002046,ERIE HIGH SCHOOL,1400 N. MAIN ST,ERIE,KS,66733,NOT AVAILABLE,(620) 244-1000
36399,200759000247,HUMBOLDT HIGH SCHOOL,1020 NEW YORK ST.,HUMBOLDT,KS,66748,1835,(620) 473-2251
37082,200795001395,EMERSON ELEM,1429 S 29TH,KANSAS CITY,KS,66106,2132,(913) 627-5900
37503,200762001635,HUTCHINSON MIDDLE SCHOOL 8,200 W 14,HUTCHINSON,KS,67501,NOT AVAILABLE,(620) 615-4800
38309,200447000406,LAKESIDE JUNIOR/SENIOR HIGH SCHOOL,1306 N MORGAN,DOWNS,KS,67437,0326,(785) 454-3332
56060,200762002084,HUTCHINSON MIDDLE SCHOOL 7,210 E AVENUE A,HUTCHINSON,KS,67501,NOT AVAILABLE,(620) 615-4700
80581,200789001268,MILFORD ELEM,401 WEST 12TH,MILFORD,KS,66514,NOT AVAILABLE,(785) 717-4170
82691,201200000534,PRAIRIE STAR ELEMENTARY,3800 W. 143RD ST.,LEAWOOD,KS,66224,4504,(913) 239-7100
83875,200426001160,BURLINGAME ELEMENTARY,323 NORTH DACOTAH,BURLINGAME,KS,66413,NOT AVAILABLE,(785) 654-3713
84409,200480000009,CIMARRON ELEM,600 N 2ND,CIMARRON,KS,67835,0489,(620) 855-3343
85437,200002000498,WESTERN PLAINS HIGH,100 SCHOOL ST.,RANSOM,KS,67572,0248,(785) 731-2352
85494,200001801751,SCHOOL FOR BLIND HIGH,1100 STATE AVENUE,KANSAS CITY,KS,66102,4486,(913) 305-3000
95213,200555001296,DIGHTON HIGH,200 S WICHITA,DIGHTON,KS,67839,0939,(620) 397-5333
96926,200372002015,BALDWIN ELEMENTARY INTERMEDIATE CENTER,100 BULLPUP DRIVE,BALDWIN CITY,KS,66006,NOT AVAILABLE,(785) 594-2446
97165,201299000305,O K ELEM,1607 N WEST,WICHITA,KS,67203,1335,(316) 973-0600
98556,200001500459,GARFIELD ELEM,1213 COLLEGE,OTTAWA,KS,66067,3619,(785) 229-8060
99024,201149001953,LOGAN ELEMENTARY,1124 NW LYMAN RD,TOPEKA,KS,66608,NOT AVAILABLE,(785) 575-8700
105005,200834002107,LANSING INTERMEDIATE SCHOOL,509 W IDA ST,LANSING,KS,66043,NOT AVAILABLE,(913) 297-0990
20108,201014001484,REGENCY PLACE ELEMENTARY,13250 S GREENWOOD,OLATHE,KS,66062,NOT AVAILABLE,(913) 780-7620
22392,200759002071,HUMBOLDT ELEMENTARY SCHOOL,1100 CENTRAL ST.,HUMBOLDT,KS,66748,NOT AVAILABLE,(620) 473-2461
29088,201164001529,CRESTVIEW ELEM,6101 CRAIG ST.,SHAWNEE MISSION,KS,66202,3037,(913) 993-3000
1132,201299001648,ANDERSON ELEM,2945 S VICTORIA,WICHITA,KS,67216,1499,(316) 973-1900
3278,201299000343,TRUESDELL MIDDLE SCHOOL,2464 S GLENN,WICHITA,KS,67217,1898,(316) 973-3900
6727,200429002001,BURLINGTON ELEMENTARY SCHOOL,706 NIAGARA STREET,BURLINGTON,KS,66839,NOT AVAILABLE,(620) 364-8882
9756,200405000030,ROBERT E CLARK MIDDLE,420 N BLUEGRASS,BONNER SPRINGS,KS,66012,NOT AVAILABLE,(913) 422-5115
31177,200002901837,ROCK HILLS JR/SR HIGH SCHOOL,710 E. MADISON,MANKATO,KS,66956,NOT AVAILABLE,(785) 378-3126
33584,200642001878,WHEATRIDGE MIDDLE SCHOOL,318 E. WASHINGTON STREET,GARDNER,KS,66030,NOT AVAILABLE,(913) 856-2900
34272,200465000913,CHASE HIGH,308 EAST C AVENUE,CHASE,KS,67524,0366,(620) 938-2923
34666,200639001653,VICTOR ORNELAS ELEM,3401 E SPRUCE,GARDEN CITY,KS,67846,8398,(620) 805-7900
34907,200903000927,LYONS CENTRAL ELEMENTARY,501 W. LINCOLN,LYONS,KS,67554,NOT AVAILABLE,(620) 257-5612
36547,200345001237,ROOSEVELT ELEM,300 NORTH B,ARKANSAS CITY,KS,67005,2297,(620) 441-2070
38699,200642000123,EDGERTON ELEM,400 W NELSON,EDGERTON,KS,66021,2314,(913) 856-3500
12301,200549001881,HORIZON ELEMENTARY,7210 CHOUTEAU,SHAWNEE,KS,66227,NOT AVAILABLE,(913) 667-3535
13501,200939001026,EISENHOWER ELEMENTARY,301 E WICKERSHAM DR,MCPHERSON,KS,67460,1600,(620) 241-9430
13853,201062000675,LECOMPTON ELEM,626 WHITFIELD ST,LECOMPTON,KS,66050,NOT AVAILABLE,(785) 887-6343
13857,200000100524,SOUTHEAST SALINE ELEM,5056 E K-4 HIGHWAY,GYPSUM,KS,67448,NOT AVAILABLE,(785) 536-4215
16060,201226001440,AVONDALE ACADEMY,3229 SW WESTVIEW AVE,TOPEKA,KS,66611,2597,(785) 274-6400
17546,200729000960,HILLSBORO ELEM,812 EAST A STREET,HILLSBORO,KS,67063,1697,(620) 947-3184
17647,200797000591,ST MARYS ELEM,312 GRAND AVENUE,ST MARYS,KS,66536,1754,(785) 437-6159
18928,200594000227,LOGAN AVE ELEM,521 SOUTH EAST STREET,EMPORIA,KS,66801,4999,(620) 341-2264
19857,201104000575,GOLDEN PLAINS HIGH,335 SCHOOL STREET,REXFORD,KS,67753,0100,(785) 687-3265
62284,201017000594,ONAGA ELEM,400 HIGH ST,ONAGA,KS,66521,0070,(785) 889-7101
62519,200000600975,HIAWATHA ELEM,600 MIAMI,HIAWATHA,KS,66434,2099,(785) 742-7181
62527,201164001897,MERRIAM PARK ELEMENTARY,6100 MASTIN,SHAWNEE MISSION,KS,66203,NOT AVAILABLE,(913) 993-3600
73026,200966000238,MARMATON VALLEY HIGH,140 WEST OAK STREET,MORAN,KS,66755,NOT AVAILABLE,(620) 237-4251
74487,200762000532,GRABER ELEMENTARY,1600 N CLEVELAND,HUTCHINSON,KS,67501,NOT AVAILABLE,(620) 615-5050
76715,201191000711,ST JOHN HIGH,505 NORTH BROADWAY,ST. JOHN,KS,67576,1644,(620) 549-3277
77775,201029000882,OSBORNE JUNIOR/SENIOR HIGH,219 N SECOND,OSBORNE,KS,67473,2003,(785) 346-2143
79350,200639001633,EDITH SCHEUERMAN ELEM,1901 WILCOX,GARDEN CITY,KS,67846,3964,(620) 805-7350
79581,200594001797,TIMMERMAN ELEMENTARY,2901 TIMMERMAN DR,EMPORIA,KS,66801,7748,(620) 341-2270
42235,201059000900,PEABODY-BURNS ELEMENTARY,506 ELM STREET,PEABODY,KS,66866,1216,(620) 983-2188
44828,200822000890,LA CROSSE HIGH,400 WASHINGTON,LA CROSSE,KS,67548,0810,(785) 222-2528
49159,200729000961,HILLSBORO MIDDLE/HIGH SCHOOL,400 EAST GRAND,HILLSBORO,KS,67063,1699,(620) 947-3184
89514,201200001700,LAKEWOOD MIDDLE,6601 EDGEWATER DRIVE,OVERLAND PARK,KS,66223,2465,(913) 239-5800
53209,200582000731,ELLINWOOD ELEM,310 E. 6TH ST.,ELLINWOOD,KS,67526,NOT AVAILABLE,(620) 564-2750
90715,201299000324,WOODLAND HEALTH / WELLNESS MAGNET ELEM,1705 SALINA,WICHITA,KS,67203,2897,(316) 973-0100
91525,201056001487,PARSONS SR HIGH,3030 MORTON,PARSONS,KS,67357,NOT AVAILABLE,(620) 421-3660
92941,200669000014,GREELEY COUNTY JR./SR. HIGH,400 W LAWRENCE,TRIBUNE,KS,67879,0580,(620) 376-4265
94735,200408000570,BREWSTER HIGH,127 KANSAS AVENUE,BREWSTER,KS,67732,0220,(785) 694-2236
95319,201014001668,BRIARWOOD ELEM,14101 S BROUGHAM DR,OLATHE,KS,66062,2085,(913) 780-7330
99168,201200001593,MORSE ELEMENTARY,15201 MONROVIA ST.,OVERLAND PARK,KS,66221,2369,(913) 239-6800
99588,201200001686,OVERLAND TRAIL MIDDLE,6201 W. 133RD ST.,OVERLAND PARK,KS,66209,3939,(913) 239-5400
105008,201164002106,LENEXA HILLS ELEMENTARY,8650 HAVEN,LENEXA,KS,66219,NOT AVAILABLE,(913) 993-5700
65744,200789001262,SHERIDAN ELEM,429 W ASH,JUNCTION CITY,KS,66441,NOT AVAILABLE,(785) 717-4670
67657,200705000364,NELSON ELEM,245 N DELOS,HAYSVILLE,KS,67060,1718,(316) 554-2273
67658,200320001072,JAY SHIDELER ELEMENTARY,4948 SW WANAMAKER,TOPEKA,KS,66610,1330,(785) 339-4600
68488,200840001374,WOODLAWN ELEM,508 ELM ST,LAWRENCE,KS,66044,5401,(785) 832-5920
11676,200807001969,NORWICH MIDDLE SCHOOL,209 PARKWAY,NORWICH,KS,67118,NOT AVAILABLE,(620) 478-2235
13842,201014001292,CEDAR CREEK ELEM,11150 S CLARE RD,OLATHE,KS,66061,NOT AVAILABLE,(913) 780-7360
17054,200438000743,CALDWELL ELEM,1 NORTH OSAGE STREET,CALDWELL,KS,67022,1497,(620) 845-2585
17313,200804001274,CREST ELEMENTARY,603 E. BROAD,COLONY,KS,66015,0325,(620) 852-3529
19855,200387000410,BELOIT JR-SR HIGH,1711 N WALNUT,BELOIT,KS,67420,0606,(785) 738-3593
82446,201299000113,LEVY SP ED CENTER,400 N WOODCHUCK,WICHITA,KS,67212,3556,(316) 973-3400
2182,200510000643,CONCORDIA MIDDLE,436 WEST 10TH,CONCORDIA,KS,66901,2908,(785) 243-2114
4616,200552001244,DEXTER ELEM,311 N. MAIN,DEXTER,KS,67038,0097,(620) 876-5415
5316,200479000582,CHEYLIN ELEMENTARY,121 E.SIXTH,BIRD CITY,KS,67731,0028,(785) 734-2351
30053,200531001021,PIKE VALLEY HIGH,100 SCHOOL STREET,SCANDIA,KS,66966,NOT AVAILABLE,(785) 335-2294
30059,200984000374,MULVANE HIGH,1900 N ROCK ROAD,MULVANE,KS,67110,1051,(316) 777-1183
30270,200345001240,ARKANSAS CITY MIDDLE SCH,400 E KANSAS AVE,ARKANSAS CITY,KS,67005,1298,(620) 441-2030
34586,200753000965,HOXIE ELEM,1100 QUEEN AVE.,HOXIE,KS,67740,0969,(785) 675-3254
35975,200330001495,LABETTE COUNTY HIGH SCHOOL,601 S HIGH SCHOOL STREET,ALTAMONT,KS,67330,0407,(620) 784-5321
39085,201302001239,JEFFERSON COUNTY NORTH ELEM/MIDDLE,100 CHARGER LANE,NORTONVILLE,KS,66060,4902,(913) 886-3870
39086,201299000295,LINWOOD ELEMENTARY,1654 S. HYDRAULIC,WICHITA,KS,67211,4572,(316) 973-8100
40145,200348000183,NORTHEAST ELEM,201 NORTH WEST STREET,ARMA,KS,66712,0669,(620) 347-8461
40659,200996000796,NEWTON SR HIGH,900 WEST 12TH,NEWTON,KS,67114,NOT AVAILABLE,(316) 284-6280
42249,201226001442,ROBINSON MIDDLE SCHOOL,1125 SW 14TH ST,TOPEKA,KS,66604,2996,(785) 295-3770
44381,201200001841,SUNRISE POINT ELEMENTARY,15800 ROE AVE.,OVERLAND PARK,KS,66224,NOT AVAILABLE,(913) 239-7500
45869,200657000963,GOESSEL ELEM,500 E MAIN,GOESSEL,KS,67053,0068,(620) 367-8118
54163,200336001913,WHEATLAND ELEMENTARY,15200 E. 21ST STREET,WICHITA,KS,67230,NOT AVAILABLE,(316) 218-4820
56694,200840001776,LAWRENCE VIRTUAL SCHOOL,1104 E 1000 ROAD,LAWRENCE,KS,66047,NOT AVAILABLE,(785) 832-5620
57358,200795002094,FAIRFAX LEARNING CENTER,3016 N. 9TH STREET,KANSAS CITY,KS,66101,NOT AVAILABLE,(913) 627-6700
72304,201023001005,OSAGE CITY ELEM,420 S. 4TH STREET,OSAGE CITY,KS,66523,NOT AVAILABLE,(785) 528-3171
73147,201299000292,LAWRENCE ELEM,3440 W MAPLE,WICHITA,KS,67213,2450,(316) 973-9900
79441,201041001057,SANTA FE TRAIL HIGH,15701 S CALIFORNIA AVE,CARBONDALE,KS,66414,9178,(800) 836-9525
22111,201299000325,WOODMAN ELEM,2500 HIRAM,WICHITA,KS,67217,1899,(316) 973-0200
24650,200797000590,ROSSVILLE JR.-SR. HIGH SCHOOL,800 MAIN,ROSSVILLE,KS,66533,0068,(785) 584-6193
25510,201047002074,DAMAR ELEMENTARY SCHOOL,402 3RD STREET,DAMAR,KS,67632,0038,(785) 839-4265
25609,200441001065,CANEY VALLEY HIGH,601 E. BULLPUP BLVD,CANEY,KS,67333,NOT AVAILABLE,(620) 879-9220
28112,201137000519,LAKEWOOD MIDDLE SCHOOL,1135 LAKEWOOD CIR,SALINA,KS,67401,NOT AVAILABLE,(785) 309-4000
29766,201014000132,RIDGEVIEW ELEM,1201 E ELM ST,OLATHE,KS,66061,4896,(913) 780-7630
92470,201226001466,WHITSON ELEM,1725 SW ARNOLD AVE,TOPEKA,KS,66604,3300,(785) 438-4570
92509,201299000286,JEFFERSON ELEM,4615 E ORME,WICHITA,KS,67218,2391,(316) 973-3000
97429,200639001169,ALTA BROWN ELEM,1110 EAST PINE,GARDEN CITY,KS,67846,5947,(620) 805-7200
100650,200774000243,IOLA MIDDLE SCHOOL,600 EAST STREET,IOLA,KS,66749,3095,(620) 365-4785
