OBJECTID,NCESID,NAME,ADDRESS,CITY,STATE,ZIP,ZIP4,TELEPHONE
10161,210495001572,SOUTHERN MIDDLE SCHOOL,200 ENTERPRISE DR,SOMERSET,KY,42501,NOT AVAILABLE,(606) 679-6855
10621,210186000389,MARY TODD ELEMENTARY SCHOOL,551 PARKSIDE DR,LEXINGTON,KY,40505,NOT AVAILABLE,(859) 381-3512
10721,210186000351,ASHLAND ELEMENTARY SCHOOL,195 N ASHLAND AVE,LEXINGTON,KY,40502,NOT AVAILABLE,(859) 381-3243
16745,210303002388,RED OAK ELEMENTARY SCHOOL,921 UNION MILL RD,NICHOLASVILLE,KY,40356,NOT AVAILABLE,(859) 885-0616
18234,210495001233,PULASKI COUNTY HIGH SCHOOL,511 UNIVERSITY DR,SOMERSET,KY,42503,NOT AVAILABLE,(606) 679-1574
19079,210390000995,MAYFIELD HIGH SCHOOL,700 DOUTHITT ST,MAYFIELD,KY,42066,NOT AVAILABLE,(270) 247-4461
1442,210147001700,VALLEY HIGH SCHOOL,1000 INDUSTRIAL DR.,OWENSBORO,KY,42301,NOT AVAILABLE,(270) 689-6773
2878,210573002427,GEO INTERNATIONAL HIGH SCHOOL,1808 LOOP DRIVE,BOWLING GREEN,KY,42101,NOT AVAILABLE,(270) 842-7302
3371,210495000506,SOUTHWESTERN HIGH SCHOOL,1765 WTLO RD,SOMERSET,KY,42503,NOT AVAILABLE,(606) 678-9000
4623,210381002428,SOUTH MARSHALL MIDDLE,2211 US 641 SOUTH,BENTON,KY,42025,NOT AVAILABLE,(270) 527-3828
5225,210425001867,HILLCREST HALL TREATMENT CENTER,209 DAVIS RD,MOUNT STERLING,KY,40353,NOT AVAILABLE,(859) 498-6574
6011,210378002443,MARION COUNTY KNIGHT ACADEMY,200 CORPORATE DRIVE,LEBANON,KY,40033,NOT AVAILABLE,(270) 692-3441
6895,210375000960,MAGOFFIN COUNTY HIGH SCHOOL,1100 EAST MOUNTAIN PARKWAY,SALYERSVILLE,KY,41465,NOT AVAILABLE,(606) 349-2011
8594,210299000661,WILDER ELEMENTARY,1913 HERR LANE,LOUISVILLE,KY,40222,NOT AVAILABLE,(502) 485-8350
8903,210459002011,EMERSON ACADEMY,1335 W 11TH STREET,OWENSBORO,KY,42301,NOT AVAILABLE,(270) 686-1087
44884,210072000141,IRVINGTON ELEMENTARY SCHOOL,1 WILDCAT WAY,IRVINGTON,KY,40146,NOT AVAILABLE,(270) 756-3050
46181,210078002407,BURGIN INDEPENDENT SCHOOL,440 E MAIN ST,BURGIN,KY,40310,NOT AVAILABLE,(859) 748-5282
49306,210588001621,WHITLEY COUNTY CENTRAL PRIMARY SCHOOL,520 BLVD OF CHAMPIONS,WILLIAMSBURG,KY,40769,NOT AVAILABLE,(606) 549-7060
49433,210159000318,EAST BERNSTADT ELEMENTARY SCHOOL,229 SCHOOL STREET,EAST BERNSTADT,KY,40729,NOT AVAILABLE,(606) 843-6221
60240,210372002392,MADISON KINDERGARTEN ACADEMY,300 BOND ST.,RICHMOND,KY,40475,NOT AVAILABLE,(859) 625-6050
64240,210299002262,HOME/HOSPITAL,3332 NEWBURG ROAD,LOUISVILLE,KY,40218,NOT AVAILABLE,(502) 485-6054
65887,210299000702,WILT ELEMENTARY,6700 PRICE LANE,LOUISVILLE,KY,40229,NOT AVAILABLE,(502) 485-8353
105023,210144002500,ANCHOR ACADEMY,115 E. LEXINGTON AVE.,DANVILLE,KY,40422,4042,(859) 238-1300
105033,210201002518,FAYETTE COUNTY JUVENILE DETENTION CENTER,3475 SPURR RD,LEXINGTON,KY,40511,NOT AVAILABLE,(859) 246-2806
21084,210396001461,HEATH ELEMENTARY SCHOOL,4365 METROPOLIS LAKE RD,WEST PADUCAH,KY,42086,NOT AVAILABLE,(270) 538-4060
24747,210051000086,CHESTER GOODRIDGE ELEMENTARY SCHOOL,3330 COUGAR PATH,HEBRON,KY,41048,9642,(859) 334-4420
24860,210299000690,MINORS LANE ELEMENTARY,8510 MINORS LANE,LOUISVILLE,KY,40219,0019,(502) 485-8303
25610,210135000270,JOHN G CARLISLE ELEMENTARY,910 HOLMAN ST,COVINGTON,KY,41011,NOT AVAILABLE,(859) 292-5812
26297,210176000341,ESTILL COUNTY MIDDLE SCHOOL,51 PATRIOT DR.,IRVINE,KY,40336,NOT AVAILABLE,(606) 723-5136
29168,210573001603,DRAKES CREEK MIDDLE SCHOOL,704 CYPRESS WOOD,BOWLING GREEN,KY,42104,NOT AVAILABLE,(270) 843-0165
83476,210254000541,JAMES A. CAWOOD ELEMENTARY,279 BALL PARK RD,HARLAN,KY,40831,NOT AVAILABLE,(606) 573-5029
84564,210072000139,BEN JOHNSON ELEMENTARY SCHOOL,13598 S. HWY 259,MC DANIELS,KY,40152,NOT AVAILABLE,(270) 756-3070
88696,210408001039,MENIFEE ELEMENTARY SCHOOL,57 INDIAN CREEK ROAD,FRENCHBURG,KY,40322,NOT AVAILABLE,(606) 768-8351
30946,210081001977,BUTLER COUNTY LEARNING CENTER,178 ACADEMIC WAY,MORGANTOWN,KY,42261,NOT AVAILABLE,(270) 526-2264
34804,210309000817,RYLAND HEIGHTS ELEMENTARY SCHOOL,3845 STEWART DR,COVINGTON,KY,41015,NOT AVAILABLE,(859) 356-9270
39801,210072001304,BRECKINRIDGE COUNTY MIDDLE SCHOOL,1877 E. HIGHWAY 60,HARNED,KY,40144,NOT AVAILABLE,(270) 756-3060
90014,210405002202,JAMES R. ALLEN HIGH SCHOOL,918 OLD STATE ROAD,BRANDENBURG,KY,40108,NOT AVAILABLE,(270) 422-7516
90864,210327000216,LEE COUNTY ELEMENTARY SCHOOL,1665 HWY 11 SOUTH,BEATTYVILLE,KY,41311,NOT AVAILABLE,(606) 464-5020
91817,210339000910,LEWIS COUNTY HIGH SCHOOL,79 LIONS LANE,VANCEBURG,KY,41179,NOT AVAILABLE,(606) 796-2823
94197,210249001446,NEW HIGHLAND ELEMENTARY SCHOOL,110 W A JENKINS RD,ELIZABETHTOWN,KY,42701,NOT AVAILABLE,(270) 737-6612
95006,210186002337,FAYETTE COUNTY PRESCHOOL CENTER,165 SPRINGHILL DR,LEXINGTON,KY,40503,NOT AVAILABLE,(859) 381-4105
95549,210021002404,BALLARD COUNTY CAREER AND TECHNOLOGY CTR,11 VOCATIONAL SCHOOL RD,BARLOW,KY,42024,NOT AVAILABLE,(270) 665-8400
97371,210519001275,RUSSELLVILLE HIGH SCHOOL,1101 W 9TH ST,RUSSELLVILLE,KY,42276,NOT AVAILABLE,(270) 726-8421
99279,210405001034,BRANDENBURG PRIMARY SCHOOL,750 BROADWAY,BRANDENBURG,KY,40108,NOT AVAILABLE,(270) 422-7545
99467,210299000780,SHELBY TRADITIONAL ACADEMY,735 ZIEGLER STREET,LOUISVILLE,KY,40217,NOT AVAILABLE,(502) 485-8327
100000,210573002302,JACKSON ACADEMY HIGH SCHOOL,877 JACKSON STREET,BOWLING GREEN,KY,42101,NOT AVAILABLE,(270) 467-0293
50181,210286000602,MADISONVILLE NORTH HOPKINS HIGH SCHOOL,4515 HANSON RD,MADISONVILLE,KY,42431,NOT AVAILABLE,(270) 825-6017
55065,210069001623,BREATHITT REGIONAL JUVENILE DET CTR,2725 HWY 30 W,JACKSON,KY,41339,NOT AVAILABLE,(606) 295-2350
55085,210579001361,LAKE CUMBERLAND YOUTH DEVELOPMENT CENTER,9000 HWY 1546,MONTICELLO,KY,42633,NOT AVAILABLE,(606) 348-1482
55843,210093000183,CAMPBELLSVILLE HIGH SCHOOL,230 W MAIN ST,CAMPBELLSVILLE,KY,42718,NOT AVAILABLE,(270) 465-8774
56724,210299001857,WESTERN DAY TREATMENT,1900 SOUTH SEVENTH STREET,LOUISVILLE,KY,40208,NOT AVAILABLE,(502) 485-7351
57266,210171002455,BLUEGRASS CHALLENGE ACADEMY,114 CONROY AVE. BLDG 5549,FORT KNOX,KY,40121,NOT AVAILABLE,(877) 599-6884
57593,210195002446,SOUTH FLOYD ELEMENTARY SCHOOL,299 MT. RAIDER DR.,HI HAT,KY,41636,NOT AVAILABLE,(606) 263-6175
70382,210028902104,CORBIN AREA TECHNOLOGY CENTER,1909 SOUTH SNYDER AVE,CORBIN,KY,40701,NOT AVAILABLE,(606) 528-5338
74098,210594001392,WILLIAMSTOWN ELEMENTARY,300 HELTON STREET,WILLIAMSTOWN,KY,41097,9505,(859) 824-3760
75304,210339000911,TOLLESBORO ELEMENTARY SCHOOL,2431 W. KY 10,TOLLESBORO,KY,41189,NOT AVAILABLE,(606) 798-3231
76164,210318002216,THE LIFE CONNECTION,81 BUD'S LAKE ROAD,SONORA,KY,42776,NOT AVAILABLE,(270) 324-4956
76716,210299000624,CANE RUN ELEMENTARY,3951 CANE RUN RD,LOUISVILLE,KY,40211,NOT AVAILABLE,(502) 485-8223
79770,210028902078,GREEN COUNTY AREA TECHNOLOGY CENTER,102 CARLISLE AVE,GREENSBURG,KY,42743,NOT AVAILABLE,(270) 932-4263
1561,210123000251,GOOSE ROCK ELEMENTARY,364 HWY 1524,MANCHESTER,KY,40962,NOT AVAILABLE,(606) 598-3740
4083,210480001197,KIMPER ELEMENTARY SCHOOL,8151 STATE HWY 194 E,KIMPER,KY,41539,NOT AVAILABLE,(606) 631-1509
8436,210039000068,LONE JACK SCHOOL CENTER,101 CREECH HOLLOW ROAD,FOURMILE,KY,40939,NOT AVAILABLE,(606) 337-9461
40148,210075000148,LEBANON JUNCTION ELEMENTARY,10920 S PRESTON HWY,LEBANON JUNCTION,KY,40150,8117,(502) 869-2200
42260,210459001135,NEWTON PARRISH ELEMENTARY SCHOOL,510 BYERS AVE,OWENSBORO,KY,42303,NOT AVAILABLE,(270) 686-1100
44461,210555002034,HORIZONS HIGH SCHOOL,804 SOUTH MAIN STREET,ELKTON,KY,42220,NOT AVAILABLE,(270) 265-7503
44648,210135000274,NINTH DISTRICT ELEMENTARY,2800 INDIANA AVE,COVINGTON,KY,41015,NOT AVAILABLE,(859) 292-5823
46509,210271000585,HENDERSON COUNTY SOUTH MIDDLE SCHOOL,800 S ALVES ST,HENDERSON,KY,42420,NOT AVAILABLE,(270) 831-5050
47206,210075000147,HEBRON MIDDLE SCHOOL,3300 E HEBRON LN,SHEPHERDSVILLE,KY,40165,8975,(502) 869-4200
48019,210411002285,MERCER CENTRAL,530 PERRYVILLE ROAD,HARRODSBURG,KY,40330,NOT AVAILABLE,(859) 733-7120
61804,210246001993,NORTH HANCOCK ELEMENTARY SCHOOL,330 FRANK LUTTRELL RD,LEWISPORT,KY,42351,NOT AVAILABLE,(270) 927-7900
61893,210192000397,SIMONS MIDDLE SCHOOL,242 W WATER ST,FLEMINGSBURG,KY,41041,NOT AVAILABLE,(606) 845-9331
62131,210240001610,WURTLAND MIDDLE SCHOOL,700 CENTER AVE,WURTLAND,KY,41144,NOT AVAILABLE,(606) 836-0025
62233,210444001100,NEWPORT INTERMEDIATE SCHOOL,95 W. 9TH STREET,NEWPORT,KY,41071,NOT AVAILABLE,(859) 292-3021
62556,210315002235,CENTRAL ELEMENTARY SCHOOL,1000 KY 3439,BARBOURVILLE,KY,40906,NOT AVAILABLE,(606) 546-3496
63961,210222002215,SUCCESS ACADEMY,1601 COLUMBIA AVE,GLASGOW,KY,42141,NOT AVAILABLE,(270) 651-8801
64565,210075001410,BULLITT LICK MIDDLE SCHOOL,555 W BLUE LICK RD,SHEPHERDSVILLE,KY,40165,NOT AVAILABLE,(502) 869-5400
68597,210075000150,MT. WASHINGTON MIDDLE SCHOOL,269 WATER ST,MOUNT WASHINGTON,KY,40047,NOT AVAILABLE,(502) 869-5200
69553,210555001324,TODD COUNTY MIDDLE SCHOOL,515 W MAIN ST,ELKTON,KY,42220,NOT AVAILABLE,(270) 265-2511
51255,210186000384,CLAYS MILL ELEMENTARY SCHOOL,2319 CLAYS MILL RD,LEXINGTON,KY,40503,NOT AVAILABLE,(859) 381-3355
55079,210438000933,MURRAY PRESCHOOL HEAD START,208 SOUTH 13TH ST,MURRAY,KY,42071,NOT AVAILABLE,(270) 762-6863
93710,210294001674,JACKSON COUNTY MIDDLE SCHOOL,139 HWY 587,MCKEE,KY,40447,NOT AVAILABLE,(606) 287-8351
80236,210069000129,BREATHITT COUNTY HIGH SCHOOL,2307 BOBCAT LANE,JACKSON,KY,41339,NOT AVAILABLE,(606) 666-7511
80345,210180001889,FAIRVIEW ELEMENTARY SCHOOL,258 MCKNIGHT ST WW,ASHLAND,KY,41102,NOT AVAILABLE,(606) 325-1528
80600,210168000330,ELLIOTT COUNTY INTERMEDIATE SCHOOL,349 SOUTH KY 7,SANDY HOOK,KY,41171,NOT AVAILABLE,(606) 738-8402
82531,210299000784,CARTER TRADITIONAL ELEMENTARY,3600 BOHNE AVE,LOUISVILLE,KY,40211,NOT AVAILABLE,(502) 485-8225
83469,210348000915,HIGHLAND ELEMENTARY SCHOOL,75 TICK RIDGE RD,WAYNESBURG,KY,40489,NOT AVAILABLE,(606) 365-2768
85335,210195001426,MAY VALLEY ELEMENTARY SCHOOL,481 STEPHENS BR,MARTIN,KY,41649,NOT AVAILABLE,(606) 285-0883
105024,210147002470,THE CENTER FOR ACADEMIC IMPROVEMENT,3361 BUCKLAND SQUARE,OWENSBORO,KY,42301,5830,(270) 852-7200
105026,210168002505,ELLIOTT COUNTY PRIMARY SCHOOL,155 LAKESIDE SCHOOL ROAD,SANDY HOOK,KY,41171,NOT AVAILABLE,(606) 738-8202
10438,210516001264,RUSSELL SPRINGS ELEMENTARY SCHOOL,1554 N HWY 127,RUSSELL SPRINGS,KY,42642,NOT AVAILABLE,(270) 866-3587
11117,210405002295,FLAHERTY PRIMARY SCHOOL,2635 FLAHERTY RD.,EKRON,KY,40117,NOT AVAILABLE,(270) 422-7575
13321,210028902161,BARREN COUNTY AREA TECHNOLOGY CENTER,491 TROJAN TR,GLASGOW,KY,42141,NOT AVAILABLE,(270) 651-2196
16095,210495001227,EUBANK ELEMENTARY SCHOOL,285 W HWY 70,EUBANK,KY,42567,NOT AVAILABLE,(606) 379-2712
16592,210299000669,INDIAN TRAIL ELEMENTARY,3709 E INDIAN TR,LOUISVILLE,KY,40213,NOT AVAILABLE,(502) 485-8268
16706,210420001056,MONROE CO HIGH,755 OLD MULKEY RD,TOMPKINSVILLE,KY,42167,NOT AVAILABLE,(270) 487-6217
30541,210552001317,TAYLOR COUNTY ELEMENTARY SCHOOL,1207 EAST BROADWAY,CAMPBELLSVILLE,KY,42718,NOT AVAILABLE,(270) 465-5691
31122,210249002248,SPECTRUM CARE ACADEMY,461 FOWLER LANE,ELIZABETHTOWN,KY,42701,NOT AVAILABLE,(270) 234-0591
31184,210299002146,KENTUCKY TECH - JEFFERSON CAMPUS,727 WEST CHESTNUT ST,LOUISVILLE,KY,40203,NOT AVAILABLE,(502) 588-4136
32037,210339001503,LEWIS COUNTY MIDDLE SCHOOL,51 MIDDLE SCHOOL LN,VANCEBURG,KY,41179,NOT AVAILABLE,(606) 796-6228
33278,210480001179,BELFRY HIGH SCHOOL,27678 US 119 N,BELFRY,KY,41514,NOT AVAILABLE,(606) 237-3900
34950,210186000376,PICADOME ELEMENTARY SCHOOL,1642 HARRODSBURG RD,LEXINGTON,KY,40504,3706,(859) 381-3563
35420,210408001040,MENIFEE COUNTY HIGH SCHOOL,119 INDIAN CREEK ROAD,FRENCHBURG,KY,40322,NOT AVAILABLE,(606) 768-8102
35759,210450001114,OHIO COUNTY MIDDLE SCHOOL,1404 S MAIN ST,HARTFORD,KY,42347,NOT AVAILABLE,(270) 274-7893
35789,210051000085,FLORENCE ELEMENTARY SCHOOL,103 CENTER ST,FLORENCE,KY,41042,NOT AVAILABLE,(859) 282-2610
35808,210532001291,SHELBY COUNTY WEST MIDDLE SCHOOL,100 WARRIORS WAY,SHELBYVILLE,KY,40065,NOT AVAILABLE,(502) 633-4869
36221,210459002184,OWENSBORO TECHNICAL COLLEGE,1501 FREDERICA STREET,OWENSBORO,KY,42301,NOT AVAILABLE,(270) 687-7255
37825,210540001301,FRANKLIN-SIMPSON HIGH SCHOOL,400 S COLLEGE ST,FRANKLIN,KY,42135,NOT AVAILABLE,(270) 586-3273
70500,210271000579,NIAGARA ELEMENTARY SCHOOL,13043 HWY 136 E,HENDERSON,KY,42420,NOT AVAILABLE,(270) 831-5142
71198,210147001581,COUNTRY HEIGHTS ELEMENTARY SCHOOL,4961 KENTUCKY 54,OWENSBORO,KY,42303,2606,(270) 852-7250
72006,210087000931,CALLOWAY COUNTY PRESCHOOL CENTER,2106-A COLLEGE FARM RD,MURRAY,KY,42071,NOT AVAILABLE,(270) 762-7410
73033,210459001139,SUTTON ELEMENTARY SCHOOL,2060 LEWIS LN,OWENSBORO,KY,42301,NOT AVAILABLE,(270) 686-1140
78234,210028902114,KNOX COUNTY AREA TECHNOLOGY CENTER,210 WALL STREET,BARBOURVILLE,KY,40906,NOT AVAILABLE,(606) 546-5310
21676,210009501715,KENTUCKY SCHOOL FOR THE DEAF,303 S 2ND ST,DANVILLE,KY,40422,NOT AVAILABLE,(859) 239-7017
22369,210299001946,HOME OF THE INNOCENTS SCHOOL,1100 EAST MARKET ST,LOUISVILLE,KY,40206,NOT AVAILABLE,(502) 596-1291
22393,210582001370,DIXON ELEMENTARY SCHOOL,277 STATE RT 1340,DIXON,KY,42409,NOT AVAILABLE,(270) 639-9080
23125,210309000820,TURKEY FOOT MIDDLE SCHOOL,3230 TURKEYFOOT RD,EDGEWOOD,KY,41017,NOT AVAILABLE,(859) 341-0216
23722,210369002181,WESTERN KY EDUCATION CENTER,374 NEW BETHEL CHURCH RD,FREDONIA,KY,42411,9416,(270) 388-9781
25661,210030001970,BAVEL,113 WEST PUBLIC SQUARE,GLASGOW,KY,42141,NOT AVAILABLE,(270) 629-4185
28104,210120002120,CLARK COUNTY PRESCHOOL,30 BECKNER STREET,WINCHESTER,KY,40391,NOT AVAILABLE,(859) 744-1722
71034,210579001224,WAYNE COUNTY HIGH SCHOOL,2 KENNY DAVIS BLVD,MONTICELLO,KY,42633,NOT AVAILABLE,(606) 348-5575
71880,210012000017,ANDERSON COUNTY MIDDLE SCHOOL,1 MUSTANG TRAIL,LAWRENCEBURG,KY,40342,NOT AVAILABLE,(502) 839-9261
71896,210588001381,OAK GROVE ELEMENTARY SCHOOL,4505 CUMBERLAND FALLS RD,CORBIN,KY,40701,NOT AVAILABLE,(606) 549-7867
72025,210051001608,HILLARD COLLINS ELEMENTARY SCHOOL,9000 SPRUCE DR,FLORENCE,KY,41042,NOT AVAILABLE,(859) 282-2350
72308,210299000757,YOUNG ELEMENTARY,3526 WEST MUHAMMAD ALI BOULEVARD,LOUISVILLE,KY,40212,NOT AVAILABLE,(502) 485-8354
75121,210234002244,GREEN COUNTY PRIMARY SCHOOL,100 KIDS KORNER,GREENSBURG,KY,42743,NOT AVAILABLE,(270) 932-6619
79195,210354001542,ADAIRVILLE ELEMENTARY SCHOOL,226 SCHOOL AVE,ADAIRVILLE,KY,42202,NOT AVAILABLE,(270) 539-7711
90938,210102000194,EAST CARTER COUNTY HIGH SCHOOL,405 HITCHINS RD,GRAYSON,KY,41143,NOT AVAILABLE,(606) 474-5714
91624,210075000145,BULLITT CENTRAL HIGH SCHOOL,1330 HWY 44 E,SHEPHERDSVILLE,KY,40165,NOT AVAILABLE,(502) 869-6000
92110,210303000795,HATTIE C. WARNER ELEMENTARY SCHOOL,821 WILMORE RD,NICHOLASVILLE,KY,40356,NOT AVAILABLE,(859) 885-3085
92475,210564001334,MORGANFIELD ELEMENTARY SCHOOL,511 S MART ST,MORGANFIELD,KY,42437,NOT AVAILABLE,(270) 389-2611
94471,210054000099,BOURBON COUNTY MIDDLE SCHOOL,3339 LEXINGTON ROAD,PARIS,KY,40361,NOT AVAILABLE,(859) 987-2189
94829,210123000249,CLAY COUNTY HIGH SCHOOL,415 CLAY CO HIGH RD,MANCHESTER,KY,40962,NOT AVAILABLE,(606) 598-3737
97163,210321000856,LONDON ELEMENTARY SCHOOL,600 N MAIN ST,LONDON,KY,40741,NOT AVAILABLE,(606) 862-4679
102107,210495001225,BURNSIDE ELEMENTARY SCHOOL,435 EAST LAKESHORE DRIVE,BURNSIDE,KY,42519,NOT AVAILABLE,(606) 561-4250
105039,210318002512,PRESCHOOL ON COLLEGE STREET,208 COLLEGE ST.,HODGENVILLE,KY,42748,NOT AVAILABLE,(270) 358-4111
107156,210425002472,NORTHVIEW ELEMENTARY,1040 MAYSVILLE ROAD,MOUNT STERLING,KY,40353,NOT AVAILABLE,(859) 497-8703
80054,210222001991,HIGHLAND ELEMENTARY SCHOOL,164 SCOTTIE DRIVE,GLASGOW,KY,42141,NOT AVAILABLE,(270) 659-0432
82862,210186002207,LIBERTY ELEMENTARY,2585 LIBERTY RD,LEXINGTON,KY,40509,NOT AVAILABLE,(859) 381-4979
84695,210299000641,BARRET TRADITIONAL MIDDLE,2561 GRINSTEAD DRIVE,LOUISVILLE,KY,40206,NOT AVAILABLE,(502) 485-8207
85096,210008101072,BREMEN ELEMENTARY SCHOOL,5000 MAIN ST,BREMEN,KY,42325,NOT AVAILABLE,(270) 525-6686
85813,210573002035,PLANO ELEMENTARY,2650 PLANO RD,BOWLING GREEN,KY,42104,NOT AVAILABLE,(270) 467-0411
88679,210299000641,BARRET TRADITIONAL MIDDLE,2561 GRINSTEAD DRIVE,LOUISVILLE,KY,40206,NOT AVAILABLE,(502) 485-8207
89957,210498001240,RACELAND-WORTHINGTON HIGH SCHOOL,500 RAM BLVD,RACELAND,KY,41169,NOT AVAILABLE,(606) 836-8221
52019,210030000047,AUSTIN TRACY ELEMENTARY SCHOOL,2477 AUSTIN TRACY RD,LUCAS,KY,42156,NOT AVAILABLE,(270) 646-2236
54360,210459002411,OWENSBORO INNOVATION ACADEMY,2631 S GRIFFITH AVENUE,OWENSBORO,KY,42301,4230,(270) 686-1000
55074,210254002213,HARLAN COUNTY HIGH SCHOOL,4000 N US HWY 119,BAXTER,KY,40806,NOT AVAILABLE,(606) 574-2020
57369,210299002394,BELLEWOOD,11103 PARK ROAD,LOUISVILLE,KY,40223,NOT AVAILABLE,(502) 753-5500
58088,210135001944,HOLMES MIDDLE SCHOOL,2500 MADISON AVENUE,COVINGTON,KY,41014,NOT AVAILABLE,(859) 655-9545
20592,210333000885,LESLIE COUNTY HIGH SCHOOL,25 EAGLE LANE,HYDEN,KY,41749,NOT AVAILABLE,(606) 672-2337
22382,210495001231,NANCY ELEMENTARY SCHOOL,240 HWY 196,NANCY,KY,42544,NOT AVAILABLE,(606) 636-6338
25282,210090001978,CAMPBELL RIDGE ELEMENTARY,2500 GRANDVIEW RD,ALEXANDRIA,KY,41001,NOT AVAILABLE,(859) 448-4780
26087,210480001686,SHELBY VALLEY HIGH SCHOOL,125 DOUGLAS PARK,PIKEVILLE,KY,41501,NOT AVAILABLE,(606) 639-0033
26754,210573001346,CUMBERLAND TRACE ELEMENTARY,830 CUMBERLAND TRACE ROAD,BOWLING GREEN,KY,42103,NOT AVAILABLE,(270) 781-1356
27414,210021000035,BALLARD COUNTY MIDDLE SCHOOL,3561 PADUCAH RD,BARLOW,KY,42024,NOT AVAILABLE,(270) 665-8400
27479,210028902062,CLARK COUNTY AREA TECHNOLOGY CENTER,2478 BOONESBORO ROAD,WINCHESTER,KY,40391,NOT AVAILABLE,(859) 744-1250
29149,210028902160,LOGAN COUNTY CAREER AND TECHNICAL CENTER,2400 BOWLING GREEN ROAD,RUSSELLVILLE,KY,42276,4286,(270) 726-8432
63839,210438001084,MURRAY ELEMENTARY SCHOOL,111 BROACH AVE,MURRAY,KY,42071,NOT AVAILABLE,(270) 753-5022
64119,210510000787,RODBURN ELEMENTARY SCHOOL,91 CHRISTY CREEK RD,MOREHEAD,KY,40351,1669,(606) 784-3000
64137,210204000428,HIGHLANDS HIGH SCHOOL,2400 MEMORIAL PKWY,FORT THOMAS,KY,41075,NOT AVAILABLE,(859) 781-5900
65766,210192000401,HILLSBORO ELEMENTARY SCHOOL,7348 HILLSBORO RD,HILLSBORO,KY,41049,NOT AVAILABLE,(606) 876-2251
68120,210552001319,TAYLOR COUNTY MIDDLE SCHOOL,300 INGRAM AVENUE,CAMPBELLSVILLE,KY,42718,NOT AVAILABLE,(270) 465-2877
68644,210324000872,LOUISA MIDDLE SCHOOL,9 BULLDOG LANE,LOUISA,KY,41230,NOT AVAILABLE,(606) 638-4090
30439,210510002336,BLUEGRASS DISCOVERY ACADEMY MIDDLE,415 WEST SUN ST,MOREHEAD,KY,40351,NOT AVAILABLE,(606) 780-9992
32318,210174000337,LLOYD HIGH SCHOOL,450 BARTLETT AVE,ERLANGER,KY,41018,NOT AVAILABLE,(859) 727-1555
32606,210417002074,SOUTHEAST TECH,1305 CHICHESTER AVENUE,MIDDLESBORO,KY,40965,NOT AVAILABLE,(606) 242-2145
36616,210396001862,MCCRACKEN REGIONAL SCHOOL,501 COUNTY PARK RD,PADUCAH,KY,42001,NOT AVAILABLE,(270) 575-7127
37142,210299000629,GREATHOUSE/SHRYOCK TRADITIONAL,2700 BROWNS LANE,LOUISVILLE,KY,40220,NOT AVAILABLE,(502) 485-8259
14091,210147000306,TAMARACK ELEMENTARY SCHOOL,1733 TAMARACK ROAD,OWENSBORO,KY,42301,NOT AVAILABLE,(270) 852-7550
15861,210165000324,HELMWOOD HEIGHTS ELEMENTARY SCHOOL,307 CARDINAL DR,ELIZABETHTOWN,KY,42701,NOT AVAILABLE,(270) 769-1328
18823,210228000481,WINGO ELEMENTARY SCHOOL,449 LEBANON ST,WINGO,KY,42088,NOT AVAILABLE,(270) 328-4870
40386,210396001011,REIDLAND ELEMENTARY SCHOOL,5741 BENTON RD,PADUCAH,KY,42003,NOT AVAILABLE,(270) 538-4180
40421,210168000329,LAKESIDE ELEMENTARY SCHOOL,155 LAKESIDE SCHOOL ROAD,SANDY HOOK,KY,41171,NOT AVAILABLE,(606) 738-8202
42265,210299000632,ATHERTON HIGH,3000 DUNDEE ROAD,LOUISVILLE,KY,40205,NOT AVAILABLE,(502) 485-8202
45597,210008101080,LONGEST ELEMENTARY,1020 N MAIN ST,GREENVILLE,KY,42345,NOT AVAILABLE,(270) 338-2842
207,210168000331,ELLIOTT COUNTY HIGH SCHOOL,353 SOUTH KY 7,SANDY HOOK,KY,41171,NOT AVAILABLE,(606) 738-8052
712,210474001163,SOUTHERN ELEMENTARY SCHOOL,320 FAIRGROUNDS RD,FALMOUTH,KY,41040,NOT AVAILABLE,(859) 654-6981
3617,210249000513,G C BURKHEAD ELEMENTARY SCHOOL,1323 ST. JOHN ROAD,ELIZABETHTOWN,KY,42701,NOT AVAILABLE,(270) 769-5983
3910,210425001538,MCNABB MIDDLE SCHOOL,3570 INDIAN MOUND DRIVE,MOUNT STERLING,KY,40353,NOT AVAILABLE,(859) 497-8770
4254,210516001265,RUSSELL COUNTY HIGH SCHOOL,2166 S HWY 127,RUSSELL SPRINGS,KY,42642,NOT AVAILABLE,(270) 866-3341
92213,210075001409,BULLITT EAST HIGH SCHOOL,11450 HWY 44E,MOUNT WASHINGTON,KY,40047,NOT AVAILABLE,(502) 869-6400
92473,210372000946,KINGSTON ELEMENTARY SCHOOL,2845 BATTLEFIELD MEMORIAL HWY,BEREA,KY,40403,NOT AVAILABLE,(859) 625-6091
93930,210299000696,JOHNSONTOWN ROAD ELEMENTARY,7201 JOHNSONTOWN RD,LOUISVILLE,KY,40272,NOT AVAILABLE,(502) 485-8278
94633,210381000975,JONATHAN ELEMENTARY SCHOOL,9207 US HWY 68 E,BENTON,KY,42025,NOT AVAILABLE,(270) 354-6462
94654,210402001026,MCLEAN COUNTY HIGH SCHOOL,1859 HWY 136 E,CALHOUN,KY,42327,9728,(270) 273-5278
98734,210299000685,BOWEN ELEMENTARY,1601 ROOSEVELT AVE,LOUISVILLE,KY,40242,NOT AVAILABLE,(502) 485-8213
60481,210201000442,PEAKS MILL ELEMENTARY,100 PEAKS MILL RD,FRANKFORT,KY,40601,NOT AVAILABLE,(502) 875-8450
63964,210051000083,CONNER MIDDLE SCHOOL,3300 COUGAR PATH,HEBRON,KY,41048,NOT AVAILABLE,(859) 334-4410
66878,210264000567,MUNFORDVILLE ELEMENTARY SCHOOL,505 W UNION ST,MUNFORDVILLE,KY,42765,NOT AVAILABLE,(270) 524-4651
67613,210306002111,KENTUCKY TECH - MAYO REGIONAL TECH CTR,513 3RD STREET,PAINTSVILLE,KY,41240,NOT AVAILABLE,(606) 789-5321
80265,210299002187,FARMER ELEMENTARY,6405 GELLHAUS LN,LOUISVILLE,KY,40299,NOT AVAILABLE,(502) 485-8625
82452,210489001217,BOWEN ELEMENTARY SCHOOL,5099 CAMPTON RD,STANTON,KY,40380,NOT AVAILABLE,(606) 663-3313
82776,210306000800,JOHNSON COUNTY MIDDLE SCHOOL,251 N MAYO TR,PAINTSVILLE,KY,41240,NOT AVAILABLE,(606) 789-4133
87781,210171000332,EMINENCE HIGH SCHOOL,254 WEST BROADWAY ST,EMINENCE,KY,40019,NOT AVAILABLE,(502) 845-5427
89037,210186000394,SOUTHERN MIDDLE SCHOOL,400 WILSON-DOWNING RD,LEXINGTON,KY,40517,NOT AVAILABLE,(859) 381-3582
89329,210309000807,BEECHGROVE ELEMENTARY SCHOOL,1029 BRISTOW RD,INDEPENDENCE,KY,41051,NOT AVAILABLE,(859) 371-1636
54980,210399001548,MCCREARY COUNTY PRESCHOOL SOUTH,119 EAST HWY 92,PINE KNOT,KY,42635,NOT AVAILABLE,(606) 354-3590
55084,210573000828,RIVENDELL ELEMENTARY,1035 PORTER PIKE RD,BOWLING GREEN,KY,42103,NOT AVAILABLE,(270) 843-1199
55585,210299000731,WHEATLEY ELEMENTARY,1107 SOUTH 17TH STREET,LOUISVILLE,KY,40210,NOT AVAILABLE,(502) 485-8348
57595,210381002445,PURCHASE YOUTH VILLAGE,473 OLD SYMSONIA RD,BENTON,KY,42025,5044,(270) 252-7400
40480,210075000414,BERNHEIM MIDDLE SCHOOL,700 AUDUBON DR,SHEPHERDSVILLE,KY,40165,NOT AVAILABLE,(502) 869-4000
40613,210480001180,BEVINS ELEMENTARY SCHOOL,17275 E BIG CREEK RD,SIDNEY,KY,41564,NOT AVAILABLE,(606) 353-7078
48476,210299000732,BINET SCHOOL,3410 BON AIR AVE,LOUISVILLE,KY,40220,NOT AVAILABLE,(502) 485-8209
72309,210299000654,CORAL RIDGE ELEMENTARY,10608 NATIONAL TURNPIKE,FAIRDALE,KY,40118,NOT AVAILABLE,(502) 485-8234
74795,210597001397,WOLFE COUNTY HIGH SCHOOL,20 WOLFE COUNTY HIGH SCHOOL RD,CAMPTON,KY,41301,NOT AVAILABLE,(606) 668-8202
75253,210111000214,CAVERNA HIGH SCHOOL,2276 S DIXIE ST.,HORSE CAVE,KY,42749,NOT AVAILABLE,(270) 773-2828
78529,210063000122,WOODLAWN ELEMENTARY SCHOOL,1661 PERRYVILLE RD,DANVILLE,KY,40422,NOT AVAILABLE,(859) 236-7688
79445,210222000461,GLASGOW HIGH SCHOOL,1601 COLUMBIA AVE,GLASGOW,KY,42141,NOT AVAILABLE,(270) 651-8801
34589,210102001698,EAST CARTER MIDDLE SCHOOL,1 SPIRIT LANE,GRAYSON,KY,41143,NOT AVAILABLE,(606) 474-5156
35226,210008102258,MUHLENBERG COUNTY HIGH SCHOOL,501 HWY 189 BYPASS,GREENVILLE,KY,42345,NOT AVAILABLE,(270) 338-0040
39492,210417001680,MIDDLESBORO ALTERNATIVE SCHOOL,220 NORTH 20TH STREET,MIDDLESBORO,KY,40965,NOT AVAILABLE,(606) 242-8816
39999,210333000883,MOUNTAIN VIEW ELEMENTARY,170 BEAR TRAIL,HYDEN,KY,41749,NOT AVAILABLE,(606) 672-2425
10855,210222000402,GLASGOW MIDDLE SCHOOL,105 SCOTTIE DR,GLASGOW,KY,42141,NOT AVAILABLE,(270) 651-2256
12692,210144000291,DANVILLE HIGH SCHOOL,203 E. LEXINGTON AVE.,DANVILLE,KY,40422,4042,(859) 936-8503
16131,210176002406,ESTILL COUNTY SUCCESS ACADEMY,253 MAIN ST,IRVINE,KY,40336,NOT AVAILABLE,(606) 723-2181
46,210299002412,MINOR DANIELS ACADEMY,1960 BASHFORD MANOR LN,LOUISVILLE,KY,40218,NOT AVAILABLE,(502) 485-8316
1681,210399002002,MCCREARY COUNTY MIDDLE SCHOOL,180 RAIDER WAY,STEARNS,KY,42647,NOT AVAILABLE,(606) 376-5081
4125,210150002203,DAWSON SPRINGS JR/SR HIGH SCHOOL,317 ELI ST,DAWSON SPGS,KY,42408,NOT AVAILABLE,(270) 797-2957
4145,210318002044,ABRAHAM LINCOLN ELEMENTARY SCHOOL,2101 LINCOLN FARM ROAD,HODGENVILLE,KY,42748,NOT AVAILABLE,(270) 358-4112
4622,210327002434,LEE COUNTY MIDDLE HIGH SCHOOL,599 LEE AVENUE,BEATTYVILLE,KY,41311,NOT AVAILABLE,(606) 464-5005
6006,210564002447,UNION COUNTY PRESCHOOL AND HEADSTART,4464 US HWY 60 W,MORGANFIELD,KY,42437,NOT AVAILABLE,(270) 389-3553
6361,210028902043,MORGAN COUNTY AREA TECHNOLOGY CENTER,162 ROAD TO SUCCESS,WEST LIBERTY,KY,41472,NOT AVAILABLE,(606) 743-8452
21692,210489001221,STANTON ELEMENTARY SCHOOL,651 BRECKINRIDGE ST,STANTON,KY,40380,NOT AVAILABLE,(606) 663-3311
23169,210513001626,RUSSELL PRIMARY SCHOOL,710 RED DEVIL LANE,RUSSELL,KY,41169,NOT AVAILABLE,(606) 836-0007
26213,210459002304,OWENSBORO INNOVATION MIDDLE SCHOOL,2631 S GRIFFITH AVE,OWENSBORO,KY,42301,NOT AVAILABLE,(270) 686-1128
26537,210271000574,EAST HEIGHTS ELEMENTARY SCHOOL,1776 ADAMS LN,HENDERSON,KY,42420,NOT AVAILABLE,(270) 831-5070
27782,210249000656,HARDIN COUNTY DAY TREATMENT CENTER,643 WESTPORT ROAD,ELIZABETHTOWN,KY,42701,NOT AVAILABLE,(270) 769-8800
27832,210286002083,KENTUCKY TECH - MADISONVILLE REG TECH CT,150 SCHOOL AVENUE,MADISONVILLE,KY,42431,NOT AVAILABLE,(270) 824-7544
29152,210028902170,GREENUP COUNTY AREA TECHNOLOGY CENTER,146 MUSKETEER DRIVE,GREENUP,KY,41144,NOT AVAILABLE,(606) 473-9344
29154,210028902154,NELSON COUNTY AREA TECHNOLOGY CENTER,1060 BLOOMFIELD ROAD,BARDSTOWN,KY,40004,NOT AVAILABLE,(502) 348-9096
29269,210186000368,LANSDOWNE ELEMENTARY SCHOOL,336 REDDING RD,LEXINGTON,KY,40517,2318,(859) 381-3500
29936,210192000396,EWING ELEMENTARY SCHOOL,5651 ELIZAVILLE RD.,EWING,KY,41039,NOT AVAILABLE,(606) 267-2601
101054,210510002016,MCBRAYER ELEMENTARY SCHOOL,550 VIKING DR,MOREHEAD,KY,40351,NOT AVAILABLE,(606) 784-1204
102281,210462001142,OWSLEY COUNTY ELEMENTARY SCHOOL,372 KENTUCKY 28,BOONEVILLE,KY,41314,NOT AVAILABLE,(606) 593-5186
105038,210299002511,OUTSIDE SCHOOL DAY PROGRAM,3332 NEWBURG RD,LOUISVILLE,KY,40218,4020,(859) 381-4100
105053,210532002491,MARNEL C. MOORMAN SCHOOL,501 DISCOVERY BOULEVARD,SHELBYVILLE,KY,40065,NOT AVAILABLE,(502) 647-0204
92474,210420001055,TOMPKINSVILLE ELEM,420 ELEMENTARY SCHOOL RD,TOMPKINSVILLE,KY,42167,NOT AVAILABLE,(270) 487-6472
94672,210230000486,GRAYSON COUNTY HIGH SCHOOL,340 SCHOOLHOUSE RD,LEITCHFIELD,KY,42754,NOT AVAILABLE,(270) 259-4078
95527,210573002302,JACKSON ACADEMY HIGH SCHOOL,877 JACKSON STREET,BOWLING GREEN,KY,42101,NOT AVAILABLE,(270) 467-0293
96055,210579002403,WAYNE COUNTY LEARNING ACADEMY,1025 SOUTH MAIN STREET,MONTICELLO,KY,42633,NOT AVAILABLE,(606) 348-8484
30722,210299000776,SEMPLE ELEMENTARY,724 DENMARK STREET,LOUISVILLE,KY,40215,NOT AVAILABLE,(502) 485-8324
30872,210028902141,WARREN CO. AREA TECHNOLOGY CENTER,365 TECHNOLOGY WAY,BOWLING GREEN,KY,42101,NOT AVAILABLE,(270) 746-7205
32531,210315002357,KNOX COUNTY DAY TREATMENT,135 WALL ST,BARBOURVILLE,KY,40906,NOT AVAILABLE,(606) 545-5410
35448,210441001096,NELSON COUNTY HIGH SCHOOL,1070 BLOOMFIELD RD,BARDSTOWN,KY,40004,NOT AVAILABLE,(502) 349-7010
35659,210471001158,PARIS HIGH SCHOOL,308 W 7TH ST,PARIS,KY,40361,NOT AVAILABLE,(859) 987-2168
36592,210174000335,ARNETT ELEMENTARY SCHOOL,3552 KIMBERLY DR,ERLANGER,KY,41018,NOT AVAILABLE,(859) 727-1488
37540,210387000989,MASON COUNTY HIGH SCHOOL,1320 US 68,MAYSVILLE,KY,41056,NOT AVAILABLE,(606) 564-3393
37874,210075000157,RIVERVIEW OPPORTUNITY CENTER,383 HIGH SCHOOL DR,SHEPHERDSVILLE,KY,40165,NOT AVAILABLE,(502) 869-6600
39299,210299000781,FREDERICK LAW OLMSTED ACADEMY NORTH,4530 BELLEVUE AVENUE,LOUISVILLE,KY,40215,NOT AVAILABLE,(502) 485-8331
10794,210510001258,MOREHEAD YOUTH DEVELOPMENT CENTER,495 FOREST HILLS DRIVE,MOREHEAD,KY,40351,NOT AVAILABLE,(606) 783-8575
11162,210028902115,MONTGOMERY COUNTY AREA TECHNOLOGY CENTER,682 WOODFORD ST,MT STERLING,KY,40353,NOT AVAILABLE,(859) 498-1103
12836,210573002132,BOWLING GREEN TECHNICAL COLLEGE,1845 LOOP DRIVE,BOWLING GREEN,KY,42101,NOT AVAILABLE,(270) 746-7461
13613,210228001924,GATEWAY ACADEMY HIGH SCHOOL,1211 EAGLES WAY,MAYFIELD,KY,42066,NOT AVAILABLE,(270) 328-4979
16448,210030000051,PARK CITY ELEMENTARY SCHOOL,45 INDIAN MILL RD,PARK CITY,KY,42160,NOT AVAILABLE,(270) 749-5665
16672,210299000722,DUNN ELEMENTARY,2010 RUDY LANE,LOUISVILLE,KY,40207,NOT AVAILABLE,(502) 485-8240
18123,210147002230,SOUTHERN OAKS ELEMENTARY SCHOOL,7525 U.S. HIGHWAY 431,UTICA,KY,42376,NOT AVAILABLE,(270) 852-7570
19297,210062000117,SUMMIT ELEMENTARY SCHOOL,830 STATE RT 716,ASHLAND,KY,41102,NOT AVAILABLE,(606) 928-6533
20987,210249000528,CENTRAL HARDIN HIGH SCHOOL,3040 LEITCHFIELD RD,CECILIA,KY,42724,NOT AVAILABLE,(270) 737-6800
21986,210363000938,MARY A. GOETZ ELEMENTARY SCHOOL,512 OAK ST,LUDLOW,KY,41016,NOT AVAILABLE,(859) 261-2100
23226,210516001599,RUSSELL COUNTY MIDDLE SCHOOL,2258 S HWY 127,RUSSELL SPRINGS,KY,42642,NOT AVAILABLE,(270) 866-2224
24513,210588001262,WHITLEY COUNTY ALTERNATIVE SCHOOL,351 BOULEVARD OF CHAMPIONS,WILLIAMSBURG,KY,40769,NOT AVAILABLE,(606) 549-7050
26756,210600001405,WOODFORD COUNTY MIDDLE SCHOOL,100 SCHOOL HOUSE RD,VERSAILLES,KY,40383,NOT AVAILABLE,(859) 879-4650
28516,210453001620,SOUTH OLDHAM HIGH SCHOOL,5901 VETERAN'S MEMORIAL PKY,CRESTWOOD,KY,40014,7715,(502) 241-6681
29161,210028902064,MARION COUNTY AREA TECHNOLOGY CENTER,721 EAST MAIN,LEBANON,KY,40033,NOT AVAILABLE,(270) 692-3155
51615,210299000663,WATSON LANE ELEMENTARY,7201 WATSON LANE,LOUISVILLE,KY,40272,NOT AVAILABLE,(502) 485-8341
52876,210372000944,CLARK MOORES MIDDLE SCHOOL,1143 BEREA RD,RICHMOND,KY,40475,NOT AVAILABLE,(859) 624-4545
55061,210039001881,BELL CENTRAL SCHOOL CENTER,9821 US 25-E,PINEVILLE,KY,40977,NOT AVAILABLE,(606) 337-3104
55080,210453002144,LA GRANGE EDUCATION CENTER,3001 WEST HIGHWAY 146,LA GRANGE,KY,40031,NOT AVAILABLE,(502) 222-9441
56696,210126002162,FOOTHILLS ACADEMY,107 FOOTHILL ACADEMY SPUR,ALBANY,KY,42602,NOT AVAILABLE,(606) 387-4673
61113,210198000432,SECOND STREET SCHOOL,506 W 2ND ST,FRANKFORT,KY,40601,NOT AVAILABLE,(502) 875-8658
62540,210126000259,CLINTON COUNTY HIGH SCHOOL,65 HIGH SCHOOL DR,ALBANY,KY,42602,NOT AVAILABLE,(606) 387-5569
63246,210115000222,CROFTON ELEMENTARY SCHOOL,12145 S MADISONVILLE RD,CROFTON,KY,42217,NOT AVAILABLE,(270) 887-7190
63279,210417001049,MIDDLESBORO MIDDLE SCHOOL,4400 CUMBERLAND AVE,MIDDLESBORO,KY,40965,NOT AVAILABLE,(606) 242-8880
64161,210258000554,SOUTHSIDE ELEMENTARY SCHOOL,106 EDUCATION DR,CYNTHIANA,KY,41031,4103,(859) 234-7120
65091,210474001646,PHILLIP SHARP MIDDLE SCHOOL,35 WRIGHT RD,BUTLER,KY,41006,NOT AVAILABLE,(859) 472-7000
65312,210186001957,EDYTHE JONES HAYES MIDDLE SCHOOL,260 RICHARDSON PLACE,LEXINGTON,KY,40509,NOT AVAILABLE,(859) 381-4920
67662,210171000333,EMINENCE ELEMENTARY SCHOOL,254 WEST BROADWAY ST,EMINENCE,KY,40019,NOT AVAILABLE,(502) 845-5427
72611,210028902042,GARRARD COUNTY AREA TECHNOLOGY CENTER,306 W. MAPLE AVE,LANCASTER,KY,40444,NOT AVAILABLE,(859) 792-2144
74053,210254002058,CUMBERLAND TECH - HARLAN CAMPUS,164 BALLPARK ROAD,HARLAN,KY,40831,NOT AVAILABLE,(606) 573-1506
74496,210450001118,SOUTHERN ELEMENTARY SCHOOL,3836 US HWY 231 S,BEAVER DAM,KY,42320,NOT AVAILABLE,(270) 274-3462
75238,210372000947,KIRKSVILLE ELEMENTARY SCHOOL,2399 LANCASTER RD,RICHMOND,KY,40475,NOT AVAILABLE,(859) 624-4582
77791,210195000423,PRESTONSBURG HIGH SCHOOL,825 BLACKCAT BOULEVARD,PRESTONSBURG,KY,41653,NOT AVAILABLE,(606) 886-2252
78733,210495001234,PULASKI ELEMENTARY SCHOOL,107 W UNIVERSITY DR,SOMERSET,KY,42503,NOT AVAILABLE,(606) 678-4713
40230,210507001253,ROUNDSTONE ELEMENTARY SCHOOL,6701 N WILDERNESS RD,MOUNT VERNON,KY,40456,NOT AVAILABLE,(606) 256-2235
45955,210480001204,PHELPS HIGH SCHOOL,11580 HWY 632,PHELPS,KY,41553,NOT AVAILABLE,(606) 456-3482
47784,210021000040,BALLARD CO. PRESCHOOL/HEADSTART CENTER,3383 PADUCAH ROAD,BARLOW,KY,42024,NOT AVAILABLE,(270) 665-8400
37,210153002413,REGIONAL PROGRAMS SCHOOL,5516 EAST ALEXANDRIA PIKE,COLD SPRING,KY,41076,NOT AVAILABLE,(859) 441-4225
1563,210147000312,OWENSBORO DAY TREATMENT,3108 FAIRVIEW DRIVE,OWENSBORO,KY,42303,NOT AVAILABLE,(270) 687-7247
1806,210453002008,HARMONY ELEMENTARY SCHOOL,1901 S HIGHWAY 1793,GOSHEN,KY,40026,NOT AVAILABLE,(502) 222-2228
3186,210396002332,MCCRACKEN COUNTY HIGH SCHOOL,6601 US HWY 60,PADUCAH,KY,42001,NOT AVAILABLE,(270) 538-4000
4305,210012000018,SAFFELL STREET ELEMENTARY SCHOOL,210 SAFFELL ST,LAWRENCEBURG,KY,40342,NOT AVAILABLE,(502) 839-3565
6242,210195002452,DUFF-ALLEN CENTRAL ELEMENTARY,183 REBEL ROAD,EASTERN,KY,41622,NOT AVAILABLE,(606) 358-0110
6485,210576002448,WC TEL CENTER,520 LINCOLN PARK ROAD,SPRINGFIELD,KY,40069,NOT AVAILABLE,(859) 336-2116
82231,210028902126,MEADE COUNTY COLLEGE AND CAREER CENTER,110 GREER STREET,BRANDENBURG,KY,40108,NOT AVAILABLE,(270) 422-3955
82395,210576001359,WASHINGTON COUNTY ELEMENTARY SCHOOL,601 LINCOLN PARK RD,SPRINGFIELD,KY,40069,NOT AVAILABLE,(859) 336-5490
82747,210532001293,SIMPSONVILLE ELEMENTARY,6725 SHELBYVILLE RD,SIMPSONVILLE,KY,40067,NOT AVAILABLE,(502) 722-8855
83726,210299002027,J. GRAHAM BROWN SCHOOL,546 SOUTH FIRST STREET,LOUISVILLE,KY,40202,NOT AVAILABLE,(502) 485-8216
86510,210299001447,AHRENS EDUCATIONAL RESOURCE CENTER,546 S FIRST ST,LOUISVILLE,KY,40202,NOT AVAILABLE,(502) 485-8201
100939,210015000031,CHARLES RUSSELL ELEMENTARY SCHOOL,1100 RUSSELL ST,ASHLAND,KY,41101,NOT AVAILABLE,(606) 327-2735
101432,210588001376,BOSTON ELEMENTARY SCHOOL,3291 HWY 1804,WILLIAMSBURG,KY,40769,NOT AVAILABLE,(606) 549-7872
102001,210057000106,T C CHERRY ELEMENTARY SCHOOL,1001 LIBERTY AVE,BOWLING GREEN,KY,42104,NOT AVAILABLE,(270) 746-2230
105025,210168002504,ELLIOTT COUNTY MIDDLE SCHOOL,351 SOUTH KY 7,SANDY HOOK,KY,41171,NOT AVAILABLE,(606) 738-8102
105050,210519002517,VIRTUAL LEARNING ACADEMY @RUSSELLVILLE,335 S. SUMMER STREET,RUSSELLVILLE,KY,42276,NOT AVAILABLE,(270) 726-8405
105058,210570002488,WALTON - VERONA EARLY CHILDHOOD CENTER,18 SCHOOL ROAD,WALTON,KY,41094,NOT AVAILABLE,(859) 485-4181
20396,210526001279,GARTH ELEMENTARY SCHOOL,501 S HAMILTON ST,GEORGETOWN,KY,40324,NOT AVAILABLE,(502) 863-1170
20966,210028902096,OHIO COUNTY AREA TECHNOLOGY CENTER,1406 SOUTH MAIN STREET,HARTFORD,KY,42347,NOT AVAILABLE,(270) 274-9612
21656,210129000261,FREDERICK FRAIZE HIGH SCHOOL,301 POPLAR STREET,CLOVERPORT,KY,40111,4011,(270) 788-3388
24491,210477001166,BUCKHORN SCHOOL,18392 KY HWY 28,BUCKHORN,KY,41721,NOT AVAILABLE,(606) 398-7176
27768,210028902160,LOGAN COUNTY CAREER AND TECHNICAL CENTER,2400 BOWLING GREEN ROAD,RUSSELLVILLE,KY,42276,4286,(270) 726-8432
1719,210027002359,BARDSTOWN ALTERNATIVE SCHOOL,1345 TEMPLIN AV,BARDSTOWN,KY,40004,NOT AVAILABLE,(502) 331-8829
1979,210321000869,SUBLIMITY ELEMENTARY SCHOOL,900 SUBLIMITY SCHOOL RD,LONDON,KY,40744,NOT AVAILABLE,(606) 862-4692
4618,210051002429,IMAGINEERING ACADEMY,99 CENTER STREET,FLORENCE,KY,41042,NOT AVAILABLE,(859) 282-2163
6820,210532002253,MARTHA LAYNE COLLINS HIGH SCHOOL,801 DISCOVERY BLVD,SHELBYVILLE,KY,40065,NOT AVAILABLE,(502) 647-1160
45106,210075000147,HEBRON MIDDLE SCHOOL,3300 E HEBRON LN,SHEPHERDSVILLE,KY,40165,8975,(502) 869-4200
45583,210396001801,MCCRACKEN OPEN CAMPUS SCHOOL,4336 METROPOLIS LAKE ROAD,WEST PADUCAH,KY,42086,NOT AVAILABLE,(270) 538-4000
45735,210105002211,WALNUT HILL ELEMENTARY SCHOOL,2834 S US 127,LIBERTY,KY,42539,4253,(606) 787-6942
46510,210299000753,IROQUOIS HIGH,4615 TAYLOR BOULEVARD,LOUISVILLE,KY,40215,NOT AVAILABLE,(502) 485-8269
48685,210198002334,FRANKFORT EARLY LEARNING ACADEMY,506 WEST SECOND STREET,FRANKFORT,KY,40601,NOT AVAILABLE,(502) 875-8658
90407,210447001106,NICHOLAS COUNTY ELEMENTARY SCHOOL,133 SCHOOL DRIVE,CARLISLE,KY,40311,NOT AVAILABLE,(859) 289-3785
90430,210465001152,MORGAN ELEMENTARY SCHOOL,2200 S 28TH ST,PADUCAH,KY,42003,NOT AVAILABLE,(270) 444-5760
92169,210210000445,FULTON COUNTY HIGH SCHOOL,2740 MOSCOW AVE,HICKMAN,KY,42050,NOT AVAILABLE,(270) 236-3904
92644,210600000284,SOUTHSIDE ELEMENTARY SCHOOL,1300 TROY PIKE,VERSAILLES,KY,40383,NOT AVAILABLE,(859) 879-4660
95267,210276000588,CAMPBELLSBURG ELEMENTARY SCHOOL,270 CARDINAL DR,CAMPBELLSBURG,KY,40011,NOT AVAILABLE,(502) 845-8630
95846,210477002398,LEARNING ACADEMY,305 PARK AVENUE,HAZARD,KY,41701,NOT AVAILABLE,(606) 439-5888
97700,210390002001,MAYFIELD ELEMENTARY SCHOOL,1004 BACKUSBURG RD,MAYFIELD,KY,42066,NOT AVAILABLE,(270) 247-8696
98220,210186000381,TATES CREEK ELEMENTARY SCHOOL,1113 CENTRE PKWY,LEXINGTON,KY,40517,NOT AVAILABLE,(859) 381-3606
98791,210036000059,BEECHWOOD ELEMENTARY SCHOOL,54 BEECHWOOD RD,FORT MITCHELL,KY,41017,NOT AVAILABLE,(859) 331-1220
50689,210186002323,CARTER G. WOODSON ACADEMY,2000 WINCHESTER ROAD,LEXINGTON,KY,40509,NOT AVAILABLE,(859) 381-3933
51048,210028902142,CAMPBELL COUNTY AREA TECHNOLOGY CENTER,909 CAMEL CROSSING,ALEXANDRIA,KY,41001,NOT AVAILABLE,(859) 635-4101
52174,210051001519,CHARLES H. KELLY ELEMENTARY SCHOOL,6775 MCVILLE RD,BURLINGTON,KY,41005,NOT AVAILABLE,(859) 334-4450
52896,210299002421,ALEX R. KENNEDY ELEMENTARY,4515 TAYLORSVILLE RD,LOUISVILLE,KY,40220,NOT AVAILABLE,(502) 485-6950
53026,210069001842,BREATHITT COUNTY DAY TREATMENT,2665 HWY 30 W,JACKSON,KY,41339,NOT AVAILABLE,(606) 295-2267
54611,210299000777,THE ACADEMY @ SHAWNEE,4001 HERMAN STREET,LOUISVILLE,KY,40212,NOT AVAILABLE,(502) 485-8326
57320,210271002457,THE CENTRAL ACADEMY,851 CENTER STREET,HENDERSON,KY,42420,NOT AVAILABLE,(270) 831-5100
57425,210303002442,ASHGROVE ACADEMY,1115 ASHGROVE ROAD,NICHOLASVILLE,KY,40356,NOT AVAILABLE,(859) 523-3001
57959,210186002251,FAYETTE COUNTY LEARNING CENTER,475 PRICE ROAD,LEXINGTON,KY,40508,NOT AVAILABLE,(859) 381-0597
59584,210526002017,ROYAL SPRING MIDDLE SCHOOL,332 CHAMPION WAY,GEORGETOWN,KY,40324,NOT AVAILABLE,(502) 570-2390
82451,210420001052,GAMALIEL ELEMENTARY,320 E MAIN ST,GAMALIEL,KY,42140,NOT AVAILABLE,(270) 457-2341
83311,210254000540,GREEN HILLS ELEMENTARY SCHOOL,123 W HWY 221,BLEDSOE,KY,40810,NOT AVAILABLE,(606) 558-3533
105021,210144002476,EDNA L. TOLIVER INTERMEDIATE SCHOOL,209 MAPLE AVE.,DANVILLE,KY,40422,NOT AVAILABLE,(859) 238-1319
105056,210561002464,TRIMBLE COUNTY ALTERNATIVE PROGRAM,116 WENTWORTH AVE.,BEDFORD,KY,40006,NOT AVAILABLE,(502) 255-3201
13867,210303001641,EAST JESSAMINE HIGH SCHOOL,815 SULPHUR WELL RD,NICHOLASVILLE,KY,40356,NOT AVAILABLE,(859) 885-7240
15101,210462001143,OWSLEY COUNTY HIGH SCHOOL,177 SHEPHERD LANE,BOONEVILLE,KY,41314,NOT AVAILABLE,(606) 593-5185
15818,210141000287,CUMBERLAND COUNTY HIGH SCHOOL,912 N MAIN ST,BURKESVILLE,KY,42717,NOT AVAILABLE,(270) 864-3451
16599,210008102139,MUHLENBERG COUNTY CAREER & TECH CENTER,501 ROBERT DRAPER WAY,GREENVILLE,KY,42345,NOT AVAILABLE,(270) 338-0040
16980,210453001123,LAGRANGE ELEMENTARY SCHOOL,500 W JEFFERSON STREET,LA GRANGE,KY,40031,1036,(502) 222-9454
30066,210147000311,F T BURNS ELEMENTARY SCHOOL,4514 GOETZ DRIVE,OWENSBORO,KY,42301,9601,(270) 852-7170
34267,210555001325,TODD COUNTY CENTRAL HIGH SCHOOL,806 S MAIN ST,ELKTON,KY,42220,NOT AVAILABLE,(270) 265-2506
35758,210429001068,MORGAN COUNTY HIGH SCHOOL,150 ROAD TO SUCCESS,WEST LIBERTY,KY,41472,NOT AVAILABLE,(606) 743-8702
35910,210597001395,ROGERS ELEMENTARY SCHOOL,1745 SOUTH KY 715,ROGERS,KY,41365,NOT AVAILABLE,(606) 668-8302
37423,210299000712,KLONDIKE LANE ELEMENTARY,3807 KLONDIKE LN,LOUISVILLE,KY,40218,NOT AVAILABLE,(502) 485-8286
71799,210252000552,HARLAN HIGH SCHOOL,420 E CENTRAL ST,HARLAN,KY,40831,NOT AVAILABLE,(606) 573-8750
71822,210306002038,MAYO TECHNICAL COLLEGE,513 THIRD STREET,PAINTSVILLE,KY,41240,NOT AVAILABLE,(606) 789-5321
74493,210186000353,BEAUMONT MIDDLE SCHOOL,2080 GEORGIAN WAY,LEXINGTON,KY,40504,NOT AVAILABLE,(859) 381-3094
74495,210299000741,FIELD ELEMENTARY,120 SACRED HEART LN,LOUISVILLE,KY,40206,NOT AVAILABLE,(502) 485-8252
90002,210299000645,CHENOWETH ELEMENTARY,3622 BROWNSBORO ROAD,LOUISVILLE,KY,40207,NOT AVAILABLE,(502) 485-8227
92990,210546001313,SOUTHGATE PUBLIC SCHOOL,6 WILLIAM F. BLATT AVE.,SOUTHGATE,KY,41071,NOT AVAILABLE,(859) 441-0743
97629,210033002223,CROSSROADS ELEMENTARY SCHOOL,4755 E HWY 60,OWINGSVILLE,KY,40360,NOT AVAILABLE,(606) 674-2101
70985,210062000118,CATLETTSBURG ELEMENTARY SCHOOL,3348 COURT ST,CATLETTSBURG,KY,41129,NOT AVAILABLE,(606) 739-5515
77196,210132001622,CORBIN EDUCATIONAL CENTER,901 SOUTH MAIN STREET,CORBIN,KY,40701,NOT AVAILABLE,(606) 528-4080
77853,210507001906,ROCKCASTLE ACADEMY FOR ACADEMIC ACHIEVEMENT,955 WEST MAIN STREET,MOUNT VERNON,KY,40456,NOT AVAILABLE,(606) 256-3846
79355,210228001436,GRAVES COUNTY MIDDLE SCHOOL,625 JIMTOWN RD,MAYFIELD,KY,42066,NOT AVAILABLE,(270) 328-4890
79489,210564001602,UNION COUNTY MIDDLE SCHOOL,4465 US HWY 60W,MORGANFIELD,KY,42437,NOT AVAILABLE,(270) 389-0224
79978,210198000433,FRANKFORT HIGH SCHOOL,328 SHELBY ST,FRANKFORT,KY,40601,NOT AVAILABLE,(502) 875-8655
80222,210549002051,HILLVIEW ACADEMY,404 MAIN CROSS ST,TAYLORSVILLE,KY,40071,NOT AVAILABLE,(502) 477-1530
83852,210096000185,CARLISLE COUNTY MIDDLE SCHOOL,4557 STATE RT 1377,BARDWELL,KY,42023,NOT AVAILABLE,(270) 628-3800
84117,210579001367,BELL ELEMENTARY SCHOOL,278 KENNY DAVIS BLVD.,MONTICELLO,KY,42633,NOT AVAILABLE,(606) 348-8150
84480,210075000154,NORTH BULLITT HIGH SCHOOL,3200 E HEBRON LN,SHEPHERDSVILLE,KY,40165,NOT AVAILABLE,(502) 869-6200
85222,210084000167,CALDWELL COUNTY MIDDLE SCHOOL,440 BECKNER LN,PRINCETON,KY,42445,5003,(270) 365-8020
87944,210279000593,HICKMAN COUNTY ELEMENTARY SCHOOL,416 MCMORRIS ST,CLINTON,KY,42031,NOT AVAILABLE,(270) 653-4067
105019,210129002502,CLOVERPORT INDEPENDENT SCHOOL,301 POPLAR STREET,CLOVERPORT,KY,40111,NOT AVAILABLE,(270) 788-3388
105020,210132002489,CORBIN ELEMENTARY SCHOOL,706 S. KENTUCKY AVENUE,CORBIN,KY,40701,NOT AVAILABLE,(606) 528-4367
14782,210312002233,CORDIA SCHOOL,6050 LOTTS CREEK ROAD,HAZARD,KY,41701,NOT AVAILABLE,(606) 785-4457
17198,210414001044,METCALFE COUNTY HIGH SCHOOL,208 RANDOLPH ST,EDMONTON,KY,42129,NOT AVAILABLE,(270) 432-2481
17612,210299001774,DAWSON ORMAN EDUCATION CENTER,900 S FLOYD ST,LOUISVILLE,KY,40203,NOT AVAILABLE,(502) 485-7008
17652,210321000858,SOUTH LAUREL MIDDLE SCHOOL,223 S LAUREL RD,LONDON,KY,40744,NOT AVAILABLE,(606) 862-4745
18171,210453000736,OLDHAM COUNTY PRESCHOOL,4309 BROWN BLVD.,BUCKNER,KY,40031,NOT AVAILABLE,(502) 222-3700
19860,210582001372,SEBREE ELEMENTARY SCHOOL,61 N STATE ST,SEBREE,KY,42455,NOT AVAILABLE,(270) 835-7891
32688,210147000298,DAVIESS COUNTY MIDDLE SCHOOL,1415 E. FOURTH STREET,OWENSBORO,KY,42303,NOT AVAILABLE,(270) 852-7600
35003,210027000046,BARDSTOWN MIDDLE SCHOOL,410 N 5TH ST,BARDSTOWN,KY,40004,NOT AVAILABLE,(502) 331-8803
35095,210299000653,KENWOOD ELEMENTARY,7420 JUSTAN AVE,LOUISVILLE,KY,40214,NOT AVAILABLE,(502) 485-8283
36776,210176000346,WEST IRVINE INTERMEDIATE,155 RIVERVIEW RD,IRVINE,KY,40336,NOT AVAILABLE,(606) 723-4800
36960,210405001032,EKRON ELEMENTARY SCHOOL,2500 HAYESVILLE RD,EKRON,KY,40117,8504,(270) 422-7570
39042,210007000010,ALLEN COUNTY-SCOTTSVILLE HIGH SCHOOL,1545 BOWLING GREEN RD,SCOTTSVILLE,KY,42164,NOT AVAILABLE,(270) 622-4119
39145,210042000076,GRANDVIEW ELEMENTARY SCHOOL,500 GRANDVIEW AVENUE,BELLEVUE,KY,41073,NOT AVAILABLE,(859) 261-4355
50819,210336002318,LETCHER MIDDLE SCHOOL,162 LHS DR,LETCHER,KY,41832,NOT AVAILABLE,(606) 633-7812
54609,210063000124,PERRYVILLE ELEMENTARY SCHOOL,418 WEST FOURTH ST,PERRYVILLE,KY,40468,NOT AVAILABLE,(859) 936-7500
54849,210195002450,FLOYD CENTRAL HIGH SCHOOL,651 KY RT 680W,EASTERN,KY,41622,NOT AVAILABLE,(606) 886-2354
55632,210402001027,MARIE GATTON PHILLIPS ELEMENTARY,640 MAIN ST,SACRAMENTO,KY,42372,NOT AVAILABLE,(270) 736-2343
59306,210573001349,RICH POND ELEMENTARY,530 RICH POND RD,BOWLING GREEN,KY,42104,NOT AVAILABLE,(270) 781-9627
59850,210299000688,SHACKLETTE ELEMENTARY,5310 MERCURY DRIVE,LOUISVILLE,KY,40258,NOT AVAILABLE,(502) 485-8325
22040,210051002206,RANDALL K. COOPER HIGH SCHOOL,2855 LONGBRANCH RD,UNION,KY,41091,NOT AVAILABLE,(859) 384-5040
23733,210540001652,FRANKLIN-SIMPSON HIGH SCHOOL WEST CAMPUS,229 JOKERS PHILLIPS WAY,FRANKLIN,KY,42135,NOT AVAILABLE,(270) 586-2039
61712,210384001537,MARTIN COUNTY HEAD START PRESCHOOL,33 WARFIELD ELEMENTARY LOOP,WARFIELD,KY,41267,NOT AVAILABLE,(606) 395-7108
62397,210267000568,HAZARD HIGH SCHOOL,157 BULLDOG LN,HAZARD,KY,41701,NOT AVAILABLE,(606) 439-1318
62548,210526002017,ROYAL SPRING MIDDLE SCHOOL,332 CHAMPION WAY,GEORGETOWN,KY,40324,NOT AVAILABLE,(502) 570-2390
64218,210564002175,UNION COUNTY AREA VOCATIONAL ED CENTER,4464 US HWY 60 W,MORGANFIELD,KY,42437,NOT AVAILABLE,(270) 389-3120
64318,210381000976,MARSHALL COUNTY HIGH SCHOOL,416 HIGH SCHOOL RD,BENTON,KY,42025,NOT AVAILABLE,(270) 527-1453
64861,210405001035,MEADE COUNTY HIGH SCHOOL,938 OLD STATE RD,BRANDENBURG,KY,40108,NOT AVAILABLE,(270) 422-7515
65625,210321000863,JOHNSON ELEMENTARY SCHOOL,1781 MCWHORTER RD,LONDON,KY,40741,NOT AVAILABLE,(606) 862-4664
66957,210600001840,SAFE HARBOR ACADEMY,134 MACEY AVENUE,VERSAILLES,KY,40383,NOT AVAILABLE,(859) 879-4694
40602,210299001855,BRECKINRIDGE-FRANKLIN ELEMENTARY,1351 PAYNE ST.,LOUISVILLE,KY,40206,NOT AVAILABLE,(502) 485-8215
41382,210299000675,DIXIE ELEMENTARY,10201 CASALANDA DR,LOUISVILLE,KY,40272,NOT AVAILABLE,(502) 485-8238
43390,210111001914,CAVERNA MIDDLE SCHOOL,2276 S DIXIE HWY,HORSE CAVE,KY,42749,NOT AVAILABLE,(270) 773-4665
44910,210051000011,LARRY A. RYLE HIGH SCHOOL,10379 US 42,UNION,KY,41091,NOT AVAILABLE,(859) 384-5300
45164,210444002401,NEWPORT REGIONAL SCHOOL,590 COLUMBIA STREET,NEWPORT,KY,41071,NOT AVAILABLE,(859) 292-6476
45874,210336000898,LETCHER ELEMENTARY SCHOOL,160 LETCHER HIGH SCHOOL DR,BLACKEY,KY,41804,NOT AVAILABLE,(606) 633-2524
46823,210558002167,TRIGG COUNTY INTERMEDIATE SCHOOL,205 E MAIN ST,CADIZ,KY,42211,NOT AVAILABLE,(270) 522-2220
1682,210420001053,MONROE CO MIDDLE,600 SOUTH MAIN,TOMPKINSVILLE,KY,42167,NOT AVAILABLE,(270) 487-9624
3390,210286000606,PRIDE ELEMENTARY SCHOOL,861 PRIDE AVE,MADISONVILLE,KY,42431,NOT AVAILABLE,(270) 825-6030
6519,210216000455,GARRARD COUNTY HIGH SCHOOL,599 INDUSTRY RD,LANCASTER,KY,40444,NOT AVAILABLE,(859) 792-2146
9786,210075001578,OLD MILL ELEMENTARY SCHOOL,11540 HWY 44 E,MOUNT WASHINGTON,KY,40047,NOT AVAILABLE,(502) 869-3200
13506,210258000558,WESTSIDE ELEMENTARY SCHOOL,1585 KY HWY 356,CYNTHIANA,KY,41031,4103,(859) 234-7115
14600,210090000180,GRANT'S LICK ELEMENTARY SCHOOL,944 CLAY RIDGE RD.,ALEXANDRIA,KY,41001,NOT AVAILABLE,(859) 635-2129
14609,210299002197,STOPHER ELEMENTARY,14417 AIKEN RD,LOUISVILLE,KY,40245,NOT AVAILABLE,(502) 485-8281
14626,210579002250,OTTER CREEK ACADEMY,1442 OLD BETHEL CHURCH RD,MONTICELLO,KY,42633,NOT AVAILABLE,(606) 343-0203
15192,210195001670,JAMES D. ADAMS MIDDLE SCHOOL,2520 S LAKE DR,PRESTONSBURG,KY,41653,NOT AVAILABLE,(606) 886-2671
15747,210441002006,BLOOMFIELD ELEMENTARY SCHOOL,360 ARNOLD LANE,BLOOMFIELD,KY,40008,NOT AVAILABLE,(502) 349-7211
15917,210051002022,SHIRLEY MANN ELEMENTARY SCHOOL,10435 US HWY 42,UNION,KY,41091,NOT AVAILABLE,(859) 384-5000
16393,210028902164,BOONE COUNTY AREA TECHNOLOGY CENTER,3320 COUGAR PATH,HEBRON,KY,41048,NOT AVAILABLE,(859) 689-7855
17181,210204001400,HIGHLANDS MIDDLE SCHOOL,2350 MEMORIAL PKWY,FORT THOMAS,KY,41075,NOT AVAILABLE,(859) 441-5222
17222,210526001284,STAMPING GROUND ELEMENTARY SCHOOL,3233 MAIN ST.,STAMPING GROUND,KY,40379,NOT AVAILABLE,(502) 570-8800
17365,210299000644,BUTLER TRADITIONAL HIGH,2222 CRUMS LANE,LOUISVILLE,KY,40216,NOT AVAILABLE,(502) 485-8220
18164,210090002157,NORTH CAMPBELL TECH,90 CAMPBELL DRIVE,HIGHLAND HEIGHTS,KY,41076,NOT AVAILABLE,(859) 441-2010
19124,210299000666,WATTERSON ELEMENTARY,3900 BRECKINRIDGE LANE,LOUISVILLE,KY,40218,NOT AVAILABLE,(502) 485-8342
1978,210459001129,CRAVENS ELEMENTARY SCHOOL,2741 CRAVENS AVENUE,OWENSBORO,KY,42301,NOT AVAILABLE,(270) 686-1010
8233,210222001565,SOUTH GREEN ELEMENTARY SCHOOL,300 JAMES T ROGERS DR,GLASGOW,KY,42141,2437,(270) 651-3806
9732,210354001544,CHANDLERS ELEMENTARY SCHOOL,6000 MORGANTOWN RD,RUSSELLVILLE,KY,42276,NOT AVAILABLE,(270) 542-4139
20395,210532002077,SOUTHSIDE ELEMENTARY,728 GINKGO DR,SHELBYVILLE,KY,40065,NOT AVAILABLE,(502) 633-4460
21563,210028902173,MONROE COUNTY AREA TECHNOLOGY CENTER,757 OLD MULKEY ROAD,TOMPKINSVILLE,KY,42167,NOT AVAILABLE,(270) 487-8261
22300,210012001298,EZRA SPARROW EARLY CHILDHOOD CENTER,1154 BYPASS N,LAWRENCEBURG,KY,40342,NOT AVAILABLE,(502) 839-2504
23879,210299002180,NEWCOMER ACADEMY,3741 PULLIAM DR,LOUISVILLE,KY,40218,NOT AVAILABLE,(502) 485-6324
29997,210115000233,SOUTH CHRISTIAN ELEMENTARY SCHOOL,12340 HERNDON-OAK GROVE RD,HERNDON,KY,42236,NOT AVAILABLE,(270) 887-7350
43373,210588002037,WHITLEY COUNTY EAST ELEMENTARY SCHOOL,13781 HWY 92E,WILLIAMSBURG,KY,40769,NOT AVAILABLE,(606) 549-7097
43844,210021000356,BALLARD COUNTY ELEMENTARY SCHOOL,3383 PADUCAH RD,BARLOW,KY,42024,NOT AVAILABLE,(270) 665-8400
45233,210303000798,NICHOLASVILLE ELEMENTARY SCHOOL,414 W MAPLE ST,NICHOLASVILLE,KY,40356,NOT AVAILABLE,(859) 885-5351
45966,210174000334,LINDEMAN ELEMENTARY SCHOOL,558 ERLANGER RD,ERLANGER,KY,41018,NOT AVAILABLE,(859) 727-1188
49405,210249000514,CECILIA VALLEY ELEMENTARY SCHOOL,931 E. MAIN ST.,CECILIA,KY,42724,NOT AVAILABLE,(270) 862-3287
30065,210102001661,WEST CARTER MIDDLE SCHOOL,150 WARRIOR DRIVE,OLIVE HILL,KY,41164,NOT AVAILABLE,(606) 286-5354
31234,210324000870,BLAINE ELEMENTARY SCHOOL,600 HIGHWAY 2562,BLAINE,KY,41124,NOT AVAILABLE,(606) 826-3624
32280,210291001719,JACKSON CITY SCHOOL,940 HIGHLAND AVE,JACKSON,KY,41339,NOT AVAILABLE,(606) 666-5164
33246,210075000929,BULLITT ALTERNATIVE CENTER,381 HIGH SCHOOL DR,SHEPHERDSVILLE,KY,40165,NOT AVAILABLE,(502) 869-6700
33575,210312000826,BEAVER CREEK ELEMENTARY SCHOOL,8000 HWY 7 S,TOPMOST,KY,41862,NOT AVAILABLE,(606) 447-2833
37065,210057000104,BOWLING GREEN JUNIOR HIGH,900 CAMPBELL LN,BOWLING GREEN,KY,42104,NOT AVAILABLE,(270) 746-2290
37235,210138001441,CRITTENDEN COUNTY ELEMENTARY SCHOOL,120 AUTUMN LANE,MARION,KY,42064,NOT AVAILABLE,(270) 965-2243
38865,210027000045,BARDSTOWN HIGH SCHOOL,400 N 5TH ST,BARDSTOWN,KY,40004,NOT AVAILABLE,(502) 331-8802
39796,210543001307,HOPKINS ELEMENTARY SCHOOL,210 MAY ST,SOMERSET,KY,42501,NOT AVAILABLE,(606) 678-8707
90952,210030000048,BARREN COUNTY HIGH SCHOOL,507 TROJAN TRAIL,GLASGOW,KY,42141,NOT AVAILABLE,(270) 651-6315
92387,210028902069,LAKE CUMBERLAND AREA TECHNOLOGY CENTER,2330 HIGHWAY 127 SOUTH,RUSSELL SPRINGS,KY,42642,NOT AVAILABLE,(270) 866-6175
92635,210072000137,BRECKINRIDGE COUNTY HIGH SCHOOL,2019 E. HIGHWAY 60,HARNED,KY,40144,NOT AVAILABLE,(270) 756-3080
93691,210312000837,KNOTT COUNTY CENTRAL HIGH SCHOOL,76 PATRIOT LANE,HINDMAN,KY,41822,NOT AVAILABLE,(606) 785-3166
95958,210600001403,SIMMONS ELEMENTARY SCHOOL,830 TYRONE PIKE,VERSAILLES,KY,40383,NOT AVAILABLE,(859) 879-4670
72055,210339000908,LAUREL ELEMENTARY SCHOOL,116 LAUREL SCHOOL RD,VANCEBURG,KY,41179,9702,(606) 796-2214
72711,210453001121,CENTERFIELD ELEMENTARY SCHOOL,4512 S HWY 393,CRESTWOOD,KY,40014,9198,(502) 241-1772
73811,210429002214,WRIGLEY ELEMENTARY SCHOOL,7490 HWY 7,WEST LIBERTY,KY,41472,NOT AVAILABLE,(606) 743-8302
73812,210441002212,THE ACADEMY AT HORIZONS,304 WILDCAT LANE,BARDSTOWN,KY,40004,NOT AVAILABLE,(502) 349-7045
75260,210318000853,LARUE COUNTY HIGH SCHOOL,925 S LINCOLN BLVD,HODGENVILLE,KY,42748,NOT AVAILABLE,(270) 358-2210
79356,210585001375,WEST POINT ELEMENTARY SCHOOL,209 NORTH 13TH,WEST POINT,KY,40177,NOT AVAILABLE,(502) 922-4797
61735,210480002240,MILLARD SCHOOL,8015 MILLARD HIGHWAY,PIKEVILLE,KY,41501,NOT AVAILABLE,(606) 432-3380
62683,210299001777,DUVALLE EDUCATION CENTER,3610 BOHNE AVE,LOUISVILLE,KY,40211,NOT AVAILABLE,(502) 485-3558
66489,210039001882,PAGE SCHOOL CENTER,239 PAGE SCHOOL ROAD,PINEVILLE,KY,40977,NOT AVAILABLE,(606) 337-5207
67663,210480002012,FEDS CREEK ELEMENTARY SCHOOL,221 FEDS CREEK RD,FEDSCREEK,KY,41524,NOT AVAILABLE,(606) 835-4757
67859,210008101967,MUHLENBERG SOUTH ELEMENTARY,2005 US HWY 431 S,BEECHMONT,KY,42323,NOT AVAILABLE,(270) 476-2204
69203,210510001254,CLEARFIELD ELEMENTARY SCHOOL,460 MCBRAYER RD,CLEARFIELD,KY,40313,9794,(606) 784-5792
81418,210075000144,BROOKS ELEMENTARY SCHOOL,1430 BROOKS HILL ROAD,BROOKS,KY,40109,NOT AVAILABLE,(502) 869-2000
83703,210396001431,HENDRON LONE OAK ELEMENTARY SCHOOL,2501 MARSHALL AVE,PADUCAH,KY,42003,NOT AVAILABLE,(270) 538-4110
85173,210425001868,GATEWAY CHILDREN'S SERVICES,37 NORTH MAYSVILLE,MOUNT STERLING,KY,40353,NOT AVAILABLE,(859) 497-6428
87396,210348000915,HIGHLAND ELEMENTARY SCHOOL,75 TICK RIDGE RD,WAYNESBURG,KY,40489,NOT AVAILABLE,(606) 365-2768
89314,210468001156,PAINTSVILLE HIGH SCHOOL,225 2ND ST,PAINTSVILLE,KY,41240,NOT AVAILABLE,(606) 789-2656
51258,210573001353,WARREN CENTRAL HIGH SCHOOL,559 MORGANTOWN RD,BOWLING GREEN,KY,42101,NOT AVAILABLE,(270) 842-7302
51467,210186001669,PAUL LAURENCE DUNBAR HIGH SCHOOL,1600 MAN O' WAR BLVD,LEXINGTON,KY,40513,NOT AVAILABLE,(859) 381-3546
56062,210321002436,LAUREL COUNTY VIRTUAL ACADEMY,718 N. MAIN STREET,LONDON,KY,40741,NOT AVAILABLE,(606) 862-4600
59227,210147000295,APOLLO HIGH SCHOOL,2280 TAMARACK ROAD,OWENSBORO,KY,42301,NOT AVAILABLE,(270) 852-7100
101802,210570001342,WALTON-VERONA HIGH SCHOOL,30 SCHOOL RD,WALTON,KY,41094,NOT AVAILABLE,(859) 485-7721
102000,210372000250,MADISON MIDDLE SCHOOL,101 SUMMIT ST,RICHMOND,KY,40475,NOT AVAILABLE,(859) 387-4200
105048,210519002490,RUSSELLVILLE MIDDLE SCHOOL,1101 W. 9TH STREET,RUSSELLVILLE,KY,42276,NOT AVAILABLE,(270) 726-8428
12871,210276000591,HENRY COUNTY MIDDLE SCHOOL,1124 EMINENCE RD,NEW CASTLE,KY,40050,NOT AVAILABLE,(502) 845-8660
13886,210532001690,ASCENSION ACADEMY,1361 FRANKFORT RD.,SHELBYVILLE,KY,40065,NOT AVAILABLE,(502) 647-4677
16191,210264000562,BONNIEVILLE ELEMENTARY SCHOOL,7874 N DIXIE HWY,BONNIEVILLE,KY,42713,NOT AVAILABLE,(270) 531-1111
18624,210186000393,WINBURN MIDDLE SCHOOL,1060 WINBURN DR,LEXINGTON,KY,40511,NOT AVAILABLE,(859) 381-3967
81705,210333000886,W B MUNCY ELEMENTARY SCHOOL,140 PIRATE DR,WOOTON,KY,41776,NOT AVAILABLE,(606) 279-4155
82450,210402001025,LIVERMORE ELEMENTARY SCHOOL,110 EIGHTH ST,LIVERMORE,KY,42352,NOT AVAILABLE,(270) 278-2522
83661,210299000699,WHEELER ELEMENTARY,5700 CYNTHIA DRIVE,LOUISVILLE,KY,40291,1187,(502) 485-8349
89266,210186000350,ARLINGTON ELEMENTARY SCHOOL,122 ARCEME AVENUE,LEXINGTON,KY,40505,NOT AVAILABLE,(859) 381-3030
89531,210312000837,KNOTT COUNTY CENTRAL HIGH SCHOOL,76 PATRIOT LANE,HINDMAN,KY,41822,NOT AVAILABLE,(606) 785-3166
1562,210123000248,BURNING SPRINGS ELEMENTARY,9847 N HWY 421,MANCHESTER,KY,40962,NOT AVAILABLE,(606) 598-3138
1571,210306000803,PORTER ELEMENTARY SCHOOL,7210 US 321 S,HAGERHILL,KY,41222,NOT AVAILABLE,(606) 789-2545
1577,210321001677,LAUREL COUNTY DAY TREATMENT,65 MARYDELL RD,LONDON,KY,40741,NOT AVAILABLE,(606) 862-6605
5973,210186002459,FREDERICK DOUGLASS HIGH SCHOOL,2000 WINCHESTER ROAD,LEXINGTON,KY,40509,4050,(859) 381-3780
6004,210315002449,KNOX INSPIRE ACADEMY,200 DANIEL BOONE DRIVE,BARBOURVILLE,KY,40906,NOT AVAILABLE,(606) 546-3157
6481,210299002458,W.E.B. DUBOIS ACADEMY,3307 EAST INDIAN TRAIL,LOUISVILLE,KY,40213,NOT AVAILABLE,(502) 485-8253
6482,210315002449,KNOX INSPIRE ACADEMY,200 DANIEL BOONE DRIVE,BARBOURVILLE,KY,40906,NOT AVAILABLE,(606) 546-3157
7160,210405001037,PAYNEVILLE ELEMENTARY SCHOOL,520 RHODELIA RD,PAYNEVILLE,KY,40157,NOT AVAILABLE,(270) 422-7550
7782,210062000640,RAMEY-ESTEP HIGH SCHOOL,2901 PIGEON ROOST ROAD,RUSH,KY,41168,NOT AVAILABLE,(606) 928-5801
42281,210600001404,WOODFORD COUNTY HIGH SCHOOL,180 FRANKFORT ST,VERSAILLES,KY,40383,NOT AVAILABLE,(859) 879-4630
44510,210564001336,STURGIS ELEMENTARY SCHOOL,1101 GRANT ST,STURGIS,KY,42459,NOT AVAILABLE,(270) 333-4088
90887,210333000887,STINNETT ELEMENTARY SCHOOL,12975 HWY 421,HOSKINSTON,KY,40844,NOT AVAILABLE,(606) 374-3641
93080,210299000665,STONESTREET ELEMENTARY,10007 STONESTREET ROAD,LOUISVILLE,KY,40272,NOT AVAILABLE,(502) 485-8333
96647,210028902177,RUSSELL AREA TECHNOLOGY CENTER,705 RED DEVIL LANE,RUSSELL,KY,41169,NOT AVAILABLE,(606) 836-1256
96839,210090002082,NORTHERN KY TECH - HIGHLAND HTS,90 CAMPBELL DRIVE,HIGHLAND HEIGHTS,KY,41076,NOT AVAILABLE,(859) 441-2010
99796,210381002474,MC@HOME,86 HIGH SCHOOL ROAD,BENTON,KY,42025,7039,(270) 527-8628
101009,210495001464,SOUTHERN ELEMENTARY SCHOOL,198 ENTERPRISE DR,SOMERSET,KY,42501,NOT AVAILABLE,(606) 678-5229
105051,210526002482,GREAT CROSSING HIGH SCHOOL,120 BETSY WAY,GEORGETOWN,KY,40324,NOT AVAILABLE,(502) 867-6662
50902,210028902059,LESLIE COUNTY AREA TECHNOLOGY CENTER,175 EAGLE LANE,HYDEN,KY,41749,NOT AVAILABLE,(606) 672-2859
55469,210339000906,GARRISON ELEMENTARY SCHOOL,79 GARRISON ELEMENTARY,GARRISON,KY,41141,NOT AVAILABLE,(606) 757-2122
32575,210249000524,VINE GROVE ELEMENTARY SCHOOL,309 FIRST ST,VINE GROVE,KY,40175,NOT AVAILABLE,(270) 877-5410
33573,210339001503,LEWIS COUNTY MIDDLE SCHOOL,51 MIDDLE SCHOOL LN,VANCEBURG,KY,41179,NOT AVAILABLE,(606) 796-6228
34029,210299000762,KING ELEMENTARY,4325 VERMONT AVE,LOUISVILLE,KY,40211,NOT AVAILABLE,(502) 485-8285
37058,210228001992,GRAVES COUNTY CENTRAL ELEMENTARY,2262 STATE RT 121 N,MAYFIELD,KY,42066,NOT AVAILABLE,(270) 328-4901
37064,210147000296,F T BURNS MIDDLE SCHOOL,4610 GOETZ DRIVE,OWENSBORO,KY,42301,NOT AVAILABLE,(270) 852-7400
38710,210486002149,CUMBERLAND TECHNICAL COLLEGE,3300 HWY 25E SOUTH,PINEVILLE,KY,40977,NOT AVAILABLE,(606) 337-3106
39770,210299000672,KERRICK ELEMENTARY,2210 UPPER HUNTERS TRACE,LOUISVILLE,KY,40216,NOT AVAILABLE,(502) 485-8284
22364,210513001273,RUSSELL MIDDLE SCHOOL,707 RED DEVIL LANE,RUSSELL,KY,41169,NOT AVAILABLE,(606) 836-8135
28103,210062002186,ASHLAND TECHNICAL COLLEGE,4818 ROBERTS DRIVE,ASHLAND,KY,41102,NOT AVAILABLE,(606) 928-4256
28271,210299002026,MARION C. MOORE SCHOOL,6415 OUTER LOOP,LOUISVILLE,KY,40228,NOT AVAILABLE,(502) 485-8304
29033,210028902097,CARROLL COUNTY AREA TECHNOLOGY CENTER,1704 HIGHLAND AVE,CARROLLTON,KY,41008,NOT AVAILABLE,(502) 732-4479
29153,210028902145,LINCOLN COUNTY AREA TECHNOLOGY CENTER,422 EDUCATION WAY,STANFORD,KY,40484,NOT AVAILABLE,(606) 365-8500
29156,210028902116,BUTLER CO. AREA TECHNOLOGY CENTER,179 ACADEMIC WAY,MORGANTOWN,KY,42261,NOT AVAILABLE,(270) 999-2791
29196,210240000493,ARGILLITE ELEMENTARY SCHOOL,4157 ST. RT. 1,ARGILLITE,KY,41121,NOT AVAILABLE,(606) 473-7213
77456,210299000724,KAMMERER MIDDLE,7315 WESBORO RD,LOUISVILLE,KY,40222,6499,(502) 485-8279
78679,210075000153,NICHOLS ELEMENTARY,10665 HWY 44 W,WEST POINT,KY,40177,6909,(502) 869-2600
79357,210299000772,LINCOLN ELEMENTARY PERFORMING ARTS,930 EAST MAIN STREET,LOUISVILLE,KY,40206,NOT AVAILABLE,(502) 485-8291
60822,210258000553,EASTSIDE ELEMENTARY SCHOOL,1226 US HWY 62 E,CYNTHIANA,KY,41031,4103,(859) 234-7121
63827,210225000467,GRANT COUNTY HIGH SCHOOL,715 WARSAW ROAD,DRY RIDGE,KY,41035,NOT AVAILABLE,(859) 824-9739
64665,210299000734,DUPONT MANUAL HIGH,120 W LEE ST,LOUISVILLE,KY,40208,NOT AVAILABLE,(502) 485-8241
65353,210240001611,MCKELL MIDDLE SCHOOL,129 BULLDOG LANE,SOUTH SHORE,KY,41175,NOT AVAILABLE,(606) 932-3221
65769,210028902136,LETCHER COUNTY AREA TECHNOLOGY CENTER,515 COUGAR DR,WHITESBURG,KY,41858,NOT AVAILABLE,(606) 633-5053
65974,210351001484,LIVINGSTON COUNTY MIDDLE SCHOOL,1370 US 60 E,BURNA,KY,42028,NOT AVAILABLE,(270) 988-3263
66550,210299000706,LAYNE ELEMENTARY,9831 EAST AVENUE,LOUISVILLE,KY,40272,NOT AVAILABLE,(502) 485-8290
68550,210299000717,LOWE ELEMENTARY,210 OXFORDSHIRE LANE,LOUISVILLE,KY,40222,NOT AVAILABLE,(502) 485-8293
32607,210186000382,TATES CREEK MIDDLE SCHOOL,1105 CENTRE PKWY,LEXINGTON,KY,40517,NOT AVAILABLE,(859) 381-3052
32897,210147001949,MEADOW LANDS ELEMENTARY SCHOOL,3500 HAYDEN ROAD,OWENSBORO,KY,42303,NOT AVAILABLE,(270) 852-7450
34805,210480001948,EAST RIDGE HIGH SCHOOL,19471 LICK MOUNTAIN RD,LICK CREEK,KY,41540,NOT AVAILABLE,(606) 835-2811
36962,210057001696,BOWLING GREEN LEARNING CENTER,503 OLD MORGANTOWN RD,BOWLING GREEN,KY,42101,4210,(270) 746-2321
36999,210402001140,MCLEAN COUNTY MIDDLE SCHOOL,1901 HWY 136 E,CALHOUN,KY,42327,NOT AVAILABLE,(270) 273-5191
38171,210012000021,EMMA B. WARD ELEMENTARY SCHOOL,1150 BYPASS N,LAWRENCEBURG,KY,40342,NOT AVAILABLE,(502) 839-4236
39238,210299001959,CHANCEY ELEMENTARY,4301 MURPHY LANE,LOUISVILLE,KY,40241,NOT AVAILABLE,(502) 485-8387
39802,210254000539,EVARTS ELEMENTARY SCHOOL,132 KEISTER ST,EVARTS,KY,40828,NOT AVAILABLE,(606) 837-2386
1574,210399001805,MCCREARY ACADEMY,400 RAIDER WAY,STEARNS,KY,42647,NOT AVAILABLE,(606) 376-1477
4619,210186002426,BOOKER T WASHINGTON ELEMENTARY SCHOOL,707 HOWARD STREET,LEXINGTON,KY,40508,NOT AVAILABLE,(859) 381-3263
5100,210225000469,GRANT COUNTY MIDDLE SCHOOL,305 SCHOOL RD,DRY RIDGE,KY,41035,NOT AVAILABLE,(859) 824-7161
6868,210028902043,MORGAN COUNTY AREA TECHNOLOGY CENTER,162 ROAD TO SUCCESS,WEST LIBERTY,KY,41472,NOT AVAILABLE,(606) 743-8452
7668,210441001093,FOSTER HEIGHTS ELEMENTARY SCHOOL,211 E MUIR AVE,BARDSTOWN,KY,40004,NOT AVAILABLE,(502) 349-7030
20280,210201000440,FRANKLIN COUNTY HIGH SCHOOL,1100 E MAIN ST,FRANKFORT,KY,40601,NOT AVAILABLE,(502) 695-6750
20890,210042000075,BELLEVUE HIGH SCHOOL,201 CENTER ST,BELLEVUE,KY,41073,NOT AVAILABLE,(859) 261-2980
21666,210039000062,BELL COUNTY HIGH SCHOOL,9824 US HIGHWAY 25 E,PINEVILLE,KY,40977,NOT AVAILABLE,(606) 337-7061
28101,210447001107,NICHOLAS COUNTY HIGH SCHOOL,103 SCHOOL DR,CARLISLE,KY,40311,NOT AVAILABLE,(859) 289-3780
13869,210321000860,COLONY ELEMENTARY SCHOOL,3656 SOMERSET ROAD,LONDON,KY,40741,NOT AVAILABLE,(606) 862-4639
15989,210453002009,EAST OLDHAM MIDDLE SCHOOL,1201 EAST HIGHWAY 22,CRESTWOOD,KY,40014,NOT AVAILABLE,(502) 222-8480
18336,210441002261,NELSON COUNTY EARLY LEARNING CENTER,1200 CARDINAL DR,BARDSTOWN,KY,40004,NOT AVAILABLE,(502) 350-3914
72370,210299001941,HEUSER HEARING & LANGUAGE ACADEMY,111 E KENTUCKY ST,LOUISVILLE,KY,40203,NOT AVAILABLE,(502) 636-2084
72890,210315000846,G R HAMPTON ELEMENTARY SCHOOL,60 KY 3441,BARBOURVILLE,KY,40906,NOT AVAILABLE,(606) 546-4169
73642,210591001939,WILLIAMSBURG CITY SCHOOL,1000 MAIN STREET,WILLIAMSBURG,KY,40769,NOT AVAILABLE,(606) 549-6044
76392,210299000627,FERN CREEK ELEMENTARY,8815 FERNDALE RD,LOUISVILLE,KY,40291,2627,(502) 485-8250
78481,210039000002,BELL COUNTY ALTERNATIVE SCHOOL,9828 US HWY 25E SECOND FLOOR,PINEVILLE,KY,40977,NOT AVAILABLE,(606) 337-0957
79107,210186000373,MAXWELL SPANISH IMMERSION ELEM SCHOOL,301 WOODLAND AVE,LEXINGTON,KY,40508,NOT AVAILABLE,(859) 381-3516
42263,210186000386,GLENDOVER ELEMENTARY SCHOOL,710 GLENDOVER RD,LEXINGTON,KY,40502,2846,(859) 381-3403
43974,210216000456,PAINT LICK ELEMENTARY SCHOOL,6798 RICHMOND RD,PAINT LICK,KY,40461,NOT AVAILABLE,(859) 792-2122
44602,210315000847,KNOX CENTRAL HIGH SCHOOL,100 PANTHER WAY,BARBOURVILLE,KY,40906,NOT AVAILABLE,(606) 546-9253
46974,210150002200,DAWSON SPRINGS ELEMENTARY,317 ELI ST,DAWSON SPRINGS,KY,42408,NOT AVAILABLE,(270) 797-2991
49389,210588000546,WHITLEY COUNTY NORTH ELEMENTARY SCHOOL,6670 HWY 26,ROCKHOLDS,KY,40759,NOT AVAILABLE,(606) 549-7869
81760,210195000403,ALLEN ELEMENTARY SCHOOL,112 EAGLE LN,ALLEN,KY,41601,NOT AVAILABLE,(606) 874-2165
84122,210174000336,HOWELL ELEMENTARY SCHOOL,909 CENTRAL ROW ST.,ELSMERE,KY,41018,NOT AVAILABLE,(859) 727-1108
84140,210195002210,PRESTONSBURG ELEMENTARY SCHOOL,140 S CLARK DR.,PRESTONSBURG,KY,41653,NOT AVAILABLE,(606) 886-3891
51134,210372001594,MADISON SOUTHERN HIGH SCHOOL,279 GLADES RD,BEREA,KY,40403,NOT AVAILABLE,(859) 625-6148
52654,210003002021,ADAIR COUNTY ELEMENTARY SCHOOL,870 INDIAN DR,COLUMBIA,KY,42728,4272,(270) 384-0077
53389,210303001899,JESSAMINE EARLY LEARNING VILLAGE,851 WILMORE RD,NICHOLASVILLE,KY,40356,NOT AVAILABLE,(859) 887-5358
57861,210510001478,ROWAN COUNTY MIDDLE SCHOOL,555 VIKING DRIVE,MOREHEAD,KY,40351,NOT AVAILABLE,(606) 784-8911
59059,210115000231,PEMBROKE ELEMENTARY SCHOOL,1600 PEMBROKE-OAK GROVE RD,PEMBROKE,KY,42266,NOT AVAILABLE,(270) 887-7290
59105,210474001161,PENDLETON COUNTY HIGH SCHOOL,2359 HWY 27 N,FALMOUTH,KY,41040,NOT AVAILABLE,(859) 654-3355
59574,210051000079,A M YEALEY ELEMENTARY SCHOOL,10 YEALEY DR,FLORENCE,KY,41042,9733,(859) 282-3333
91984,210321001483,COLD HILL ELEMENTARY SCHOOL,4012 W LAUREL RD,LONDON,KY,40741,NOT AVAILABLE,(606) 862-4632
93468,210286000681,JAMES MADISON MIDDLE SCHOOL,510 BROWN RD,MADISONVILLE,KY,42431,NOT AVAILABLE,(270) 825-6160
94178,210299000645,CHENOWETH ELEMENTARY,3622 BROWNSBORO ROAD,LOUISVILLE,KY,40207,NOT AVAILABLE,(502) 485-8227
94999,210254000534,CAWOOD ELEMENTARY SCHOOL,51 NOLA ST,CAWOOD,KY,40815,NOT AVAILABLE,(606) 573-2502
95139,210465001150,MCNABB ELEMENTARY SCHOOL,2100 PARK AVE,PADUCAH,KY,42001,NOT AVAILABLE,(270) 444-5750
96783,210354001458,LOGAN COUNTY HIGH SCHOOL,2200 BOWLING GREEN RD,RUSSELLVILLE,KY,42276,NOT AVAILABLE,(270) 726-8454
97466,210453001122,CRESTWOOD ELEMENTARY SCHOOL,6500 W HWY 146,CRESTWOOD,KY,40014,NOT AVAILABLE,(502) 241-8401
99788,210186002486,BRENDA COWAN ELEMENTARY,4801 ATHENS-BOONESBORO ROAD,LEXINGTON,KY,40509,NOT AVAILABLE,(859) 381-4000
64153,210561001330,BEDFORD ELEMENTARY SCHOOL,204 MT PLEASANT RD,BEDFORD,KY,40006,NOT AVAILABLE,(502) 255-3217
66737,210204000430,MOYER ELEMENTARY SCHOOL,219 HIGHLAND AVE,FORT THOMAS,KY,41075,NOT AVAILABLE,(859) 441-1180
68195,210513001272,RUSSELL HIGH SCHOOL,709 RED DEVIL LANE,RUSSELL,KY,41169,NOT AVAILABLE,(606) 836-9658
68613,210369001950,LYON COUNTY MIDDLE SCHOOL,111 W. FAIRVIEW AVENUE,EDDYVILLE,KY,42038,NOT AVAILABLE,(270) 388-9715
100005,210201001990,BRIDGEPORT ELEMENTARY SCHOOL,10 DOCTORS DR,FRANKFORT,KY,40601,NOT AVAILABLE,(502) 875-8430
102163,210372002217,B. MICHAEL CAUDILL MIDDLE SCHOOL,1428 ROBERT R. MARTIN BYPASS,RICHMOND,KY,40475,NOT AVAILABLE,(859) 625-6172
105045,210444002493,NEWPORT SCHOOL OF INNOVATION,30 WEST 8TH STREET,NEWPORT,KY,41071,NOT AVAILABLE,(859) 292-3001
40499,210306002103,CARL D PERKINS COMPREHENSIVE REHAB CTR,5659 MAIN STREET,THELMA,KY,41260,NOT AVAILABLE,(606) 789-1440
42261,210147000299,HIGHLAND ELEMENTARY SCHOOL,2909 KENTUCKY 54,OWENSBORO,KY,42303,2100,(270) 852-7370
45615,210411002273,MERCER COUNTY INTERMEDIATE SCHOOL,1101 MOBERLY ROAD,HARRODSBURG,KY,40330,NOT AVAILABLE,(859) 733-7080
46253,210147002110,KENTUCKY TECH - DAVIESS COUNTY CAMPUS,1901 SOUTHEASTERN PKWY,OWENSBORO,KY,42303,NOT AVAILABLE,(270) 687-7260
31274,210597001693,WOLFE COUNTY MIDDLE SCHOOL,303 NORTH JOHNSON STREET,CAMPTON,KY,41301,NOT AVAILABLE,(606) 668-8152
31445,210299001530,FARNSLEY MIDDLE,3400 LEES LANE,LOUISVILLE,KY,40216,NOT AVAILABLE,(502) 485-8242
33669,210309001588,WOODLAND MIDDLE SCHOOL,5399 OLD TAYLOR MILL RD,TAYLOR MILL,KY,41015,1922,(859) 356-7300
35638,210573001348,OAKLAND ELEMENTARY,2494 CHURCH ST.,OAKLAND,KY,42159,NOT AVAILABLE,(270) 563-4719
35668,210115000229,MILLBROOKE ELEMENTARY SCHOOL,415 MILLBROOKE DR,HOPKINSVILLE,KY,42240,NOT AVAILABLE,(270) 887-7270
36515,210306000692,CENTRAL ELEMENTARY SCHOOL,1715 EUCLID AVE,PAINTSVILLE,KY,41240,NOT AVAILABLE,(606) 789-2541
37875,210543001311,MEECE MIDDLE SCHOOL,210 BARNETT ST,SOMERSET,KY,42501,NOT AVAILABLE,(606) 678-5821
39208,210306000805,W R CASTLE MEMORIAL ELEMENTARY SCHOOL,3936 US 23 N,WITTENSVILLE,KY,41274,NOT AVAILABLE,(606) 297-3738
50855,210459001132,FOUST ELEMENTARY SCHOOL,601 FOUST AVE,OWENSBORO,KY,42301,NOT AVAILABLE,(270) 686-1060
50906,210028902072,PULASKI COUNTY AREA TECHNOLOGY CENTER,3865 S HWY 27,SOMERSET,KY,42501,NOT AVAILABLE,(606) 678-2998
54175,210271000572,CAIRO ELEMENTARY SCHOOL,10694 HWY 41-A,HENDERSON,KY,42420,NOT AVAILABLE,(270) 533-1286
54851,210480002444,PIKE COUNTY DAY TREATMENT,5279 NORTH MAYO TRAIL,PIKEVILLE,KY,41501,NOT AVAILABLE,(606) 433-9250
57225,210378002454,MARION COUNTY MIDDLE SCHOOL,1155 HWY. 327,LEBANON,KY,40033,NOT AVAILABLE,(270) 692-4578
58065,210321000715,HUNTER HILLS ELEMENTARY SCHOOL,8325 S US 25,CORBIN,KY,40701,NOT AVAILABLE,(606) 862-4655
59974,210453001818,THE ROBERT L. ARVIN EDUCATION CENTER,1650 COLONELS DR,BUCKNER,KY,40010,NOT AVAILABLE,(502) 222-0131
22934,210450001119,WAYLAND ALEXANDER ELEMENTARY SCHOOL,1250 OAKWOOD DR,HARTFORD,KY,42347,NOT AVAILABLE,(270) 298-3462
23780,210062001479,BOYD CO CAREER & TECH EDUC CTR VOC SCH,12300 MIDLAND TRAIL RD.,ASHLAND,KY,41102,NOT AVAILABLE,(606) 928-7120
25538,210099002293,CARROLL CO CHILDHOOD DEVELOPMENT CENTER,619 9TH STREET,CARROLLTON,KY,41008,NOT AVAILABLE,(502) 732-7016
27405,210299000643,AUDUBON TRADITIONAL ELEMENTARY,1051 HESS LANE,LOUISVILLE,KY,40217,NOT AVAILABLE,(502) 485-8205
29150,210028902172,FOUR RIVERS CAREER ACADEMY,2720 MOSCOW AVE,HICKMAN,KY,42050,NOT AVAILABLE,(270) 236-2517
29767,210249000517,NORTH HARDIN HIGH SCHOOL,801 S LOGSDON PARKWAY,RADCLIFF,KY,40160,NOT AVAILABLE,(270) 351-3167
81483,210195000423,PRESTONSBURG HIGH SCHOOL,825 BLACKCAT BOULEVARD,PRESTONSBURG,KY,41653,NOT AVAILABLE,(606) 886-2252
81886,210069000133,MARIE ROBERTS-CANEY ELEMENTARY SCHOOL,115 RED SKIN RUN,LOST CREEK,KY,41348,NOT AVAILABLE,(606) 666-7775
81912,210225000465,CRITTENDEN-MT. ZION ELEMENTARY,270 CRITTENDEN-MT. ZION RD.,DRY RIDGE,KY,41035,NOT AVAILABLE,(859) 428-2171
84336,210299000750,HIGHLAND MIDDLE,1700 NORRIS PLACE,LOUISVILLE,KY,40205,NOT AVAILABLE,(502) 485-8266
84514,210396002374,LONE OAK INTERMEDIATE SCHOOL,300 CUMBERLAND AVE,PADUCAH,KY,42001,NOT AVAILABLE,(270) 538-4000
63280,210072000140,CUSTER ELEMENTARY SCHOOL,14880 HWY 690,CUSTER,KY,40115,NOT AVAILABLE,(270) 756-3040
64276,210309002092,KENTON CO ACADEMIES OF INNOVATION & TECH,3234 TURKEY FOOT ROAD,EDGEWOOD,KY,41017,NOT AVAILABLE,(859) 341-2266
65649,210015002023,ASHLAND HEAD START,1820 HICKMAN ST,ASHLAND,KY,41101,NOT AVAILABLE,(606) 327-2715
68539,210348000914,CRAB ORCHARD ELEMENTARY SCHOOL,383 LANCASTER ST,CRAB ORCHARD,KY,40419,NOT AVAILABLE,(606) 355-2331
91738,210507001249,BRODHEAD ELEMENTARY SCHOOL,27 SCHOOL STREET,BRODHEAD,KY,40409,NOT AVAILABLE,(606) 758-8512
92040,210299001427,STUART ACADEMY,4603 VALLEY STATION RD,LOUISVILLE,KY,40272,NOT AVAILABLE,(502) 485-8334
94701,210573001354,WARREN EAST HIGH SCHOOL,6867 LOUISVILLE RD,BOWLING GREEN,KY,42101,NOT AVAILABLE,(270) 781-1277
94884,210579002346,MONTICELLO ELEMENTARY SCHOOL,160 CAVE ST,MONTICELLO,KY,42633,NOT AVAILABLE,(606) 340-3900
95007,210576002358,COMMANDER ACADEMY,520 LINCOLN PARK ROAD,SPRINGFIELD,KY,40069,NOT AVAILABLE,(859) 336-2116
97049,210299000637,SOUTHERN HIGH,8620 PRESTON HIGHWAY,LOUISVILLE,KY,40219,NOT AVAILABLE,(502) 485-8330
97442,210162000321,EDMONSON COUNTY MIDDLE SCHOOL,210 WILDCAT WAY,BROWNSVILLE,KY,42210,NOT AVAILABLE,(270) 597-2932
71806,210102001884,HERITAGE ELEMENTARY SCHOOL,4863 S STATE HWY 1,GRAYSON,KY,41143,NOT AVAILABLE,(606) 474-5784
72456,210510001261,TILDEN HOGGE ELEMENTARY SCHOOL,5955 CRANSTON RD,MOREHEAD,KY,40351,1699,(606) 784-4604
72977,210594002308,WILLIAMSTOWN SR. HIGH,300 HELTON STREET,WILLIAMSTOWN,KY,41097,NOT AVAILABLE,(859) 824-4421
73034,210186000390,JAMES LANE ALLEN ELEMENTARY SCHOOL,1901 APPOMATTOX RD,LEXINGTON,KY,40504,NOT AVAILABLE,(859) 381-3456
75257,210384000985,MARTIN COUNTY HIGH SCHOOL,137 HOLLY BUSH ROAD,INEZ,KY,41224,NOT AVAILABLE,(606) 298-3591
77768,210498001239,CAMPBELL ELEMENTARY SCHOOL,550 RAM BLVD,RACELAND,KY,41169,NOT AVAILABLE,(606) 836-3844
78425,210201000437,COLLINS LANE,1 COUGAR LANE,FRANKFORT,KY,40601,NOT AVAILABLE,(502) 875-8410
79466,210597001396,CAMPTON ELEMENTARY SCHOOL,120 LITTLE WOLFE DRIVE,CAMPTON,KY,41301,NOT AVAILABLE,(606) 668-8102
79732,210135002338,CHAPMAN VOCATIONAL EDUCATION CENTER,25TH AND MADISON STREETS,COVINGTON,KY,41014,NOT AVAILABLE,(859) 291-5911
100500,210028902118,LEE COUNTY AREA TECHNOLOGY CENTER,960 CENTER STREET,BEATTYVILLE,KY,41311,NOT AVAILABLE,(606) 464-5018
101298,210216000457,LANCASTER ELEMENTARY SCHOOL,205 LEXINGTON ST,LANCASTER,KY,40444,NOT AVAILABLE,(859) 792-3047
45,210153002413,REGIONAL PROGRAMS SCHOOL,5516 EAST ALEXANDRIA PIKE,COLD SPRING,KY,41076,NOT AVAILABLE,(859) 441-4225
1299,210186000358,BRYAN STATION MIDDLE SCHOOL,1865 WICKLAND DR,LEXINGTON,KY,40505,NOT AVAILABLE,(859) 381-3288
1573,210369002108,EDDYVILLE EDUCATION CENTER,266 WATER ST,EDDYVILLE,KY,42038,NOT AVAILABLE,(270) 388-2211
1980,210378000962,CALVARY ELEMENTARY SCHOOL,3345 HWY 208,LEBANON,KY,40033,NOT AVAILABLE,(270) 692-3676
4003,210246000507,HANCOCK COUNTY HIGH SCHOOL,80 STATE RT 271 S,LEWISPORT,KY,42351,NOT AVAILABLE,(270) 927-6953
5126,210230001852,GRAYSON CO. ALTERNATIVE EDUCATION,340 SCHOOLHOUSE ROAD,LEITCHFIELD,KY,42754,NOT AVAILABLE,(270) 259-2800
6711,210123000255,MANCHESTER ELEMENTARY SCHOOL,1908 N HWY 421,MANCHESTER,KY,40962,NOT AVAILABLE,(606) 598-3444
11532,210033000057,BATH COUNTY HIGH SCHOOL,645 CHENAULT DR,OWINGSVILLE,KY,40360,NOT AVAILABLE,(606) 674-6325
13859,210003000001,ADAIR COUNTY HIGH SCHOOL,526 INDIAN DR,COLUMBIA,KY,42728,NOT AVAILABLE,(270) 384-2751
17626,210312000835,HINDMAN ELEMENTARY SCHOOL,875 W MAIN ST,HINDMAN,KY,41822,NOT AVAILABLE,(606) 785-5872
855,210573002410,BEACON ACADEMY,1022 WEST MAIN STREET,BOWLING GREEN,KY,42101,NOT AVAILABLE,(270) 842-0702
1451,210303001900,THE PROVIDENCE SCHOOL,210 S. LEXINGTON AVE,WILMORE,KY,40390,NOT AVAILABLE,(859) 887-4600
1565,210225002201,SHERMAN ELEMENTARY,3987 DIXIE HWY,DRY RIDGE,KY,41035,NOT AVAILABLE,(859) 428-5500
7041,210216000455,GARRARD COUNTY HIGH SCHOOL,599 INDUSTRY RD,LANCASTER,KY,40444,NOT AVAILABLE,(859) 792-2146
8286,210299002071,JEFFERSON TECHNICAL COLLEGE,727 WEST CHESTNUT,LOUISVILLE,KY,40203,NOT AVAILABLE,(502) 595-4136
8499,210450001120,WESTERN ELEMENTARY SCHOOL,4008 ST RT 85 E,CENTERTOWN,KY,42328,NOT AVAILABLE,(270) 274-7643
8784,210028902102,SOUTHERN KENTUCKY EARLY CCA,1273 KY HWY 90,ALBANY,KY,42602,NOT AVAILABLE,(606) 387-6448
60233,210120002402,ROBERT D. CAMPBELL JR. HIGH,620 BOONE AVE.,WINCHESTER,KY,40391,NOT AVAILABLE,(859) 745-5200
61803,210033000056,OWINGSVILLE ELEMENTARY SCHOOL,50 CHENAULT DRIVE,OWINGSVILLE,KY,40360,NOT AVAILABLE,(606) 674-2722
62464,210438001086,MURRAY HIGH SCHOOL,1800 SYCAMORE ST,MURRAY,KY,42071,NOT AVAILABLE,(270) 753-5202
62578,210540001299,FRANKLIN ELEMENTARY SCHOOL,211 S MAIN ST,FRANKLIN,KY,42134,NOT AVAILABLE,(270) 586-3241
65407,210299000695,BALLARD HIGH,6000 BROWNSBORO ROAD,LOUISVILLE,KY,40222,NOT AVAILABLE,(502) 485-8206
66574,210399001021,WHITLEY CITY ELEMENTARY SCHOOL,2819 N HWY 27,WHITLEY CITY,KY,42653,NOT AVAILABLE,(606) 376-2690
10351,210309000818,SIMON KENTON HIGH SCHOOL,11132 MADISON PK,INDEPENDENCE,KY,41051,7523,(859) 960-0100
15174,210051000090,OCKERMAN MIDDLE SCHOOL,8300 US 42,FLORENCE,KY,41042,NOT AVAILABLE,(859) 282-3240
16619,210111000213,CAVERNA ELEMENTARY SCHOOL,1106 N DIXIE HWY,CAVE CITY,KY,42127,NOT AVAILABLE,(270) 773-3671
19996,210396001461,HEATH ELEMENTARY SCHOOL,4365 METROPOLIS LAKE RD,WEST PADUCAH,KY,42086,NOT AVAILABLE,(270) 538-4060
40498,210264000564,HART COUNTY HIGH SCHOOL,1014 S DIXIE HWY,MUNFORDVILLE,KY,42765,NOT AVAILABLE,(270) 524-2332
42278,210057000100,DISHMAN MCGINNIS ELEMENTARY SCHOOL,375 GLEN LILY ROAD,BOWLING GREEN,KY,42101,NOT AVAILABLE,(270) 746-2250
43513,210066000128,TAYLOR ELEMENTARY SCHOOL,140 GIBSON DR,BROOKSVILLE,KY,41004,NOT AVAILABLE,(606) 735-2169
45443,210495001554,PULASKI DAY TREATMENT~EAGLE ACADEMY,300 CHANDLER ST,SOMERSET,KY,42503,NOT AVAILABLE,(606) 679-1303
49015,210597001394,RED RIVER VALLEY ELEMENTARY SCHOOL,78 RED RIVER VALLEY ELEM. RD,HAZEL GREEN,KY,41332,NOT AVAILABLE,(606) 662-8252
30498,210030000607,BARREN COUNTY MIDDLE SCHOOL,555 TROJAN TRAIL,GLASGOW,KY,42141,NOT AVAILABLE,(270) 651-4909
30907,210504001246,ROBERTSON COUNTY SCHOOL,1760 SARDIS RD.,MOUNT OLIVET,KY,41064,NOT AVAILABLE,(606) 724-5431
31809,210240000496,GREENUP COUNTY HIGH SCHOOL,196 MUSKETEER DRIVE,GREENUP,KY,41144,NOT AVAILABLE,(606) 473-9812
32504,210299001859,ACKERLY,200 E CHESTNUT ST,LOUISVILLE,KY,40202,NOT AVAILABLE,(502) 629-6319
32505,210299000700,GUTERMUTH ELEMENTARY,1500 SANDERS LANE,LOUISVILLE,KY,40216,NOT AVAILABLE,(502) 485-8261
37059,210258000557,NORTHSIDE ELEMENTARY SCHOOL,2415 US HWY 27 N,CYNTHIANA,KY,41031,4103,(859) 234-7114
37063,210507001252,ROCKCASTLE COUNTY HIGH SCHOOL,1545 LAKE CUMBERLAND ROAD,MOUNT VERNON,KY,40456,NOT AVAILABLE,(606) 256-4816
37804,210309002068,NORTHERN KY TECHNICAL COLLEGE,1025 AMSTERDAM ROAD,COVINGTON,KY,41011,NOT AVAILABLE,(859) 282-3930
37998,210254000539,EVARTS ELEMENTARY SCHOOL,132 KEISTER ST,EVARTS,KY,40828,NOT AVAILABLE,(606) 837-2386
50690,210186002320,THE STABLES,4089 IRON WORKS PIKE,LEXINGTON,KY,40511,NOT AVAILABLE,(859) 333-5827
52387,210573001831,JACKSON ACADEMY MIDDLE SCHOOL,877 JACKSON STREET,BOWLING GREEN,KY,42101,NOT AVAILABLE,(270) 467-0293
53273,210378000963,GLASSCOCK ELEMENTARY SCHOOL,773 E MAIN ST,LEBANON,KY,40033,NOT AVAILABLE,(270) 692-3223
53390,210324000871,FALLSBURG ELEMENTARY SCHOOL,6869 N HWY 3,LOUISA,KY,41230,NOT AVAILABLE,(606) 826-2351
56067,210249002439,COLLEGE VIEW CAMPUS,521 CHARLEMAGNE BLVD.,ELIZABETHTOWN,KY,42701,NOT AVAILABLE,(270) 234-5732
57381,210299000631,TULLY ELEMENTARY,3300 COLLEGE DRIVE,LOUISVILLE,KY,40299,3607,(502) 485-8338
57799,210375002227,SOUTH MAGOFFIN ELEMENTARY,171 HALF MOUNTAIN ROAD,SALYERSVILLE,KY,41465,NOT AVAILABLE,(606) 884-7325
59653,210186000360,DEEP SPRINGS ELEMENTARY SCHOOL,1919 BRYNELL DRIVE,LEXINGTON,KY,40505,2296,(859) 381-3069
90716,210216000454,CAMP DICK ROBINSON ELEMENTARY SCHOOL,279 NORTH CAMP DICK RD,LANCASTER,KY,40444,NOT AVAILABLE,(859) 792-6136
91659,210039000067,FRAKES SCHOOL CENTER,29 HENDERSON SETTLEMENT LOOP,FRAKES,KY,40940,NOT AVAILABLE,(606) 337-2921
93862,210351001999,SOUTH LIVINGSTON ELEMENTARY SCHOOL,850 CUTOFF RD,SMITHLAND,KY,42081,NOT AVAILABLE,(270) 928-3500
94828,210007000009,JAMES E BAZZELL MIDDLE SCHOOL,201 NEW GALLATIN RD,SCOTTSVILLE,KY,42164,NOT AVAILABLE,(270) 622-7140
96083,210120002395,STRODE STATION ELEMENTARY SCHOOL,1750 MARTIN LUTHER KING JR. DRIVE,WINCHESTER,KY,40391,NOT AVAILABLE,(859) 745-3915
21673,210471001159,PARIS MIDDLE SCHOOL,304 W 7TH ST,PARIS,KY,40361,NOT AVAILABLE,(859) 987-2163
22736,210286002098,MADISONVILLE TECHNICAL COLLEGE,750 NORTH LAFFOON STREET,MADISONVILLE,KY,42431,NOT AVAILABLE,(270) 824-7552
22933,210498001465,RACELAND-WORTHINGTON SCHOOLS CAMPUS A,1539 GREENUP AVE,ASHLAND,KY,41101,NOT AVAILABLE,(606) 920-2073
23010,210286000673,JESSE STUART ELEMENTARY SCHOOL,1710 ANTON RD,MADISONVILLE,KY,42431,NOT AVAILABLE,(270) 825-6033
27770,210102002340,TYGART CREEK ELEMENTARY SCHOOL,19743 W US HWY 60,OLIVE HILL,KY,41164,NOT AVAILABLE,(606) 286-2110
28910,210309000821,TWENHOFEL MIDDLE SCHOOL,11846 TAYLOR MILL RD,INDEPENDENCE,KY,41051,NOT AVAILABLE,(859) 356-5559
80896,210299001634,LIBERTY HIGH,1281 GILMORE LANE,LOUISVILLE,KY,40213,NOT AVAILABLE,(502) 485-7100
86388,210597002380,DESSIE SCOTT SCHOOL,5274 KY 15 N,PINE RIDGE,KY,41360,NOT AVAILABLE,(606) 668-6006
87464,210228000475,LOWES ELEMENTARY SCHOOL,6775 STATE ROUTE 440,HICKORY,KY,42051,NOT AVAILABLE,(270) 674-4840
89400,210498002015,RACELAND-WORTHINGTON SCHOOLS CAMPUS B,2420 ROBERTS DR,ASHLAND,KY,41101,NOT AVAILABLE,(606) 920-2091
70121,210201002165,FRANKFORT CAREER DEVELOPMENT CENTER,1106 E. MAIN ST,FRANKFORT,KY,40602,NOT AVAILABLE,(502) 564-2120
75255,210254000091,CUMBERLAND ELEMENTARY SCHOOL,322 GOLF COURSE RD,CUMBERLAND,KY,40823,NOT AVAILABLE,(606) 589-2511
75341,210429002194,MORGAN CENTRAL ELEMENTARY SCHOOL,3201 HWY 460 W,WEST LIBERTY,KY,41472,NOT AVAILABLE,(606) 743-8552
75601,210354001542,ADAIRVILLE ELEMENTARY SCHOOL,226 SCHOOL AVE,ADAIRVILLE,KY,42202,NOT AVAILABLE,(270) 539-7711
79413,210453001433,SOUTH OLDHAM MIDDLE SCHOOL,6403 W HWY 146,CRESTWOOD,KY,40014,NOT AVAILABLE,(502) 241-0320
79662,210483001214,PIKEVILLE HIGH SCHOOL,120 CHAMPIONSHIP DRIVE,PIKEVILLE,KY,41501,NOT AVAILABLE,(606) 432-0185
79852,210225000466,DRY RIDGE ELEMENTARY,275 SCHOOL ROAD,DRY RIDGE,KY,41035,NOT AVAILABLE,(859) 824-4484
101221,210028902143,HARRISON COUNTY AREA TECHNOLOGY CENTER,327 WEBSTER AVE.,CYNTHIANA,KY,41031,NOT AVAILABLE,(859) 234-5286
105027,210174002498,EARLY LEARNING CENTER,450 BARTLETT AVENUE,ERLANGER,KY,41018,NOT AVAILABLE,(859) 342-2427
105059,210573002465,JENNINGS CREEK ELEMENTARY,2617 RUSSELLVILLE ROAD,BOWLING GREEN,KY,42101,NOT AVAILABLE,(270) 904-9200
30067,210186000357,CRAWFORD MIDDLE SCHOOL,1813 CHARLESTON DR,LEXINGTON,KY,40505,NOT AVAILABLE,(859) 381-3370
31188,210573001692,GREENWOOD HIGH SCHOOL,5065 SCOTTSVILLE ROAD,BOWLING GREEN,KY,42104,NOT AVAILABLE,(270) 842-3627
33670,210540001302,LINCOLN ELEMENTARY SCHOOL,601 JOHN J. JOHNSON AVE,FRANKLIN,KY,42134,NOT AVAILABLE,(270) 586-7133
36285,210075000155,OVERDALE ELEMENTARY SCHOOL,651 OVERDALE DR,LOUISVILLE,KY,40229,3199,(502) 869-2800
36945,210573001540,WARREN COUNTY DAY TREATMENT,877 JACKSON STREET,BOWLING GREEN,KY,42101,NOT AVAILABLE,(270) 904-4131
37252,210387002000,MASON COUNTY INTERMEDIATE SCHOOL,720 CLARKS RUN RD,MAYSVILLE,KY,41056,NOT AVAILABLE,(606) 759-2000
38219,210186000380,RUSSELL CAVE ELEMENTARY SCHOOL,3375 RUSSELL CAVE RD,LEXINGTON,KY,40511,4050,(859) 381-3571
38753,210375000958,SALYERSVILLE GRADE SCHOOL,204 HORNET DRIVE,SALYERSVILLE,KY,41465,NOT AVAILABLE,(606) 349-3411
39017,210321000865,SOUTH LAUREL HIGH SCHOOL,201 SOUTH LAUREL RD,LONDON,KY,40744,NOT AVAILABLE,(606) 862-4727
39996,210299001860,MARY RYAN ACADEMY,3307 EAST INDIAN TRAIL,LOUISVILLE,KY,40213,NOT AVAILABLE,(502) 485-7988
10899,210299000679,SANDERS ELEMENTARY,8408 TERRY RD,LOUISVILLE,KY,40258,1750,(502) 485-8322
10925,210299000728,CARRITHERS MIDDLE,4320 BILLTOWN ROAD,LOUISVILLE,KY,40299,NOT AVAILABLE,(502) 485-8224
12785,210299000686,HITE ELEMENTARY,12408 OLD SHELBYVILLE ROAD,MIDDLETOWN,KY,40243,NOT AVAILABLE,(502) 485-8267
17394,210441001087,BLOOMFIELD MIDDLE SCHOOL,96 ARNOLD LN,BLOOMFIELD,KY,40008,NOT AVAILABLE,(502) 349-7201
18694,210372000945,DANIEL BOONE ELEMENTARY SCHOOL,710 N 2ND ST,RICHMOND,KY,40475,NOT AVAILABLE,(859) 625-6070
19299,210573002080,KY TECH - BOWLING GREEN REGIONAL TECH CENTER,1845 LOOP DRIVE,BOWLING GREEN,KY,42101,NOT AVAILABLE,(270) 746-7461
62972,210249000521,RINEYVILLE ELEMENTARY SCHOOL,275 RINEYVILLE SCHOOL RD,RINEYVILLE,KY,40162,NOT AVAILABLE,(270) 737-7371
65051,210051001883,NORTH POINTE ELEMENTARY SCHOOL,875 NORTH BEND RD,HEBRON,KY,41048,NOT AVAILABLE,(859) 334-7000
66444,210336000904,WHITESBURG MIDDLE SCHOOL,366 PARK ST,WHITESBURG,KY,41858,NOT AVAILABLE,(606) 633-2761
67097,210051000083,CONNER MIDDLE SCHOOL,3300 COUGAR PATH,HEBRON,KY,41048,NOT AVAILABLE,(859) 334-4410
67887,210081001697,BUTLER COUNTY MIDDLE SCHOOL,505 WARD AVE,MORGANTOWN,KY,42261,NOT AVAILABLE,(270) 526-5647
68225,210051001883,NORTH POINTE ELEMENTARY SCHOOL,875 NORTH BEND RD,HEBRON,KY,41048,NOT AVAILABLE,(859) 334-7000
69620,210594002308,WILLIAMSTOWN SR. HIGH,300 HELTON STREET,WILLIAMSTOWN,KY,41097,NOT AVAILABLE,(859) 824-4421
20035,210299000623,CAMP TAYLOR ELEMENTARY,1446 BELMAR DR,LOUISVILLE,KY,40213,NOT AVAILABLE,(502) 485-8222
20196,210115000232,SINKING FORK ELEMENTARY SCHOOL,5005 PRINCETON RD,HOPKINSVILLE,KY,42240,NOT AVAILABLE,(270) 887-7330
20937,210532002307,SHELBY COUNTY SUMMER SCHOOL,1155 WEST MAIN STREET,SHELBYVILLE,KY,40066,NOT AVAILABLE,(502) 633-2375
22383,210008102081,GREEN RIVER EDUCATION CENTER,1200 RIVER RD,CENTRAL CITY,KY,42330,NOT AVAILABLE,(270) 754-5415
24488,210381000977,NORTH MARSHALL MIDDLE SCHOOL,3111 U. S. HWY 95,CALVERT CITY,KY,42029,NOT AVAILABLE,(270) 395-7108
25036,210276000592,NEW CASTLE ELEMENTARY SCHOOL,182 S PROPERTY RD,NEW CASTLE,KY,40050,NOT AVAILABLE,(502) 845-8650
28107,210267002159,HAZARD COMMUNITY COLLEGE TECH CAMPUS,101 VO-TECH DRIVE,HAZARD,KY,41701,NOT AVAILABLE,(606) 435-5101
92603,210549001315,SPENCER COUNTY HIGH SCHOOL,520 TAYLORSVILLE RD,TAYLORSVILLE,KY,40071,NOT AVAILABLE,(502) 477-3255
93006,210299000634,MIDDLETOWN ELEMENTARY,218 NORTH MADISON AVENUE,LOUISVILLE,KY,40243,NOT AVAILABLE,(502) 485-8300
94544,210271000573,A B CHANDLER ELEMENTARY SCHOOL,11215 US 60 W,CORYDON,KY,42406,NOT AVAILABLE,(270) 533-1760
95850,210120002405,WILLIS H. JUSTICE ELEMENTARY SCHOOL,350 MT. STERLING RD,WINCHESTER,KY,40391,NOT AVAILABLE,(859) 745-8800
96760,210309000819,TAYLOR MILL ELEMENTARY SCHOOL,5907 TAYLOR MILL RD,COVINGTON,KY,41015,NOT AVAILABLE,(859) 356-2566
97622,210135001664,BIGGS EARLY CHILDHOOD EDUCATION CTR,1124 SCOTT BLVD,COVINGTON,KY,41011,NOT AVAILABLE,(859) 292-5895
51257,210532001434,WRIGHT ELEMENTARY,500 ROCKET LANE,SHELBYVILLE,KY,40065,NOT AVAILABLE,(502) 633-5222
51614,210444001099,NEWPORT PRIMARY SCHOOL,1102 YORK ST,NEWPORT,KY,41071,NOT AVAILABLE,(859) 292-3011
52274,210299000649,WAGGENER HIGH,330 S. HUBBARDS LANE,LOUISVILLE,KY,40207,NOT AVAILABLE,(502) 485-8340
52894,210276002418,HENRY COUNTY EARLY CHILDHOOD,182 SOUTH PROPERTY RD,NEW CASTLE,KY,40050,NOT AVAILABLE,(502) 845-8656
54815,210573002327,JODY RICHARDS ELEMENTARY,2100 ELROD RD.,BOWLING GREEN,KY,42104,NOT AVAILABLE,(270) 904-1901
54959,210207002205,FULTON INDEPENDENT SCHOOL,700 STEPHEN BEALE DR,FULTON,KY,42041,NOT AVAILABLE,(270) 472-1741
58618,210147000964,VALLEY ELEMENTARY SCHOOL,1000 INDUSTRIAL DRIVE,OWENSBORO,KY,42301,NOT AVAILABLE,(270) 689-6773
80134,210309000824,WHITE'S TOWER ELEMENTARY SCHOOL,2977 HARRIS PK,INDEPENDENCE,KY,41051,NOT AVAILABLE,(859) 356-9668
82823,210228000477,SEDALIA ELEMENTARY SCHOOL,5252 ST. RT 97,MAYFIELD,KY,42066,NOT AVAILABLE,(270) 328-4850
84770,210115000225,HOPKINSVILLE MIDDLE SCHOOL,434 KOFFMAN DRIVE,HOPKINSVILLE,KY,42240,NOT AVAILABLE,(270) 887-7130
85012,210299000626,FAIRDALE ELEMENTARY,10104 MITCHELL HILL ROAD,FAIRDALE,KY,40118,NOT AVAILABLE,(502) 485-8247
87122,210299001529,WALLER-WILLIAMS ENVIRONMENTAL,2415 ROCKFORD LANE,LOUISVILLE,KY,40216,NOT AVAILABLE,(502) 485-8314
89535,210264000565,LEGRANDE ELEMENTARY SCHOOL,70 LEGRANDE SCHOOL ROAD,HORSE CAVE,KY,42749,NOT AVAILABLE,(270) 786-2746
89722,210299001425,FREDERICK LAW OLMSTED ACADEMY SOUTH,5650 SOUTHERN PKWY,LOUISVILLE,KY,40214,NOT AVAILABLE,(502) 485-8270
72001,210201001420,WESTERN HILLS HIGH SCHOOL,100 DOCTORS DR,FRANKFORT,KY,40601,NOT AVAILABLE,(502) 875-8400
73366,210105000208,LIBERTY ELEMENTARY SCHOOL,75 COLLEGE ST,LIBERTY,KY,42539,4253,(606) 787-6942
74498,210480001183,DORTON ELEMENTARY SCHOOL,217 DORTON JENKINS HIGHWAY,DORTON,KY,41520,0260,(606) 639-2832
76021,210186002281,HOMEBOUND ELEMENTARY,701 E MAIN ST,LEXINGTON,KY,40502,NOT AVAILABLE,(859) 381-4100
76718,210465001154,PADUCAH TILGHMAN HIGH SCHOOL,2400 WASHINGTON ST,PADUCAH,KY,42003,NOT AVAILABLE,(270) 444-5650
1515,210399002002,MCCREARY COUNTY MIDDLE SCHOOL,180 RAIDER WAY,STEARNS,KY,42647,NOT AVAILABLE,(606) 376-5081
2342,210526001280,GEORGETOWN MIDDLE SCHOOL,730 S HAMILTON ST,GEORGETOWN,KY,40324,NOT AVAILABLE,(502) 863-3805
3185,210441002324,THOMAS NELSON HIGH SCHOOL,150 GENERALS BLVD,BARDSTOWN,KY,40004,NOT AVAILABLE,(502) 349-4650
3911,210267000570,ROY G. EVERSOLE ELEMENTARY SCHOOL,601 BROADWAY,HAZARD,KY,41701,NOT AVAILABLE,(606) 436-4721
5075,210299002121,THE PHOENIX SCHOOL OF DISCOVERY,502 WOOD RD,LOUISVILLE,KY,40222,NOT AVAILABLE,(502) 485-7700
6014,210399002451,PINE KNOT ELEMENTARY SCHOOL,6519 S HWY 1651,PINE KNOT,KY,42635,NOT AVAILABLE,(606) 354-2511
7227,210051000084,CONNER HIGH SCHOOL,3310 COUGAR PATH,HEBRON,KY,41048,NOT AVAILABLE,(859) 334-4400
40398,210600001404,WOODFORD COUNTY HIGH SCHOOL,180 FRANKFORT ST,VERSAILLES,KY,40383,NOT AVAILABLE,(859) 879-4630
45303,210408001038,BOTTS ELEMENTARY SCHOOL,6882 U.S. HIGHWAY 460 E,DENNISTON,KY,40316,NOT AVAILABLE,(606) 768-8052
105030,210186002506,FCPS VIRTUAL ACADEMY,701 EAST MAIN STREET,LEXINGTON,KY,40502,NOT AVAILABLE,(859) 381-4741
105040,210372002481,BOONESBOROUGH ELEMENTARY,1342 BOONESBOROUGH ROAD,RICHMOND,KY,40475,NOT AVAILABLE,(859) 387-8400
105060,210573002469,JACKSON ACADEMY ELEMENTARY,877 JACKSON ACADEMY ST.,BOWLING GREEN,KY,42101,NOT AVAILABLE,(270) 467-0293
80641,210321000859,CAMP GROUND ELEMENTARY SCHOOL,6800 BARBOURVILLE RD,LONDON,KY,40744,NOT AVAILABLE,(606) 862-4625
81164,210363000939,LUDLOW HIGH SCHOOL,515 ELM ST,LUDLOW,KY,41016,NOT AVAILABLE,(859) 261-8211
82449,210299000740,BYCK ELEMENTARY,2328 CEDAR STREET,LOUISVILLE,KY,40212,NOT AVAILABLE,(502) 485-8221
84142,210132002333,ELEMENTARY HOMEBOUND,108 ROY KIDD AVE,CORBIN,KY,40701,NOT AVAILABLE,(606) 528-1303
85160,210411001042,MERCER COUNTY ELEMENTARY SCHOOL,741 TAPP RD,HARRODSBURG,KY,40330,NOT AVAILABLE,(859) 733-7040
87126,210477001174,ROBERT W COMBS ELEMENTARY SCHOOL,9165 HWY 15 S,HAPPY,KY,41746,NOT AVAILABLE,(606) 476-2518
90090,210339002377,FOSTER MEADE CAREER & TECHNICAL CENTER,79 LIONS LN,VANCEBURG,KY,41179,NOT AVAILABLE,(606) 796-6106
96803,210555001601,SOUTH TODD ELEMENTARY SCHOOL,4115 GUTHRIE RD,GUTHRIE,KY,42234,NOT AVAILABLE,(270) 265-5785
97742,210321002030,WYAN-PINE GROVE ELEMENTARY,2330 KEAVY ROAD,LONDON,KY,40744,NOT AVAILABLE,(606) 862-5400
98475,210582002188,PROVIDENCE ELEMENTARY SCHOOL,470 S BROADWAY,PROVIDENCE,KY,42450,NOT AVAILABLE,(270) 667-7041
99348,210405001029,STUART PEPPER MIDDLE SCHOOL,1085 OLD EKRON RD,BRANDENBURG,KY,40108,NOT AVAILABLE,(270) 422-7530
105013,210028902468,ILEAD ACADEMY,2557 KY-227,CARROLLTON,KY,41008,4060,(502) 732-3090
105015,210028902479,SOUTHEAST KENTUCKY ACADEMY,108 ROY KIDD AVE,CORBIN,KY,40701,NOT AVAILABLE,(606) 689-6301
105028,210186002463,SUCCESS ACADEMY,1555 GEORGETOWN ROAD,LEXINGTON,KY,40508,4050,(859) 381-4000
105032,210201002471,WILLIAM COFIELD HIGH SCHOOL,1106 EAST MAIN STREET,FRANKFORT,KY,40601,NOT AVAILABLE,(502) 695-6790
105034,210210002480,FULTON COUNTY MIDDLE SCHOOL,2750 MOSCOW AVE,HICKMAN,KY,42050,NOT AVAILABLE,(270) 236-2070
105037,210299002507,GRACE M. JAMES ACADEMY OF EXCELLENCE,3332 NEWBURG RD,LOUISVILLE,KY,40218,NOT AVAILABLE,(502) 485-3011
105042,210381002474,MC@HOME,86 HIGH SCHOOL ROAD,BENTON,KY,42025,7039,(270) 527-8628
105054,210552002495,LAKEVIEW ACADEMY,1100 LEBANON AVENUE,CAMPBELLSVILLE,KY,42718,NOT AVAILABLE,(270) 849-3607
50213,210062000112,BOYD COUNTY MIDDLE SCHOOL,1226 SUMMIT ROAD,ASHLAND,KY,41102,8278,(606) 928-9547
53409,210336000903,WEST WHITESBURG ELEMENTARY SCHOOL,330 PARK ST,WHITESBURG,KY,41858,NOT AVAILABLE,(606) 633-9538
56066,210234002257,GREEN COUNTY INTERMEDIATE SCHOOL,401 EAST HODGENVILLE AVE,GREENSBURG,KY,42743,NOT AVAILABLE,(270) 932-6613
56068,210299002430,NORTON COMMONS ELEMENTARY,10941 KINGS CROWN DRIVE,PROSPECT,KY,40059,NOT AVAILABLE,(502) 485-8367
57370,210372002392,MADISON KINDERGARTEN ACADEMY,300 BOND ST.,RICHMOND,KY,40475,NOT AVAILABLE,(859) 625-6050
1569,210300001642,JENKINS INDEPENDENT SCHOOL,9409 HIGHWAY 805,JENKINS,KY,41537,NOT AVAILABLE,(606) 832-2184
2876,210399002437,MCCREARY COUNTY PRESCHOOL NORTH,2819 NORTH HWY 27,WHITLEY CITY,KY,42653,NOT AVAILABLE,(606) 354-3590
7002,210532001689,NORTHSIDE EARLY CHILDHOOD CENTER,821 COLLEGE STREET,SHELBYVILLE,KY,40065,NOT AVAILABLE,(502) 633-5123
30068,210411000482,KENNETH D. KING MIDDLE SCHOOL,937 MOBERLY RD.,HARRODSBURG,KY,40330,NOT AVAILABLE,(859) 733-7060
30951,210399001014,MCCREARY CENTRAL HIGH SCHOOL,400 RAIDER WAY,STEARNS,KY,42647,NOT AVAILABLE,(606) 376-5051
32080,210286002280,HOPKINS COUNTY SCHOOLS ACADEMY,6625 HOPKINSVILLE ROAD,MADISONVILLE,KY,42431,NOT AVAILABLE,(270) 825-8998
34483,210051000089,OCKERMAN ELEMENTARY SCHOOL,8250 US 42,FLORENCE,KY,41042,NOT AVAILABLE,(859) 282-4620
36328,210279000594,HICKMAN COUNTY HIGH SCHOOL,301 JAMES H PHILLIPS DR,CLINTON,KY,42031,NOT AVAILABLE,(270) 653-4044
38659,210176000342,ESTILL COUNTY HIGH SCHOOL,397 ENGINEER RD,IRVINE,KY,40336,NOT AVAILABLE,(606) 723-3537
38864,210369000942,LYON COUNTY ELEMENTARY SCHOOL,201 FAIRVIEW AVE,EDDYVILLE,KY,42038,NOT AVAILABLE,(270) 388-9715
39588,210105000204,CASEY COUNTY HIGH SCHOOL,1841 E KY 70,LIBERTY,KY,42539,6718,(606) 787-6151
65991,210576001873,NORTH WASHINGTON ELEMENTARY SCHOOL,5658 HWY 433,WILLISBURG,KY,40078,NOT AVAILABLE,(859) 375-4038
66270,210372000953,FOLEY MIDDLE SCHOOL,275 GLADES RD,BEREA,KY,40403,NOT AVAILABLE,(859) 625-6140
23254,210186001564,EASTSIDE TECHNICAL CENTER,2208 LIBERTY RD,LEXINGTON,KY,40505,NOT AVAILABLE,(859) 381-3740
12991,210375002238,NORTH MAGOFFIN ELEMENTARY,1991 HWY 460 W,SALYERSVILLE,KY,41465,NOT AVAILABLE,(606) 349-2847
14093,210381000979,SOUTH MARSHALL ELEMENTARY SCHOOL,155 SID DARNELL ROAD,BENTON,KY,42025,NOT AVAILABLE,(270) 527-1581
14455,210315000850,LYNN CAMP SCHOOLS,100 N KY 830,CORBIN,KY,40701,NOT AVAILABLE,(606) 528-5429
14585,210165000323,ELIZABETHTOWN HIGH SCHOOL,620 N MULBERRY ST,ELIZABETHTOWN,KY,42701,NOT AVAILABLE,(270) 769-3381
15746,210123001699,CLAY COUNTY MIDDLE SCHOOL,239 RICHMOND RD,MANCHESTER,KY,40962,NOT AVAILABLE,(606) 598-1810
18229,210286001473,HOPKINS COUNTY CENTRAL HIGH SCHOOL,6625 HOPKINSVILLE RD,MADISONVILLE,KY,42431,NOT AVAILABLE,(270) 825-6133
71470,210286000601,BROWNING SPRINGS MIDDLE SCHOOL,357 W ARCH ST,MADISONVILLE,KY,42431,NOT AVAILABLE,(270) 825-6006
74497,210477001177,VIPER ELEMENTARY SCHOOL,20 EDDINGTON LN,VIPER,KY,41774,NOT AVAILABLE,(606) 439-3837
74733,210299000625,EASTERN HIGH,12400 OLD SHELBYVILLE RD,MIDDLETOWN,KY,40243,NOT AVAILABLE,(502) 485-8243
75338,210429001066,EZEL ELEMENTARY SCHOOL,31 WALNUT STREET,EZEL,KY,41425,NOT AVAILABLE,(606) 725-8202
77468,210336000901,MARTHA JANE POTTER ELEMENTARY SCHOOL,55 KONA DR,WHITESBURG,KY,41858,NOT AVAILABLE,(606) 855-7544
79572,210405001644,DAVID T. WILSON ELEMENTARY,1075 OLD EKRON RD,BRANDENBURG,KY,40108,NOT AVAILABLE,(270) 422-7540
40873,210138000280,CRITTENDEN COUNTY MIDDLE SCHOOL,519 WEST GUM ST,MARION,KY,42064,NOT AVAILABLE,(270) 965-5221
42276,210526000530,WESTERN ELEMENTARY SCHOOL,1901 FRANKFORT RD,GEORGETOWN,KY,40324,NOT AVAILABLE,(502) 863-1393
43028,210249002269,CROSSROADS TREATMENT CENTER,854 TUNNEL HILL CHURCH RD,ELIZABETHTOWN,KY,42701,NOT AVAILABLE,(270) 360-0428
44046,210309002166,NORTHERN KY HEALTH TECHNOLOGY CENTER,790 THOMAS MOORE PARKWAY,EDGEWOOD,KY,41017,NOT AVAILABLE,(859) 341-5200
45526,210066000128,TAYLOR ELEMENTARY SCHOOL,140 GIBSON DR,BROOKSVILLE,KY,41004,NOT AVAILABLE,(606) 735-2169
45970,210396001006,HEATH MIDDLE SCHOOL,4336 METROPOLIS LAKE RD,WEST PADUCAH,KY,42086,NOT AVAILABLE,(270) 538-4070
48546,210230000485,CLARKSON ELEMENTARY SCHOOL,310 MILLERSTOWN STREET,CLARKSON,KY,42726,NOT AVAILABLE,(270) 242-3061
48598,210336002318,LETCHER MIDDLE SCHOOL,162 LHS DR,LETCHER,KY,41832,NOT AVAILABLE,(606) 633-7812
10307,210009401779,KENTUCKY SCHOOL FOR THE BLIND,1867 FRANKFORT AVE,LOUISVILLE,KY,40206,NOT AVAILABLE,(502) 897-1583
10623,210354001543,AUBURN ELEMENTARY SCHOOL,221 COLLEGE ST,AUBURN,KY,42206,NOT AVAILABLE,(270) 542-4181
12322,210249000520,NORTH MIDDLE SCHOOL,100 TROJAN WAY,RADCLIFF,KY,40160,NOT AVAILABLE,(270) 352-3340
17058,210450001115,HORSE BRANCH ELEMENTARY SCHOOL,11980 US HWY 62 E,HORSE BRANCH,KY,42349,NOT AVAILABLE,(270) 274-4662
18231,210303000799,WILMORE ELEMENTARY SCHOOL,150 CAMPGROUND LN,WILMORE,KY,40390,NOT AVAILABLE,(859) 858-3134
18235,210144000290,JOHN W. BATE MIDDLE SCHOOL,460 STANFORD AVE.,DANVILLE,KY,40422,NOT AVAILABLE,(859) 238-1305
1133,210480000505,PIKE COUNTY CENTRAL HIGH SCHOOL,100 WINNERS CIRCLE DRIVE,PIKEVILLE,KY,41501,NOT AVAILABLE,(606) 432-4352
1576,210429001549,EAST VALLEY ELEMENTARY SCHOOL,7585 HWY 172,WEST LIBERTY,KY,41472,NOT AVAILABLE,(606) 522-8152
1581,210588002048,WHITLEY CENTRAL INTERMEDIATE SCHOOL,2940 NORTH HIGHWAY 25W,WILLIAMSBURG,KY,40769,NOT AVAILABLE,(606) 549-8011
2127,210174000338,MILES ELEMENTARY SCHOOL,208 SUNSET AVE,ERLANGER,KY,41018,NOT AVAILABLE,(859) 727-2231
2879,210552002431,TAYLOR COUNTY PRIMARY CENTER,106 INGRAM AVENUE,CAMPBELLSVILLE,KY,42718,NOT AVAILABLE,(270) 465-0449
4185,210417002066,CUMBERLAND TECH - SOUTHEAST CAMPUS,1300 CHICHESTER AVENUE,MIDDLESBORO,KY,40965,NOT AVAILABLE,(606) 242-2145
4350,210480001197,KIMPER ELEMENTARY SCHOOL,8151 STATE HWY 194 E,KIMPER,KY,41539,NOT AVAILABLE,(606) 631-1509
91515,210477001170,LEATHERWOOD ELEMENTARY SCHOOL,7777 HWY 699,LEATHERWOOD,KY,41731,NOT AVAILABLE,(606) 675-4431
95551,210321002400,LAUREL CO SCHOOLS CENTER FOR INNOVATION,1100 EAST FOURTH STREET,LONDON,KY,40741,NOT AVAILABLE,(606) 862-5580
96625,210526002349,LEMONS MILL ELEMENTARY SCHOOL,300 SCHOOL HOUSE RD,GEORGETOWN,KY,40324,NOT AVAILABLE,(502) 867-6700
96648,210028902176,BULLITT COUNTY AREA TECHNOLOGY CENTER,395 HIGH SCHOOL DRIVE,SHEPHERDSVILLE,KY,40165,NOT AVAILABLE,(502) 543-7018
80836,210339000909,LEWIS COUNTY CENTRAL ELEMENTARY SCHOOL,86 WALTER AVE,VANCEBURG,KY,41179,NOT AVAILABLE,(606) 796-2831
82581,210372002032,GLENN R MARSHALL ELEMENTARY SCHOOL,1442 ROBERT R. MARTIN BYPASS,RICHMOND,KY,40475,NOT AVAILABLE,(859) 625-6076
82887,210024001969,BARBOURVILLE CITY SCHOOL,140 SCHOOL ST,BARBOURVILLE,KY,40906,NOT AVAILABLE,(606) 546-3129
83614,210459001685,HAGER PRESCHOOL,1701 WEST 7TH STREET,OWENSBORO,KY,42301,NOT AVAILABLE,(270) 686-1125
83967,210336001998,LETCHER COUNTY CENTRAL HIGH SCHOOL,435 COUGAR DR,WHITESBURG,KY,41858,NOT AVAILABLE,(606) 633-2339
84324,210186002199,WILLIAM WELLS BROWN ELEMENTARY,555 E 5TH ST,LEXINGTON,KY,40508,NOT AVAILABLE,(859) 381-4990
86736,210299000719,BLAKE ELEMENTARY,3801 BONAVENTURE BLVD,LOUISVILLE,KY,40219,NOT AVAILABLE,(502) 485-8210
87123,210299000655,GOLDSMITH ELEMENTARY,3520 GOLDSMITH LANE,LOUISVILLE,KY,40220,NOT AVAILABLE,(502) 485-8258
87919,210558001329,TRIGG COUNTY HIGH SCHOOL,203 MAIN STREET,CADIZ,KY,42211,NOT AVAILABLE,(270) 522-2200
70201,210286001499,SOUTH HOPKINS MIDDLE SCHOOL,9140 HOPKINSVILLE RD,NORTONVILLE,KY,42442,NOT AVAILABLE,(270) 825-6125
70209,210600001840,SAFE HARBOR ACADEMY,134 MACEY AVENUE,VERSAILLES,KY,40383,NOT AVAILABLE,(859) 879-4694
70269,210168000328,ISONVILLE ELEMENTARY SCHOOL,5980 SOUTH KY 32,ISONVILLE,KY,41149,NOT AVAILABLE,(606) 738-8152
70764,210201000441,HEARN ELEMENTARY,300 COPPERLEAF BLVD,FRANKFORT,KY,40601,NOT AVAILABLE,(502) 695-6760
71006,210115000220,CHRISTIAN COUNTY HIGH SCHOOL,220 GLASS AVE,HOPKINSVILLE,KY,42240,2499,(270) 887-7050
71729,210204000431,WOODFILL ELEMENTARY SCHOOL,1025 ALEXANDRIA PK,FORT THOMAS,KY,41075,NOT AVAILABLE,(859) 441-0506
73380,210480001185,ELKHORN CITY ELEMENTARY SCHOOL,180 COUGAR DR,ELKHORN CITY,KY,41522,NOT AVAILABLE,(606) 754-4542
77155,210003002345,ADAIR COUNTY PRIMARY CENTER,158 COL. CASEY DR,COLUMBIA,KY,42728,4272,(270) 384-3367
77560,210309000823,SCOTT HIGH SCHOOL,5400 OLD TAYLOR MILL RD,TAYLOR MILL,KY,41015,NOT AVAILABLE,(859) 356-3146
78510,210299000701,WELLINGTON ELEMENTARY,4800 KAUFMAN LANE,LOUISVILLE,KY,40216,0006,(502) 485-8343
50910,210087002370,CALLOWAY COUNTY ALTERNATIVE PROGRAM,2003 COLLEGE FARM RD,MURRAY,KY,42071,NOT AVAILABLE,(270) 762-7318
51618,210057000107,W R MCNEILL ELEMENTARY SCHOOL,1800 CREASON DRIVE,BOWLING GREEN,KY,42101,NOT AVAILABLE,(270) 746-2260
55060,210028902163,ROCKCASTLE COUNTY AREA TECHNOLOGY CENTER,1555 LAKE CUMBERLAND RD,MOUNT VERNON,KY,40456,NOT AVAILABLE,(606) 256-4346
55072,210093001653,CAMPBELLSVILLE EAGLE ACADEMY,230 W. MAIN STREET,CAMPBELLSVILLE,KY,42718,NOT AVAILABLE,(270) 465-8774
55327,210186000369,LEESTOWN MIDDLE SCHOOL,2010 LEESTOWN RD,LEXINGTON,KY,40511,NOT AVAILABLE,(859) 381-3181
57930,210028902183,BELL COUNTY AREA TECHNOLOGY CENTER,9828 US HWY. 25-E,PINEVILLE,KY,40977,NOT AVAILABLE,(606) 337-3094
58363,210186002341,STEAM ACADEMY,123 EAST 6 STREET,LEXINGTON,KY,40508,NOT AVAILABLE,(859) 381-3033
34253,210396002112,WEST KY TECHNICAL COLLEGE,5200 ALBEN BARKLEY DR,PADUCAH,KY,42001,NOT AVAILABLE,(270) 554-4991
34588,210102000200,STAR ELEMENTARY SCHOOL,8249 E US HWY 60,RUSH,KY,41168,NOT AVAILABLE,(606) 474-5756
35528,210123000247,BIG CREEK ELEMENTARY,523 N HWY 66,ONEIDA,KY,40972,NOT AVAILABLE,(606) 598-2812
38450,210526001278,EASTERN ELEMENTARY SCHOOL,3407 NEWTOWN RD,GEORGETOWN,KY,40324,NOT AVAILABLE,(502) 863-0275
39399,210299000718,MILL CREEK ELEMENTARY,3816 DIXIE HIGHWAY,LOUISVILLE,KY,40216,NOT AVAILABLE,(502) 485-8301
39998,210396001010,LONE OAK MIDDLE SCHOOL,225 JOHN E. ROBINSON AVE,PADUCAH,KY,42001,NOT AVAILABLE,(270) 538-4130
61303,210324000874,LAWRENCE COUNTY HIGH SCHOOL,100 BULLDOG LN,LOUISA,KY,41230,NOT AVAILABLE,(606) 638-9676
65331,210384002386,MARTIN COUNTY MIDDLE SCHOOL,130 MIDDLE SCHOOL ROAD,WARFIELD,KY,41267,NOT AVAILABLE,(606) 395-5900
65779,210135001783,TRANSFORMATIONAL LEARNING CENTER,200 HOME ROAD,COVINGTON,KY,41011,NOT AVAILABLE,(859) 581-7512
65886,210186000378,STONEWALL ELEMENTARY SCHOOL,3215 CORNWALL DR,LEXINGTON,KY,40503,4050,(859) 381-3079
68912,210165002319,PANTHER ACADEMY,634 N. MULBERRY ST.,ELIZABETHTOWN,KY,42701,NOT AVAILABLE,(270) 765-3007
68951,210090001320,JOHN W. REILEY ELEMENTARY SCHOOL,10631 ALEXANDRIA PIKE,ALEXANDRIA,KY,41001,NOT AVAILABLE,(859) 635-2118
20895,210249001566,MEADOW VIEW ELEMENTARY SCHOOL,1255 WEST VINE ST,RADCLIFF,KY,40160,NOT AVAILABLE,(270) 352-0500
22996,210299000659,JEFFERSONTOWN HIGH,9600 OLD SIX MILE LANE,JEFFERSONTOWN,KY,40299,NOT AVAILABLE,(502) 485-8275
24110,210299000691,DOSS HIGH,7601 ST ANDREWS CHURCH RD,LOUISVILLE,KY,40214,NOT AVAILABLE,(502) 485-8239
26988,210075001305,PLEASANT GROVE ELEMENTARY SCHOOL,6415 HWY 44 E,MOUNT WASHINGTON,KY,40047,NOT AVAILABLE,(502) 869-3400
29151,210102002340,TYGART CREEK ELEMENTARY SCHOOL,19743 W US HWY 60,OLIVE HILL,KY,41164,NOT AVAILABLE,(606) 286-2110
40470,210555001600,NORTH TODD ELEMENTARY SCHOOL,7300 GREENVILLE ROAD,ELKTON,KY,42220,NOT AVAILABLE,(270) 265-4460
41074,210201001989,WESTRIDGE ELEMENTARY,200 OAK RIDGE DRIVE,FRANKFORT,KY,40601,NOT AVAILABLE,(502) 875-8420
41202,210483001213,PIKEVILLE ELEMENTARY SCHOOL,105 BAILEY BLVD.,PIKEVILLE,KY,41501,NOT AVAILABLE,(606) 432-4196
100462,210459001130,ESTES ELEMENTARY SCHOOL,1675 LEITCHFIELD RD,OWENSBORO,KY,42303,NOT AVAILABLE,(270) 686-1030
101031,210450001116,OHIO COUNTY HIGH SCHOOL,1400 S MAIN ST,HARTFORD,KY,42347,NOT AVAILABLE,(270) 274-3366
101809,210526002204,SCOTT COUNTY PRESCHOOL,1306 LONG LICK RD,GEORGETOWN,KY,40324,4032,(502) 868-0411
107155,210057002516,VIRTUAL ACADEMY,1211 CENTER ST,BOWLING GREEN,KY,42101,4210,(270) 746-2200
640,210474001163,SOUTHERN ELEMENTARY SCHOOL,320 FAIRGROUNDS RD,FALMOUTH,KY,41040,NOT AVAILABLE,(859) 654-6981
936,210477002422,BUCKHORN CHILDRENS CENTER,116 BUCKHORN LANE,BUCKHORN,KY,41721,NOT AVAILABLE,(606) 398-7000
1307,210240000504,WURTLAND ELEMENTARY SCHOOL,611 EAST ST,WURTLAND,KY,41144,NOT AVAILABLE,(606) 836-6987
7159,210186001848,MARTIN L KING ACAD FOR EXCELLENCE ALT,2200 LIBERTY RD,LEXINGTON,KY,40505,NOT AVAILABLE,(859) 381-4040
8402,210453001432,GOSHEN AT HILLCREST ELEMENTARY SCHOOL,12518 RIDGEMOOR DR,PROSPECT,KY,40059,NOT AVAILABLE,(502) 228-0101
8609,210582001369,CLAY ELEMENTARY SCHOOL,210 COLLEGE ST,CLAY,KY,42404,NOT AVAILABLE,(270) 664-2227
8768,210132002329,HIGH SCHOOL HOMEBOUND,108 ROY KIDD AVE,CORBIN,KY,40701,NOT AVAILABLE,(606) 528-1303
70192,210180000348,FAIRVIEW HIGH SCHOOL,2123 MAIN ST W,ASHLAND,KY,41102,NOT AVAILABLE,(606) 324-9226
70545,210036000060,BEECHWOOD HIGH SCHOOL,54 BEECHWOOD RD,FORT MITCHELL,KY,41017,NOT AVAILABLE,(859) 331-1220
72050,210480002013,BELFRY MIDDLE SCHOOL,25259 US 119 N,BELFRY,KY,41514,NOT AVAILABLE,(606) 353-9688
72885,210186000385,YATES ELEMENTARY SCHOOL,695 E NEW CIRCLE RD,LEXINGTON,KY,40505,NOT AVAILABLE,(859) 381-3613
81417,210015000028,OAKVIEW ELEMENTARY SCHOOL,3111 BLACKBURN AVE,ASHLAND,KY,41101,NOT AVAILABLE,(606) 327-2733
81655,210138000279,CRITTENDEN COUNTY HIGH SCHOOL,519 1/2 W. GUM ST,MARION,KY,42064,NOT AVAILABLE,(270) 965-2248
85158,210099000191,CARROLL COUNTY MIDDLE SCHOOL,408 5TH ST,CARROLLTON,KY,41008,NOT AVAILABLE,(502) 732-7080
87125,210420001054,JOE HARRISON CARTER,3888 EDMONTON RD,TOMPKINSVILLE,KY,42167,NOT AVAILABLE,(270) 487-5621
87127,210573001691,WILLIAM H. NATCHER ELEMENTARY,1434 CAVE MILL RD,BOWLING GREEN,KY,42104,NOT AVAILABLE,(270) 842-1364
89781,210303001429,BROOKSIDE ELEMENTARY SCHOOL,199 BROOKSIDE DR,NICHOLASVILLE,KY,40356,NOT AVAILABLE,(859) 887-2012
30873,210028902090,FLOYD COUNTY AREA TECHNOLOGY CENTER,1024 KY RT. 122,MARTIN,KY,41649,NOT AVAILABLE,(606) 285-3088
32010,210186001419,MILLCREEK ELEMENTARY SCHOOL,1212 REVA RIDGE WAY,LEXINGTON,KY,40517,5906,(859) 381-3527
33273,210510002033,ROWAN COUNTY PRESCHOOL CENTER,455 W SUN ST,MOREHEAD,KY,40351,NOT AVAILABLE,(606) 784-7721
33955,210087001411,CALLOWAY COUNTY MIDDLE SCHOOL,2112 COLLEGE FARM RD,MURRAY,KY,42071,NOT AVAILABLE,(270) 762-7355
34466,210249000512,EAST HARDIN MIDDLE SCHOOL,129 COLLEGE ST,GLENDALE,KY,42740,NOT AVAILABLE,(270) 369-7370
35309,210402001140,MCLEAN COUNTY MIDDLE SCHOOL,1901 HWY 136 E,CALHOUN,KY,42327,NOT AVAILABLE,(270) 273-5191
35716,210299000769,JOHNSON TRADITIONAL MIDDLE,2509 WILSON AVE,LOUISVILLE,KY,40210,NOT AVAILABLE,(502) 485-8277
38329,210012000016,ANDERSON COUNTY HIGH SCHOOL,1 BEARCAT DR,LAWRENCEBURG,KY,40342,NOT AVAILABLE,(502) 839-5118
38592,210222002109,BOWLING GREEN TECHNICAL - GLASGOW,129 STATE AVENUE,GLASGOW,KY,42141,NOT AVAILABLE,(270) 651-5673
60442,210186002067,CENTRAL KY TECHNICAL COLLEGE,308 VO-TECH ROAD,LEXINGTON,KY,40511,NOT AVAILABLE,(859) 246-2400
61738,210299000658,ST MATTHEWS ELEMENTARY,601 BROWNS LANE,LOUISVILLE,KY,40207,NOT AVAILABLE,(502) 485-8321
100559,210015000029,POAGE ELEMENTARY SCHOOL,3215 S 29TH ST,ASHLAND,KY,41102,NOT AVAILABLE,(606) 327-2734
102235,210299001935,U OF L PACT PROGRAM,DAVIDSON HALL ROOM 102,LOUISVILLE,KY,40292,NOT AVAILABLE,(502) 485-3280
105049,210519002515,RUSSELLVILLE PRIMARY ACADEMY,1000 NORTH MAIN STREET,RUSSELLVILLE,KY,42276,NOT AVAILABLE,(270) 726-3927
20329,210286002158,MADISONVILLE HEALTH TECHNOLOGY CENTER,750 NORTH LAFFOON STREET,MADISONVILLE,KY,42431,NOT AVAILABLE,(270) 824-7552
24305,210351000924,LIVINGSTON CENTRAL HIGH SCHOOL,750 US 60 W,SMITHLAND,KY,42081,NOT AVAILABLE,(270) 928-2065
91026,210132002218,CORBIN PRIMARY,3551 FIFTH STREET ROAD,CORBIN,KY,40701,NOT AVAILABLE,(606) 523-3638
93370,210087000173,NORTH CALLOWAY ELEMENTARY SCHOOL,2928 BRINN RD,MURRAY,KY,42071,NOT AVAILABLE,(270) 762-7335
95550,210299002399,BROOKLAWN,3121 BROOKLAWN CAMPUS DRIVE,LOUISVILLE,KY,40218,NOT AVAILABLE,(502) 515-0460
95845,210294002390,BARNABUS HOME HIGH SCHOOL,4500 HIGHWAY 30 W,ANNVILLE,KY,40402,NOT AVAILABLE,(606) 364-2111
96052,210012002371,APEX ACADEMY,1 BEARCAT DRIVE,LAWRENCEBURG,KY,40342,NOT AVAILABLE,(502) 839-5118
96649,210028902040,PADUCAH AREA TECHNOLOGY CENTER,500 SOUTH 25TH STREET,PADUCAH,KY,42003,NOT AVAILABLE,(270) 443-6592
96905,210453001125,OLDHAM COUNTY HIGH SCHOOL,1150 N HWY 393,BUCKNER,KY,40010,0187,(502) 222-9461
97162,210252000551,HARLAN ELEMENTARY SCHOOL,420 E CENTRAL ST,HARLAN,KY,40831,NOT AVAILABLE,(606) 573-8715
97864,210468001155,PAINTSVILLE ELEMENTARY SCHOOL,325 2ND ST,PAINTSVILLE,KY,41240,NOT AVAILABLE,(606) 789-2651
98160,210299000727,JEFFERSONTOWN ELEMENTARY,3610 CEDARWOOD WAY,JEFFERSONTOWN,KY,40299,3301,(502) 485-8274
99447,210254000534,CAWOOD ELEMENTARY SCHOOL,51 NOLA ST,CAWOOD,KY,40815,NOT AVAILABLE,(606) 573-2502
42259,210471001157,PARIS ELEMENTARY SCHOOL,1481 S MAIN ST,PARIS,KY,40361,NOT AVAILABLE,(859) 987-2166
43966,210162001985,EDMONSON COUNTY 5/6 CENTER,191 W CENTER ST,BROWNSVILLE,KY,42210,NOT AVAILABLE,(270) 597-3900
44063,210417001050,MIDDLESBORO HIGH SCHOOL,4404 CUMBERLAND AVE,MIDDLESBORO,KY,40965,NOT AVAILABLE,(606) 242-8820
45965,210115000234,CHRISTIAN COUNTY DAY TREATMENT,102 WEST 2ND STREET,HOPKINSVILLE,KY,42240,NOT AVAILABLE,(270) 887-7390
46822,210309002076,NORTHERN KY TECH - EDGEWOOD,790 THOMAS MORE PKWY,EDGEWOOD,KY,41017,NOT AVAILABLE,(859) 341-5200
48475,210299000764,MCFERRAN PREPARATORY ACADEMY,1900 S. 7TH STREET,LOUISVILLE,KY,40208,1606,(502) 485-8297
51617,210348000921,WAYNESBURG ELEMENTARY SCHOOL,345 US HWY 328 W,WAYNESBURG,KY,40489,NOT AVAILABLE,(606) 379-6413
54608,210027002222,BARDSTOWN EARLY CHILDHOOD CENTER,980 TEMPLIN AVE,BARDSTOWN,KY,40004,NOT AVAILABLE,(502) 331-8804
54610,210195002284,HOME INSTRUCTION H.S.,106 NORTH FRONT AVENUE,PETERSBURG,KY,41653,NOT AVAILABLE,(606) 886-2354
54932,210372001678,MADISON COUNTY DAY TREATMENT,300 BELLEVUE DR,RICHMOND,KY,40475,NOT AVAILABLE,(859) 625-6161
56799,210381002073,STAR ACADEMY HIGH SCHOOL,397 HIGH SCHOOL ROAD,BENTON,KY,42025,NOT AVAILABLE,(270) 252-1394
58657,210093000183,CAMPBELLSVILLE HIGH SCHOOL,230 W MAIN ST,CAMPBELLSVILLE,KY,42718,NOT AVAILABLE,(270) 465-8774
59475,210028902138,MAYFIELD/GRAVES COUNTY AREA TECH CENTER,710 DOUTHITT STREET,MAYFIELD,KY,42066,NOT AVAILABLE,(270) 247-4710
12860,210084000166,CALDWELL COUNTY HIGH SCHOOL,350 BECKNER LN,PRINCETON,KY,42445,NOT AVAILABLE,(270) 365-8010
12973,210087000172,EAST CALLOWAY ELEMENTARY SCHOOL,1169 POTTERTOWN RD,MURRAY,KY,42071,NOT AVAILABLE,(270) 762-7325
14398,210051001710,ERPENBECK ELEMENTARY SCHOOL,US 42 9001 WETHERINGTON BLVD,FLORENCE,KY,41042,8801,(859) 384-7200
17169,210030000050,HISEVILLE ELEMENTARY SCHOOL,149 CARDINAL BLVD,GLASGOW,KY,42141,NOT AVAILABLE,(270) 453-2611
40463,210135000275,GLENN O SWING ELEMENTARY,501 W 19TH ST,COVINGTON,KY,41014,NOT AVAILABLE,(859) 292-5821
41651,210186000372,MADELINE M BRECKINRIDGE ELEM SCHOOL,2101 ST. MATHILDA DR.,LEXINGTON,KY,40502,1127,(859) 381-3273
42275,210526001286,SOUTHERN ELEMENTARY SCHOOL,1200 FAIRFAX WAY,GEORGETOWN,KY,40324,NOT AVAILABLE,(502) 863-0772
43808,210299000739,ENGELHARD ELEMENTARY,1004 S FIRST ST,LOUISVILLE,KY,40203,NOT AVAILABLE,(502) 485-8246
45163,210120002397,SHEARER ELEMENTARY SCHOOL,244 EAST BROADWAY,WINCHESTER,KY,40391,NOT AVAILABLE,(859) 744-4978
45875,210480001647,BELFRY ELEMENTARY,170 ST. HWY. 319,BELFRY,KY,41514,NOT AVAILABLE,(606) 353-7296
45971,210474001160,NORTHERN ELEMENTARY SCHOOL,925 HWY 177 E,BUTLER,KY,41006,NOT AVAILABLE,(859) 472-7341
47586,210165000325,MORNINGSIDE ELEMENTARY SCHOOL,313 MORNINGSIDE DR,ELIZABETHTOWN,KY,42701,NOT AVAILABLE,(270) 769-3359
47738,210573001909,BRIARWOOD ELEMENTARY SCHOOL,265 LOVERS LN,BOWLING GREEN,KY,42103,NOT AVAILABLE,(270) 782-5554
47858,210294002375,BARNABUS HOME MIDDLE SCHOOL,4500 HIGHWAY 30 W,ANNVILLE,KY,40402,NOT AVAILABLE,(606) 304-2111
50909,210198002334,FRANKFORT EARLY LEARNING ACADEMY,506 WEST SECOND STREET,FRANKFORT,KY,40601,NOT AVAILABLE,(502) 875-8658
50912,210132002367,CORBIN SCHOOL OF INNOVATION,800 S. KENTUCKY AVENUE,CORBIN,KY,40701,NOT AVAILABLE,(606) 215-2186
55062,210062001923,BOYD CO EARLY CHILDHOOD ACADEMY,12307 MIDLAND TRAIL,ASHLAND,KY,41102,NOT AVAILABLE,(606) 928-7110
56064,210186002433,COVENTRY OAK ELEMENTARY,2441 HUNTLY PLACE,LEXINGTON,KY,40511,4050,(859) 381-3195
56760,210480001202,MULLINS ELEMENTARY SCHOOL,101 TIGER WAY,PIKEVILLE,KY,41501,NOT AVAILABLE,(606) 432-2733
59652,210186000359,CASSIDY ELEMENTARY SCHOOL,1125 TATES CREEK ROAD,LEXINGTON,KY,40502,NOT AVAILABLE,(859) 381-3018
31356,210558002093,TRIGG COUNTY PRIMARY SCHOOL,205 E MAIN ST,CADIZ,KY,42211,NOT AVAILABLE,(270) 522-2220
32877,210115001402,BLUEGRASS LEARNING ACADEMY,4400 LAFAYETTE RD,HOPKINSVILLE,KY,42240,4221,(270) 887-7006
35421,210093000184,CAMPBELLSVILLE MIDDLE SCHOOL,230 WEST MAIN STREET,CAMPBELLSVILLE,KY,42718,NOT AVAILABLE,(270) 465-5121
35909,210555001325,TODD COUNTY CENTRAL HIGH SCHOOL,806 S MAIN ST,ELKTON,KY,42220,NOT AVAILABLE,(270) 265-2506
37541,210507001251,MT. VERNON ELEMENTARY,530 WILLIAMS ST,MOUNT VERNON,KY,40456,NOT AVAILABLE,(606) 256-2953
38905,210299000703,CROSBY MIDDLE,303 GATEHOUSE LANE,MIDDLETOWN,KY,40243,NOT AVAILABLE,(502) 485-8235
2160,210258000556,HARRISON COUNTY MIDDLE SCHOOL,269 EDUCATION DR,CYNTHIANA,KY,41031,4103,(859) 234-7123
24645,210210002113,FULTON COUNTY ELEMENTARY,2750 MOSCOW AVE,HICKMAN,KY,42050,NOT AVAILABLE,(270) 236-3923
27769,210028902172,FOUR RIVERS CAREER ACADEMY,2720 MOSCOW AVE,HICKMAN,KY,42050,NOT AVAILABLE,(270) 236-2517
29157,210028902070,CLAY COUNTY AREA TECHNOLOGY CENTER,1097 NORTH HWY 11,MANCHESTER,KY,40962,NOT AVAILABLE,(606) 598-2194
11245,210286000598,GRAPEVINE ELEMENTARY SCHOOL,1150 HAYES AVE.,MADISONVILLE,KY,42431,NOT AVAILABLE,(270) 825-6012
11403,210141000286,CUMBERLAND COUNTY ELEMENTARY SCHOOL,150 GLASGOW RD,BURKESVILLE,KY,42717,4271,(270) 864-4390
11428,210303000092,ROSENWALD DUNBAR ELEMENTARY SCHOOL,1500 WILMORE RD,NICHOLASVILLE,KY,40356,NOT AVAILABLE,(859) 885-6670
12120,210009000014,ANCHORAGE INDEPENDENT PUBLIC SCHOOL,11400 RIDGE RD,ANCHORAGE,KY,40223,NOT AVAILABLE,(502) 245-2121
13873,210573001926,LIGHTHOUSE ACADEMY,877 JACKSON ST,BOWLING GREEN,KY,42101,NOT AVAILABLE,(270) 782-5410
14484,210276000590,HENRY COUNTY HIGH SCHOOL,1120 EMINENCE RD,NEW CASTLE,KY,40050,NOT AVAILABLE,(502) 845-8670
16430,210570001341,WALTON-VERONA ELEMENTARY SCHOOL,15066 PORTER RD,VERONA,KY,41092,NOT AVAILABLE,(859) 485-4432
18641,210299000678,ROBERT FROST SIXTH-GRADE ACADEMY,4601 VALLEY STATION RD,LOUISVILLE,KY,40272,NOT AVAILABLE,(502) 485-8256
19993,210309001512,RIVER RIDGE ELEMENTARY SCHOOL,2772 AMSTERDAM RD,VILLA HILLS,KY,41017,NOT AVAILABLE,(859) 341-5260
93716,210378001619,WEST MARION ELEMENTARY SCHOOL,8175 LORETTO RD,LORETTO,KY,40037,NOT AVAILABLE,(270) 699-4320
94462,210162000322,KYROCK ELEMENTARY SCHOOL,5720 HWY 259 N,SWEEDEN,KY,42285,NOT AVAILABLE,(270) 286-4013
94524,210465001144,PADUCAH MIDDLE SCHOOL,342 LONE OAK RD,PADUCAH,KY,42001,NOT AVAILABLE,(270) 444-5710
70125,210411001491,MERCER COUNTY DAY TREATMENT,530 PERRYVILLE ROAD,HARRODSBURG,KY,40330,NOT AVAILABLE,(859) 733-7120
70340,210028902156,WAYNE COUNTY AREA TECHNOLOGY CENTER,38 ACADEMIC AVE,MONTICELLO,KY,42633,NOT AVAILABLE,(606) 348-8424
72367,210186000370,LEXINGTON TRAD MAGNET SCHOOL,350 N LIMESTONE ST,LEXINGTON,KY,40508,1871,(859) 381-3192
73555,210396001013,REIDLAND MIDDLE SCHOOL,5351 BENTON RD,PADUCAH,KY,42001,NOT AVAILABLE,(270) 538-4190
73633,210018001968,AUGUSTA INDEPENDENT SCHOOL,207 BRACKEN ST,AUGUSTA,KY,41002,NOT AVAILABLE,(606) 756-2105
75654,210299000742,BRANDEIS ELEMENTARY,2817 WEST KENTUCKY,LOUISVILLE,KY,40211,NOT AVAILABLE,(502) 485-8214
76033,210186001987,ATHENS-CHILESBURG ELEMENTARY,930 JOUETT CREEK DR,LEXINGTON,KY,40509,2430,(859) 381-4955
76942,210075001975,EASTSIDE MIDDLE SCHOOL,6925 HWY 44E,MOUNT WASHINGTON,KY,40047,NOT AVAILABLE,(502) 869-5000
60327,210057000105,BOWLING GREEN HIGH SCHOOL,1801 ROCKINGHAM LANE,BOWLING GREEN,KY,42104,NOT AVAILABLE,(270) 746-2300
62965,210594002260,WILLIAMSTOWN HEAD START PRESCHOOL,300 HELTON ST,WILLIAMSTOWN,KY,41097,NOT AVAILABLE,(859) 824-4174
63659,210516001263,JAMESTOWN ELEMENTARY SCHOOL,342 S. MAIN STREET,JAMESTOWN,KY,42629,NOT AVAILABLE,(270) 343-3966
63840,210258000553,EASTSIDE ELEMENTARY SCHOOL,1226 US HWY 62 E,CYNTHIANA,KY,41031,4103,(859) 234-7121
64233,210549001314,SPENCER COUNTY ELEMENTARY SCHOOL,1265 MT. WASHINGTON RD.,TAYLORSVILLE,KY,40071,NOT AVAILABLE,(502) 477-6950
64664,210186002236,ABLE,701 E. MAIN ST.,LEXINGTON,KY,40502,NOT AVAILABLE,(859) 381-4000
66654,210249001673,BLUEGRASS MIDDLE SCHOOL,170 W A JENKINS RD,ELIZABETHTOWN,KY,42701,NOT AVAILABLE,(270) 765-2658
67900,210115000224,INDIAN HILLS ELEMENTARY SCHOOL,313 BLANE DR,HOPKINSVILLE,KY,42240,NOT AVAILABLE,(270) 887-7230
69782,210573002277,SOUTH WARREN HIGH SCHOOL,8140 NASHVILLE RD,BOWLING GREEN,KY,42104,NOT AVAILABLE,(270) 467-7500
80829,210299001082,JEFFERSON REGIONAL JUVENILE DETENTION CE,8711 LAGRANGE RD BUILDING D,LOUISVILLE,KY,40242,NOT AVAILABLE,(502) 485-7670
81878,210519001274,R E STEVENSON ELEMENTARY SCHOOL,1000 N MAIN ST,RUSSELLVILLE,KY,42276,NOT AVAILABLE,(270) 726-8425
82492,210204000429,JOHNSON ELEMENTARY SCHOOL,1180 N FT THOMAS AVE,FORT THOMAS,KY,41075,NOT AVAILABLE,(859) 441-2444
84184,210372000952,WHITE HALL ELEMENTARY SCHOOL,2166 LEXINGTON RD,RICHMOND,KY,40475,NOT AVAILABLE,(859) 625-6134
84966,210015000022,PAUL G. BLAZER HIGH SCHOOL,1500 BLAZER BLVD,ASHLAND,KY,41102,NOT AVAILABLE,(606) 327-6040
86622,210033001606,BATH COUNTY MIDDLE SCHOOL,335 W MAIN ST,OWINGSVILLE,KY,40360,NOT AVAILABLE,(606) 674-8165
86825,210333000887,STINNETT ELEMENTARY SCHOOL,12975 HWY 421,HOSKINSTON,KY,40844,NOT AVAILABLE,(606) 374-3641
89361,210390000996,MAYFIELD MIDDLE SCHOOL,112 W COLLEGE ST,MAYFIELD,KY,42066,NOT AVAILABLE,(270) 247-7521
89958,210414000729,METCALFE COUNTY MIDDLE SCHOOL,208 RANDOLPH STREET LOT 1,EDMONTON,KY,42129,NOT AVAILABLE,(270) 432-3359
101005,210312000830,CARR CREEK ELEMENTARY SCHOOL,8596 S HWY 160,LITTCARR,KY,41834,NOT AVAILABLE,(606) 642-3833
105043,210402002508,MCLEAN COUNTY ALTERNATIVE CENTER,310 WEST 7TH STREET,CALHOUN,KY,42327,NOT AVAILABLE,(270) 273-5257
105057,210561002475,TRIMBLE COUNTY JR/SR HIGH SCHOOL,1029 HWY 421N,BEDFORD,KY,40006,NOT AVAILABLE,(502) 255-7781
20397,210600000320,NORTHSIDE ELEMENTARY SCHOOL,500 NORTHSIDE DR,MIDWAY,KY,40347,NOT AVAILABLE,(859) 879-4690
27877,210456001127,OWEN COUNTY ELEMENTARY/PRIMARY SCHOOL,1960 HWY 22 E,OWENTON,KY,40359,NOT AVAILABLE,(502) 484-3417
28187,210186000377,SOUTHERN ELEMENTARY SCHOOL,340 WILSON DOWNING RD,LEXINGTON,KY,40517,1431,(859) 381-3589
28727,210480001203,PHELPS ELEMENTARY SCHOOL,11672 PHELPS 632 RD,FREEBURN,KY,41528,NOT AVAILABLE,(606) 456-7716
28728,210588001386,WHITLEY COUNTY HIGH SCHOOL,350 BLVD OF CHAMPIONS,WILLIAMSBURG,KY,40769,NOT AVAILABLE,(606) 549-7025
29944,210186001422,ROSA PARKS ELEMENTARY SCHOOL,1251 BEAUMONT CENTRE LANE,LEXINGTON,KY,40513,NOT AVAILABLE,(859) 381-3132
2678,210286000614,EARLINGTON ELEMENTARY SCHOOL,1967 CHAMPIONSHIP DR,EARLINGTON,KY,42410,NOT AVAILABLE,(270) 825-6154
2782,210105001579,CASEY COUNTY MIDDLE SCHOOL,1673 E KY 70,LIBERTY,KY,42539,4253,(606) 787-6942
4620,210186002435,GARRETT MORGAN ELEMENTARY,1150 PASSAGE MOUND WAY,LEXINGTON,KY,40509,4050,(859) 381-3165
5441,210090001398,ALEXANDRIA EDUCATIONAL CENTER,51 ORCHARD LN,ALEXANDRIA,KY,41001,NOT AVAILABLE,(859) 635-9113
6484,210564002447,UNION COUNTY PRESCHOOL AND HEADSTART,4464 US HWY 60 W,MORGANFIELD,KY,42437,NOT AVAILABLE,(270) 389-3553
7663,210099000189,KATHRYN WINN PRIMARY,907 HAWKINS ST,CARROLLTON,KY,41008,NOT AVAILABLE,(502) 732-7090
8024,210306000801,FLAT GAP ELEMENTARY SCHOOL,1450 KY RT 689,FLATGAP,KY,41219,NOT AVAILABLE,(606) 265-3110
15208,210372002311,FARRISTOWN MIDDLE SCHOOL,751 FARRISTOWN INDUSTRIAL ROAD,BEREA,KY,40403,NOT AVAILABLE,(859) 387-8600
16281,210495000779,OAK HILL ELEMENTARY SCHOOL,1755 WTLO ROAD,SOMERSET,KY,42503,NOT AVAILABLE,(606) 679-2014
18625,210254000549,WALLINS ELEMENTARY SCHOOL,993 HWY 219,WALLINS,KY,40873,NOT AVAILABLE,(606) 664-3444
100675,210336000894,FLEMING NEON MIDDLE SCHOOL,50 SECOND STREET,NEON,KY,41840,NOT AVAILABLE,(606) 855-9042
101840,210477000755,PERRY COUNTY CENTRAL HIGH SCHOOL,305 PARK AVE,HAZARD,KY,41701,NOT AVAILABLE,(606) 439-5888
105022,210144002477,MARY G. HOGSETT PRIMARY SCHOOL,300 WAVELAND AVENUE,DANVILLE,KY,40422,NOT AVAILABLE,(859) 238-1313
105052,210526002483,CREEKSIDE ELEMENTARY,1100 EAST MAIN STREET EXTENDED,GEORGETOWN,KY,40324,4032,(502) 863-3663
51843,210090002198,CROSSROADS ELEMENTARY SCHOOL,475 CROSSROADS BOULEVARD,COLD SPRING,KY,41076,NOT AVAILABLE,(859) 441-9174
52898,210396002419,REIDLAND INTERMEDIATE SCHOOL,5349 BENTON ROAD,PADUCAH,KY,42003,NOT AVAILABLE,(270) 538-4210
55112,210526002432,PHOENIX HORIZON COMMUNITY,1076 CARDINAL LANE,GEORGETOWN,KY,40324,4032,(502) 863-4057
55556,210069001842,BREATHITT COUNTY DAY TREATMENT,2665 HWY 30 W,JACKSON,KY,41339,NOT AVAILABLE,(606) 295-2267
59654,210299000725,KNIGHT MIDDLE,9803 BLUE LICK ROAD,LOUISVILLE,KY,40229,NOT AVAILABLE,(502) 485-8287
59897,210510001260,ROWAN COUNTY SENIOR HIGH SCHOOL,499 VIKING DRIVE,MOREHEAD,KY,40351,1699,(606) 784-8956
82448,210147000309,WEST LOUISVILLE ELEMENTARY SCHOOL,8400 HWY 56,OWENSBORO,KY,42301,NOT AVAILABLE,(270) 852-7650
82950,210294000615,JACKSON COUNTY HIGH SCHOOL,560 EDUCATIONAL MT. DRIVE,MCKEE,KY,40447,NOT AVAILABLE,(606) 287-7155
86065,210192000398,FLEMING COUNTY HIGH SCHOOL,1658 ELIZAVILLE RD,FLEMINGSBURG,KY,41041,NOT AVAILABLE,(606) 845-6601
86293,210576001359,WASHINGTON COUNTY ELEMENTARY SCHOOL,601 LINCOLN PARK RD,SPRINGFIELD,KY,40069,NOT AVAILABLE,(859) 336-5490
91117,210216001672,GARRARD MIDDLE SCHOOL,304 W MAPLE AVE,LANCASTER,KY,40444,NOT AVAILABLE,(859) 792-2108
91543,210228000475,LOWES ELEMENTARY SCHOOL,6775 STATE ROUTE 440,HICKORY,KY,42051,NOT AVAILABLE,(270) 674-4840
91734,210271000577,HENDERSON COUNTY HIGH SCHOOL,2424 ZION RD,HENDERSON,KY,42420,NOT AVAILABLE,(270) 831-8800
92268,210115000223,HOPKINSVILLE HIGH SCHOOL,430 KOFFMAN DR,HOPKINSVILLE,KY,42240,3899,(270) 887-7110
94467,210573000839,RIVENDELL HIGH SCHOOL,1035 PORTER PIKE RD,BOWLING GREEN,KY,42103,NOT AVAILABLE,(270) 843-1199
96356,210299000730,CENTRAL HIGH MAGNET CAREER ACADEMY,1130 WEST CHESTNUT STREET,LOUISVILLE,KY,40203,NOT AVAILABLE,(502) 485-8226
98284,210294000619,SAND GAP ELEMENTARY SCHOOL,6783 HWY 421 N,SANDGAP,KY,40481,NOT AVAILABLE,(606) 965-3171
40229,210309000811,DIXIE HEIGHTS HIGH SCHOOL,3010 DIXIE HWY,FORT MITCHELL,KY,41017,2384,(859) 341-7650
42271,210381000272,CENTRAL ELEMENTARY SCHOOL,115 JIM GOHEEN DRIVE,BENTON,KY,42025,NOT AVAILABLE,(270) 527-0796
43973,210129000907,FREDERICK FRAIZE MIDDLE SCHOOL,301 POPULAR STREET,CLOVERPORT,KY,40111,4011,(270) 788-3388
45356,210153000316,DAYTON HIGH SCHOOL,200 GREENDEVIL LN,DAYTON,KY,41074,NOT AVAILABLE,(859) 292-7486
35530,210228000479,SYMSONIA ELEMENTARY SCHOOL,11730 STATE ROUTE 131,SYMSONIA,KY,42082,NOT AVAILABLE,(270) 674-4860
38863,210309000813,KENTON ELEMENTARY SCHOOL,11246 MADISON PK,INDEPENDENCE,KY,41051,NOT AVAILABLE,(859) 356-3781
39493,210303001640,WEST JESSAMINE HIGH SCHOOL,2101 WILMORE RD,NICHOLASVILLE,KY,40356,NOT AVAILABLE,(859) 887-2421
66590,210186002242,OPPORTUNITY MIDDLE COLLEGE,470 COOPER DRIVE,LEXINGTON,KY,40506,4050,(859) 246-6379
67707,210062000118,CATLETTSBURG ELEMENTARY SCHOOL,3348 COURT ST,CATLETTSBURG,KY,41129,NOT AVAILABLE,(606) 739-5515
68733,210339000908,LAUREL ELEMENTARY SCHOOL,116 LAUREL SCHOOL RD,VANCEBURG,KY,41179,9702,(606) 796-2214
68885,210186002263,FAYETTE PRE-SCHOOL,465 SPRINGHILL DRIVE,LEXINGTON,KY,40503,4050,(859) 381-4040
69004,210573001343,ALVATON ELEMENTARY,6350 OLD SCOTTSVILLE RD.,ALVATON,KY,42122,NOT AVAILABLE,(270) 843-8067
70883,210336000900,COWAN ELEMENTARY SCHOOL,3125 HWY 931 S,WHITESBURG,KY,41858,NOT AVAILABLE,(606) 633-7195
75264,210381001509,MARSHALL COUNTY TECHNICAL CENTER,341 HIGH SCHOOL RD,BENTON,KY,42025,NOT AVAILABLE,(270) 527-8648
76568,210063000120,BOYLE COUNTY HIGH SCHOOL,1637 PERRYVILLE RD,DANVILLE,KY,40422,NOT AVAILABLE,(859) 236-5047
77186,210299001474,THE BROOK-KMI,8521 LAGRANGE RD,LOUISVILLE,KY,40242,NOT AVAILABLE,(502) 814-3722
77729,210015000028,OAKVIEW ELEMENTARY SCHOOL,3111 BLACKBURN AVE,ASHLAND,KY,41101,NOT AVAILABLE,(606) 327-2733
78364,210453001126,OLDHAM COUNTY MIDDLE SCHOOL,4305 BROWN BLVD,BUCKNER,KY,40010,NOT AVAILABLE,(502) 222-1451
79449,210489002360,POWELL COUNTY ACADEMY,642 ROSE WAY,STANTON,KY,40380,NOT AVAILABLE,(606) 663-3505
16863,210299000770,MAUPIN ELEMENTARY,1312 CATALPA STREET,LOUISVILLE,KY,40211,NOT AVAILABLE,(502) 485-8310
17477,210186002272,HOMEBOUND SECONDARY,701 E MAIN ST,LEXINGTON,KY,40502,NOT AVAILABLE,(859) 381-4100
17560,210165002355,VALLEY VIEW EDUCATION CENTER,701 HAWKINS DR,ELIZABETHTOWN,KY,42701,NOT AVAILABLE,(270) 769-2359
19163,210090002157,NORTH CAMPBELL TECH,90 CAMPBELL DRIVE,HIGHLAND HEIGHTS,KY,41076,NOT AVAILABLE,(859) 441-2010
51115,210249000518,JAMES T ALTON MIDDLE SCHOOL,100 COUNTRY CLUB RD,VINE GROVE,KY,40175,NOT AVAILABLE,(270) 877-2135
51844,210186002189,SANDERSVILLE ELEMENTARY,3025 SANDERSVILLE RD,LEXINGTON,KY,40511,4050,(859) 381-4980
55383,210299001943,HOME OF THE INNOCENTS DISCOVERY,1100 EAST MARKET ST,LOUISVILLE,KY,40206,NOT AVAILABLE,(502) 596-1291
56065,210186002438,SAP PROGRAM,1155 RED MILE PLACE,LEXINGTON,KY,40507,NOT AVAILABLE,(859) 246-4305
56875,210354002396,THE ACADEMY,2200 BOWLING GREEN ROAD,RUSSELLVILLE,KY,42276,NOT AVAILABLE,(270) 726-8454
58523,210186000374,MORTON MIDDLE SCHOOL,1225 TATES CREEK PK,LEXINGTON,KY,40502,NOT AVAILABLE,(859) 381-3533
58650,210115002330,CHRISTIAN COUNTY HOME/HOSPITAL,200 GLASS AVENUE,HOPKINSVILLE,KY,42241,NOT AVAILABLE,(270) 887-7000
43502,210201000438,ELKHORN MIDDLE SCHOOL,1060 E MAIN ST,FRANKFORT,KY,40601,NOT AVAILABLE,(502) 695-6740
45783,210120002389,REV. HENRY E. BAKER SR. INTERM. SCHOOL,1645 MARTIN LUTHER KING JR. DR.,WINCHESTER,KY,40391,NOT AVAILABLE,(859) 745-5190
718,210186002325,FAMILY CARE CENTER,1135 HARRY SYKES WAY,LEXINGTON,KY,40504,4050,(859) 288-4040
1558,210007002061,ALLEN COUNTY CAREER AND TECHNICAL CENTER,1585 BOWLING GREEN ROAD,SCOTTSVILLE,KY,42164,NOT AVAILABLE,(270) 622-4711
1579,210486002089,CUMBERLAND VALLEY HEALTH TECH CENTER,US HIGHWAY 25E SOUTH,PINEVILLE,KY,40977,NOT AVAILABLE,(606) 337-3106
3931,210174000339,TICHENOR MIDDLE SCHOOL,305 BARTLETT AVE,ERLANGER,KY,41018,NOT AVAILABLE,(859) 727-2255
4253,210299000773,ROOSEVELT-PERRY ELEMENTARY,1615 WEST BROADWAY,LOUISVILLE,KY,40203,NOT AVAILABLE,(502) 485-8319
7667,210384001902,EDEN ELEMENTARY SCHOOL,179 EDEN LANE,INEZ,KY,41224,NOT AVAILABLE,(606) 298-3475
7933,210299000760,JEFFERSON COUNTY TRADITIONAL MIDDLE,1418 MORTON AVE,LOUISVILLE,KY,40204,NOT AVAILABLE,(502) 485-8272
60063,210429002133,EASTERN KY EDUCATION CENTER,200 ROAD TO JUSTICE,WEST LIBERTY,KY,41472,NOT AVAILABLE,(606) 743-2800
61894,210299000748,HAZELWOOD ELEMENTARY,1325 BLUEGRASS AVENUE,LOUISVILLE,KY,40215,NOT AVAILABLE,(502) 485-8264
62290,210186000367,LAFAYETTE HIGH SCHOOL,401 REED LN,LEXINGTON,KY,40503,NOT AVAILABLE,(859) 381-3474
62545,210299000684,CRUMS LANE ELEMENTARY,3212 S CRUMS LN,LOUISVILLE,KY,40216,NOT AVAILABLE,(502) 485-8236
65424,210008101517,MUHLENBERG SOUTH MIDDLE SCHOOL,200 PRITCHETT DR,GREENVILLE,KY,42345,NOT AVAILABLE,(270) 338-4650
65996,210510001254,CLEARFIELD ELEMENTARY SCHOOL,460 MCBRAYER RD,CLEARFIELD,KY,40313,9794,(606) 784-5792
66659,210135000271,LATONIA ELEMENTARY SCHOOL,39TH & HUNTINGTON AVENUE,COVINGTON,KY,41015,NOT AVAILABLE,(859) 292-5825
66874,210201002165,FRANKFORT CAREER DEVELOPMENT CENTER,1106 E. MAIN ST,FRANKFORT,KY,40602,NOT AVAILABLE,(502) 564-2120
67427,210396001009,LONE OAK ELEMENTARY SCHOOL,301 CUMBERLAND AVE,PADUCAH,KY,42001,NOT AVAILABLE,(270) 538-4120
67957,210007000008,ALLEN COUNTY PRIMARY CENTER,721 NEW GALLATIN RD,SCOTTSVILLE,KY,42164,NOT AVAILABLE,(270) 618-7200
20497,210299000670,WESTPORT MIDDLE,8100 WESTPORT ROAD,LOUISVILLE,KY,40222,NOT AVAILABLE,(502) 485-8346
21895,210030000052,RED CROSS ELEMENTARY SCHOOL,215 PARKVIEW DR,GLASGOW,KY,42141,NOT AVAILABLE,(270) 659-2400
22493,210513001270,RUSSELL-MCDOWELL INTERMEDIATE SCHOOL,1900 LONG STREET,FLATWOODS,KY,41139,NOT AVAILABLE,(606) 836-8186
25876,210254002135,KENTUCKY TECH - HARLAN REGIONAL TECH CTR,164 BALL PARK ROAD,HARLAN,KY,40831,NOT AVAILABLE,(606) 573-1506
26755,210573002045,KY ADVANCED TECH CENTER,1127 MORGANTOWN ROAD,BOWLING GREEN,KY,42101,NOT AVAILABLE,(270) 746-7807
27715,210271000581,SOUTH HEIGHTS ELEMENTARY SCHOOL,1199 MADISON ST,HENDERSON,KY,42420,NOT AVAILABLE,(270) 831-5081
32211,210299000776,SEMPLE ELEMENTARY,724 DENMARK STREET,LOUISVILLE,KY,40215,NOT AVAILABLE,(502) 485-8324
34316,210249000525,WEST HARDIN MIDDLE SCHOOL,10471 LEITCHFIELD RD,CECILIA,KY,42724,NOT AVAILABLE,(270) 862-3924
34803,210007000013,ALLEN COUNTY INTERMEDIATE CENTER,720 OLIVER ST,SCOTTSVILLE,KY,42164,NOT AVAILABLE,(270) 618-8200
36286,210147000301,DEER PARK ELEMENTARY SCHOOL,4959 NEW HARTFORD ROAD,OWENSBORO,KY,42303,NOT AVAILABLE,(270) 852-7270
36549,210135001495,COVINGTON ADULT HIGH SCHOOL,212 LEVASSOR DRIVE,COVINGTON,KY,41014,NOT AVAILABLE,(859) 292-5864
37143,210441001096,NELSON COUNTY HIGH SCHOOL,1070 BLOOMFIELD RD,BARDSTOWN,KY,40004,NOT AVAILABLE,(502) 349-7010
37795,210105000204,CASEY COUNTY HIGH SCHOOL,1841 E KY 70,LIBERTY,KY,42539,6718,(606) 787-6151
91109,210318000854,LARUE COUNTY MIDDLE SCHOOL,911 S LINCOLN BLVD,HODGENVILLE,KY,42748,NOT AVAILABLE,(270) 358-3196
92472,210147000054,AUDUBON ELEMENTARY SCHOOL,300 WORTHINGTON ROAD,OWENSBORO,KY,42301,NOT AVAILABLE,(270) 852-7150
94883,210120002391,WILLIAM G. CONKWRIGHT ELEMENTARY,360 MT. STERLING ROAD,WINCHESTER,KY,40391,NOT AVAILABLE,(859) 745-8900
96497,210444001103,NEWPORT HIGH SCHOOL,900 E 6TH ST,NEWPORT,KY,41071,NOT AVAILABLE,(859) 292-3023
97683,210069000132,SEBASTIAN ELEMENTARY SCHOOL,244 LBJ ROAD,JACKSON,KY,41339,NOT AVAILABLE,(606) 666-8894
70205,210456001539,MAURICE BOWLING MIDDLE SCHOOL,2380 HWY 22 E,OWENTON,KY,40359,NOT AVAILABLE,(502) 484-5701
75252,210246000508,HANCOCK COUNTY MIDDLE SCHOOL,100 STATE RT 271 SOUTH,LEWISPORT,KY,42351,NOT AVAILABLE,(270) 927-6712
78134,210234001526,GREEN COUNTY MIDDLE SCHOOL,106 BRUMMAL AVE,GREENSBURG,KY,42743,NOT AVAILABLE,(270) 932-6615
78968,210162001442,EDMONSON COUNTY HIGH SCHOOL,220 WILDCAT WAY,BROWNSVILLE,KY,42210,NOT AVAILABLE,(270) 597-2151
81656,210186002075,KENTUCKY TECH - CENTRAL CAMPUS,104 VO-TECH ROAD,LEXINGTON,KY,40510,NOT AVAILABLE,(859) 246-2400
87805,210532001292,SHELBY COUNTY HIGH SCHOOL,1701 FRANKFORT RD,SHELBYVILLE,KY,40065,NOT AVAILABLE,(502) 633-2344
88610,210309000815,FT WRIGHT ELEMENTARY SCHOOL,501 FARRELL DR,COVINGTON,KY,41011,NOT AVAILABLE,(859) 331-7742
100119,210201002055,FRANKLIN COUNTY CAREER AND TECHNICAL CTR,1106 E MAIN ST,FRANKFORT,KY,40601,NOT AVAILABLE,(502) 695-6790
105044,210408002496,FRENCHBURG GROUP HOME,202 BACK STREET,FRENCHBURG,KY,40322,NOT AVAILABLE,(606) 768-8002
41705,210264000566,MEMORIAL ELEMENTARY SCHOOL,1400 NORTH JACKSON HIGHWAY,HARDYVILLE,KY,42746,NOT AVAILABLE,(270) 528-2271
42171,210299000674,RANGELAND ELEMENTARY,1701 RANGELAND RD,LOUISVILLE,KY,40219,NOT AVAILABLE,(502) 485-8317
42268,210396001001,CONCORD ELEMENTARY SCHOOL,5184 HINKLEVILLE RD,PADUCAH,KY,42001,NOT AVAILABLE,(270) 538-4050
48477,210573001605,WARREN EAST MIDDLE SCHOOL,7031 LOUISVILLE RD,BOWLING GREEN,KY,42101,NOT AVAILABLE,(270) 843-0181
51819,210054000098,BOURBON COUNTY HIGH SCHOOL,3341 LEXINGTON ROAD,PARIS,KY,40361,NOT AVAILABLE,(859) 987-2185
52234,210028902134,MURRAY/CALLOWAY COUNTY AREA TECH CENTER,126 ROBERTSON RD. NORTH,MURRAY,KY,42071,NOT AVAILABLE,(270) 753-1870
30572,210299000771,PORTLAND ELEMENTARY,3410 NORTHWESTERN PARKWAY,LOUISVILLE,KY,40212,NOT AVAILABLE,(502) 485-8313
34591,210186001584,SQUIRES ELEMENTARY SCHOOL,3337 SQUIRE OAK DR.,LEXINGTON,KY,40515,NOT AVAILABLE,(859) 381-3002
35529,210186000375,NORTHERN ELEMENTARY SCHOOL,340 ROOKWOOD PKWY,LEXINGTON,KY,40505,4050,(859) 381-3541
37057,210123001413,PACES CREEK ELEMENTARY,1983 S HWY 421,MANCHESTER,KY,40962,NOT AVAILABLE,(606) 598-6333
37592,210299000651,FAIRDALE HIGH,1001 FAIRDALE ROAD,FAIRDALE,KY,40118,NOT AVAILABLE,(502) 485-8248
38229,210303001110,WEST JESSAMINE MIDDLE SCHOOL,1400 WILMORE RD,NICHOLASVILLE,KY,40356,NOT AVAILABLE,(859) 885-2244
38448,210258000555,HARRISON COUNTY HIGH SCHOOL,320 WEBSTER AVE,CYNTHIANA,KY,41031,4103,(859) 234-7117
38449,210312000836,JONES FORK ELEMENTARY SCHOOL,9795 HWY 550 E,MOUSIE,KY,41839,NOT AVAILABLE,(606) 946-2132
39384,210480002256,NORTHPOINT ACADEMY,5279 NORTH MAYO TRAIL,PIKEVILLE,KY,41501,NOT AVAILABLE,(606) 433-9254
21029,210135002049,HOLMES HIGH SCHOOL,25TH AND MADISON AVE,COVINGTON,KY,41014,NOT AVAILABLE,(859) 655-9545
22074,210299000745,FOSTER TRADITIONAL ACADEMY,1401 SOUTH 41ST STREET,LOUISVILLE,KY,40211,NOT AVAILABLE,(502) 485-8253
22109,210066001560,BRACKEN COUNTY MIDDLE SCHOOL,167 PARSLEY DRIVE,BROOKSVILLE,KY,41004,NOT AVAILABLE,(606) 735-3425
23728,210429001070,WOODSBEND YOUTH DEVELOPMENT CENTER,163 WOODSBEND BOYS CAMP RD,WEST LIBERTY,KY,41472,NOT AVAILABLE,(606) 743-3177
25055,210299001475,BOYS & GIRLS HAVEN,2301 GOLDSMITH LN,LOUISVILLE,KY,40218,NOT AVAILABLE,(502) 458-1171
26086,210381000971,BENTON ELEMENTARY SCHOOL,208 W 11TH ST,BENTON,KY,42025,NOT AVAILABLE,(270) 527-3373
29328,210348000478,LINCOLN COUNTY MIDDLE SCHOOL,285 EDUCATION WAY,STANFORD,KY,40484,NOT AVAILABLE,(606) 365-8400
61270,210441001937,THE NEW HAVEN SCHOOL,489 HIGH ST,NEW HAVEN,KY,40051,NOT AVAILABLE,(502) 349-7232
62395,210075001973,ZONETON MIDDLE SCHOOL,797 OLD PRESTON HWY N,SHEPHERDSVILLE,KY,40165,NOT AVAILABLE,(502) 869-4400
63080,210186000383,TATES CREEK HIGH SCHOOL,1111 CENTRE PKWY,LEXINGTON,KY,40517,NOT AVAILABLE,(859) 381-3620
64516,210303000797,EAST JESSAMINE MIDDLE SCHOOL,901 UNION MILL RD,NICHOLASVILLE,KY,40356,NOT AVAILABLE,(859) 885-5561
64991,210309000812,R C HINSDALE ELEMENTARY SCHOOL,440 DUDLEY ROAD,EDGEWOOD,KY,41017,NOT AVAILABLE,(859) 341-8226
66147,210081000160,BUTLER COUNTY HIGH SCHOOL,1852 S. MAIN STREET,MORGANTOWN,KY,42261,NOT AVAILABLE,(270) 526-2204
68541,210375001618,HERALD WHITAKER MIDDLE SCHOOL,221 HORNET DR,SALYERSVILLE,KY,41465,NOT AVAILABLE,(606) 349-5190
69275,210477001175,ROBINSON ELEMENTARY SCHOOL,13150 KY HWY 476,ARY,KY,41712,NOT AVAILABLE,(606) 378-7761
90580,210201000435,BONDURANT MIDDLE SCHOOL,BONDURANT DR,FRANKFORT,KY,40601,NOT AVAILABLE,(502) 875-8440
91801,210411002168,MERCER COUNTY SENIOR HIGH SCHOOL,1124 MOBERLY RD,HARRODSBURG,KY,40330,4033,(859) 733-7000
92356,210186000392,CARDINAL VALLEY ELEMENTARY SCHOOL,218 MANDALAY RD,LEXINGTON,KY,40504,1333,(859) 381-3340
94205,210249000519,RADCLIFF ELEMENTARY SCHOOL,1145 S. DIXIE BLVD,RADCLIFF,KY,40160,NOT AVAILABLE,(270) 352-3350
95957,210008101516,GREENVILLE ELEMENTARY SCHOOL,201 E MAIN CROSS,GREENVILLE,KY,42345,NOT AVAILABLE,(270) 338-4830
98886,210453001817,BUCKNER ELEMENTARY SCHOOL,4307 BROWN BLVD.,BUCKNER,KY,40010,NOT AVAILABLE,(502) 222-3712
1570,210306001615,JOHNSON COUNTY ALTERNATIVE SCHOOL,257 NORTH MAYO TRAIL,PAINTSVILLE,KY,41240,NOT AVAILABLE,(606) 789-2077
1706,210051002290,THORNWILDE ELEMENTARY SCHOOL,1760 ELMBURN LN,HEBRON,KY,41048,NOT AVAILABLE,(859) 283-1003
1942,210174000338,MILES ELEMENTARY SCHOOL,208 SUNSET AVE,ERLANGER,KY,41018,NOT AVAILABLE,(859) 727-2231
3572,210057001911,WARREN REGIONAL JUVENILE DETENTION CTR,1020 KENTUCKY ST,BOWLING GREEN,KY,42102,NOT AVAILABLE,(270) 746-7155
6483,210477002453,WEST PERRY ELEMENTARY SCHOOL,72 MISS EDNA LANE,HAZARD,KY,41701,NOT AVAILABLE,(606) 439-6438
6668,210459002305,OWENSBORO MIDDLE SCHOOL,1300 BOOTH AVE,OWENSBORO,KY,42301,NOT AVAILABLE,(270) 686-1130
7664,210123000256,ONEIDA ELEMENTARY SCHOOL,435 NEWFOUND RD,ONEIDA,KY,40972,NOT AVAILABLE,(606) 598-2168
7783,210543001310,SOMERSET HIGH SCHOOL,301 COLLEGE ST,SOMERSET,KY,42501,NOT AVAILABLE,(606) 678-4721
14475,210230000487,GRAYSON COUNTY MIDDLE SCHOOL,726 JOHN HILL TAYLOR DR,LEITCHFIELD,KY,42754,NOT AVAILABLE,(270) 259-4175
16530,210573001164,LOST RIVER ELEMENTARY,450 MODERN WAY,BOWLING GREEN,KY,42101,NOT AVAILABLE,(270) 746-0334
17057,210299000726,CONWAY MIDDLE,6300 TERRY ROAD,LOUISVILLE,KY,40258,NOT AVAILABLE,(502) 485-8233
70196,210102000202,WEST CARTER COUNTY HIGH SCHOOL,365 WEST CARTER DR,OLIVE HILL,KY,41164,NOT AVAILABLE,(606) 286-2481
71833,210459001136,OWENSBORO HIGH SCHOOL,1800 FREDERICA ST,OWENSBORO,KY,42301,NOT AVAILABLE,(270) 686-1110
72159,210471002226,PARIS PRESCHOOL CENTER,1481 S. MAIN ST.,PARIS,KY,40361,NOT AVAILABLE,(859) 987-2166
74986,210582002348,WEBSTER COUNTY MIDDLE SCHOOL,1928 US HWY 41A SOUTH,DIXON,KY,42409,NOT AVAILABLE,(270) 639-9496
78103,210372000950,SILVER CREEK ELEMENTARY SCHOOL,75 OLD US 25 N,BEREA,KY,40403,NOT AVAILABLE,(859) 387-3200
79231,210195000407,BETSY LAYNE ELEMENTARY SCHOOL,256 SCHOOL ST,BETSY LAYNE,KY,41605,NOT AVAILABLE,(606) 263-6272
79672,210186001423,RIDGE HOSPITAL ALT. ELEMENTARY,3050 RIO DOSA DR,LEXINGTON,KY,40509,NOT AVAILABLE,(859) 269-2325
81261,210299000711,LASSITER MIDDLE,8200 CANDLEWORTH DRIVE,LOUISVILLE,KY,40214,NOT AVAILABLE,(502) 485-8288
85243,210132000266,CORBIN HIGH SCHOOL,1901 SNYDER STREET,CORBIN,KY,40701,NOT AVAILABLE,(606) 528-3902
87794,210096000185,CARLISLE COUNTY MIDDLE SCHOOL,4557 STATE RT 1377,BARDWELL,KY,42023,NOT AVAILABLE,(270) 628-3800
89518,210084000170,CALDWELL COUNTY ELEMENTARY SCHOOL,105 EDUCATION DR,PRINCETON,KY,42445,5079,(270) 365-8030
89933,210429001067,MORGAN COUNTY MIDDLE SCHOOL,380 ROAD TO SUCCESS,WEST LIBERTY,KY,41472,NOT AVAILABLE,(606) 743-8102
100030,210195002276,HOME INSTRUCTION ELEMENTARY,106 NORTH FRONT AVENUE,PETERSBURG,KY,41653,NOT AVAILABLE,(606) 886-2354
100960,210030000053,TEMPLE HILL ELEMENTARY SCHOOL,8788 TOMPKINSVILLE RD,GLASGOW,KY,42141,NOT AVAILABLE,(270) 427-2611
105055,210552002501,CENTRAL KENTUCKY CAREER ACADEMY,1100 OLD LEBANON ROAD,CAMPBELLSVILLE,KY,42718,NOT AVAILABLE,(270) 465-5371
105062,210588002497,COLONEL ACADEMY,300 MAIN STREET,WILLIAMSBURG,KY,40769,NOT AVAILABLE,(606) 549-7000
80818,210186002025,FAYETTE REGIONAL JUVENILE DET CTR,3475 SPURR RD,LEXINGTON,KY,40511,NOT AVAILABLE,(859) 246-2806
82579,210315000709,KNOX COUNTY LEARNING ACADEMY,135 WALL ST,BARBOURVILLE,KY,40906,NOT AVAILABLE,(606) 545-5410
82760,210213001609,GALLATIN COUNTY MIDDLE SCHOOL,88 PAW PRINT PATH,WARSAW,KY,41095,NOT AVAILABLE,(859) 567-5860
84209,210372001901,SHANNON JOHNSON ELEMENTARY SCHOOL,109 OAKWOOD DR,BEREA,KY,40403,NOT AVAILABLE,(859) 387-3400
84690,210582001374,WEBSTER COUNTY HIGH SCHOOL,1922 US HWY 41A S,DIXON,KY,42409,NOT AVAILABLE,(270) 639-5092
85013,210299000789,CHURCHILL PARK SCHOOL,435 BOXLEY AVENUE,LOUISVILLE,KY,40209,NOT AVAILABLE,(502) 485-8229
86334,210087000174,SOUTHWEST CALLOWAY ELEMENTARY SCHOOL,3426 WISWELL RD,MURRAY,KY,42071,NOT AVAILABLE,(270) 762-7345
101999,210299000752,JACOB ELEMENTARY,3701 EAST WHEATMORE DRIVE,LOUISVILLE,KY,40215,NOT AVAILABLE,(502) 485-8271
102049,210495001238,NORTHERN ELEMENTARY SCHOOL,6155 HWY 39,SOMERSET,KY,42503,NOT AVAILABLE,(606) 423-1040
105036,210299002499,WESTPORT EARLY CHILDHOOD CENTER,8800 WESTPORT RD,LOUISVILLE,KY,40242,NOT AVAILABLE,(502) 485-8347
20718,210315000848,JESSE D LAY ELEMENTARY SCHOOL,220 N ALLISON AVE,BARBOURVILLE,KY,40906,NOT AVAILABLE,(606) 546-6524
25862,210384000982,INEZ ELEMENTARY SCHOOL,5000 ELEMENTARY DR,INEZ,KY,41224,NOT AVAILABLE,(606) 298-3428
26099,210526001283,SCOTT COUNTY HIGH SCHOOL,1080 CARDINAL DR,GEORGETOWN,KY,40324,NOT AVAILABLE,(502) 863-4131
26753,210450001112,FORDSVILLE ELEMENTARY SCHOOL,359 W MAIN ST,FORDSVILLE,KY,42343,NOT AVAILABLE,(270) 276-3601
27481,210028902088,MASON COUNTY CAREER MAGNET SCHOOL,646 KENTON STATION RD,MAYSVILLE,KY,41056,NOT AVAILABLE,(606) 759-7102
74090,210030001303,COLLEGE STREET CAMPUS,304 E COLLEGE STREET,GLASGOW,KY,42142,NOT AVAILABLE,(270) 629-6554
76717,210348000920,STANFORD ELEMENTARY SCHOOL,101 OLD FORT RD,STANFORD,KY,40484,NOT AVAILABLE,(606) 365-2191
78875,210028902107,BELFRY AREA TECHNOLOGY CENTER,25369 U.S. 119 N.,BELFRY,KY,41514,NOT AVAILABLE,(606) 353-4951
62121,210498001241,RACELAND-WORTHINGTON MIDDLE SCHOOL,502 RAMS BLVD.,RACELAND,KY,41169,NOT AVAILABLE,(606) 836-8014
62453,210381000973,CALVERT CITY ELEMENTARY SCHOOL,563 E 5TH AVENUE,CALVERT CITY,KY,42029,NOT AVAILABLE,(270) 395-4664
62952,210453001818,THE ROBERT L. ARVIN EDUCATION CENTER,1650 COLONELS DR,BUCKNER,KY,40010,NOT AVAILABLE,(502) 222-0131
66193,210186000383,TATES CREEK HIGH SCHOOL,1111 CENTRE PKWY,LEXINGTON,KY,40517,NOT AVAILABLE,(859) 381-3620
66655,210465001571,PADUCAH HEAD START PRESCHOOL,1350 SOUTH 6TH STREET,PADUCAH,KY,42003,NOT AVAILABLE,(270) 444-5780
67135,210299000683,BLUE LICK ELEMENTARY,9801 BLUE LICK ROAD,LOUISVILLE,KY,40229,NOT AVAILABLE,(502) 485-8212
67664,210573001350,RICHARDSVILLE ELEMENTARY,1775 RICHARDSVILLE RD,BOWLING GREEN,KY,42101,NOT AVAILABLE,(270) 777-3232
68125,210048000078,BEREA COMMUNITY HIGH SCHOOL,1 PIRATE PKWY,BEREA,KY,40403,NOT AVAILABLE,(859) 986-4911
68979,210027000044,BARDSTOWN ELEMENTARY SCHOOL,420 N 5TH ST,BARDSTOWN,KY,40004,NOT AVAILABLE,(502) 331-8801
11562,210318000852,HODGENVILLE ELEMENTARY SCHOOL,33 EAGLE LANE,HODGENVILLE,KY,42748,NOT AVAILABLE,(270) 358-3506
12813,210090000941,CAMPBELL COUNTY HIGH SCHOOL,909 CAMEL CROSSING,ALEXANDRIA,KY,41001,NOT AVAILABLE,(859) 635-4161
13307,210465002364,CHOICES EDUCATIONAL CENTER,800 CALDWELL ST,PADUCAH,KY,42003,NOT AVAILABLE,(270) 444-5790
13765,210324002079,LOUISA EAST ELEMENTARY SCHOOL,235 POWHATAN ST,LOUISA,KY,41230,NOT AVAILABLE,(606) 638-4574
13788,210012002086,KENTUCKY TECH - ANDERSON COUNTY TECH CTR,1500 BYPASS NORTH US 127,LAWRENCEBURG,KY,40342,NOT AVAILABLE,(502) 839-9465
14170,210495001573,NORTHERN MIDDLE SCHOOL,650 OAK LEAF LANE,SOMERSET,KY,42503,NOT AVAILABLE,(606) 678-5230
16394,210028902152,SHELBY COUNTY AREA TECHNOLOGY CENTER,230 ROCKET LANE,SHELBYVILLE,KY,40065,NOT AVAILABLE,(502) 633-6554
30166,210230001702,ORAN P LAWLER ELEMENTARY SCHOOL,100 CHARLIE CRAIN LANE,LEITCHFIELD,KY,42754,NOT AVAILABLE,(270) 259-9322
30499,210348000916,HUSTONVILLE ELEMENTARY SCHOOL,93 N COLLEGE ST,HUSTONVILLE,KY,40437,NOT AVAILABLE,(606) 346-3831
31029,210186000361,DIXIE ELEMENTARY MAGNET SCHOOL,1940 EASTLAND PKWY,LEXINGTON,KY,40505,NOT AVAILABLE,(859) 381-3116
32011,210378000970,MARION COUNTY HIGH SCHOOL,735 EAST MAIN STREET,LEBANON,KY,40033,NOT AVAILABLE,(270) 692-6066
33150,210299000680,SMYRNA ELEMENTARY SCHOOL,6401 OUTER LOOP,LOUISVILLE,KY,40228,NOT AVAILABLE,(502) 485-8329
34388,210051000080,RECTOR A. JONES MIDDLE SCHOOL,8000 SPRUCE DR,FLORENCE,KY,41042,NOT AVAILABLE,(859) 282-4610
34590,210186000362,GARDEN SPRINGS ELEMENTARY SCHOOL,2151 GARDEN SPRINGS DR,LEXINGTON,KY,40504,3459,(859) 381-3388
36775,210075001974,SHEPHERDSVILLE ELEMENTARY,527 W BLUE LICK RD,SHEPHERDSVILLE,KY,40165,NOT AVAILABLE,(502) 869-7000
36832,210230002381,GRAYSON COUNTY AREA VOCATIONAL ED CENTER,252 SCHOOLHOUSE RD,LEITCHFIELD,KY,42754,NOT AVAILABLE,(270) 259-3195
39847,210299001633,ST JOSEPH CHILDREN'S HOME,2823 FRANKFORT AVE,LOUISVILLE,KY,40206,NOT AVAILABLE,(502) 893-0241
40084,210271000571,BEND GATE ELEMENTARY SCHOOL,920 BEND GATE RD,HENDERSON,KY,42420,NOT AVAILABLE,(270) 831-5040
42262,210186000387,MEADOWTHORPE ELEMENTARY SCHOOL,1710 N. FORBES RD,LEXINGTON,KY,40511,NOT AVAILABLE,(859) 381-3521
43837,210299000697,LUHR ELEMENTARY,6900 FEGENBUSH LANE,LOUISVILLE,KY,40228,NOT AVAILABLE,(502) 485-8295
48197,210246000511,SOUTH HANCOCK ELEMENTARY SCHOOL,8631 STATE RT 69,HAWESVILLE,KY,42348,NOT AVAILABLE,(270) 927-6762
49647,210249002373,EARLY COLLEGE AND CAREER CENTER,200 UNIVERSITY DRIVE,ELIZABETHTOWN,KY,42701,NOT AVAILABLE,(270) 769-7930
51256,210441001095,OLD KENTUCKY HOME MIDDLE SCHOOL,301 WILDCAT LN,BARDSTOWN,KY,40004,NOT AVAILABLE,(502) 349-7040
55059,210003001913,ADAIR LEARNING ACADEMY,401 APPLEBY DR,COLUMBIA,KY,42728,NOT AVAILABLE,(270) 384-0811
55070,210028902147,MARTIN COUNTY AREA TECHNOLOGY CENTER,7900 HWY 645,INEZ,KY,41224,NOT AVAILABLE,(606) 298-3879
56619,210147000969,HERITAGE PARK HIGH SCHOOL,3361 BUCKLAND SQUARE,OWENSBORO,KY,42301,NOT AVAILABLE,(270) 852-7200
59213,210402001023,CALHOUN ELEMENTARY SCHOOL,755 MAIN ST,CALHOUN,KY,42327,NOT AVAILABLE,(270) 273-3264
1308,210453001597,CAMDEN STATION ELEMENTARY SCHOOL,6401 W HWY 146,CRESTWOOD,KY,40014,NOT AVAILABLE,(502) 241-1271
3462,210299002190,RAMSEY MIDDLE,6409 GELHAUS LANE,LOUISVILLE,KY,40299,NOT AVAILABLE,(502) 485-8391
7666,210384000988,WARFIELD ELEMENTARY SCHOOL,33 WARFIELD ELEMENTARY LOOP,WARFIELD,KY,41267,NOT AVAILABLE,(606) 395-5121
92228,210147000310,WHITESVILLE ELEMENTARY SCHOOL,9656 KY 54,WHITESVILLE,KY,42378,NOT AVAILABLE,(270) 852-7670
93962,210051002266,RISE ACADEMY,99 CENTER DR.,FLORENCE,KY,41042,NOT AVAILABLE,(859) 283-1003
94461,210299000751,COCHRAN ELEMENTARY,500 WEST GAULBERT AVE,LOUISVILLE,KY,40208,NOT AVAILABLE,(502) 485-8230
94640,210381000978,SHARPE ELEMENTARY SCHOOL,8400 US HWY 68 W,BENTON,KY,42025,NOT AVAILABLE,(270) 898-2852
96646,210028902174,KNOTT COUNTY AREA TECHNOLOGY CENTER,1996 HIGHWAY 160 SOUTH,HINDMAN,KY,41822,NOT AVAILABLE,(606) 785-5350
98997,210459002125,KENTUCKY TECH - OWENSBORO CAMPUS,1501 FREDERICA STREET,OWENSBORO,KY,42301,NOT AVAILABLE,(270) 687-7255
945,210573002410,BEACON ACADEMY,1022 WEST MAIN STREET,BOWLING GREEN,KY,42101,4210,(270) 781-5150
1575,210425002317,THE STERLING SCHOOL,724 WOODFORD DRIVE,MOUNT STERLING,KY,40353,NOT AVAILABLE,(859) 497-8761
1691,210507000782,ROCKCASTLE COUNTY MIDDLE SCHOOL,945 W MAIN ST,MOUNT VERNON,KY,40456,NOT AVAILABLE,(606) 256-5118
9105,210450001120,WESTERN ELEMENTARY SCHOOL,4008 ST RT 85 E,CENTERTOWN,KY,42328,NOT AVAILABLE,(270) 274-7643
9928,210008101514,CENTRAL CITY ELEMENTARY,1501 N 2ND ST,CENTRAL CITY,KY,42330,NOT AVAILABLE,(270) 754-4474
40165,210477002387,PERRY COUNTY ALTERNATIVE SCHOOL,72 EDNA LANE,HAZARD,KY,41701,NOT AVAILABLE,(606) 436-4932
40502,210576001358,WASHINGTON COUNTY HIGH SCHOOL,300 WEST US 150 BYPASS,SPRINGFIELD,KY,40069,NOT AVAILABLE,(859) 336-5475
42258,210051000088,NEW HAVEN ELEMENTARY SCHOOL,10854 US 42,UNION,KY,41091,NOT AVAILABLE,(859) 384-5325
42264,210299000647,HAWTHORNE ELEMENTARY,2301 CLARENDON AVE,LOUISVILLE,KY,40205,NOT AVAILABLE,(502) 485-8263
42269,210396001011,REIDLAND ELEMENTARY SCHOOL,5741 BENTON RD,PADUCAH,KY,42003,NOT AVAILABLE,(270) 538-4180
43989,210008101081,MUHLENBERG NORTH MIDDLE,1000 N MAIN ST,GREENVILLE,KY,42345,NOT AVAILABLE,(270) 338-3550
49397,210115001938,GATEWAY ACADEMY TO INNOVATION & TECH.,705 N ELM ST,HOPKINSVILLE,KY,42240,NOT AVAILABLE,(270) 887-7030
70502,210540001300,FRANKLIN-SIMPSON MIDDLE SCHOOL,322 S COLLEGE ST,FRANKLIN,KY,42134,NOT AVAILABLE,(270) 586-4401
71012,210051000082,BURLINGTON ELEMENTARY SCHOOL,5946 ORIENT ST,BURLINGTON,KY,41005,NOT AVAILABLE,(859) 334-4440
72815,210299000783,COLERIDGE-TAYLOR MONTESSORI ELEMENTARY,1115 W CHESTNUT ST,LOUISVILLE,KY,40203,NOT AVAILABLE,(502) 485-8232
76719,210372000948,KIT CARSON ELEMENTARY SCHOOL,450 TATES CREEK RD,RICHMOND,KY,40475,NOT AVAILABLE,(859) 625-6103
51613,210051001695,STEPHENS ELEMENTARY SCHOOL,5687 HWY 237,BURLINGTON,KY,41005,NOT AVAILABLE,(859) 334-4460
57596,210480002444,PIKE COUNTY DAY TREATMENT,5279 NORTH MAYO TRAIL,PIKEVILLE,KY,41501,NOT AVAILABLE,(606) 433-9250
58252,210299000754,MEYZEEK MIDDLE,828 SOUTH JACKSON STREET,LOUISVILLE,KY,40203,NOT AVAILABLE,(502) 485-8299
58942,210003001919,ADAIR COUNTY MIDDLE SCHOOL,322 GENERAL JOHN ADAIR DR,COLUMBIA,KY,42728,NOT AVAILABLE,(270) 384-5308
80241,210066000125,BRACKEN COUNTY HIGH SCHOOL,350 W MIAMI ST,BROOKSVILLE,KY,41004,NOT AVAILABLE,(606) 735-3153
80271,210186001424,RIDGE HOSPITAL ALT. HIGH SCHOOL,3050 RIO DOSA DR,LEXINGTON,KY,40509,NOT AVAILABLE,(859) 269-2325
80347,210057000103,POTTER GRAY ELEMENTARY,610 WAKEFIELD DR.,BOWLING GREEN,KY,42103,1599,(270) 746-2280
82245,210354001546,OLMSTEAD ELEMENTARY SCHOOL,1170 OLMSTEAD RD,OLMSTEAD,KY,42265,NOT AVAILABLE,(270) 726-3811
85123,210299000667,SENECA HIGH,3510 GOLDSMITH LANE,LOUISVILLE,KY,40220,NOT AVAILABLE,(502) 485-8323
85209,210453001953,NORTH OLDHAM HIGH SCHOOL,1815 S HWY 1793,GOSHEN,KY,40026,NOT AVAILABLE,(502) 228-0158
86230,210564001872,UNION COUNTY LEARNING ACADEMY,4464 US HWY 60W,MORGANFIELD,KY,42437,NOT AVAILABLE,(270) 389-3553
87594,210028902057,CALDWELL COUNTY AREA TECHNOLOGY CENTER,130 VOCATIONAL SCHOOL RD,PRINCETON,KY,42445,NOT AVAILABLE,(270) 365-5563
11144,210378002328,HUGH C. SPALDING ACADEMY,721 E. MAIN ST.,LEBANON,KY,40033,NOT AVAILABLE,(270) 692-0690
11470,210510001258,MOREHEAD YOUTH DEVELOPMENT CENTER,495 FOREST HILLS DRIVE,MOREHEAD,KY,40351,NOT AVAILABLE,(606) 783-8575
12404,210186000364,HENRY CLAY HIGH SCHOOL,2100 FONTAINE RD,LEXINGTON,KY,40502,NOT AVAILABLE,(859) 381-3423
12814,210105001981,JONES PARK ELEMENTARY,6295 EAST KY 70,LIBERTY,KY,42539,4253,(606) 787-6942
19858,210254000545,ROSSPOINT ELEMENTARY SCHOOL,132 HWY 522,BAXTER,KY,40806,NOT AVAILABLE,(606) 573-4600
19859,210372001485,MODEL LABORATORY ELEMENTARY SCHOOL,521 LANCASTER AVE,RICHMOND,KY,40475,NOT AVAILABLE,(859) 622-3766
92569,210096000187,CARLISLE COUNTY ELEMENTARY SCHOOL,4557 STATE RT 1377,BARDWELL,KY,42023,NOT AVAILABLE,(270) 628-3800
93709,210286000474,SOUTHSIDE ELEMENTARY SCHOOL,9220 HOPKINSVILLE RD,NORTONVILLE,KY,42442,NOT AVAILABLE,(270) 825-6143
94466,210532001295,CLEAR CREEK ELEMENTARY,279 CHAPEL HILL RD,SHELBYVILLE,KY,40065,NOT AVAILABLE,(502) 633-3452
94700,210240000499,MCKELL ELEMENTARY SCHOOL,28978 US 23 HWY,SOUTH SHORE,KY,41175,NOT AVAILABLE,(606) 932-3383
94736,210135000276,SIXTH DISTRICT ELEMENTARY SCHOOL,19TH AND MARYLAND,COVINGTON,KY,41014,NOT AVAILABLE,(859) 292-5819
94811,210132001982,CORBIN PRESCHOOL,614 MASTER STREET,CORBIN,KY,40701,NOT AVAILABLE,(606) 523-3612
99189,210315001997,KNOX APPALACHIAN SCHOOL,1909 KY HWY 3439,BARBOURVILLE,KY,40906,NOT AVAILABLE,(606) 546-2568
99665,210450002353,OHIO COUNTY ALTERNATIVE LEARNING PROGRAM,100 W RENDER ST,HARTFORD,KY,42347,NOT AVAILABLE,(270) 298-9092
61892,210102000199,PRICHARD ELEMENTARY SCHOOL,401 E MAIN ST,GRAYSON,KY,41143,NOT AVAILABLE,(606) 474-8815
62303,210195000406,BETSY LAYNE HIGH SCHOOL,554 BOBCAT BLVD,STANVILLE,KY,41659,NOT AVAILABLE,(606) 263-6280
63219,210489001218,POWELL COUNTY MIDDLE SCHOOL,770 W COLLEGE AVE,STANTON,KY,40380,NOT AVAILABLE,(606) 663-3308
69964,210299002063,CENTER AT RIVERPORT,7401 RIVERPORT DRIVE,LOUISVILLE,KY,40258,NOT AVAILABLE,(502) 485-6389
20705,210234000490,GREEN COUNTY HIGH SCHOOL,302 BRUMMAL AVE,GREENSBURG,KY,42743,0227,(270) 932-6610
21356,210299001612,GEORGIA CHAFFEE TEENAGE PARENT PROGRAM,1010 NEIGHBORHOOD PL,FAIRDALE,KY,40118,NOT AVAILABLE,(502) 485-8748
22950,210405001033,FLAHERTY ELEMENTARY SCHOOL,2615 FLAHERTY RD,EKRON,KY,40117,8628,(270) 422-7565
23231,210372000949,MADISON CENTRAL HIGH SCHOOL,705 N 2ND ST,RICHMOND,KY,40475,NOT AVAILABLE,(859) 625-6109
27771,210028902170,GREENUP COUNTY AREA TECHNOLOGY CENTER,146 MUSKETEER DRIVE,GREENUP,KY,41144,NOT AVAILABLE,(606) 473-9344
32719,210063001713,BOYLE COUNTY DAY TREATMENT,1637 PERRYVILLE ROAD,DANVILLE,KY,40422,NOT AVAILABLE,(859) 583-1732
34626,210147000301,DEER PARK ELEMENTARY SCHOOL,4959 NEW HARTFORD ROAD,OWENSBORO,KY,42303,NOT AVAILABLE,(270) 852-7270
35422,210564001338,UNION COUNTY HIGH SCHOOL,4464 US HWY 60W,MORGANFIELD,KY,42437,NOT AVAILABLE,(270) 389-1454
35757,210096000186,CARLISLE COUNTY HIGH SCHOOL,4557 STATE ROUTE 1377,BARDWELL,KY,42023,NOT AVAILABLE,(270) 628-3800
36383,210165000326,TALTON K STONE MIDDLE SCHOOL,323 MORNINGSIDE DR,ELIZABETHTOWN,KY,42701,NOT AVAILABLE,(270) 769-6343
36400,210579001365,WALKER EARLY LEARNING CENTER,1080 SOUTH MAIN STREET,MONTICELLO,KY,42633,NOT AVAILABLE,(606) 348-4251
36961,210012001955,ROBERT B. TURNER ELEMENTARY SCHOOL,1411 FOX CREEK ROAD,LAWRENCEBURG,KY,40342,NOT AVAILABLE,(502) 839-2500
38447,210186000388,BRYAN STATION HIGH SCHOOL,201 EASTIN RD,LEXINGTON,KY,40505,2010,(859) 381-3308
39516,210299000675,DIXIE ELEMENTARY,10201 CASALANDA DR,LOUISVILLE,KY,40272,NOT AVAILABLE,(502) 485-8238
105016,210028902485,IGNITE INSTITUTE,37 ATLANTIC AVENUE,ERLANGER,KY,41018,NOT AVAILABLE,(859) 817-3570
105046,210453002503,CREATIVE AND PERFORMING ARTS,7105 FLOYDSBURG RD,CRESTWOOD,KY,40014,NOT AVAILABLE,(502) 241-6018
52897,210309002420,SUMMIT VIEW ACADEMY,5006 MADISON PIKE,INDEPENDENCE,KY,41051,NOT AVAILABLE,(859) 359-9600
55076,210294000617,MCKEE ELEMENTARY SCHOOL,1005 HWY. 89 N,MCKEE,KY,40447,NOT AVAILABLE,(606) 287-7157
40422,210495002065,MEMORIAL EDUCATION CENTER,222 LANGDON ST,SOMERSET,KY,42501,NOT AVAILABLE,(606) 678-4100
42257,210062000030,PONDEROSA ELEMENTARY SCHOOL,16701 PONDEROSA DR,CATLETTSBURG,KY,41129,NOT AVAILABLE,(606) 928-2330
42277,210573001351,ROCKFIELD ELEMENTARY,7597 RUSSELLVILLE RD,BOWLING GREEN,KY,42101,NOT AVAILABLE,(270) 843-8437
46028,210008101081,MUHLENBERG NORTH MIDDLE,1000 N MAIN ST,GREENVILLE,KY,42345,NOT AVAILABLE,(270) 338-3550
47301,210299000660,WILKERSON ELEMENTARY SCHOOL,5601 JOHNSONTOWN ROAD,LOUISVILLE,KY,40272,NOT AVAILABLE,(502) 485-8351
48489,210054000024,CANE RIDGE ELEMENTARY SCHOOL,8000 BYPASS ROAD,PARIS,KY,40361,NOT AVAILABLE,(859) 987-2106
81471,210354001545,LEWISBURG ELEMENTARY SCHOOL,750 STACKER ST,LEWISBURG,KY,42256,NOT AVAILABLE,(270) 755-4823
84035,210033002335,SECOND CHANCE ACADEMY,335 WEST MAIN STREET,OWINGSVILLE,KY,40360,NOT AVAILABLE,(606) 674-8165
84482,210230000484,CANEYVILLE ELEMENTARY SCHOOL,521 EAST MAPLE ST.,CANEYVILLE,KY,42721,NOT AVAILABLE,(270) 879-4211
88937,210438001085,MURRAY MIDDLE SCHOOL,801 MAIN ST,MURRAY,KY,42071,NOT AVAILABLE,(270) 753-5125
70894,210186000363,HARRISON ELEMENTARY SCHOOL,161 BRUCE ST,LEXINGTON,KY,40507,1243,(859) 381-3418
71037,210174002313,BARTLETT EDUCATIONAL CENTER,305 BARTLETT AVE,ERLANGER,KY,41018,NOT AVAILABLE,(859) 342-2460
74494,210192000399,FLEMINGSBURG ELEMENTARY SCHOOL,245 W WATER ST,FLEMINGSBURG,KY,41041,NOT AVAILABLE,(606) 845-9871
76593,210069000129,BREATHITT COUNTY HIGH SCHOOL,2307 BOBCAT LANE,JACKSON,KY,41339,NOT AVAILABLE,(606) 666-7511
77603,210126002228,CLINTON COUNTY EARLY CHILDHOOD CENTER,204 KING DRIVE,ALBANY,KY,42602,NOT AVAILABLE,(606) 387-4283
91280,210450002361,OHIO COUNTY DAY TREATMENT,100 W RENDER ST,HARTFORD,KY,42347,NOT AVAILABLE,(270) 298-9092
92168,210186001480,AUDREY GREVIOUS CENTER,1177 HARRY SYKES WAY,LEXINGTON,KY,40504,NOT AVAILABLE,(859) 246-4370
95425,210286001472,WEST HOPKINS SCHOOL,2695 RABBIT RIDGE RD,NEBO,KY,42441,NOT AVAILABLE,(270) 825-6130
97448,210252002046,SUNSHINE SCHOOL,304 SURGENER ST,HARLAN,KY,40831,NOT AVAILABLE,(606) 573-8714
60112,210228001490,GRAVES COUNTY HIGH SCHOOL,1220 EAGLES WAY,MAYFIELD,KY,42066,NOT AVAILABLE,(270) 328-6242
60573,210039000072,RIGHT FORK SCHOOL CENTER,5296 HWY. 221,STONEY FORK,KY,40988,NOT AVAILABLE,(606) 337-3271
60651,210249001471,WOODLAND ELEMENTARY SCHOOL,6000 S WOODLAND DR,RADCLIFF,KY,40160,NOT AVAILABLE,(270) 352-5828
61883,210003001919,ADAIR COUNTY MIDDLE SCHOOL,322 GENERAL JOHN ADAIR DR,COLUMBIA,KY,42728,NOT AVAILABLE,(270) 384-5308
63843,210299000716,LAUKHUF ELEMENTARY,5100 CAPEWOOD DR,LOUISVILLE,KY,40229,NOT AVAILABLE,(502) 485-8289
66789,210195000415,JOHN M. STUMBO ELEMENTARY SCHOOL,6945 KY RT 979,GRETHEL,KY,41631,NOT AVAILABLE,(606) 263-6200
33990,210387001460,CHARLES STRAUB ELEMENTARY SCHOOL,387 CHENAULT DR,MAYSVILLE,KY,41056,NOT AVAILABLE,(606) 564-9047
35717,210299001492,MARY JO AND WILLIAM MACDONALD MARYHURST,1015 DORSEY LN,LOUISVILLE,KY,40223,NOT AVAILABLE,(502) 271-4577
36674,210321000215,NORTH LAUREL HIGH SCHOOL,1300 EAST HAL ROGERS PARKWAY,LONDON,KY,40741,NOT AVAILABLE,(606) 862-4699
39803,210276000589,EASTERN ELEMENTARY SCHOOL,6928 BETHLEHEM RD,PLEASUREVILLE,KY,40057,NOT AVAILABLE,(502) 845-8640
105012,210015002487,ASHLAND VIRTUAL LEARNING CENTER,2208 DINIACO DRIVE,ASHLAND,KY,41101,NOT AVAILABLE,(606) 327-2797
105035,210294002461,JACKSON CO SCHOOLS LEARNING CENTER,3331 HIGHWAY 421 SOUTH,MC KEE,KY,40447,NOT AVAILABLE,(606) 287-7181
105041,210372002484,BELLEVUE TRANSITIONAL SCHOOL,300 BELLEVUE DR.,RICHMOND,KY,40475,NOT AVAILABLE,(859) 625-6161
105047,210513002514,RUSSELL INDEPENDENT ALTERNATIVE SCHOOL,705 RED DEVIL LANE,RUSSELL,KY,41169,NOT AVAILABLE,(606) 836-1256
21245,210008102081,GREEN RIVER EDUCATION CENTER,1200 RIVER RD,CENTRAL CITY,KY,42330,NOT AVAILABLE,(270) 754-5415
24562,210299001587,SCHAFFNER TRADITIONAL ELEMENTARY,2701 CRUMS LANE,LOUISVILLE,KY,40216,NOT AVAILABLE,(502) 485-8217
26105,210299001705,LOUISVILLE MALE HIGH,4409 PRESTON HIGHWAY,LOUISVILLE,KY,40213,NOT AVAILABLE,(502) 485-8292
27781,210028902095,WEBSTER COUNTY AREA TECHNOLOGY CENTER,325 STATE RT. 1340,DIXON,KY,42409,NOT AVAILABLE,(270) 639-5035
28186,210051000081,BOONE COUNTY HIGH SCHOOL,7056 BURLINGTON PK,FLORENCE,KY,41042,NOT AVAILABLE,(859) 282-5655
29162,210028902095,WEBSTER COUNTY AREA TECHNOLOGY CENTER,325 STATE RT. 1340,DIXON,KY,42409,NOT AVAILABLE,(270) 639-5035
29945,210299000635,OKOLONA ELEMENTARY,7606 PRESTON HIGHWAY,LOUISVILLE,KY,40219,NOT AVAILABLE,(502) 485-8309
14092,210299000630,GREENWOOD ELEMENTARY,5801 GREENWOOD ROAD,LOUISVILLE,KY,40258,NOT AVAILABLE,(502) 485-8260
17059,210532001294,SHELBY COUNTY EAST MIDDLE SCHOOL,600 ROCKET LANE,SHELBYVILLE,KY,40065,NOT AVAILABLE,(502) 633-1478
18626,210321000858,SOUTH LAUREL MIDDLE SCHOOL,223 S LAUREL RD,LONDON,KY,40744,NOT AVAILABLE,(606) 862-4745
1559,210063002041,NORTH POINT EDUCATION CENTER,WALTER REED RD,BURGIN,KY,40310,NOT AVAILABLE,(859) 239-7012
1560,210294000620,TYNER ELEMENTARY SCHOOL,1340 HWY 30 W,TYNER,KY,40486,NOT AVAILABLE,(606) 364-5105
1564,210195001004,RENAISSANCE LEARNING CENTER,145 RANDY CAUDILL LOOP,MARTIN,KY,41649,NOT AVAILABLE,(606) 285-3634
1580,210453002119,LUTHER LUCKETT EDUCATION CENTER,BOX 6 DAWKINS ROAD,LA GRANGE,KY,40031,NOT AVAILABLE,(502) 222-0365
7239,210299001965,BRECKINRIDGE METROPOLITAN HIGH,1128 EAST BROADWAY ST,LOUISVILLE,KY,40204,NOT AVAILABLE,(502) 485-6678
9081,210147000297,DAVIESS COUNTY HIGH SCHOOL,4255 NEW HARTFORD ROAD,OWENSBORO,KY,42303,NOT AVAILABLE,(270) 852-7300
60239,210299002394,BELLEWOOD,11103 PARK ROAD,LOUISVILLE,KY,40223,NOT AVAILABLE,(502) 753-5500
60686,210573002298,SOUTH WARREN MIDDLE SCHOOL,295 RICH POND ROAD,BOWLING GREEN,KY,42104,NOT AVAILABLE,(270) 467-7510
60779,210141001561,CUMBERLAND COUNTY MIDDLE SCHOOL,908 N MAIN ST,BURKESVILLE,KY,42717,NOT AVAILABLE,(270) 864-5818
62446,210299000639,VALLEY HIGH,10200 DIXIE HIGHWAY,LOUISVILLE,KY,40272,NOT AVAILABLE,(502) 485-8339
63342,210453002196,LOCUST GROVE ELEMENTARY SCHOOL,1231 E HWY 22,CRESTWOOD,KY,40014,NOT AVAILABLE,(502) 222-3521
105014,210028902478,DELTA ACADEMY,960 CENTER STREET,BEATTYVILLE,KY,41311,NOT AVAILABLE,(606) 464-5018
105017,210062002466,BOYD COUNTY CENTRAL SCHOOL,2901 WEST PIGEON ROOST ROAD,RUSH,KY,41168,NOT AVAILABLE,(606) 928-5801
105031,210186002513,RISE STEM ACADEMY FOR GIRLS,2420 SPURR RD,LEXINGTON,KY,40511,NOT AVAILABLE,(859) 381-4100
72591,210477002354,EAST PERRY COUNTY ELEMENTARY SCHOOL,301 PERRY CIRCLE RD,HAZARD,KY,41701,NOT AVAILABLE,(606) 436-3423
75250,210102001884,HERITAGE ELEMENTARY SCHOOL,4863 S STATE HWY 1,GRAYSON,KY,41143,NOT AVAILABLE,(606) 474-5784
75571,210249000515,LINCOLN TRAIL ELEMENTARY SCHOOL,3154 BARDSTOWN RD,ELIZABETHTOWN,KY,42701,NOT AVAILABLE,(270) 737-7227
76342,210115001912,CUMBERLAND HALL SCHOOL,270 WALTON WAY,HOPKINSVILLE,KY,42240,NOT AVAILABLE,(270) 889-2177
78233,210336002344,LETCHER COUNTY ALTERNATIVE EDUCATION CTR,185 CIRCLE DR,WHITESBURG,KY,41858,NOT AVAILABLE,(606) 633-5559
79731,210028902091,TRAILBLAZER ACADEMY,661 TAPP RD,HARRODSBURG,KY,40330,NOT AVAILABLE,(859) 734-9329
10481,210075002169,SPRING MEADOWS,310 HOPE ST,MT WASHINGTON,KY,40047,NOT AVAILABLE,(502) 538-1200
11232,210540001435,SIMPSON ELEMENTARY SCHOOL,721 WITT RD,FRANKLIN,KY,42134,NOT AVAILABLE,(270) 586-4414
11732,210102000198,OLIVE HILL ELEMENTARY SCHOOL,825 E TOM T HALL BLVD,OLIVE HILL,KY,41164,NOT AVAILABLE,(606) 286-5385
12148,210299000682,THOMAS JEFFERSON MIDDLE,1501 RANGELAND ROAD,LOUISVILLE,KY,40219,NOT AVAILABLE,(502) 485-8273
14396,210228001924,GATEWAY ACADEMY HIGH SCHOOL,1211 EAGLES WAY,MAYFIELD,KY,42066,NOT AVAILABLE,(270) 328-4979
41,210286002425,HOPKINS CO CAREER & TECHNOLOGY CENTER,1775 PATRIOT DRIVE,MADISONVILLE,KY,42431,NOT AVAILABLE,(270) 825-8998
1319,210120001624,PHOENIX ACADEMY,100 VAUGHT RD,WINCHESTER,KY,40391,NOT AVAILABLE,(859) 744-4618
6846,210306000806,HIGHLAND ELEMENTARY SCHOOL,649 US 23 SOUTH,STAFFORDSVILLE,KY,41256,NOT AVAILABLE,(606) 297-3674
8783,210028902123,MADISON COUNTY AREA TECHNOLOGY CENTER,703 NORTH SECOND STREET,RICHMOND,KY,40475,NOT AVAILABLE,(859) 624-4520
21459,210144000646,SUNRISE ACADEMY,400 CUNNINGHAM DRIVE,DANVILLE,KY,40422,NOT AVAILABLE,(859) 236-5507
26327,210299001475,BOYS & GIRLS HAVEN,2301 GOLDSMITH LN,LOUISVILLE,KY,40218,NOT AVAILABLE,(502) 458-1171
26923,210075002286,CROSSROADS ELEMENTARY,156 ERIN CIRCLE,MOUNT WASHINGTON,KY,40047,NOT AVAILABLE,(502) 869-7400
29522,210201000439,ELKHORN ELEMENTARY SCHOOL,928 E MAIN ST,FRANKFORT,KY,40601,NOT AVAILABLE,(502) 695-6730
30763,210299000785,WESTERN MIDDLE SCHOOL FOR THE ARTS,2201 WEST MAIN STREET,LOUISVILLE,KY,40212,NOT AVAILABLE,(502) 485-8345
31008,210321002224,MCDANIEL LEARNING CENTER,275 SOUTH LAUREL RD.,LONDON,KY,40744,NOT AVAILABLE,(606) 862-4781
31031,210057001830,CHILDRENS CRISIS STABILIZATION UNIT,501 CHESTNUT ST,BOWLING GREEN,KY,42101,NOT AVAILABLE,(270) 746-2200
32689,210186001563,SOUTHSIDE TECHNICAL CENTER,1800 HARRODSBURG RD,LEXINGTON,KY,40504,NOT AVAILABLE,(859) 381-3603
32770,210225001701,MASON-CORINTH ELEMENTARY,225 HEEKIN RD.,WILLIAMSTOWN,KY,41097,NOT AVAILABLE,(859) 824-9510
34587,210015000023,ASHLAND MIDDLE SCHOOL,2800 KANSAS ST,ASHLAND,KY,41102,NOT AVAILABLE,(606) 327-2727
36002,210299000642,NEWBURG MIDDLE,4901 EXETER AVENUE,LOUISVILLE,KY,40218,NOT AVAILABLE,(502) 485-8306
36675,210027000046,BARDSTOWN MIDDLE SCHOOL,410 N 5TH ST,BARDSTOWN,KY,40004,NOT AVAILABLE,(502) 331-8803
36880,210186000395,JULIUS MARKS ELEMENTARY SCHOOL,3277 PEPPERHILL RD,LEXINGTON,KY,40502,NOT AVAILABLE,(859) 381-3470
36930,210249002249,LINCOLN TRAIL BEHAVIORAL HEALTH SYSTEMS,3909 S. WILSON ROAD,RADCLIFF,KY,40160,NOT AVAILABLE,(270) 351-9444
37265,210315000843,FLAT LICK ELEMENTARY SCHOOL,110 KENTUCKY 3085,FLAT LICK,KY,40935,NOT AVAILABLE,(606) 542-4712
38079,210299000628,FERN CREEK HIGH,9115 FERN CREEK ROAD,LOUISVILLE,KY,40291,NOT AVAILABLE,(502) 485-8251
53204,210132001414,CORBIN MIDDLE SCHOOL,50 ED MCNEEL DRIVE,CORBIN,KY,40701,4070,(606) 523-3619
54169,210588001383,PLEASANT VIEW ELEMENTARY SCHOOL,5554 HWY 25 W SOUTH,WILLIAMSBURG,KY,40769,NOT AVAILABLE,(606) 549-7085
56929,210480002296,VALLEY ELEMENTARY SCHOOL,163 DOUGLAS PARK,PIKEVILLE,KY,41501,NOT AVAILABLE,(606) 639-2774
57594,210195002450,FLOYD CENTRAL HIGH SCHOOL,651 KY RT 680W,EASTERN,KY,41622,NOT AVAILABLE,(606) 886-2354
58110,210549002018,TAYLORSVILLE ELEMENTARY SCHOOL,420 HIGHVIEW AVE.,TAYLORSVILLE,KY,40071,NOT AVAILABLE,(502) 477-3339
59022,210081000164,MORGANTOWN ELEMENTARY SCHOOL,210 CEMETERY STREET,MORGANTOWN,KY,42261,NOT AVAILABLE,(270) 526-3361
59655,210600001468,HUNTERTOWN ELEMENTARY SCHOOL,120 WOODBURN HALL DRIVE,VERSAILLES,KY,40383,NOT AVAILABLE,(859) 879-4680
80632,210315000844,GIRDLER ELEMENTARY SCHOOL,HIGHWAY 11 NORTH,GIRDLER,KY,40943,NOT AVAILABLE,(606) 546-4859
80633,210441001089,BOSTON SCHOOL,130 WILSON CREEK RD,BOSTON,KY,40107,NOT AVAILABLE,(502) 833-4644
81102,210075000151,MT. WASHINGTON ELEMENTARY,9234 HWY 44 E,MOUNT WASHINGTON,KY,40047,7309,(502) 869-3000
83233,210299000694,TRUNNELL ELEMENTARY,7609 ST. ANDREWS CHURCH ROAD,LOUISVILLE,KY,40214,NOT AVAILABLE,(502) 485-8337
83393,210271002306,THELMA B. JOHNSON EARLY LEARNING CENTER,631 N. GREEN STREET,HENDERSON,KY,42420,NOT AVAILABLE,(270) 854-0140
85971,210573002185,KENTUCKY ADVANCED TECHNOLOGY CENTER,1127 MORGANTOWN ROAD,BOWLING GREEN,KY,42101,NOT AVAILABLE,(270) 746-7807
87383,210123001846,HORSE CREEK LEARNING CENTER,239 RICHMOND RD,MANCHESTER,KY,40962,NOT AVAILABLE,(606) 598-1601
89268,210057000102,PARKER-BENNETT-CURRY SCHOOL,165 WEBB DR,BOWLING GREEN,KY,42101,4210,(270) 746-2270
92899,210099000188,CARTMELL ELEMENTARY,1708 HIGHLAND AVE,CARROLLTON,KY,41008,NOT AVAILABLE,(502) 732-7085
93701,210348000918,LINCOLN COUNTY HIGH SCHOOL,60 EDUCATION WAY,STANFORD,KY,40484,8411,(606) 365-9111
97440,210081000163,GREEN RIVER SCHOOL,363 BOY'S CAMP RD,CROMWELL,KY,42333,NOT AVAILABLE,(270) 526-5276
98446,210147000303,SORGHO ELEMENTARY SCHOOL,5390 KY HWY 56,OWENSBORO,KY,42301,NOT AVAILABLE,(270) 852-7470
40018,210126000444,CLINTON COUNTY MIDDLE SCHOOL,169 MIDDLE SCHOOL ROAD,ALBANY,KY,42602,NOT AVAILABLE,(606) 387-6466
42266,210299000633,MEDORA ELEMENTARY,11801 DEERING ROAD,LOUISVILLE,KY,40272,NOT AVAILABLE,(502) 485-8298
42270,210372000951,WACO ELEMENTARY SCHOOL,359 WACO LOOP,WACO,KY,40385,NOT AVAILABLE,(859) 387-3600
42273,210532001688,HERITAGE ELEMENTARY,8300 FRANKFORT RD,WADDY,KY,40076,NOT AVAILABLE,(502) 829-5242
44766,210051000638,GRAY MIDDLE SCHOOL,10400 US 42,UNION,KY,41091,NOT AVAILABLE,(859) 384-5333
70501,210378000967,LEBANON ELEMENTARY SCHOOL,420 W MAIN ST,LEBANON,KY,40033,NOT AVAILABLE,(270) 692-3883
72310,210027000044,BARDSTOWN ELEMENTARY SCHOOL,420 N 5TH ST,BARDSTOWN,KY,40004,NOT AVAILABLE,(502) 331-8801
72376,210579002020,WAYNE COUNTY MIDDLE SCHOOL,95 CHAMPION DRIVE,MONTICELLO,KY,42633,NOT AVAILABLE,(606) 348-6691
72996,210321000862,HAZEL GREEN ELEMENTARY SCHOOL,2515 HWY 1394,EAST BERNSTADT,KY,40729,6357,(606) 862-4647
73724,210138002225,PATHWAY ACADEMY HIGH SCHOOL,519 1/2 W. GUM ST,MARION,KY,42064,NOT AVAILABLE,(270) 965-3525
76866,210522001277,SCIENCE HILL ELEMENTARY SCHOOL,6007 N HWY 27,SCIENCE HILL,KY,42553,NOT AVAILABLE,(606) 423-3341
77251,210015000025,CRABBE ELEMENTARY SCHOOL,520 17TH ST,ASHLAND,KY,41101,NOT AVAILABLE,(606) 327-2730
78265,210299000668,PLEASURE RIDGE PARK HIGH,5901 GREENWOOD ROAD,LOUISVILLE,KY,40258,NOT AVAILABLE,(502) 485-8311
79056,210222002101,HAPPY VALLEY LEARNING CENTER,629 W CHERRY ST,GLASGOW,KY,42141,NOT AVAILABLE,(270) 651-3804
90285,210054000099,BOURBON COUNTY MIDDLE SCHOOL,3339 LEXINGTON ROAD,PARIS,KY,40361,NOT AVAILABLE,(859) 987-2189
92312,210453001552,NORTH OLDHAM MIDDLE SCHOOL,1801 S HWY 1793,GOSHEN,KY,40026,NOT AVAILABLE,(502) 228-9998
94691,210594001393,WILLIAMSTOWN JR. HIGH,300 HELTON STREET,WILLIAMSTOWN,KY,41097,9505,(859) 824-4421
60326,210015000026,HAGER ELEMENTARY SCHOOL,1600 BLACKBURN AVE,ASHLAND,KY,41101,NOT AVAILABLE,(606) 327-2731
62053,210008101515,THE RENAISSANCE CENTER,201 AIRPORT RD,GREENVILLE,KY,42345,NOT AVAILABLE,(270) 338-0662
62582,210516001266,SALEM ELEMENTARY SCHOOL,1409 S HWY 76,RUSSELL SPRINGS,KY,42642,NOT AVAILABLE,(270) 866-6197
63428,210299000706,LAYNE ELEMENTARY,9831 EAST AVENUE,LOUISVILLE,KY,40272,NOT AVAILABLE,(502) 485-8290
63982,210312000834,EMMALENA ELEMENTARY SCHOOL,8343 W HWY 550,EMMALENA,KY,41740,NOT AVAILABLE,(606) 251-3651
64506,210186000354,SCAPA AT BLUEGRASS,400 LAFAYETTE PKWY,LEXINGTON,KY,40503,NOT AVAILABLE,(859) 381-3332
66217,210299000786,KENNEDY MONTESSORI ELEMENTARY,3800 GIBSON LANE,LOUISVILLE,KY,40211,NOT AVAILABLE,(502) 485-8280
67277,210299002376,GEORGE UNSELD EARLY CHILDHOOD CENTER,5216 ILEX AVE,LOUISVILLE,KY,40213,NOT AVAILABLE,(502) 485-8161
67660,210063000119,BOYLE COUNTY MIDDLE SCHOOL,1651 PERRYVILLE RD,DANVILLE,KY,40422,NOT AVAILABLE,(859) 236-4212
67829,210315002029,KNOX COUNTY MIDDLE SCHOOL,311 N MAIN ST,BARBOURVILLE,KY,40906,NOT AVAILABLE,(606) 545-5267
68410,210028902182,MILLARD AREA TECHNOLOGY CENTER,7925 MILLARD HWY,PIKEVILLE,KY,41501,NOT AVAILABLE,(606) 437-6059
41209,210048001658,BEREA COMMUNITY MIDDLE SCHOOL,1 PIRATE PKWY,BEREA,KY,40403,NOT AVAILABLE,(859) 986-4911
42274,210526001285,SCOTT COUNTY MIDDLE SCHOOL,1036 CARDINAL DRIVE,GEORGETOWN,KY,40324,NOT AVAILABLE,(502) 863-7202
44509,210120000237,GEORGE ROGERS CLARK HIGH SCHOOL,2745 NEW BOONESBORO ROAD,WINCHESTER,KY,40391,NOT AVAILABLE,(859) 744-6111
84718,210213000451,GALLATIN COUNTY HIGH SCHOOL,70 WILDCAT CIRCLE,WARSAW,KY,41095,NOT AVAILABLE,(859) 567-7640
85242,210441001091,COXS CREEK ELEMENTARY SCHOOL,5635 LOUISVILLE RD,COXS CREEK,KY,40013,NOT AVAILABLE,(502) 349-7050
88021,210075000149,MARYVILLE ELEMENTARY SCHOOL,4504 SUMMERS DR,LOUISVILLE,KY,40229,3538,(502) 869-2400
12100,210141000286,CUMBERLAND COUNTY ELEMENTARY SCHOOL,150 GLASGOW RD,BURKESVILLE,KY,42717,4271,(270) 864-4390
15424,210090000180,GRANT'S LICK ELEMENTARY SCHOOL,944 CLAY RIDGE RD.,ALEXANDRIA,KY,41001,NOT AVAILABLE,(859) 635-2129
16684,210526002301,ELKHORN CROSSING SCHOOL,2001 FRANKFORT ROAD,GEORGETOWN,KY,40324,NOT AVAILABLE,(502) 570-4920
17055,210186000391,JESSIE M CLARK MIDDLE SCHOOL,3341 CLAYS MILL RD,LEXINGTON,KY,40503,3466,(859) 381-3036
17314,210081001976,NORTH BUTLER ELEMENTARY,5539 BROWNSVILLE RD,MORGANTOWN,KY,42261,NOT AVAILABLE,(270) 526-8936
50104,210573001831,JACKSON ACADEMY MIDDLE SCHOOL,877 JACKSON STREET,BOWLING GREEN,KY,42101,NOT AVAILABLE,(270) 467-0293
50911,210087002366,CALLOWAY COUNTY DAY TREATMENT,2003 COLLEGE FARM RD,MURRAY,KY,42071,NOT AVAILABLE,(270) 762-7318
51616,210321001589,NORTH LAUREL MIDDLE SCHOOL,101 JOHNSON RD,LONDON,KY,40741,NOT AVAILABLE,(606) 862-4715
54091,210299001857,WESTERN DAY TREATMENT,1900 SOUTH SEVENTH STREET,LOUISVILLE,KY,40208,NOT AVAILABLE,(502) 485-7351
55082,210336000892,ARLIE BOGGS ELEMENTARY SCHOOL,1099 HWY 806,EOLIA,KY,40826,NOT AVAILABLE,(606) 633-4654
20650,210321000857,BUSH ELEMENTARY SCHOOL,1832 E LAUREL RD,LONDON,KY,40741,NOT AVAILABLE,(606) 862-4618
29327,210299001629,THE BROOK-DUPONT,1405 BROWNS LN,LOUISVILLE,KY,40207,NOT AVAILABLE,(502) 721-2342
31030,210299000713,LOUISVILLE DAY,8711 LAGRANGE RD,LOUISVILLE,KY,40242,NOT AVAILABLE,(502) 429-7217
31483,210526001942,ANNE MASON ELEMENTARY SCHOOL,350 CHAMPION WAY,GEORGETOWN,KY,40324,8863,(502) 863-3663
32522,210249002209,HEARTLAND ELEMENTARY SCHOOL,2300 NELSON DRIVE,ELIZABETHTOWN,KY,42701,NOT AVAILABLE,(270) 769-8930
35531,210299000693,SLAUGHTER ELEMENTARY,3805 FERN VALLEY ROAD,LOUISVILLE,KY,40219,NOT AVAILABLE,(502) 485-8328
36879,210115002179,MADISONVILLE TECH - HOPKINSVILLE,705 NORTH ELM STREET,HOPKINSVILLE,KY,42240,NOT AVAILABLE,(270) 886-3734
36959,210099000190,CARROLL COUNTY HIGH SCHOOL,1706 HIGHLAND AVE,CARROLLTON,KY,41008,NOT AVAILABLE,(502) 732-7075
37594,210299000775,RUTHERFORD ELEMENTARY,301 SOUTHLAND BOULEVARD,LOUISVILLE,KY,40214,NOT AVAILABLE,(502) 485-8320
38795,210299000687,NORTON ELEMENTARY,8101 BROWNSBORO ROAD,LOUISVILLE,KY,40241,NOT AVAILABLE,(502) 485-8308
39325,210299000707,AUBURNDALE ELEMENTARY,5749 NEW CUT ROAD,LOUISVILLE,KY,40214,NOT AVAILABLE,(502) 485-8204
43,210036002409,GUARDIAN ANGEL,75 ORPHANAGE ROAD,FORT MITCHELL,KY,41017,NOT AVAILABLE,(859) 331-2040
2200,210286000600,HANSON ELEMENTARY SCHOOL,121 VETERANS DRIVE,HANSON,KY,42413,NOT AVAILABLE,(270) 825-6158
2881,210030000049,EASTERN ELEMENTARY SCHOOL,4601 NEW SALEM RD,GLASGOW,KY,42141,NOT AVAILABLE,(270) 678-2722
3541,210299000733,ATKINSON ACADEMY,2811 DUNCAN STREET,LOUISVILLE,KY,40212,NOT AVAILABLE,(502) 485-8203
6695,210333000882,HAYES LEWIS ELEMENTARY SCHOOL,10130 CUTSHIN RD,YEADDISS,KY,41777,NOT AVAILABLE,(606) 279-4121
6795,210028902105,CASEY COUNTY AREA TECHNOLOGY CENTER,1723 EAST KY 70,LIBERTY,KY,42539,NOT AVAILABLE,(606) 787-6241
9057,210093000182,CAMPBELLSVILLE ELEMENTARY SCHOOL,315 ROBERTS ROAD,CAMPBELLSVILLE,KY,42718,NOT AVAILABLE,(270) 465-4561
100846,210075000156,ROBY ELEMENTARY SCHOOL,1148 HWY 44 E,SHEPHERDSVILLE,KY,40165,NOT AVAILABLE,(502) 869-7200
66945,210299000763,NOE MIDDLE,121 WEST LEE STREET,LOUISVILLE,KY,40208,NOT AVAILABLE,(502) 485-8307
67661,210249001910,JOHN HARDIN HIGH SCHOOL,384 W A JENKINS RD,ELIZABETHTOWN,KY,42701,NOT AVAILABLE,(270) 769-8906
68393,210186002362,LOCUST TRACE AGRISCIENCE CENTER,3591 LEESTOWN ROAD,LEXINGTON,KY,40511,4050,(859) 381-3990
68491,210186001421,VETERANS PARK ELEMENTARY SCHOOL,4351 CLEARWATER WAY,LEXINGTON,KY,40515,NOT AVAILABLE,(859) 381-3161
10622,210299000747,FRAYSER ELEMENTARY,1230 LARCHMONT AVE,LOUISVILLE,KY,40215,NOT AVAILABLE,(502) 485-8255
10698,210299000737,BLOOM ELEMENTARY,1627 LUCIA AVENUE,LOUISVILLE,KY,40204,NOT AVAILABLE,(502) 485-8211
15830,210558001328,TRIGG COUNTY MIDDLE SCHOOL,206 LAFAYETTE ST,CADIZ,KY,42211,NOT AVAILABLE,(270) 522-2210
17056,210299000704,HARTSTERN ELEMENTARY,5200 MORNINGSIDE WAY,LOUISVILLE,KY,40219,0019,(502) 485-8262
40085,210532001964,PAINTED STONE ELEMENTARY,150 WARRIORS WAY,SHELBYVILLE,KY,40065,NOT AVAILABLE,(502) 647-4505
42272,210489001219,CLAY CITY ELEMENTARY SCHOOL,4901 MAIN ST,CLAY CITY,KY,40312,NOT AVAILABLE,(606) 663-3315
43096,210271000586,JEFFERSON ELEMENTARY SCHOOL,315 JACKSON ST,HENDERSON,KY,42420,NOT AVAILABLE,(270) 831-5090
49305,210564001339,UNIONTOWN ELEMENTARY SCHOOL,401 WALNUT ST,UNIONTOWN,KY,42461,NOT AVAILABLE,(270) 822-4462
21144,210102002294,CARTER VIRTUAL ACADEMY,372 WEST CARTER DR.,OLIVE HILL,KY,41164,NOT AVAILABLE,(606) 286-4022
70199,210264000563,CUB RUN ELEMENTARY SCHOOL,170 E GAP HILL RD,CUB RUN,KY,42729,NOT AVAILABLE,(270) 524-2925
72155,210249002297,NORTH PARK ELEMENTARY SCHOOL,1080 S. LOGSDON PARKWAY,RADCLIFF,KY,40160,NOT AVAILABLE,(270) 351-4464
74577,210240000497,GREYSBRANCH ELEMENTARY SCHOOL,1487 OHIO RIVER ROAD,GREENUP,KY,41144,NOT AVAILABLE,(606) 473-9653
78211,210062000108,BOYD COUNTY HIGH SCHOOL,14375 LIONS LANE,ASHLAND,KY,41102,9639,(606) 928-7100
79452,210249001994,CREEKSIDE ELEMENTARY SCHOOL,151 HORSESHOE BEND RD,SONORA,KY,42776,NOT AVAILABLE,(270) 369-8460
3327,210057001911,WARREN REGIONAL JUVENILE DETENTION CTR,1020 KENTUCKY ST,BOWLING GREEN,KY,42102,NOT AVAILABLE,(270) 746-7155
4061,210324002155,LOUISA WEST ELEMENTARY SCHOOL,201 BOONE ST,LOUISA,KY,41230,NOT AVAILABLE,(606) 638-4726
5597,210399002451,PINE KNOT ELEMENTARY SCHOOL,6519 S HWY 1651,PINE KNOT,KY,42635,NOT AVAILABLE,(606) 354-2511
5800,210195002452,DUFF-ALLEN CENTRAL ELEMENTARY,183 REBEL ROAD,EASTERN,KY,41622,NOT AVAILABLE,(606) 358-0110
6318,210532002253,MARTHA LAYNE COLLINS HIGH SCHOOL,801 DISCOVERY BLVD,SHELBYVILLE,KY,40065,NOT AVAILABLE,(502) 647-1160
6440,210213001850,GALLATIN COUNTY UPPER ELEMENTARY,50 PAW PRINT PATH,WARSAW,KY,41095,NOT AVAILABLE,(859) 567-2060
8174,210129000262,WILLIAM H NATCHER ELEMENTARY SCHOOL,301 POPLAR STREET,CLOVERPORT,KY,40111,4011,(270) 788-3388
30540,210570002191,WALTON-VERONA MIDDLE SCHOOL,32 SCHOOL RD,WALTON,KY,41094,NOT AVAILABLE,(859) 485-7721
32930,210115000221,CHRISTIAN COUNTY MIDDLE SCHOOL,215 GLASS AVE,HOPKINSVILLE,KY,42240,NOT AVAILABLE,(270) 887-7070
35532,210425001057,CAMARGO ELEMENTARY SCHOOL,4307 CAMARGO RD,MOUNT STERLING,KY,40353,NOT AVAILABLE,(859) 497-8776
37315,210271000583,SPOTTSVILLE ELEMENTARY SCHOOL,9190 US 60 E,SPOTTSVILLE,KY,42458,NOT AVAILABLE,(270) 831-5136
38310,210309000816,PINER ELEMENTARY SCHOOL,2845 RICH RD,MORNING VIEW,KY,41063,NOT AVAILABLE,(859) 356-2155
51451,210176000345,SOUTH IRVINE EARLY LEARNING CENTER,1000 SOUTH IRVINE RD,IRVINE,KY,40336,4033,(606) 723-4700
52317,210309002151,NORTHERN KENTUCKY TECH,1025 AMSTERDAM ROAD,COVINGTON,KY,41011,NOT AVAILABLE,(859) 292-3931
53471,210372001594,MADISON SOUTHERN HIGH SCHOOL,279 GLADES RD,BEREA,KY,40403,NOT AVAILABLE,(859) 625-6148
54759,210453000735,BUCKNER ALTERNATIVE HIGH SCHOOL,1350 N HIGHWAY 393,BUCKNER,KY,40010,NOT AVAILABLE,(502) 222-3767
57793,210573002298,SOUTH WARREN MIDDLE SCHOOL,295 RICH POND ROAD,BOWLING GREEN,KY,42104,NOT AVAILABLE,(270) 467-7510
80143,210115002024,MARTIN LUTHER KING JR. ELEMENTARY SCHOOL,14405 MARTIN LUTHER KING WAY,HOPKINSVILLE,KY,42240,NOT AVAILABLE,(270) 887-7310
80720,210054002054,BOURBON COUNTY PRESCHOOL HEADSTART,369 BETHLEHEM ROAD,PARIS,KY,40361,NOT AVAILABLE,(859) 987-2183
81611,210299000650,BATES ELEMENTARY,7601 BARDSTOWN ROAD,LOUISVILLE,KY,40291,NOT AVAILABLE,(502) 485-8208
82627,210201002219,EARLY LEARNING VILLAGE,200 LARALAN AVE,FRANKFORT,KY,40601,NOT AVAILABLE,(502) 352-2585
83396,210299000710,EISENHOWER ELEMENTARY,5300 JESSAMINE LANE,LOUISVILLE,KY,40258,NOT AVAILABLE,(502) 485-8244
88758,210286000611,WEST BROADWAY ELEMENTARY SCHOOL,127 W BROADWAY,MADISONVILLE,KY,42431,NOT AVAILABLE,(270) 825-6036
89950,210186002247,WELLINGTON ELEMENTARY,3280 KEITHSHIRE WAY,LEXINGTON,KY,40503,NOT AVAILABLE,(859) 381-3000
90335,210465001144,PADUCAH MIDDLE SCHOOL,342 LONE OAK RD,PADUCAH,KY,42001,NOT AVAILABLE,(270) 444-5710
95552,210486002393,PINEVILLE INDEPENDENT SCHOOL,401 VIRGINIA AVENUE,PINEVILLE,KY,40977,NOT AVAILABLE,(606) 337-5701
100304,210072000138,HARDINSBURG ELEMENTARY SCHOOL,1340 EAST HWY 60,HARDINSBURG,KY,40143,4014,(270) 756-3114
100560,210126000257,ALBANY ELEMENTARY SCHOOL,819 THIRD ST,ALBANY,KY,42602,NOT AVAILABLE,(606) 387-5828
105061,210573002492,JACKSON ACADEMY,877 JACKSON ACADEMY ST.,BOWLING GREEN,KY,42101,NOT AVAILABLE,(270) 782-5410
21677,210084001660,CALDWELL COUNTY PRIMARY SCHOOL,1000 MARION RD,PRINCETON,KY,42445,6299,(270) 365-8040
28343,210090001306,CAMPBELL COUNTY MIDDLE SCHOOL,8000 ALEXANDRIA PK,ALEXANDRIA,KY,41001,NOT AVAILABLE,(859) 635-6077
29072,210573001352,WARREN ELEMENTARY,1846 LOOP DRIVE,BOWLING GREEN,KY,42101,NOT AVAILABLE,(270) 781-2385
29946,210450001108,BEAVER DAM ELEMENTARY SCHOOL,183 US HWY 62 E,BEAVER DAM,KY,42320,NOT AVAILABLE,(270) 274-4478
29947,210561001332,MILTON ELEMENTARY SCHOOL,9245 HWY 421 N,MILTON,KY,40045,NOT AVAILABLE,(502) 268-3322
717,210102002356,CARTER CITY ELEMENTARY SCHOOL,13321 STATE HWY 2,GRAYSON,KY,41143,NOT AVAILABLE,(606) 474-6121
2132,210489001220,POWELL COUNTY HIGH SCHOOL,700 W COLLEGE AVE,STANTON,KY,40380,NOT AVAILABLE,(606) 663-3320
9097,210090001335,DONALD E. CLINE ELEMENTARY SCHOOL,5586 E ALEXANDRIA DR,COLD SPRING,KY,41076,NOT AVAILABLE,(859) 781-4544
9098,210588001387,WHITLEY COUNTY MIDDLE SCHOOL,351 BLVD OF CHAMPIONS,WILLIAMSBURG,KY,40769,NOT AVAILABLE,(606) 549-7050
30064,210062000109,CANNONSBURG ELEMENTARY SCHOOL,12219 MIDLAND TRAIL RD,ASHLAND,KY,41102,NOT AVAILABLE,(606) 928-7131
30950,210369000943,LYON COUNTY HIGH SCHOOL,209 FAIRVIEW AVE,EDDYVILLE,KY,42038,NOT AVAILABLE,(270) 388-9715
30992,210387000991,MASON COUNTY MIDDLE SCHOOL,420 CHENAULT DR,MAYSVILLE,KY,41056,NOT AVAILABLE,(606) 564-6748
31273,210299000671,ZACHARY TAYLOR ELEMENTARY,9620 WESTPORT ROAD,LOUISVILLE,KY,40241,NOT AVAILABLE,(502) 485-8336
34081,210249002209,HEARTLAND ELEMENTARY SCHOOL,2300 NELSON DRIVE,ELIZABETHTOWN,KY,42701,NOT AVAILABLE,(270) 769-8930
36327,210087000171,CALLOWAY COUNTY HIGH SCHOOL,2108 COLLEGE FARM RD,MURRAY,KY,42071,NOT AVAILABLE,(270) 762-7375
36909,210008102258,MUHLENBERG COUNTY HIGH SCHOOL,501 HWY 189 BYPASS,GREENVILLE,KY,42345,NOT AVAILABLE,(270) 338-0040
37137,210299000703,CROSBY MIDDLE,303 GATEHOUSE LANE,MIDDLETOWN,KY,40243,NOT AVAILABLE,(502) 485-8235
38135,210306000802,JOHNSON CENTRAL HIGH SCHOOL,257 NORTH MAYO TRAIL,PAINTSVILLE,KY,41240,NOT AVAILABLE,(606) 789-2500
10014,210425001058,MAPLETON ELEMENTARY SCHOOL,809 INDIAN MOUND DR,MOUNT STERLING,KY,40353,NOT AVAILABLE,(859) 497-8752
12302,210228001754,MAYFIELD YOUTH DEVELOPMENT CENTER,3179 STATE RT 45 S,MAYFIELD,KY,42066,NOT AVAILABLE,(270) 247-9609
17747,210027002050,BARDSTOWN PRIMARY SCHOOL,1000 TEMPLIN AVE,BARDSTOWN,KY,40004,NOT AVAILABLE,(502) 331-8810
18325,210549001871,SPENCER COUNTY MIDDLE SCHOOL,1263 MT WASHINGTON RD,TAYLORSVILLE,KY,40071,NOT AVAILABLE,(502) 477-3260
19577,210425001059,MONTGOMERY COUNTY HIGH SCHOOL,724 WOODFORD DRIVE,MOUNT STERLING,KY,40353,NOT AVAILABLE,(859) 497-8765
60795,210526001687,NORTHERN ELEMENTARY SCHOOL,3600 CINCINNATI RD,GEORGETOWN,KY,40324,NOT AVAILABLE,(502) 863-3663
70134,210372001486,MODEL LABORATORY HIGH SCHOOL,521 LANCASTER AVE,RICHMOND,KY,40475,NOT AVAILABLE,(859) 622-3766
70208,210576002047,WASHINGTON COUNTY MIDDLE SCHOOL,603 LINCOLN PARK RD,SPRINGFIELD,KY,40069,NOT AVAILABLE,(859) 336-5483
72507,210510002342,BLUEGRASS DISCOVERY ACADEMY HIGH,415 WEST SUN ST,MOREHEAD,KY,40351,NOT AVAILABLE,(606) 780-9992
74492,210123000252,HACKER ELEMENTARY SCHOOL,84 HOOKER RD,MANCHESTER,KY,40962,NOT AVAILABLE,(606) 598-3338
74769,210258001995,HARRISON COUNTY LEARNING CENTER,320 WEBSTER AVE,CYNTHIANA,KY,41031,4103,(859) 234-2395
78732,210299001947,JEFFERSON COUNTY HIGH,900 S FLOYD STREET,LOUISVILLE,KY,40203,NOT AVAILABLE,(502) 485-3173
79165,210249000515,LINCOLN TRAIL ELEMENTARY SCHOOL,3970 BARDSTOWN RD,ELIZABETHTOWN,KY,42701,NOT AVAILABLE,(270) 737-7227
40147,210012000016,ANDERSON COUNTY HIGH SCHOOL,1 BEARCAT DR,LAWRENCEBURG,KY,40342,NOT AVAILABLE,(502) 839-5118
41003,210480001195,JOHNS CREEK ELEMENTARY SCHOOL,8302 META HWY,PIKEVILLE,KY,41501,NOT AVAILABLE,(606) 631-1097
42267,210351001133,NORTH LIVINGSTON ELEMENTARY SCHOOL,1372 US 60 E,BURNA,KY,42028,NOT AVAILABLE,(270) 988-4000
45873,210299000697,LUHR ELEMENTARY,6900 FEGENBUSH LANE,LOUISVILLE,KY,40228,NOT AVAILABLE,(502) 485-8295
46734,210135000274,NINTH DISTRICT ELEMENTARY,2800 INDIANA AVE,COVINGTON,KY,41015,NOT AVAILABLE,(859) 292-5823
80346,210299000676,COCHRANE ELEMENTARY,2511 TREGARON AVENUE,LOUISVILLE,KY,40299,NOT AVAILABLE,(502) 485-8231
82262,210147001625,EAST VIEW ELEMENTARY SCHOOL,6104 KY HWY 405,OWENSBORO,KY,42303,NOT AVAILABLE,(270) 852-7350
82697,210186002150,BLACKBURN EDUCATION CENTER,3111 SPURR ROAD,LEXINGTON,KY,40511,NOT AVAILABLE,(859) 246-2366
82756,210213000450,GALLATIN COUNTY LOWER ELEMENTARY,25 BOAZ DR,WARSAW,KY,41095,NOT AVAILABLE,(859) 567-6340
87943,210063000121,JUNCTION CITY ELEMENTARY SCHOOL,250 SCHOOL ST,JUNCTION CITY,KY,40440,NOT AVAILABLE,(859) 936-7524
88827,210573001344,BRISTOW ELEMENTARY,6151 LOUISVILLE RD,BOWLING GREEN,KY,42101,NOT AVAILABLE,(270) 842-1960
50666,210147000961,COLLEGE VIEW MIDDLE SCHOOL,5061 NEW HARTFORD ROAD,OWENSBORO,KY,42303,NOT AVAILABLE,(270) 852-7500
50913,210414002383,METCALFE COUNTY ELEMENTARY SCHOOL,703 W. STOCKTON STREET,EDMONTON,KY,42129,NOT AVAILABLE,(270) 432-2051
51766,210039000074,YELLOW CREEK SCHOOL CENTER,4840 WEST CUMBERLAND AVENUE,MIDDLESBORO,KY,40965,NOT AVAILABLE,(606) 248-1794
92815,210299001613,PEACE ACADEMY,2020 NEWBURG RD,LOUISVILLE,KY,40205,NOT AVAILABLE,(502) 479-4180
97099,210153000317,LINCOLN ELEMENTARY SCHOOL,701 FIFTH AVE,DAYTON,KY,41074,NOT AVAILABLE,(859) 292-7492
100347,210303002028,JESSAMINE CAREER AND TECHNOLOGY CENTER,881 WILMORE RD,NICHOLASVILLE,KY,40356,NOT AVAILABLE,(859) 881-8324
102670,210051002460,BALLYSHANNON MIDDLE SCHOOL,7515 SHAMROCK AVENUE,UNION,KY,41091,NOT AVAILABLE,(859) 905-2620
105018,210069002494,LBJ ELEMENTARY PRESCHOOL,90 LBJ ROAD,JACKSON,KY,41339,NOT AVAILABLE,(606) 666-7181
62654,210028902106,JACKSON AREA TECHNOLOGY CENTER,562 EDUCATION MOUNTAIN DRIVE,MCKEE,KY,40447,NOT AVAILABLE,(606) 287-2163
65884,210054001576,BOURBON CENTRAL ELEMENTARY SCHOOL,367 BETHLEHEM ROAD,PARIS,KY,40361,NOT AVAILABLE,(859) 987-2195
68676,210021000036,BALLARD MEMORIAL HIGH SCHOOL,3561 PADUCAH RD,BARLOW,KY,42024,NOT AVAILABLE,(270) 665-8400
68916,210453002007,KENWOOD STATION ELEMENTARY SCHOOL,6321 HIGHWAY 329 BY-PASS,CRESTWOOD,KY,40014,NOT AVAILABLE,(502) 241-1452
69560,210176001746,ESTILL SPRINGS ELEMENTARY,314 MAIN ST,IRVINE,KY,40336,NOT AVAILABLE,(606) 723-7703
10624,210573001604,HENRY F. MOSS MIDDLE SCHOOL,2565 RUSSELLVILLE RD,BOWLING GREEN,KY,42101,NOT AVAILABLE,(270) 843-0166
12997,210321000864,KEAVY ELEMENTARY SCHOOL,598 W HWY 312,KEAVY,KY,40737,NOT AVAILABLE,(606) 862-4672
14090,210192000400,E P WARD ELEMENTARY SCHOOL,12811 MOREHEAD RD,WALLINGFORD,KY,41093,NOT AVAILABLE,(606) 876-2061
14094,210069001659,HIGHLAND-TURNER ELEMENTARY SCHOOL,10355 HWY 30W,BOONEVILLE,KY,41314,NOT AVAILABLE,(606) 295-7181
14496,210299000708,PRICE ELEMENTARY,5001 GARDEN GREEN WAY,LOUISVILLE,KY,40218,NOT AVAILABLE,(502) 485-8315
15468,210230000483,H W WILKEY ELEMENTARY SCHOOL,130 WALLACE AVE,LEITCHFIELD,KY,42754,NOT AVAILABLE,(270) 259-4058
16529,210267000569,HAZARD MIDDLE SCHOOL,325 SCHOOL STREET,HAZARD,KY,41701,NOT AVAILABLE,(606) 436-4421
18116,210075000146,CEDAR GROVE ELEMENTARY,1900 CEDAR GROVE ROAD,SHEPHERDSVILLE,KY,40165,NOT AVAILABLE,(502) 869-3800
18623,210062002171,KENTUCKY TECH - ASHLAND REG TECH CTR,4818 ROBERTS DRIVE,ASHLAND,KY,41102,NOT AVAILABLE,(606) 928-4256
19298,210267002100,KENTUCKY TECH - HAZARD REGIONAL TECH CTR,101 VO-TECH DRIVE,HAZARD,KY,41701,NOT AVAILABLE,(606) 435-6101
19319,210405001930,BRANDENBURG HIGH SCHOOL,938 OLD STATE RD,BRANDENBURG,KY,40108,NOT AVAILABLE,(270) 422-7516
81005,210309000814,NORTHERN KY YOUTH DEV CENTER,15600 TURNER RD,CRITTENDEN,KY,41030,NOT AVAILABLE,(859) 363-2541
82696,210162000319,SOUTH EDMONSON ELEMENTARY SCHOOL,1058 CHALYBEATE SCHOOL RD,SMITHS GROVE,KY,42171,NOT AVAILABLE,(270) 597-2379
82908,210315000842,DEWITT ELEMENTARY SCHOOL,138 KY 718,FLAT LICK,KY,40935,NOT AVAILABLE,(606) 542-4274
87124,210425001060,MOUNT STERLING ELEMENTARY SCHOOL,6601 INDIAN MOUND DR,MOUNT STERLING,KY,40353,NOT AVAILABLE,(859) 497-8730
44,210115002415,FREEDOM ELEMENTARY SCHOOL,831 NORTH DR,HOPKINSVILLE,KY,42240,NOT AVAILABLE,(270) 887-7150
1465,210120001624,PHOENIX ACADEMY,100 VAUGHT RD,WINCHESTER,KY,40391,NOT AVAILABLE,(859) 744-4618
2894,210198001524,PANTHER TRANSITION ACADEMY,328 SHELBY STREET,FRANKFORT,KY,40601,NOT AVAILABLE,(502) 875-8655
4084,210286001586,HOPKINS COUNTY DAY TREATMENT,110 SUGG STREET,MADISONVILLE,KY,42431,NOT AVAILABLE,(270) 825-6059
7665,210048000077,BEREA COMMUNITY ELEMENTARY SCHOOL,2 PIRATE PKWY,BEREA,KY,40403,NOT AVAILABLE,(859) 986-4065
8986,210299000677,WESTERN HIGH,2501 ROCKFORD LANE,LOUISVILLE,KY,40216,NOT AVAILABLE,(502) 485-8344
37660,210051002245,LONGBRANCH ELEMENTARY SCHOOL,2805 LONGBRANCH RD.,UNION,KY,41091,NOT AVAILABLE,(859) 384-4500
38464,210254000532,BLACK MOUNTAIN ELEMENTARY SCHOOL,1555 HWY 215,EVARTS,KY,40828,NOT AVAILABLE,(606) 837-2214
39997,210051001971,CAMP ERNST MIDDLE SCHOOL,6515 CAMP ERNST RD,BURLINGTON,KY,41005,NOT AVAILABLE,(859) 534-4000
40083,210249001963,LAKEWOOD ELEMENTARY SCHOOL,265 LEARNING PLACE LN,CECILIA,KY,42724,NOT AVAILABLE,(270) 862-4516
43987,210309000809,JAMES A CAYWOOD ELEMENTARY SCHOOL,3300 TURKEYFOOT ROAD,EDGEWOOD,KY,41017,NOT AVAILABLE,(859) 341-7062
45785,210597002369,SUCCESS ACADEMY,5274 KY 15 N,PINE RIDGE,KY,41360,NOT AVAILABLE,(606) 668-6006
47587,210271000578,HENDERSON COUNTY NORTH MIDDLE SCHOOL,1707 SECOND ST,HENDERSON,KY,42420,NOT AVAILABLE,(270) 831-5060
53044,210028902153,BREATHITT COUNTY AREA TECHNOLOGY CENTER,2303 BOBCAT LANE,JACKSON,KY,41339,NOT AVAILABLE,(606) 666-5153
55073,210102001439,CARTER COUNTY CAREER AND TECHNICAL CENTER,15 GRAHN RD.,OLIVE HILL,KY,41164,NOT AVAILABLE,(606) 286-4022
57917,210552001318,TAYLOR COUNTY HIGH SCHOOL,2705 HODGENVILLE ROAD,CAMPBELLSVILLE,KY,42718,NOT AVAILABLE,(270) 465-4431
58857,210573001347,NORTH WARREN ELEMENTARY,420 COLLEGE ST,SMITHS GROVE,KY,42171,NOT AVAILABLE,(270) 563-2041
59001,210456001128,OWEN COUNTY HIGH SCHOOL,2340 HWY 22 E,OWENTON,KY,40359,NOT AVAILABLE,(502) 484-5509
70124,210201001917,THE ACADEMY,400 DEMOCRAT DRIVE,FRANKFORT,KY,40601,NOT AVAILABLE,(502) 695-6720
70895,210495001235,SHOPVILLE ELEMENTARY SCHOOL,10 SHOPVILLE RD.,SOMERSET,KY,42503,NOT AVAILABLE,(606) 274-4411
75206,210030002232,NORTH JACKSON ELEMENTARY,2002 NORTH JACKSON HIGHWAY,GLASGOW,KY,42141,NOT AVAILABLE,(270) 629-2300
21504,210465001146,CLARK ELEMENTARY SCHOOL,3401 BUCKNER LANE,PADUCAH,KY,42001,NOT AVAILABLE,(270) 444-5730
22112,210417001048,MIDDLESBORO ELEMENTARY SCHOOL,3400 W CUMBERLAND AVE,MIDDLESBORO,KY,40965,NOT AVAILABLE,(606) 242-8860
26752,210228000471,FANCY FARM ELEMENTARY SCHOOL,270 STATE ROUTE 339 SOUTH,FANCY FARM,KY,42039,NOT AVAILABLE,(270) 674-4820
29943,210054000096,NORTH MIDDLETOWN ELEMENTARY SCHOOL,301 COLLEGE STREET,NORTH MIDDLETOWN,KY,40357,NOT AVAILABLE,(859) 987-2052
92167,210444001103,NEWPORT HIGH SCHOOL,900 E 6TH ST,NEWPORT,KY,41071,NOT AVAILABLE,(859) 292-3023
94253,210075001958,FREEDOM ELEMENTARY SCHOOL,4682 NORTH PRESTON HWY.,SHEPHERDSVILLE,KY,40165,NOT AVAILABLE,(502) 869-3600
98201,210186002385,UK EARLY CHILDHOOD LAB,ROOM 12 ERIKSON HALL,LEXINGTON,KY,40506,NOT AVAILABLE,(859) 257-7732
100344,210228000473,FARMINGTON ELEMENTARY SCHOOL,7730 STATE RT 121 S,MAYFIELD,KY,42066,NOT AVAILABLE,(270) 328-4830
101222,210028902094,BRECKINRIDGE COUNTY AREA TECHNOLOGY CTR,1915 E HWY 60,HARNED,KY,40144,NOT AVAILABLE,(270) 756-2138
105029,210186002486,BRENDA COWAN ELEMENTARY,4801 ATHENS-BOONESBORO ROAD,LEXINGTON,KY,40509,NOT AVAILABLE,(859) 381-4000
