OBJECTID,NCESID,NAME,ADDRESS,CITY,STATE,ZIP,ZIP4,TELEPHONE
13507,220090000727,WEST THIBODAUX MIDDLE SCHOOL,1111 EAST TWELFTH STREET,THIBODAUX,LA,70301,NOT AVAILABLE,(985) 446-6889
14097,220165000412,FONTAINEBLEAU HIGH SCHOOL,100 BULLDOG DRIVE,MANDEVILLE,LA,70471,NOT AVAILABLE,(985) 892-7112
14404,220087000677,LAFAYETTE MIDDLE SCHOOL,1301 WEST UNIVERSITY AVENUE,LAFAYETTE,LA,70506,NOT AVAILABLE,(337) 521-7900
16644,220054000411,PARKVIEW ELEMENTARY SCHOOL,5660 PARK FOREST,BATON ROUGE,LA,70816,NOT AVAILABLE,(225) 293-5615
17068,220153001488,EAST ST. JOHN HIGH SCHOOL,#1 WILDCAT DRIVE,RESERVE,LA,70084,NOT AVAILABLE,(985) 536-4226
17882,220180001661,NORTH VERMILION HIGH SCHOOL,11609 LA HIGHWAY 699,MAURICE,LA,70555,NOT AVAILABLE,(337) 898-1491
1984,220165001292,SALMEN HIGH SCHOOL,300 SPARTAN DRIVE,SLIDELL,LA,70458,NOT AVAILABLE,(985) 643-7359
2136,220192001463,PORT ALLEN ELEMENTARY SCHOOL,609 ROSEDALE STREET,PORT ALLEN,LA,70767,NOT AVAILABLE,(225) 343-7586
3353,220087000680,GREEN T. LINDON ELEMENTARY SCHOOL,603 AVENUE B,YOUNGSVILLE,LA,70592,NOT AVAILABLE,(337) 521-7720
7544,220051000337,STANLEY HIGH SCHOOL,14323 HWY. 84,LOGANSPORT,LA,71049,NOT AVAILABLE,(318) 697-2664
8853,220090000702,CUT OFF ELEMENTARY SCHOOL,177 WEST 55TH STREET,CUT OFF,LA,70345,NOT AVAILABLE,(985) 632-3116
9272,220003000015,MERMENTAU ELEMENTARY SCHOOL,405 CHURCH STREET,MERMENTAU,LA,70556,0250,(337) 824-1943
40609,220168001310,KENTWOOD HIGH MAGNET SCHOOL,603 9TH STREET,KENTWOOD,LA,70444,NOT AVAILABLE,(985) 229-2881
46809,220120000993,KIROLI ELEMENTARY SCHOOL,700 KIROLI ROAD,WEST MONROE,LA,71291,NOT AVAILABLE,(318) 396-1118
49451,220012000053,LABADIEVILLE PRIMARY SCHOOL,3045 HWY 1,LABADIEVILLE,LA,70372,NOT AVAILABLE,(985) 526-8220
63375,220174001366,SOUTHDOWN ELEMENTARY SCHOOL,1124 ST. CHARLES STREET,HOUMA,LA,70360,NOT AVAILABLE,(985) 872-9429
64146,220120001683,RICHWOOD JUNIOR HIGH SCHOOL,5901 HIGHWAY 165 S,MONROE,LA,71202,NOT AVAILABLE,(318) 432-2000
67486,220183001407,EVANS HIGH SCHOOL,HIGHWAY 111,EVANS,LA,70639,NOT AVAILABLE,(337) 286-5289
105075,220030902475,OPPORTUNITIES ACADEMY,2625 THALIA ST.,NEW ORLEANS,LA,70113,NOT AVAILABLE,(504) 503-1421
105099,220084002478,YOUNG AUDIENCES CHARTER HIGH SCHOOL,418 4TH STREET,GRETNA,LA,70053,NOT AVAILABLE,(504) 304-6332
20403,220162001249,LAGRANGE ELEMENTARY SCHOOL,2129 CHATSWORTH ROAD,FRANKLIN,LA,70538,9738,(337) 828-1991
22385,220165001277,FIFTH WARD JUNIOR HIGH SCHOOL,81419 HIGHWAY 21,BUSH,LA,70431,NOT AVAILABLE,(985) 886-3273
23136,220033000237,SAM HOUSTON HIGH SCHOOL,880 S H JONES PARKWAY,LAKE CHARLES,LA,70611,NOT AVAILABLE,(337) 217-4480
23300,220051000334,MANSFIELD HIGH SCHOOL,401 KINGS HIGHWAY,MANSFIELD,LA,71052,NOT AVAILABLE,(318) 872-0793
24758,220030000187,PINE GROVE ELEMENTARY SCHOOL,1700 CALDWELL STREET,SHREVEPORT,LA,71107,NOT AVAILABLE,(318) 424-7191
25569,220006000027,KINDER HIGH SCHOOL,145 HWY 383,KINDER,LA,70648,NOT AVAILABLE,(337) 738-2886
26426,220054000441,WESTDALE HEIGHTS ACADEMIC MAGNET SCHOOL,2000 COLLEGE DRIVE,BATON ROUGE,LA,70808,NOT AVAILABLE,(225) 926-5421
80351,220162001255,PATTERSON JUNIOR HIGH SCHOOL,225 CATHERINE STREET,PATTERSON,LA,70392,1916,(985) 395-6772
82021,220063000471,BAYOU CHICOT ELEMENTARY SCHOOL,4576 HIGHWAY 167 NORTH,VILLE PLATTE,LA,70586,NOT AVAILABLE,(337) 461-2687
82910,220018000083,EAST BEAUREGARD HIGH SCHOOL,5364 HIGHWAY 113,DERIDDER,LA,70634,NOT AVAILABLE,(337) 328-7512
85898,220033000223,COLLEGE OAKS ELEMENTARY SCHOOL,3618 ERNEST STREET,LAKE CHARLES,LA,70605,NOT AVAILABLE,(337) 217-4560
87446,220129001055,ARTHUR F. SMITH MIDDLE MAGNET SCHOOL,3100 JONES STREET,ALEXANDRIA,LA,71302,NOT AVAILABLE,(318) 445-6241
87469,220102002315,SOUTH FORK ELEMENTARY SCHOOL,23000 WALKER ROAD SOUTH,DENHAM SPRINGS,LA,70726,NOT AVAILABLE,(225) 665-0446
87659,220096000738,LASALLE JUNIOR HIGH SCHOOL,5960 TANNEHILL DRIVE,URANIA,LA,71480,NOT AVAILABLE,(318) 495-3474
89053,220033000236,HENRY HEIGHTS ELEMENTARY SCHOOL,3600 LOUISIANA AVENUE,LAKE CHARLES,LA,70607,NOT AVAILABLE,(337) 217-4620
31771,220054000383,HIGHLAND ELEMENTARY SCHOOL,280 SUNSET BLVD,BATON ROUGE,LA,70808,NOT AVAILABLE,(225) 766-1272
31787,220072002078,MAGNOLIA ELEMENTARY,3116 EAST ADMIRAL DOYLE DRIVE,NEW IBERIA,LA,70560,NOT AVAILABLE,(337) 369-6120
32055,220108000798,ROY NEAL SHELLING SR. ELEMENTARY,4200 ELM STREET,MONROE,LA,71203,NOT AVAILABLE,(318) 322-9533
35423,220054000376,GLEN OAKS PARK ELEMENTARY SCHOOL,5656 LANIER DRIVE,BATON ROUGE,LA,70812,NOT AVAILABLE,(225) 356-4521
36948,220153002281,EMILY C. WATKINS ELEMENTARY,938 LA HIGHWAY 628,LAPLACE,LA,70068,NOT AVAILABLE,(985) 652-1593
37656,220180001568,RENE A. ROST MIDDLE SCHOOL,112 WEST SIXTH STREET,KAPLAN,LA,70548,NOT AVAILABLE,(337) 643-8545
38866,220009001541,DUTCHTOWN HIGH SCHOOL,13165 HWY 73,GEISMAR,LA,70734,NOT AVAILABLE,(225) 391-6200
91078,220021000095,GIBSLAND-COLEMAN HIGH SCHOOL,10TH STREET,GIBSLAND,LA,71028,NOT AVAILABLE,(318) 843-6247
99939,220156001203,OPELOUSAS JUNIOR HIGH SCHOOL,730 SOUTH MARKET STREET,OPELOUSAS,LA,70570,NOT AVAILABLE,(337) 942-4957
51269,220165001266,BAYOU LACOMBE MIDDLE SCHOOL,27527 ST. JOSEPH,LACOMBE,LA,70445,NOT AVAILABLE,(985) 882-5416
51624,220159001231,TECHE ELEMENTARY SCHOOL,2439 MAIN HWY.,BREAUX BRIDGE,LA,70517,NOT AVAILABLE,(337) 667-6400
53099,220087001556,OSSUN ELEMENTARY SCHOOL,400 RUE SCHOLASTIQUE,LAFAYETTE,LA,70507,NOT AVAILABLE,(337) 521-7770
57247,220117002438,ELAN ACADEMY CHARTER SCHOOL,709 PARK BLVD,NEW ORLEANS,LA,70114,NOT AVAILABLE,(504) 619-9720
57602,220029100945,ELEANOR MCMAIN SECONDARY SCHOOL,5712 SOUTH CLAIBORNE AVENUE,NEW ORLEANS,LA,70125,NOT AVAILABLE,(504) 324-7500
59259,220183001847,ANACOCO ELEMENTARY SCHOOL,4726 PORT ARTHUR AVENUE,ANACOCO,LA,71403,NOT AVAILABLE,(337) 239-3040
59725,220153000427,JOHN L. ORY COMMUNICATIONS MAGNET ELEMENTARY,182 WEST FIFTH STREET,LAPLACE,LA,70068,NOT AVAILABLE,(985) 651-3700
59860,220054002069,SCOTLANDVILLE PRE-ENGINEERING ACADEMY,9147 ELM GROVE GARDEN,BATON ROUGE,LA,70807,NOT AVAILABLE,(225) 775-0776
70193,220045000312,HOMER JUNIOR HIGH SCHOOL,612 PELICAN DRIVE,HOMER,LA,71040,NOT AVAILABLE,(318) 927-2826
70568,220102001720,GRAY'S CREEK ELEMENTARY SCHOOL,11400 LA HWY 1033,DENHAM SPRINGS,LA,70726,NOT AVAILABLE,(225) 667-1808
72313,220129001052,MARY GOFF ELEMENTARY SCHOOL,6900 SHREVEPORT HIGHWAY,PINEVILLE,LA,71360,NOT AVAILABLE,(318) 640-3416
73476,220063000480,W. W. STEWART ELEMENTARY SCHOOL,1032 BELTON STREET,BASILE,LA,70515,NOT AVAILABLE,(337) 432-6412
74647,220084000637,METAIRIE ACADEMY FOR ADVANCED STUDIES,201 METAIRIE ROAD,METAIRIE,LA,70005,4538,(504) 833-5539
74828,220129001943,NORTHWOOD HIGH SCHOOL,8830 HIGHWAY 1 NORTH,LENA,LA,71447,NOT AVAILABLE,(318) 793-8021
75290,220180001387,DOZIER ELEMENTARY SCHOOL,415 WEST PRIMEAUX,ERATH,LA,70533,NOT AVAILABLE,(337) 937-6915
76705,220174001339,BROADMOOR ELEMENTARY SCHOOL,1010 BROADMOOR AVENUE,HOUMA,LA,70364,NOT AVAILABLE,(985) 879-1042
77982,220084002051,L. W. RUPPEL ACADEMY FOR ADVANCED STUDIES,815 HUEY P. LONG AVENUE,GRETNA,LA,70053,NOT AVAILABLE,(504) 349-7768
55,220026302405,WILLOW CHARTER ACADEMY,1818 NORTHEAST EVANGELINE THROUGHWAY,LAFAYETTE,LA,70501,NOT AVAILABLE,(337) 534-8218
60,220084002419,JEFFERSON RISE CHARTER SCHOOL,501 LAPALCO BLVD,GRETNA,LA,70056,7304,(504) 410-5905
1075,220024902367,MILDRED OSBORNE CHARTER SCHOOL,6701 CURRAN BLVD,NEW ORLEANS,LA,70126,1719,(504) 400-0614
1076,220025000872,ESPERANZA CHARTER SCHOOL,4407 SOUTH CARROLLTON AVENUE,NEW ORLEANS,LA,70119,6823,(504) 373-6272
1081,220025402408,DEMOCRACY PREP BATON ROUGE,4055 PRESCOTT ROAD,BATON ROUGE,LA,70805,5146,(225) 372-2037
4895,220174001952,GRAND CAILLOU MIDDLE SCHOOL,2161 GRAND CAILLOU ROAD,HOUMA,LA,70363,NOT AVAILABLE,(985) 563-4488
6228,220027802436,NOBLE MINDS,1333 S. CARROLLTON AVENUE,NEW ORLEANS,LA,70114,NOT AVAILABLE,(504) 919-0451
42284,220030000202,SUNSET ACRES ELEMENTARY SCHOOL,6514 WEST CANAL BOULEVARD,SHREVEPORT,LA,71108,NOT AVAILABLE,(318) 631-7121
42291,220033000240,M. J. KAUFMAN ELEMENTARY SCHOOL,301 TEKEL ROAD,LAKE CHARLES,LA,70607,NOT AVAILABLE,(337) 217-4740
42306,220129001060,MARTIN PARK ELEMENTARY SCHOOL,4203 LISA STREET,ALEXANDRIA,LA,71302,NOT AVAILABLE,(318) 448-1695
42307,220129001072,POLAND JUNIOR HIGH SCHOOL,3348 HIGHWAY 457,ALEXANDRIA,LA,71302,NOT AVAILABLE,(318) 445-9224
43944,220054000628,CHILDREN'S CHARTER SCHOOL,1143 NORTH STREET,BATON ROUGE,LA,70802,4547,(225) 387-9273
46975,220009000041,GONZALES PRIMARY SCHOOL,521 NORTH BURNSIDE AVENUE,GONZALES,LA,70737,NOT AVAILABLE,(225) 391-6700
68088,220120001557,WEST RIDGE MIDDLE SCHOOL,6977 CYPRESS STREET,WEST MONROE,LA,71291,NOT AVAILABLE,(318) 397-8444
69076,220042000294,BLOCK HIGH SCHOOL,300 DIVISION STREET,JONESVILLE,LA,71343,NOT AVAILABLE,(318) 339-7996
51259,220018000082,DERIDDER JUNIOR HIGH SCHOOL,415 FRUSHA DRIVE,DERIDDER,LA,70634,NOT AVAILABLE,(337) 463-9083
51263,220156001182,EUNICE JUNIOR HIGH SCHOOL,751 WEST OAK STREET,EUNICE,LA,70535,NOT AVAILABLE,(337) 457-7386
51509,228010002016,WINN CORRECTIONAL CENTER,HIGHWAY 560 GUM SPRINGS ROAD,WINNFIELD,LA,71483,NOT AVAILABLE,(318) 628-3971
51951,220022400914,LAFAYETTE ACADEMY,2727 SOUTH CARROLLTON AVENUE,NEW ORLEANS,LA,70118,NOT AVAILABLE,(504) 861-8370
53442,220003000019,RAYNE HIGH SCHOOL,1016 NORTH POLK STREET,RAYNE,LA,70578,6199,(337) 334-3691
54389,220022602391,CELERITY LANIER CHARTER SCHOOL,4705 LANIER DR,BATON ROUGE,LA,70812,NOT AVAILABLE,(225) 290-1564
58655,220192001464,PORT ALLEN HIGH SCHOOL,3553 ROSEDALE ROAD,PORT ALLEN,LA,70767,NOT AVAILABLE,(225) 383-1107
90160,220018000086,MERRYVILLE HIGH SCHOOL,7061 HIGHWAY 110 WEST,MERRYVILLE,LA,70653,NOT AVAILABLE,(337) 825-8046
95013,220006000024,ELIZABETH HIGH SCHOOL,440 LIVE OAK STREET,ELIZABETH,LA,70638,NOT AVAILABLE,(318) 634-5341
97907,220084000652,WASHINGTON MONTESSORI,606 CLAY STREET,KENNER,LA,70062,7643,(504) 464-9111
80578,220165002255,LAKESHORE HIGH SCHOOL,26301 HIGHWAY 1088,MANDEVILLE,LA,70488,NOT AVAILABLE,(985) 624-5046
82226,220114000828,EAST NATCHITOCHES ELEMENTARY & MIDDLE SCHOOL,1001 EAST FIFTH STREET,NATCHITOCHES,LA,71457,NOT AVAILABLE,(318) 352-4516
82909,220015000064,COTTONPORT ELEMENTARY,950 LEMOINE STREET,COTTONPORT,LA,71327,NOT AVAILABLE,(318) 876-3404
82915,220108000788,CARROLL JUNIOR HIGH SCHOOL,2945 RENWICK STREET,MONROE,LA,71201,NOT AVAILABLE,(318) 322-1683
87128,220003000001,ARMSTRONG MIDDLE SCHOOL,900 MARTIN LUTHER KING DRIVE,RAYNE,LA,70578,4611,(337) 334-3377
88093,220015602270,INTERNATIONAL HIGH SCHOOL OF NEW ORLEANS,727 CARONDELET STREET,NEW ORLEANS,LA,70130,NOT AVAILABLE,(504) 613-5703
88929,220030000158,CADDO PARISH MIDDLE MAGNET SCHOOL,7635 CORNELIOUS DRIVE,SHREVEPORT,LA,71106,NOT AVAILABLE,(318) 868-6588
89536,220162001253,WEST ST. MARY HIGH SCHOOL,18333 HWY 182 WEST,BALDWIN,LA,70514,NOT AVAILABLE,(337) 924-7990
105086,220032002489,PIERRE A. CAPDAU CHARTER SCHOOL,5800 ST. ROCH AVENUE,NEW ORLEANS,LA,70122,NOT AVAILABLE,(504) 227-3086
10136,220042000295,CENTRAL HIGH SCHOOL,244 LARTO BAYOU ROAD,JONESVILLE,LA,71343,NOT AVAILABLE,(318) 339-7574
13805,220102000771,SOUTHSIDE ELEMENTARY SCHOOL,1129 SOUTH RANGE AVENUE,DENHAM SPRINGS,LA,70726,NOT AVAILABLE,(225) 665-5500
15705,220060000715,EAST FELICIANA PARISH ENRICHMENT ACADEMY,10410 PLANK ROAD,CLINTON,LA,70722,NOT AVAILABLE,(225) 683-8198
16726,220129001068,PINEVILLE ELEMENTARY SCHOOL,835 MAIN STREET,PINEVILLE,LA,71360,NOT AVAILABLE,(318) 442-8154
17067,220153001493,LAPLACE ELEMENTARY SCHOOL,393 GREENWOOD DRIVE,LAPLACE,LA,70068,NOT AVAILABLE,(985) 652-5552
17443,220030001918,KEITHVILLE ELEMENTARY/MIDDLE SCHOOL,12201 MANSFIELD ROAD,KEITHVILLE,LA,71047,NOT AVAILABLE,(318) 925-1005
30542,220084000624,HAROLD KELLER ELEMENTARY SCHOOL,5301 IRVING STREET,METAIRIE,LA,70003,1199,(504) 887-3836
31033,220180001398,KAPLAN HIGH SCHOOL,200 EAST PIRATE LANE,KAPLAN,LA,70548,NOT AVAILABLE,(337) 643-6385
31298,220009002279,CENTRAL PRIMARY SCHOOL,41469 LA HWY 621,GONZALES,LA,70737,NOT AVAILABLE,(225) 391-7700
33448,220102000233,SOUTH LIVE OAK ELEMENTARY SCHOOL,8400 CECIL DRIVE,WATSON,LA,70786,NOT AVAILABLE,(225) 667-9330
34234,220009002076,PRAIRIEVILLE PRIMARY SCHOOL,40228 PARKER ROAD,PRAIRIEVILLE,LA,70769,NOT AVAILABLE,(225) 391-7400
34235,220012502090,CENTRAL INTERMEDIATE SCHOOL,12636 SULLIVAN ROAD,CENTRAL,LA,70818,NOT AVAILABLE,(225) 261-1390
34881,220174001361,OAKLAWN JUNIOR HIGH SCHOOL,2215 ACADIAN DRIVE,HOUMA,LA,70363,NOT AVAILABLE,(985) 872-3904
36679,220153002003,FIFTH WARD ELEMENTARY SCHOOL,158 PANTHER DRIVE,RESERVE,LA,70084,NOT AVAILABLE,(985) 536-4221
73994,220183001405,ANACOCO HIGH SCHOOL,4740 PORT ARTHUR AVENUE,ANACOCO,LA,71403,NOT AVAILABLE,(337) 239-3039
74499,220030000154,CLAIBORNE FUNDAMENTAL ELEMENTARY SCHOOL,2345 CLAIBORNE AVENUE,SHREVEPORT,LA,71103,NOT AVAILABLE,(318) 222-2580
20402,220156001896,SOUTH STREET ELEMENTARY SCHOOL,409 EAST SOUTH STREET,OPELOUSAS,LA,70571,1297,(337) 942-8127
20658,220129001064,OAK HILL HIGH SCHOOL,7362 HIGHWAY 112,ELMER,LA,71424,NOT AVAILABLE,(318) 793-2014
21630,220180001394,JAMES A. HEROD ELEMENTARY SCHOOL,120 ODEA STREET,ABBEVILLE,LA,70510,NOT AVAILABLE,(337) 893-4258
22519,220084000595,ELLA DOLHONDE ELEMENTARY SCHOOL,219 SEVERN AVENUE,METAIRIE,LA,70001,5198,(504) 837-5370
25032,220084000653,KENNER DISCOVERY HEALTH SCIENCES ACADEMY,2504 MAINE AVENUE,KENNER,LA,70062,NOT AVAILABLE,(504) 233-4720
25271,220012000048,ASSUMPTION HIGH SCHOOL,4880 HWY 308,NAPOLEONVILLE,LA,70390,NOT AVAILABLE,(985) 369-2956
28729,220096000730,GOODPINE MIDDLE SCHOOL,12642 HWY 84 WEST,JENA,LA,71342,NOT AVAILABLE,(318) 992-5665
71250,220084000635,MCDONOGH 26/HOMEDALE ELEMENTARY SCHOOL,1200 JEFFERSON STREET,GRETNA,LA,70053,3159,(504) 362-9929
76722,220159001217,BREAUX BRIDGE JUNIOR HIGH SCHOOL,100 MARTIN STREET,BREAUX BRIDGE,LA,70517,NOT AVAILABLE,(337) 332-2844
91987,220084000630,LIVAUDAIS MIDDLE SCHOOL,925 LAMAR AVENUE,TERRYTOWN,LA,70056,4598,(504) 393-7544
97039,220051000331,LOGANSPORT HIGH SCHOOL,17228 HWY. 5,LOGANSPORT,LA,71049,NOT AVAILABLE,(318) 697-4338
99499,220081000575,WELSH-ROANOKE JUNIOR HIGH SCHOOL,8150 WEST HIGHWAY 90,ROANOKE,LA,70581,NOT AVAILABLE,(337) 753-2317
100717,220099000744,DUBACH SCHOOL,7710 FELLOWSHIP RD,DUBACH,LA,71235,NOT AVAILABLE,(318) 777-3470
105091,220039002482,GRAND LAKE ELEMENTARY,1039 HWY 384,LAKE CHARLES,LA,70607,NOT AVAILABLE,(337) 905-2231
105107,220123002456,BELLE CHASSE PRIMARY SCHOOL,601 F. EDWARD HEBERT BLVD.,BELLE CHASSE,LA,70037,NOT AVAILABLE,(504) 595-6620
80124,220033000273,T. H. WATKINS ELEMENTARY SCHOOL,2501 SEVENTH AVENUE,LAKE CHARLES,LA,70601,NOT AVAILABLE,(337) 217-4590
80348,220015000063,BUNKIE MAGNET HIGH SCHOOL,435 EVERGREEN STREET,BUNKIE,LA,71322,NOT AVAILABLE,(318) 346-6216
80352,220174001339,BROADMOOR ELEMENTARY SCHOOL,1010 BROADMOOR AVENUE,HOUMA,LA,70364,NOT AVAILABLE,(985) 879-1042
81219,220138001116,PLEASANT HILL HIGH SCHOOL,2601 W 2ND STREET,PLEASANT HILL,LA,71065,NOT AVAILABLE,(318) 796-3670
81340,220072000523,LOREAUVILLE HIGH SCHOOL,410 NORTH MAIN STREET,LOREAUVILLE,LA,70552,NOT AVAILABLE,(337) 229-4701
82913,220087001147,CHARLES M. BURKE ELEMENTARY SCHOOL,2845 RIDGE RD.,DUSON,LA,70529,NOT AVAILABLE,(337) 521-7630
83256,220087001598,EVANGELINE ELEMENTARY SCHOOL,610 EAST BUTCHER SWITCH ROAD,LAFAYETTE,LA,70507,NOT AVAILABLE,(337) 521-7670
84048,220165001264,W.L. ABNEY ELEMENTARY SCHOOL,825 KOSTMAYER AVENUE,SLIDELL,LA,70458,NOT AVAILABLE,(985) 643-4044
86835,220009001977,ST. AMANT PRIMARY SCHOOL,44365 HWY 429,ST. AMANT,LA,70774,NOT AVAILABLE,(225) 391-7950
87626,220129001051,GLENMORA HIGH SCHOOL,1414 7TH STREET,GLENMORA,LA,71433,NOT AVAILABLE,(318) 748-8145
89959,220084000658,STELLA WORLEY MIDDLE SCHOOL,801 SPARTAN DRIVE,WESTWEGO,LA,70094,4660,(504) 348-4964
52916,220024200917,RENEW SCITECH ACADEMY AT LAUREL,820 JACKSON AVENUE,NEW ORLEANS,LA,70130,4940,(504) 267-4574
54409,220023302320,LOUISIANA VIRTUAL CHARTER ACADEMY,4962 FLORIDA BLVD,BATON ROUGE,LA,70806,NOT AVAILABLE,(504) 322-7543
54411,220023802341,WALTER L. COHEN COLLEGE PREP,3520 DRYADES STREET,NEW ORLEANS,LA,70115,NOT AVAILABLE,(504) 335-0404
56076,220030002431,AMIKIDS CADDO,3860 HUTCHINSON,SHREVEPORT,LA,71109,NOT AVAILABLE,(318) 636-0730
57878,220144001142,R.K. SMITH MIDDLE SCHOOL,281 JUDGE EDWARD DUFRESNE PARKWAY,LULING,LA,70070,NOT AVAILABLE,(985) 331-1018
58493,220030000160,FAIRFIELD MAGNET SCHOOL,6215 FAIRFIELD AVENUE,SHREVEPORT,LA,71106,NOT AVAILABLE,(318) 868-9826
58978,220033001506,RALPH F. WILSON ELEMENTARY SCHOOL,1400 OPELOUSAS STREET,LAKE CHARLES,LA,70601,NOT AVAILABLE,(337) 217-4750
59660,220162001242,FRANKLIN SENIOR HIGH SCHOOL,1401 CYNTHIA STREET,FRANKLIN,LA,70538,3795,(337) 828-0143
25102,220087000687,CORPORAL MICHAEL MIDDLEBROOK ELEMENTARY SCHOOL,1801 KALISTE SALOOM ROAD,LAFAYETTE,LA,70508,NOT AVAILABLE,(337) 521-7780
27833,220141001533,W. SMITH JR. ELEMENTARY SCHOOL,6701 ST. BERNARD HWY.,VIOLET,LA,70092,NOT AVAILABLE,(504) 302-1000
28115,220039000290,HACKBERRY HIGH SCHOOL,1390 SCHOOL STREET,HACKBERRY,LA,70645,NOT AVAILABLE,(337) 762-3305
61756,220033000256,OAK PARK ELEMENTARY SCHOOL,2001 18TH STREET,LAKE CHARLES,LA,70601,NOT AVAILABLE,(337) 217-4850
66446,220003001015,IOTA MIDDLE SCHOOL,426 SOUTH FIFTH STREET,IOTA,LA,70543,6024,(337) 779-2536
66538,220168002274,JEWEL M. SUMNER MIDDLE SCHOOL,15649 HIGHWAY 440,KENTWOOD,LA,70444,NOT AVAILABLE,(985) 310-2152
30049,220006000026,KINDER ELEMENTARY SCHOOL,412 NORTH 12TH STREET,KINDER,LA,70648,NOT AVAILABLE,(337) 738-2454
30847,220168001304,HAMMOND HIGH MAGNET SCHOOL,45168 RIVER ROAD,HAMMOND,LA,70401,NOT AVAILABLE,(985) 345-7235
34806,220063000476,MAMOU ELEMENTARY SCHOOL,1205 FOURTH STREET,MAMOU,LA,70554,NOT AVAILABLE,(337) 468-3123
36593,220030000181,NORTHSIDE ELEMENTARY SCHOOL,1845 LINEAR ST.,SHREVEPORT,LA,71107,NOT AVAILABLE,(318) 221-3896
10280,220087000672,J.W. FAULK ELEMENTARY SCHOOL,711 EAST WILLOW STREET,LAFAYETTE,LA,70501,NOT AVAILABLE,(337) 521-7680
10625,220030000188,QUEENSBOROUGH ELEMENTARY SCHOOL,2701 CATHERINE STREET,SHREVEPORT,LA,71109,NOT AVAILABLE,(318) 631-8784
10750,220054000388,JEFFERSON TERRACE ELEMENTARY SCHOOL,9902 CAL ROAD,BATON ROUGE,LA,70809,NOT AVAILABLE,(225) 293-3210
12625,220102000763,FRESHWATER ELEMENTARY SCHOOL,1025 COCKERHAM ROAD,DENHAM SPRINGS,LA,70726,NOT AVAILABLE,(225) 665-5371
15780,220090000712,LOCKPORT MIDDLE SCHOOL,720 MAIN STREET,LOCKPORT,LA,70374,NOT AVAILABLE,(985) 532-2597
17156,220105000781,TALLULAH ELEMENTARY SCHOOL,1100 JOHNSON STREET,TALLULAH,LA,71282,NOT AVAILABLE,(318) 574-0732
19172,220072001925,DASPIT ROAD ELEMENTARY SCHOOL,1103 DASPIT ROAD,NEW IBERIA,LA,70563,NOT AVAILABLE,(337) 364-2371
19760,220030000165,HERNDON MAGNET SCHOOL,11845 GAMM ROAD,BELCHER,LA,71004,NOT AVAILABLE,(318) 221-7676
42286,220030000209,WERNER PARK ELEMENTARY SCHOOL,2715 CORBITT STREET,SHREVEPORT,LA,71108,NOT AVAILABLE,(318) 635-9633
42293,220087000665,BROUSSARD MIDDLE SCHOOL,1325 SOUTH MORGAN AVENUE,BROUSSARD,LA,70518,NOT AVAILABLE,(337) 521-7870
42308,220144001141,HAHNVILLE HIGH SCHOOL,200 TIGER DRIVE,BOUTTE,LA,70039,NOT AVAILABLE,(985) 758-7537
42309,220153001495,EAST ST. JOHN PREPARATORY ACADEMY,400 ORY DRIVE,LAPLACE,LA,70068,NOT AVAILABLE,(985) 536-8450
45827,220168001306,INDEPENDENCE LEADERSHIP ACADEMY,221 TIGER AVENUE,INDEPENDENCE,LA,70443,NOT AVAILABLE,(985) 878-4946
47420,220084000656,WOODLAND WEST ELEMENTARY SCHOOL,2143 MARS STREET,HARVEY,LA,70058,2948,(504) 366-5308
47441,220084000617,HAYNES ACADEMY SCHOOL FOR ADVANCED STUDIES,1416 METAIRIE ROAD,METAIRIE,LA,70005,3999,(504) 837-8300
47880,220084001813,JOSHUA BUTLER ELEMENTARY SCHOOL,300 FOURTH STREET,WESTWEGO,LA,70094,4398,(504) 341-1351
49613,220102000762,FRENCH SETTLEMENT HIGH SCHOOL,15875 LA HIGHWAY 16,FRENCH SETTLEMENT,LA,70733,NOT AVAILABLE,(225) 698-3561
965,220022500860,PIERRE A. CAPDAU CHARTER SCHOOL AT AVERY ALEXANDER,5800 ST. ROCH AVE.,NEW ORLEANS,LA,70122,NOT AVAILABLE,(504) 872-9257
4192,220129001044,SCOTT M. BRAME MIDDLE SCHOOL,4800 DAWN STREET,ALEXANDRIA,LA,71301,NOT AVAILABLE,(318) 443-3688
6805,220025502376,RENEW SCHAUMBURG ELEMENTARY,12000 HAYNE BLVD,NEW ORLEANS,LA,70128,NOT AVAILABLE,(504) 367-3307
8234,220174001365,SCHRIEVER ELEMENTARY SCHOOL,2052 WEST MAIN,SCHRIEVER,LA,70395,NOT AVAILABLE,(985) 868-1199
92478,220144001145,J.B. MARTIN MIDDLE SCHOOL,434 SOUTH STREET,PARADIS,LA,70080,NOT AVAILABLE,(985) 758-7579
92888,220021000091,BIENVILLE HIGH SCHOOL,325 MAIN STREET HWY 507,BIENVILLE,LA,71008,NOT AVAILABLE,(318) 385-7591
60184,220162001947,M.E. NORMAN ELEMENTARY SCHOOL,900 SPRUCE ST,MORGAN CITY,LA,70380,1831,(985) 384-0877
63314,220102001678,LIVINGSTON PARISH LITERACY & TECHNOLOGY CENTER,9261 FLORIDA BLVD.,WALKER,LA,70785,NOT AVAILABLE,(225) 667-5268
64583,220174001503,VILLAGE EAST ELEMENTARY SCHOOL,315 LAFAYETTE WOODS,HOUMA,LA,70363,NOT AVAILABLE,(985) 868-4900
66008,220174001368,TERREBONNE HIGH SCHOOL,7318 MAIN STREET,HOUMA,LA,70360,NOT AVAILABLE,(985) 879-3377
66386,220102001558,LIVE OAK MIDDLE SCHOOL,8444 CECIL DRIVE,WATSON,LA,70706,NOT AVAILABLE,(225) 664-3211
67958,220027001574,T.L. RODES ELEMENTARY SCHOOL,4670 EAST HIGHWAY 80,HAUGHTON,LA,71037,NOT AVAILABLE,(318) 549-5940
81866,220192000419,BRUSLY ELEMENTARY SCHOOL,400 SOUTH LABAUVE AVE.,BRUSLY,LA,70719,NOT AVAILABLE,(225) 749-2125
81887,220018000081,DERIDDER HIGH SCHOOL,723 O`NEAL STREET,DERIDDER,LA,70634,NOT AVAILABLE,(337) 463-3266
82693,220072002085,JEFFERSON ISLAND ROAD ELEMENTARY,6007 JEFFERSON ISLAND ROAD,NEW IBERIA,LA,70560,NOT AVAILABLE,(337) 365-1120
83433,220183001417,VERNON MIDDLE SCHOOL,1410 NONA STREET,LEESVILLE,LA,71446,NOT AVAILABLE,(337) 238-1505
85127,220102000777,WESTSIDE JUNIOR HIGH SCHOOL,12615 BURGESS AVENUE,WALKER,LA,70785,NOT AVAILABLE,(225) 665-8259
89532,220087000670,KATHARINE DREXEL ELEMENTARY SCHOOL,409 ST. DEPORRES AVENUE,BROUSSARD,LA,70518,NOT AVAILABLE,(337) 521-7650
51264,220159001229,ST. MARTINVILLE SENIOR HIGH SCHOOL,762 N. MAIN STREET,ST. MARTINVILLE,LA,70582,NOT AVAILABLE,(337) 394-3135
51268,220165000589,FONTAINEBLEAU JUNIOR HIGH SCHOOL,100 HURRICANE ALLEY,MANDEVILLE,LA,70471,NOT AVAILABLE,(985) 875-7501
52517,220120001021,WOODLAWN MIDDLE SCHOOL,175 WOODLAWN SCHOOL ROAD,WEST MONROE,LA,71292,NOT AVAILABLE,(318) 325-1575
53314,220180001695,GUEYDAN HIGH SCHOOL,901 MAIN STREET,GUEYDAN,LA,70542,NOT AVAILABLE,(337) 536-6938
55236,220168001316,LUCILLE NESOM MEMORIAL,HWY. 442 WEST,TICKFAW,LA,70466,NOT AVAILABLE,(985) 345-2166
55328,220165001265,ALTON ELEMENTARY SCHOOL,38276 NORTH 5TH AVENUE,SLIDELL,LA,70460,NOT AVAILABLE,(985) 863-5353
55571,220054000380,GREENBRIER ELEMENTARY SCHOOL,12203 CANTERBURY DR.,BATON ROUGE,LA,70814,NOT AVAILABLE,(225) 275-4260
56811,220144001152,R.J. VIAL ELEMENTARY SCHOOL,510 LOUISIANA STREET,PARADIS,LA,70080,NOT AVAILABLE,(985) 758-2771
57008,220027000113,APOLLO ELEMENTARY SCHOOL,2400 VIKING DRIVE,BOSSIER CITY,LA,71111,NOT AVAILABLE,(318) 549-6010
58521,228010001611,LOUISIANA CORRECTIONAL INSTITUTE FOR WOMEN,7205 HWY. 74,ST. GABRIEL,LA,70776,NOT AVAILABLE,(225) 319-2351
58809,220159001219,BREAUX BRIDGE HIGH SCHOOL,1015 BREAUX BRIDGE HIGH SCHOOL RD.,BREAUX BRIDGE,LA,70517,NOT AVAILABLE,(337) 332-3131
43383,220054000417,PROGRESS ELEMENTARY SCHOOL,855 PROGRESS ROAD,BATON ROUGE,LA,70807,NOT AVAILABLE,(225) 775-4986
44912,228010001607,DAVID WADE CORRECTIONAL CENTER,670 BELL HILL ROAD,HOMER,LA,71040,NOT AVAILABLE,(318) 927-0400
73037,220126001034,UPPER POINTE COUPEE ELEMENTARY SCHOOL,4739 LA HIGHWAY 419 WEST,BATCHELOR,LA,70715,NOT AVAILABLE,(225) 492-2555
76561,220027000137,RUSHEON MIDDLE SCHOOL,2401 OLD MINDEN ROAD,BOSSIER CITY,LA,71112,NOT AVAILABLE,(318) 549-6610
77253,220033000235,W. T. HENNING ELEMENTARY SCHOOL,774 HENNING DRIVE,SULPHUR,LA,70663,NOT AVAILABLE,(337) 217-4840
31470,220102000774,WALKER HIGH SCHOOL,12646 BURGESS AVENUE,WALKER,LA,70785,NOT AVAILABLE,(225) 664-4825
31630,220084000629,LINCOLN ELEMENTARY SCHOOL FOR THE ARTS,1429 AMES BLVD.,MARRERO,LA,70072,NOT AVAILABLE,(504) 340-8489
34390,220054000407,PARK ELEMENTARY SCHOOL,2700 FUQUA STREET,BATON ROUGE,LA,70802,NOT AVAILABLE,(225) 344-2145
36037,220015000069,LAFARGUE ELEMENTARY SCHOOL,3366 HIGHWAY 107,EFFIE,LA,71331,NOT AVAILABLE,(318) 253-9591
11199,220072000511,DELCAMBRE HIGH SCHOOL,601 WEST MAIN STREET,DELCAMBRE,LA,70528,NOT AVAILABLE,(337) 685-2595
12469,220102002312,JUBAN PARC JUNIOR HIGH SCHOOL,12470 BROWN ROAD,DENHAM SPRINGS,LA,70726,6835,(225) 664-1001
13156,220174001370,UPPER LITTLE CAILLOU ELEMENTARY SCHOOL,4824 HWY. 56,CHAUVIN,LA,70344,NOT AVAILABLE,(985) 594-4071
14081,220030000159,EIGHTY-FIRST STREET ECE CENTER,8108 FAIRFIELD AVENUE,SHREVEPORT,LA,71106,5630,(318) 865-3596
14491,220135001103,RAYVILLE JUNIOR HIGH SCHOOL,225 HWY. 3048,RAYVILLE,LA,71269,NOT AVAILABLE,(318) 728-3618
54,220084002416,FREDERICK DOUGLASS ELEMENTARY SCHOOL,1400 HUEY P. LONG AVENUE,GRETNA,LA,70053,6499,(504) 374-6010
5507,220054000353,BROADMOOR ELEMENTARY SCHOOL,4510 BAWELL STREET,BATON ROUGE,LA,70808,NOT AVAILABLE,(225) 925-0343
6718,220027000130,PARKWAY HIGH SCHOOL,2010 COLLEEN DRIVE,BOSSIER CITY,LA,71112,NOT AVAILABLE,(318) 759-2200
21815,228010001624,DIXON CORRECTIONAL INSTITUTE,5568 HWY. 68,JACKSON,LA,70748,NOT AVAILABLE,(225) 634-1200
23155,220090000721,SOUTH LAFOURCHE HIGH SCHOOL,16911 EAST MAIN STREET,CUTOFF,LA,70345,NOT AVAILABLE,(985) 632-5721
100298,220030000157,EDEN GARDENS FUNDAMENTAL ELEMENTARY SCHOOL,626 EDEN BOULEVARD,SHREVEPORT,LA,71106,NOT AVAILABLE,(318) 861-7654
101330,220042000304,SICILY ISLAND HIGH SCHOOL,303 FALCON AVENUE,SICILY ISLAND,LA,71368,NOT AVAILABLE,(318) 389-5337
105098,220084002464,RUPPEL ACADEMIE FRANCAISE,815 HUEY P LONG AVE,GRETNA,LA,70053,NOT AVAILABLE,(504) 361-8905
107157,220030502452,ATHLOS ACADEMY OF JEFFERSON PARISH,979 BEHRMAN HWY,TERRYTOWN,LA,70056,NOT AVAILABLE,(504) 290-2510
91583,220030000142,ATKINS TECHNOLOGY ELEMENTARY SCHOOL,7611 ST.VINCENT AVENUE,SHREVEPORT,LA,71106,NOT AVAILABLE,(318) 868-2810
96216,220054002404,SOUTH BATON ROUGE CHARTER ACADEMY,9211 PARKWAY DRIVE,BATON ROUGE,LA,70810,NOT AVAILABLE,(225) 349-7489
96613,220084000613,HARAHAN ELEMENTARY SCHOOL,6723 JEFFERSON HIGHWAY,HARAHAN,LA,70123,5046,(504) 737-3918
99169,220108000790,J.S. CLARK MAGNET ELEMENTARY SCHOOL,1207 WASHINGTON STREET,MONROE,LA,71201,NOT AVAILABLE,(318) 322-8976
99824,220031102463,GLEN OAKS MIDDLE SCHOOL,5300 MONARCH AVE,BATON ROUGE,LA,70811,NOT AVAILABLE,(225) 290-1564
30078,220123000366,BELLE CHASSE ELEMENTARY SCHOOL,539 F. EDWARD HEBERT BLVD.,BELLE CHASSE,LA,70037,NOT AVAILABLE,(504) 393-8940
33449,220165001281,LEE ROAD JUNIOR HIGH SCHOOL,79131 HIGHWAY 40,COVINGTON,LA,70435,NOT AVAILABLE,(985) 892-3636
34509,220048000319,FERRIDAY LOWER ELEMENTARY SCHOOL,110 BATEMAN DRIVE,FERRIDAY,LA,71334,NOT AVAILABLE,(318) 757-3293
35389,220117001938,BENJAMIN FRANKLIN ELEM. MATH AND SCIENCE,6101 CHATHAM DR.,NEW ORLEANS,LA,70122,NOT AVAILABLE,(504) 304-3932
35622,220180002273,LEBLANC ELEMENTARY SCHOOL,4511 EAST LA HIGHWAY 338,ABBEVILLE,LA,70510,NOT AVAILABLE,(337) 937-8110
35669,220054000425,SHARON HILLS ELEMENTARY SCHOOL,6450 GUYNELL DRIVE,BATON ROUGE,LA,70811,NOT AVAILABLE,(225) 355-6522
38962,220001701975,LOUISIANA SCHOOL FOR MATH SCIENCE & THE ARTS,715 UNIVERSITY PARKWAY,NATCHITOCHES,LA,71457,9990,(318) 357-2500
10626,220108000793,SALLIE HUMBLE ELEMENTARY SCHOOL,3800 WESTMINISTER AVENUE,MONROE,LA,71201,NOT AVAILABLE,(318) 325-7659
10742,220021000097,RINGGOLD ELEMENTARY SCHOOL,4044 BIENVILLE RD. SUITE A,RINGGOLD,LA,71068,NOT AVAILABLE,(318) 894-2911
13573,220102000773,SPRINGFIELD HIGH SCHOOL,32000 HWY 42,SPRINGFIELD,LA,70462,NOT AVAILABLE,(225) 294-3256
17643,220048000325,VIDALIA JUNIOR HIGH SCHOOL,210 GILLESPIE STREET,VIDALIA,LA,71373,NOT AVAILABLE,(318) 336-6227
17660,220063000483,VILLE PLATTE ELEMENTARY SCHOOL,708 HIGH SCHOOL DRIVE,VILLE PLATTE,LA,70586,NOT AVAILABLE,(337) 363-3068
19600,220147001154,ST. HELENA COLLEGE AND CAREER ACADEMY,14340 HIGHWAY 37,GREENSBURG,LA,70441,NOT AVAILABLE,(225) 222-4402
21433,220072001927,BELLE PLACE MIDDLE SCHOOL,4110 LOREAUVILLE ROAD,NEW IBERIA,LA,70563,NOT AVAILABLE,(337) 364-2141
22148,220030000151,CAPTAIN SHREVE HIGH SCHOOL,6115 EAST KINGS HIGHWAY,SHREVEPORT,LA,71105,NOT AVAILABLE,(318) 865-7137
22936,220090000707,GOLDEN MEADOW LOWER ELEMENTARY SCHOOL,118 ALCIDE STREET,GOLDEN MEADOW,LA,70357,NOT AVAILABLE,(985) 475-7385
54539,220024802401,KIPP EAST COMMUNITY,6519 VIRGILIAN ST,NEW ORLEANS,LA,70126,NOT AVAILABLE,(504) 301-2964
54844,220087000659,ACADIAN MIDDLE SCHOOL,4201 MOSS STREET,LAFAYETTE,LA,70507,NOT AVAILABLE,(337) 521-7840
55227,220114001404,NATCHITOCHES PARISH TECHNICAL AND CAREER CENTER,820 KOONCE ST.,NATCHITOCHES,LA,71457,NOT AVAILABLE,(318) 357-9410
55633,220087001556,OSSUN ELEMENTARY SCHOOL,400 RUE SCHOLASTIQUE,LAFAYETTE,LA,70507,NOT AVAILABLE,(337) 521-7770
56765,220174001342,DULARGE ELEMENTARY SCHOOL,621 DULARGE ROAD,HOUMA,LA,70363,NOT AVAILABLE,(985) 879-1629
58687,220027000218,JOHNNY GRAY JONES YOUTH SHELTER & DETENTION CENTER,4815 SHED ROAD,BOSSIER CITY,LA,71111,NOT AVAILABLE,(318) 747-1459
59188,220198001276,WEST FELICIANA MIDDLE SCHOOL,9559 BAINS ROAD,ST. FRANCISVILLE,LA,70775,NOT AVAILABLE,(225) 635-3898
60574,220033000264,ST. JOHN ELEMENTARY SCHOOL,5566 ELLIOTT ROAD,LAKE CHARLES,LA,70605,NOT AVAILABLE,(337) 217-4870
62936,220072000528,NORTH LEWIS ELEMENTARY SCHOOL,604 NORTH LEWIS STREET,NEW IBERIA,LA,70563,NOT AVAILABLE,(337) 369-6132
63514,220084000632,L.H. MARRERO MIDDLE SCHOOL,4100 SEVENTH STREET,MARRERO,LA,70072,2298,(504) 341-5842
66103,220201001478,ATLANTA HIGH SCHOOL,118 SCHOOL ROAD,ATLANTA,LA,71404,NOT AVAILABLE,(318) 628-4613
66793,220054000373,CAPITOL ELEMENTARY SCHOOL,4141 GUS YOUNG AVENUE,BATON ROUGE,LA,70802,NOT AVAILABLE,(225) 343-9364
67959,220138001113,MANY JUNIOR HIGH SCHOOL,1801 NATCHITOCHES HWY,MANY,LA,71449,NOT AVAILABLE,(318) 256-3573
77397,220054000372,THE DUFROCQ SCHOOL,330 SOUTH 19TH ST,BATON ROUGE,LA,70806,NOT AVAILABLE,(225) 334-7653
42298,220108000996,MADISON JAMES FOSTER ELEMENTARY SCHOOL,1310 RICHWOOD ROAD #1,MONROE,LA,71202,NOT AVAILABLE,(318) 325-7979
42312,220165001263,ABITA SPRINGS ELEMENTARY SCHOOL,22410 LEVEL STREET,ABITA SPRINGS,LA,70420,NOT AVAILABLE,(985) 892-8184
42313,220165001898,WOODLAKE ELEMENTARY SCHOOL,1620 LIVINGSTON STREET,MANDEVILLE,LA,70448,NOT AVAILABLE,(985) 626-8842
44515,220156002005,BEAU CHENE HIGH SCHOOL,7076 HWY. 93,ARNAUDVILLE,LA,70512,NOT AVAILABLE,(337) 662-5815
48,220018902349,SOUTHWEST LOUISIANA CHARTER ACADEMY,1700 EAST MCNEESE STREET,LAKE CHARLES,LA,70607,NOT AVAILABLE,(337) 475-7910
52,220021202278,ARISE ACADEMY,3819 ST. CLAUDE AVENUE,NEW ORLEANS,LA,70117,NOT AVAILABLE,(504) 615-6354
1135,220063000481,VIDRINE ELEMENTARY SCHOOL,5094 VIDRINE ROAD,VILLE PLATTE,LA,70586,NOT AVAILABLE,(337) 363-4280
2373,220189001447,NORTH WEBSTER JUNIOR HIGH SCHOOL,6041 HWY 2,SAREPTA,LA,71071,NOT AVAILABLE,(318) 847-4301
8595,220084000657,G.T. WOODS ELEMENTARY SCHOOL,1037 31ST STREET,KENNER,LA,70065,4367,(504) 466-6252
81495,220141001131,JOSEPH J. DAVIES ELEMENTARY SCHOOL,4101 MISTROT DRIVE,MERAUX,LA,70075,NOT AVAILABLE,(504) 267-7890
82916,220159001221,CECILIA JUNIOR HIGH SCHOOL,1038 SCHOOL ROAD EXT.,CECILIA,LA,70521,NOT AVAILABLE,(337) 667-6226
89054,220084000590,JOHN CLANCY/JOSEPH MAGGIORE ELEMENTARY SCHOOL,2100 MAINE STREET,KENNER,LA,70062,5957,(504) 469-3664
100498,220054000432,SOUTHEAST MIDDLE SCHOOL,15000 HARRELLS FERRY,BATON ROUGE,LA,70816,NOT AVAILABLE,(225) 753-5930
100562,220126001036,VALVERDA ELEMENTARY SCHOOL,1653 VALVERDA ROAD,MARINGOUIN,LA,70757,NOT AVAILABLE,(225) 637-2695
100929,220039000293,SOUTH CAMERON HIGH SCHOOL,753 OAK GROVE HIGHWAY,GRAND CHENIER,LA,70643,NOT AVAILABLE,(337) 542-4628
105087,220032102494,FOUNDATION PREPARATORY ACADEMY,3121 ST. BERNARD AVE.,NEW ORLEANS,LA,70130,NOT AVAILABLE,(504) 434-0521
105106,220117002500,MARY D. COGHILL ELEMENTARY SCHOOL,4617 MIRABEAU AVE.,NEW ORLEANS,LA,70126,NOT AVAILABLE,(504) 766-0299
20399,220090000697,BAYOU BLUE ELEMENTARY SCHOOL,1916 BAYOU BLUE ROAD,HOUMA,LA,70364,NOT AVAILABLE,(985) 879-4378
25409,220153001500,WEST ST. JOHN HIGH SCHOOL,480 LA HWY 3127,EDGARD,LA,70049,NOT AVAILABLE,(985) 497-3271
27233,220114000832,MARTHAVILLE ELEMENTARY & JUNIOR HIGH SCHOOL,10800 HWY. 120,MARTHAVILLE,LA,71450,NOT AVAILABLE,(318) 472-6141
28227,220189001435,NORTH WEBSTER UPPER ELEMENTARY SCHOOL,6245 HWY. 150,COTTON VALLEY,LA,71018,NOT AVAILABLE,(318) 832-4716
60368,220087000678,LAFAYETTE HIGH SCHOOL,3000 WEST CONGRESS STREET,LAFAYETTE,LA,70506,NOT AVAILABLE,(337) 984-5284
60730,220030000145,BLANCHARD ELEMENTARY SCHOOL,402 BIRCH AVENUE,SHREVEPORT,LA,71107,NOT AVAILABLE,(318) 929-2691
68493,220120000998,BOLEY ELEMENTARY SCHOOL,2213 CYPRESS STREET,WEST MONROE,LA,71291,NOT AVAILABLE,(318) 387-7378
69949,220189001448,NORTH WEBSTER LOWER ELEMENTARY SCHOOL,229 HWY ALT 2,SHONGALOO,LA,71072,NOT AVAILABLE,(318) 846-2541
941,220019700953,KIPP RENAISSANCE,3820 ST. CLAUDE AVE,NEW ORLEANS,LA,70117,NOT AVAILABLE,(504) 373-6255
1077,220027002409,KINGSTON ELEMENTARY SCHOOL,349 FAIRBURN AVE,BENTON,LA,71006,NOT AVAILABLE,(318) 549-2500
1358,220159001224,PARKS MIDDLE SCHOOL,1010-A ST. LOUIS DRIVE,ST. MARTINVILLE,LA,70582,NOT AVAILABLE,(337) 845-4753
2338,220087000686,NORTHSIDE HIGH SCHOOL,301 DUNAND STREET,LAFAYETTE,LA,70501,NOT AVAILABLE,(337) 521-7990
2371,220087000690,SCOTT MIDDLE SCHOOL,116 MARIE STREET,SCOTT,LA,70583,NOT AVAILABLE,(337) 521-7930
4004,220186001420,ENON ELEMENTARY SCHOOL,14058 HIGHWAY 16,FRANKLINTON,LA,70438,NOT AVAILABLE,(985) 839-3976
5255,220174001363,POINTE-AUX-CHENES ELEMENTARY SCHOOL,1236 HWY. 665,MONTEGUT,LA,70377,NOT AVAILABLE,(985) 594-2131
7339,220084000634,RUDOLPH MATAS SCHOOL,1201 ELISE STREET,METAIRIE,LA,70003,3799,(504) 733-6200
40433,220168001323,SPRING CREEK ELEMENTARY SCHOOL,72961 HIGHWAY 1061,KENTWOOD,LA,70444,NOT AVAILABLE,(985) 229-8363
40603,220174001658,LOUIS MILLER TERREBONNE CAREER AND TECHNICAL HS,3051 PATRIOT DRIVE,HOUMA,LA,70363,NOT AVAILABLE,(985) 851-1163
42297,220120001009,RISER MIDDLE SCHOOL,100 PRICE DRIVE,WEST MONROE,LA,71292,NOT AVAILABLE,(318) 387-0567
43029,220084001518,WESTBANK COMMUNITY SCHOOL,2590 BARATARIA BOULEVARD,MARRERO,LA,70072,5304,(504) 371-4651
97802,220015000073,MARKSVILLE HIGH SCHOOL,407 WEST BON TEMPT STREET,MARKSVILLE,LA,71351,NOT AVAILABLE,(318) 253-9356
99678,220186001422,FRANKLINTON JUNIOR HIGH SCHOOL,617 MAIN STREET,FRANKLINTON,LA,70438,NOT AVAILABLE,(985) 839-3501
51266,220159001223,CECILIA HIGH SCHOOL,2397 CECILIA SR. HIGH SCHOOL HWY.,CECILIA,LA,70521,NOT AVAILABLE,(337) 909-3500
52644,220201001486,WINNFIELD MIDDLE SCHOOL,685 THOMAS MILL ROAD,WINNFIELD,LA,71483,NOT AVAILABLE,(318) 628-2765
52900,220090000699,CENTRAL LAFOURCHE HIGH SCHOOL,4820 HWY 1,RACELAND,LA,70394,NOT AVAILABLE,(985) 532-3319
52920,220024602079,KIPP CENTRAL CITY,2635 THALIA STREET,NEW ORLEANS,LA,70113,NOT AVAILABLE,(504) 373-6290
54551,220165010403,TCHEFUNCTE MIDDLE SCHOOL,1530 WEST CAUSEWAY APPROACH,MANDEVILLE,LA,70471,NOT AVAILABLE,(985) 626-7118
57971,220117000939,MCDONOGH #35 COLLEGE PREPARATORY SCHOOL,4000 CADILLAC STREET,NEW ORLEANS,LA,70122,NOT AVAILABLE,(504) 324-7600
57994,220144001150,ST. ROSE ELEMENTARY SCHOOL,230 PIRATE DRIVE,ST. ROSE,LA,70087,NOT AVAILABLE,(504) 464-9254
58397,220132001530,RED RIVER JUNIOR HIGH SCHOOL,931 EAST CARROLL,COUSHATTA,LA,71019,NOT AVAILABLE,(318) 932-5265
58684,220174001358,MONTEGUT ELEMENTARY SCHOOL,1137 HWY. 55,MONTEGUT,LA,70377,NOT AVAILABLE,(985) 594-3657
80503,220087000688,PRAIRIE ELEMENTARY SCHOOL,2910 AMBASSADOR CAFFERY PARKWAY,LAFAYETTE,LA,70506,NOT AVAILABLE,(337) 521-7790
88201,220183001664,PICKERING HIGH SCHOOL,180 LEBLEU ROAD,LEESVILLE,LA,71446,NOT AVAILABLE,(337) 537-1555
88950,220087000669,O. COMEAUX HIGH SCHOOL,100 WEST BLUEBIRD DRIVE,LAFAYETTE,LA,70508,NOT AVAILABLE,(337) 521-7970
102243,220156001174,CANKTON ELEMENTARY SCHOOL,602 MAIN STREET,CANKTON,LA,70584,NOT AVAILABLE,(337) 668-4465
105064,220009002472,BULLION PRIMARY SCHOOL,17005 SILLS DRIVE,PRAIRIEVILLE,LA,70769,NOT AVAILABLE,(225) 391-6950
105065,220009002487,BLUFF RIDGE PRIMARY,14191 HWY 73,PRAIRIEVILLE,LA,70769,NOT AVAILABLE,(225) 391-2050
105108,220132002471,RED RIVER ACADEMIC ACADEMY,550 JIM CROW ROAD,COUSHATTA,LA,71019,NOT AVAILABLE,(318) 932-3313
105109,220156002480,CRESWELL MIDDLE SCHOOL,1210 EAST LEO ST,OPELOUSAS,LA,70570,NOT AVAILABLE,(337) 407-1708
10627,220162001252,MORGAN CITY JUNIOR HIGH SCHOOL,911 MARGUERITE STREET,MORGAN CITY,LA,70380,1852,(985) 384-5922
14327,220027000842,BENTON MIDDLE SCHOOL,6140 HIGHWAY 3,BENTON,LA,71006,NOT AVAILABLE,(318) 549-5310
14931,220021000092,CASTOR HIGH SCHOOL,140 FRONT STREET,CASTOR,LA,71016,NOT AVAILABLE,(318) 544-7271
15748,220048000322,MONTEREY HIGH SCHOOL,5920 HIGHWAY 129,MONTEREY,LA,71354,NOT AVAILABLE,(318) 386-2214
16533,220159001228,ST. MARTINVILLE PRIMARY SCHOOL,716 N. MAIN STREET,ST. MARTINVILLE,LA,70582,NOT AVAILABLE,(337) 394-6254
31032,220004000410,PARK RIDGE ACADEMIC MAGNET SCHOOL,5905 GROOM ROAD,BAKER,LA,70714,NOT AVAILABLE,(225) 775-5924
38104,220054002265,WOODLAWN ELEMENTARY,8160 ANTIOCH ROAD,BATON ROUGE,LA,70817,NOT AVAILABLE,(225) 756-3681
70062,220129001040,ALEXANDRIA SENIOR HIGH SCHOOL,800 OLA LANE,ALEXANDRIA,LA,71303,NOT AVAILABLE,(318) 448-8234
70120,220084001667,PATRICK F. TAYLOR SCIENCE & TECHNOLOGY ACADEMY,701 CHURCHILL PKWY,AVONDALE,LA,70094,NOT AVAILABLE,(504) 838-2249
72312,220129001563,TIOGA ELEMENTARY SCHOOL,4310 PARDUE ROAD,BALL,LA,71405,NOT AVAILABLE,(318) 640-9494
73831,220072001926,SUGARLAND ELEMENTARY SCHOOL,2403 JEFFERSON ISLAND ROAD,NEW IBERIA,LA,70560,NOT AVAILABLE,(337) 365-9624
73993,220033000277,WESTERN HEIGHTS ELEMENTARY SCHOOL,1100 ELIZABETH STREET,WESTLAKE,LA,70669,NOT AVAILABLE,(337) 217-4930
75575,220033000225,DEQUINCY PRIMARY SCHOOL,304 MCNEESE STREET,DEQUINCY,LA,70633,NOT AVAILABLE,(337) 217-4650
78266,220135001097,DELHI ELEMENTARY SCHOOL,509 MAIN STREET,DELHI,LA,71232,NOT AVAILABLE,(318) 878-2269
92274,220003900406,NORTHWESTERN MIDDLE SCHOOL,5200 EAST CENTRAL AVENUE,ZACHARY,LA,70791,NOT AVAILABLE,(225) 654-9201
94469,220090001968,BAYOU BLUE MIDDLE SCHOOL,196 MAZERAC STREET,HOUMA,LA,70364,NOT AVAILABLE,(985) 851-1952
96798,220042000304,SICILY ISLAND HIGH SCHOOL,303 FALCON AVENUE,SICILY ISLAND,LA,71368,NOT AVAILABLE,(318) 389-5337
98903,220189001455,WEBSTER JUNIOR HIGH SCHOOL,700 EAST UNION,MINDEN,LA,71055,NOT AVAILABLE,(318) 377-3847
71546,220120001889,CALHOUN MIDDLE SCHOOL,191 HIGHWAY 80,CALHOUN,LA,71225,NOT AVAILABLE,(318) 644-5840
77796,220039000289,GRAND LAKE HIGH SCHOOL,1039 HWY 384 GRAND LAKE,LAKE CHARLES,LA,70607,NOT AVAILABLE,(337) 905-2231
79361,220108000796,ROBERT E. LEE JUNIOR HIGH SCHOOL,1600 NORTH 19TH STREET,MONROE,LA,71201,NOT AVAILABLE,(318) 323-1143
82912,220084000649,TERRYTOWN ELEMENTARY SCHOOL,550 EAST FOREST LAWN DRIVE,TERRYTOWN,LA,70056,4048,(504) 376-8928
10015,220033000241,JOHN F. KENNEDY ELEMENTARY SCHOOL,2001 RUSSELL STREET,LAKE CHARLES,LA,70615,NOT AVAILABLE,(337) 217-4760
11894,220144001987,NEW SARPY ELEMENTARY SCHOOL,130 PLANTATION ROAD,DESTREHAN,LA,70047,NOT AVAILABLE,(985) 764-1275
16563,220084000644,THEODORE ROOSEVELT MIDDLE SCHOOL,3315 MAINE AVENUE,KENNER,LA,70065,3898,(504) 443-1361
17600,220168001317,PONCHATOULA JUNIOR HIGH SCHOOL,315 EAST OAK STREET,PONCHATOULA,LA,70454,NOT AVAILABLE,(985) 370-5322
18041,220087000668,CARENCRO HIGH SCHOOL,721 WEST BUTCHER SWITCH ROAD,LAFAYETTE,LA,70507,NOT AVAILABLE,(337) 521-7960
19096,220005600750,A. E. PHILLIPS LABORATORY SCHOOL,HERGOT STREET - LA TECH CAMPUS,RUSTON,LA,71272,NOT AVAILABLE,(318) 257-3469
30993,220054000349,BELAIRE HIGH SCHOOL,12121 TAMS DRIVE,BATON ROUGE,LA,70815,NOT AVAILABLE,(225) 272-1860
34285,220033000271,VINTON MIDDLE SCHOOL,900 HORRIDGE STREET,VINTON,LA,70668,NOT AVAILABLE,(337) 217-4720
35202,220054001692,WOODLAWN MIDDLE SCHOOL,14939 TIGER BEND ROAD,BATON ROUGE,LA,70817,NOT AVAILABLE,(225) 751-0436
35640,220159001227,ST. MARTINVILLE JUNIOR HIGH SCHOOL,7190 MAIN HWY.,ST. MARTINVILLE,LA,70582,NOT AVAILABLE,(337) 394-4764
36105,220114000834,NATCHITOCHES CENTRAL HIGH SCHOOL,6513 HWY. 1 SOUTH BYPASS,NATCHITOCHES,LA,71457,NOT AVAILABLE,(318) 352-2211
37424,220033000269,VINTON ELEMENTARY SCHOOL,1610 HAMPTON STREET,VINTON,LA,70668,NOT AVAILABLE,(337) 217-4520
38660,220012500363,CENTRAL HIGH SCHOOL,10200 E BROOKSIDE,BATON ROUGE,LA,70805,NOT AVAILABLE,(225) 261-3438
51270,220180001401,JESSE OWENS ELEMENTARY SCHOOL,203 THIRTEENTH STREET,GUEYDAN,LA,70542,NOT AVAILABLE,(337) 536-6541
52911,220020700972,LORD BEACONSFIELD LANDRY-OLIVER PERRY WALKER HIGH,1200 L.B. LANDRY AVENUE,NEW ORLEANS,LA,70114,NOT AVAILABLE,(504) 302-7170
52932,220024102370,JCFA-EAST,3401 JEFFERSON HWY,JEFFERSON,LA,70121,NOT AVAILABLE,(504) 410-3280
54363,220019200947,ARTHUR ASHE CHARTER SCHOOL,1456 GARDENA DRIVE,NEW ORLEANS,LA,70122,NOT AVAILABLE,(504) 444-3236
56073,220027702434,KIPP BOOKER T WASHINGTON,2514 THIRD STREET,NEW ORLEANS,LA,70113,2633,(504) 410-5289
56810,220120001017,WEST MONROE HIGH SCHOOL,201 RIGGS STREET,WEST MONROE,LA,71291,NOT AVAILABLE,(318) 323-3771
57601,220028802448,COLLEGIATE BATON ROUGE,6180 WINBOURNE AVE,BATON ROUGE,LA,70805,NOT AVAILABLE,(225) 975-2775
20192,220165001289,PINE VIEW MIDDLE SCHOOL,1200 WEST 27TH AVENUE,COVINGTON,LA,70433,NOT AVAILABLE,(985) 892-6204
21085,220063000478,PINE PRAIRIE HIGH SCHOOL,1557 SPEEDY CAMPBELL DRIVE,PINE PRAIRIE,LA,70576,NOT AVAILABLE,(337) 599-2300
23685,220054000357,BROWNFIELDS ELEMENTARY SCHOOL,11615 ELLEN DRIVE,BATON ROUGE,LA,70811,NOT AVAILABLE,(225) 775-3527
61325,220162001254,PATTERSON HIGH SCHOOL,2525 HIGHWAY 182 W,PATTERSON,LA,70392,NOT AVAILABLE,(985) 395-2675
62077,220084000620,L.W. HIGGINS HIGH SCHOOL,7201 LAPALCO BOULEVARD,MARRERO,LA,70072,4598,(504) 341-2273
62571,220189001433,BROWNING ELEMENTARY SCHOOL,505 HERRINGTON DR,SPRINGHILL,LA,71075,NOT AVAILABLE,(318) 539-5663
65888,220129001067,PEABODY MAGNET HIGH SCHOOL,2727 JONES AVENUE,ALEXANDRIA,LA,71302,NOT AVAILABLE,(318) 448-3457
68551,220168001324,TUCKER MEMORIAL ELEMENTARY SCHOOL,310 SOUTH THIRD STREET,PONCHATOULA,LA,70454,NOT AVAILABLE,(985) 386-6449
42301,220120001010,ROBINSON ELEMENTARY SCHOOL,5101 REDDIX LANE,MONROE,LA,71202,NOT AVAILABLE,(318) 322-1784
42788,220009000462,CENTRAL MIDDLE SCHOOL,14101 RODDY ROAD,GONZALES,LA,70737,NOT AVAILABLE,(225) 391-6400
43537,220135001100,MANGHAM HIGH SCHOOL,810 MAIN STREET,MANGHAM,LA,71259,NOT AVAILABLE,(318) 248-2485
46251,220033000276,S. J. WELSH MIDDLE SCHOOL,1500 W MCNEESE,LAKE CHARLES,LA,70605,NOT AVAILABLE,(337) 217-4410
47092,220195001472,OAK GROVE HIGH SCHOOL,501 WEST MAIN,OAK GROVE,LA,71263,NOT AVAILABLE,(318) 428-2308
48142,220183001414,PARKWAY ELEMENTARY SCHOOL,3585 UNIVERSITY PARKWAY,LEESVILLE,LA,71446,NOT AVAILABLE,(337) 239-3363
963,220021902395,IBERVILLE CHARTER ACADEMY,24360 ENTERPRISE BLVD,PLAQUEMINE,LA,70765,NOT AVAILABLE,(225) 238-7346
1415,220054002360,DELMONT PRE-K AND KINDERGARTEN CENTER,5300 DOUGLAS STREET,BATON ROUGE,LA,70805,NOT AVAILABLE,(225) 355-2106
2218,220195001469,FOREST SCHOOL,158 CLOVER STREET,FOREST,LA,71242,NOT AVAILABLE,(318) 428-3672
3912,220003000021,ROSS ELEMENTARY SCHOOL,1809 WEST HUTCHINSON AVENUE,CROWLEY,LA,70526,3299,(337) 783-0927
3958,220102000758,DENHAM SPRINGS HIGH SCHOOL,1000 NORTH RANGE AVENUE,DENHAM SPRINGS,LA,70726,NOT AVAILABLE,(225) 665-8851
6487,220028601830,ROBERT RUSSA MOTON CHARTER SCHOOL,8550 CURRAN BLVD,NEW ORLEANS,LA,70127,NOT AVAILABLE,(504) 324-7500
12163,220012602058,THE MAX CHARTER SCHOOL,100 AFTON DRIVE,THIBODAUX,LA,70310,NOT AVAILABLE,(985) 227-9500
16531,220084000587,MILDRED S. HARRIS ELEMENTARY SCHOOL,1805 BRIDGE CITY AVENUE,BRIDGE CITY,LA,70094,3199,(504) 436-4626
16534,220165001286,MANDEVILLE MIDDLE SCHOOL,2525 SOULT STREET,MANDEVILLE,LA,70448,NOT AVAILABLE,(985) 626-8778
942,220019802388,LAKE CHARLES COLLEGE PREP,2750 POWER CENTER PKWY,LAKE CHARLES,LA,70607,NOT AVAILABLE,(337) 802-0246
1982,220072000527,NEW IBERIA SENIOR HIGH SCHOOL,1301 EAST ADMIRAL DOYLE DRIVE,NEW IBERIA,LA,70560,NOT AVAILABLE,(337) 369-6412
3936,220066000490,FRANKLIN PARISH HIGH SCHOOL,1600 GLOVER DRIVE,WINNSBORO,LA,71295,NOT AVAILABLE,(318) 435-5676
5276,220174001350,GRAND CAILLOU ELEMENTARY SCHOOL,3933 GRAND CAILLOU ROAD,HOUMA,LA,70363,NOT AVAILABLE,(985) 879-3001
7307,228010001621,LOUISIANA STATE PENITENTIARY,17544 TUNICA TRACE,ANGOLA,LA,70712,NOT AVAILABLE,(225) 655-2973
8715,220141001136,N.P. TRIST MIDDLE SCHOOL,1 PIRATES COVE,MERAUX,LA,70075,NOT AVAILABLE,(504) 872-9402
9723,220087000666,CARENCRO MIDDLE SCHOOL,4301 NORTH UNIVERSITY,CARENCRO,LA,70520,NOT AVAILABLE,(337) 521-7880
21371,220030000141,ARTHUR CIRCLE ELEMENTARY SCHOOL,261 ARTHUR AVENUE,SHREVEPORT,LA,71105,NOT AVAILABLE,(318) 861-3537
23333,220054000355,BROADMOOR SENIOR HIGH SCHOOL,10100 GOODWOOD BLVD.,BATON ROUGE,LA,70815,NOT AVAILABLE,(225) 926-1420
26758,220087000671,DUSON ELEMENTARY SCHOOL,301 FOURTH STREET,DUSON,LA,70529,NOT AVAILABLE,(337) 521-7660
28662,220129001074,CARTER C. RAYMOND JUNIOR HIGH SCHOOL,2510 ST. CHARLES,LECOMPTE,LA,71346,NOT AVAILABLE,(318) 776-5489
29768,220054000429,B. R. FOREIGN LANGUAGE ACAD. IMMERSION MAGNET,802 MAYFLOWER,BATON ROUGE,LA,70802,NOT AVAILABLE,(225) 343-6630
40231,220027000134,PLATT ELEMENTARY SCHOOL,4680 EAST HIGHWAY 80,HAUGHTON,LA,71037,NOT AVAILABLE,(318) 549-5870
41839,220174001352,HONDURAS ELEMENTARY SCHOOL,530 GRAND CAILLOU ROAD,HOUMA,LA,70363,NOT AVAILABLE,(985) 872-5695
41961,220105000785,WRIGHT ELEMENTARY SCHOOL,809 WYCHE STREET,TALLULAH,LA,71282,NOT AVAILABLE,(318) 574-4430
42404,220014802267,MADISON PREPARATORY ACADEMY,1555 MADISON AVENUE,BATON ROUGE,LA,70802,NOT AVAILABLE,(225) 636-5863
43526,220165002329,JOSEPH B. LANCASTER ELEMENTARY SCHOOL,133 PINE CREEK DRIVE,MADISONVILLE,LA,70447,NOT AVAILABLE,(985) 792-0156
46857,220165001272,CHAHTA-IMA ELEMENTARY SCHOOL,27488 PICHON ROAD,LACOMBE,LA,70445,NOT AVAILABLE,(985) 882-7541
31689,220084000619,PHOEBE HEARST SCHOOL,5208 WABASH STREET,METAIRIE,LA,70001,1098,(504) 887-8814
96441,220174001359,MONTEGUT MIDDLE SCHOOL,138 DOLPHIN DRIVE,MONTEGUT,LA,70377,NOT AVAILABLE,(985) 594-5886
97009,220015000076,PLAUCHEVILLE ELEMENTARY SCHOOL,HWY 1181 - SCHOOL LOOP 50,PLAUCHEVILLE,LA,71362,NOT AVAILABLE,(318) 922-3311
70073,220180001396,KAPLAN ELEMENTARY SCHOOL,608 NORTH ELEAZAR AVENUE,KAPLAN,LA,70548,NOT AVAILABLE,(337) 643-7965
70995,220054000436,UNIVERSITY TERRACE ELEMENTARY SCHOOL,575 WEST ROOSEVELT,BATON ROUGE,LA,70802,NOT AVAILABLE,(225) 387-2328
73954,220081000566,JENNINGS HIGH SCHOOL,2310 N SHERMAN STREET,JENNINGS,LA,70546,3830,(337) 824-0642
77254,220150001167,ST. JAMES HIGH SCHOOL,22187 HWY 20,VACHERIE,LA,70090,NOT AVAILABLE,(225) 258-4900
77557,220018000079,CARVER ELEMENTARY SCHOOL,220 MARTIN LUTHER KING DRIVE,DERIDDER,LA,70634,NOT AVAILABLE,(337) 463-7380
61642,228010001730,PINECREST SUPPORTS & SERVICES CENTER,5191 PINECREST DR. OPC/DENTAL CLAIM BLDG,PINEVILLE,LA,71360,NOT AVAILABLE,(318) 487-5694
65018,220012500351,BELLINGRATH HILLS ELEMENTARY SCHOOL,6612 AUDUSSON,GREENWELL SPRINGS,LA,70739,NOT AVAILABLE,(225) 261-4093
66860,220135001106,START ELEMENTARY SCHOOL,883 CHARLESTON STREET,START,LA,71279,NOT AVAILABLE,(318) 728-2074
68492,220120000989,DREW ELEMENTARY SCHOOL,1132 HIGHWAY 15,WEST MONROE,LA,71291,NOT AVAILABLE,(318) 396-7186
69277,220087000676,L. LEO JUDICE ELEMENTARY SCHOOL,5801 CAMERON STREET,SCOTT,LA,70583,NOT AVAILABLE,(337) 521-7710
80874,220141002296,ANDREW JACKSON MIDDLE SCHOOL,201 8TH STREET,CHALMETTE,LA,70043,4231,(504) 301-1500
83479,220087001600,RIDGE ELEMENTARY SCHOOL,2901 SOUTH FIELDSPAN ROAD,DUSON,LA,70529,NOT AVAILABLE,(337) 521-7800
88149,220129001944,HAYDEN R. LAWRENCE UPPER ELEMENTARY SCHOOL,646 HIGHWAY 1207,DEVILLE,LA,71328,NOT AVAILABLE,(318) 466-5858
89384,220165002256,MARIGNY ELEMENTARY SCHOOL,1715 VIOLA STREET,MANDEVILLE,LA,70448,NOT AVAILABLE,(985) 674-3011
53088,220162001237,BERWICK JUNIOR HIGH SCHOOL,3955 HWY. 182,BERWICK,LA,70242,3100,(985) 384-5665
105063,220004702462,CENTRAL SOUTHWEST ALTERNATIVE HIGH SCHOOL,1536 BORDELON RD.,BUNKIE,LA,71322,NOT AVAILABLE,(318) 346-0120
105103,220090002474,BAYOU BLUE UPPER ELEMENTARY SCHOOL,115 MAZERAC STREET,HOUMA,LA,70364,NOT AVAILABLE,(985) 876-0625
105110,220165002483,STPPS VIRTUAL SCHOOL,23636 SPARROW RD BLDG. D,MANDEVILLE,LA,70448,NOT AVAILABLE,(985) 202-0127
11733,220129001081,LESSIE MOORE ELEMENTARY SCHOOL,207 GRIFFITH STREET,PINEVILLE,LA,71360,NOT AVAILABLE,(318) 445-7151
12406,220087000695,YOUNGSVILLE MIDDLE SCHOOL,600 CHURCH STREET,YOUNGSVILLE,LA,70592,NOT AVAILABLE,(337) 521-7940
14237,220003902299,ZACHARY EARLY LEARNING CENTER,4400 ROLLINS ROAD EXTENSION,ZACHARY,LA,70791,NOT AVAILABLE,(225) 654-6011
17242,220102000760,DOYLE ELEMENTARY SCHOOL,29285 SOUTH RANGE ROAD,LIVINGSTON,LA,70754,NOT AVAILABLE,(225) 686-2416
19807,220045000311,HOMER HIGH SCHOOL,1008 NORTH MAIN,HOMER,LA,71040,NOT AVAILABLE,(318) 927-2985
83495,220108000831,CYPRESS POINT ELEMENTARY SCHOOL,6701 MOSSWOOD DRIVE,MONROE,LA,71203,NOT AVAILABLE,(318) 345-5666
7332,220087000681,EDGAR MARTIN MIDDLE SCHOOL,401 BROADMOOR BOULEVARD,LAFAYETTE,LA,70503,NOT AVAILABLE,(337) 521-7910
7788,220192001460,COHN ELEMENTARY SCHOOL,806 NORTH 14TH STREET,PORT ALLEN,LA,70767,NOT AVAILABLE,(225) 343-7164
8372,220084000622,JEFFERSON ELEMENTARY SCHOOL,4440 JEFFERSON HIGHWAY,JEFFERSON,LA,70121,1309,(504) 733-9461
8852,220033000242,E. K. KEY ELEMENTARY SCHOOL,1201 E BURTON STREET,SULPHUR,LA,70663,NOT AVAILABLE,(337) 217-4660
40115,220183001409,HORNBECK HIGH SCHOOL,2363 STILLWELL AVENUE,HORNBECK,LA,71439,NOT AVAILABLE,(318) 565-4440
40647,220054000673,COMMUNITY SCHOOL FOR APPRENTICESHIP LEARNING,1555 MADISON AVE,BATON ROUGE,LA,70802,NOT AVAILABLE,(225) 356-1410
40711,220072000519,JEANERETTE SENIOR HIGH SCHOOL,8217 EAST OLD SPANISH TRAIL,JEANERETTE,LA,70544,NOT AVAILABLE,(337) 276-6038
41690,220144000243,ETHEL SCHOEFFNER ELEMENTARY SCHOOL,140 PLANTATION ROAD,DESTREHAN,LA,70047,NOT AVAILABLE,(985) 725-0123
42290,220033000224,T. S. COOLEY ELEMENTARY MAGNET SCHOOL,2711 COMMON STREET,LAKE CHARLES,LA,70601,NOT AVAILABLE,(337) 217-4680
42296,220096000734,LASALLE HIGH SCHOOL,1460 BLAKE STREET,OLLA,LA,71465,NOT AVAILABLE,(318) 495-5165
44246,220069000500,GEORGETOWN HIGH SCHOOL,4528 HIGHWAY 500,GEORGETOWN,LA,71432,NOT AVAILABLE,(318) 827-5306
44513,220129001047,BUCKEYE HIGH SCHOOL,715 HIGHWAY 1207,DEVILLE,LA,71328,NOT AVAILABLE,(318) 466-5678
44977,220004000343,BAKER MIDDLE SCHOOL,5903 GROOM ROAD,BAKER,LA,70714,NOT AVAILABLE,(225) 775-9750
45732,220165001897,RIVERSIDE ELEMENTARY SCHOOL,38480 SULLIVAN DRIVE,PEARL RIVER,LA,70452,NOT AVAILABLE,(985) 863-3141
48479,220126002000,ROSENWALD ELEMENTARY SCHOOL,1100 NEW ROADS STREET,NEW ROADS,LA,70760,NOT AVAILABLE,(225) 638-6341
96205,220002302402,SOUTHERN UNIVERSITY LABORATORY VIRTUAL SCHOOL,129 SWAN STREET,BATON ROUGE,LA,70813,9414,(225) 771-3490
97056,220174001360,MULBERRY ELEMENTARY SCHOOL,450 COUGAR DRIVE,HOUMA,LA,70360,NOT AVAILABLE,(985) 872-5328
97164,220004101630,BELLE CHASSE ACADEMY,100 FIFTH STREET NAS JRB,BELLE CHASSE,LA,70037,5999,(504) 433-5850
97246,220033000244,LAGRANGE HIGH SCHOOL,3420 LOUISIANA AVE,LAKE CHARLES,LA,70605,NOT AVAILABLE,(337) 217-4960
97507,220072000510,COTEAU ELEMENTARY SCHOOL,2414 COTEAU ROAD,NEW IBERIA,LA,70560,NOT AVAILABLE,(337) 369-3653
97967,220015702322,UNIVERSITY VIEW ACADEMY INC. (FRM LA CONNECTIONS),4664 JAMESTOWN AVE SUITE 100,BATON ROUGE,LA,70808,NOT AVAILABLE,(225) 421-2900
99170,220165001294,SLIDELL HIGH SCHOOL,#1 TIGER DRIVE,SLIDELL,LA,70458,2046,(985) 643-2992
105085,220031902499,JOHN F. KENNEDY HIGH SCHOOL,6026 PARIS AVENUE,NEW ORLEANS,LA,70122,NOT AVAILABLE,(504) 335-1935
105100,220084002486,DR. JOHN OCHSNER DISCOVERY HEALTH SCIENCES ACADEMY,2012 JEFFERSON HWY,JEFFERSON,LA,70121,NOT AVAILABLE,(504) 831-0316
52202,220111000813,DELTA JR. HIGH SCHOOL,7661 MER ROUGE/COLLINSTON ROAD,MER ROUGE,LA,71261,NOT AVAILABLE,(318) 647-3443
52791,220003000002,BRANCH ELEMENTARY SCHOOL,8362 BRANCH HIGHWAY,BRANCH,LA,70516,0450,(337) 334-5708
53143,220165001716,BAYOU WOODS ELEMENTARY SCHOOL,35614 LIBERTY DRIVE,SLIDELL,LA,70460,NOT AVAILABLE,(985) 641-1901
54869,220147002443,ST. HELENA EARLY LEARNING CENTER,1590 LA 1042,GREENSBURG,LA,70441,NOT AVAILABLE,(225) 222-6291
56155,220033001506,RALPH F. WILSON ELEMENTARY SCHOOL,1400 OPELOUSAS STREET,LAKE CHARLES,LA,70601,NOT AVAILABLE,(337) 217-4750
57838,220141000816,C.F. ROWLEY ALTERNATIVE SCHOOL,49 MADISON AVENUE,CHALMETTE,LA,70043,NOT AVAILABLE,(504) 301-4001
58097,220177002358,UNION PARISH ALTERNATIVE CENTER,1206 MARION HWY,FARMERVILLE,LA,71241,NOT AVAILABLE,(318) 368-3991
30083,220129001083,ALMA REDWINE ELEMENTARY,1323 VANCE AVENUE,ALEXANDRIA,LA,71302,NOT AVAILABLE,(318) 442-3177
31767,220036000281,CALDWELL PARISH HIGH SCHOOL,163 SPARTAN DRIVE,COLUMBIA,LA,71418,NOT AVAILABLE,(318) 649-2750
32680,220009000463,OAK GROVE PRIMARY SCHOOL,17550 OLD JEFFERSON HWY,PRAIRIEVILLE,LA,70769,NOT AVAILABLE,(225) 391-6750
35203,220180002009,INDIAN BAYOU ELEMENTARY SCHOOL,1603 LA HIGHWAY 700,RAYNE,LA,70578,NOT AVAILABLE,(337) 334-4070
35760,220174001348,EVERGREEN JUNIOR HIGH SCHOOL,5000 WEST MAIN STREET,HOUMA,LA,70360,NOT AVAILABLE,(985) 876-2606
37145,220102000755,ALBANY HIGH SCHOOL,29710 MULBERRY STREET,ALBANY,LA,70711,NOT AVAILABLE,(225) 567-9319
21626,220084001883,CONGETTA TRIPPE JANET ELEMENTARY SCHOOL,2500 BENT TREE LANE,MARRERO,LA,70072,5871,(504) 340-0487
22384,220084002044,JOHN MARTYN COMMUNITY SCHOOL,1108 SHREWSBURY ROAD,JEFFERSON,LA,70121,1898,(504) 831-0316
23665,220108002019,SHERROUSE SCHOOL,300 SHERROUSE AVENUE,MONROE,LA,71203,NOT AVAILABLE,(318) 343-3258
26843,220129001041,J.I. BARRON SR. ELEMENTARY SCHOOL,43655 TRINITY CHURCH ROAD,PINEVILLE,LA,71360,NOT AVAILABLE,(318) 445-6860
71002,220168001991,WOODLAND PARK MAGNET,1000 RANGE ROAD,HAMMOND,LA,70403,NOT AVAILABLE,(985) 542-6373
71596,220084000648,CATHERINE STREHLE ELEMENTARY SCHOOL,178 MILLIE DRIVE,AVONDALE,LA,70094,2899,(504) 436-1920
73036,220120001011,SHADY GROVE ELEMENTARY SCHOOL,2204 TICHELI ROAD,MONROE,LA,71202,NOT AVAILABLE,(318) 323-9941
76009,220004701781,SOUTHSIDE ALTERNATIVE HIGH SCHOOL,4701 SOUTH GRAND ST.,MONROE,LA,71202,NOT AVAILABLE,(318) 651-4841
60452,220165001290,WILLIAM PITCHER JUNIOR HIGH SCHOOL,415 SOUTH JEFFERSON AVENUE,COVINGTON,LA,70433,NOT AVAILABLE,(985) 892-3021
63844,220090000718,RACELAND UPPER ELEMENTARY SCHOOL,3759 HWY 308,RACELAND,LA,70394,NOT AVAILABLE,(985) 537-5142
65722,220102001612,LEVI MILTON ELEMENTARY SCHOOL,31450 WALKER NORTH ROAD,WALKER,LA,70785,NOT AVAILABLE,(225) 664-9711
65753,220054000439,BATON ROUGE CENTER FOR VISUAL AND PERFORMING ARTS,2040 SO ACADIAN THWY,BATON ROUGE,LA,70808,NOT AVAILABLE,(225) 344-0084
68044,220129001062,J.B. NACHMAN ELEMENTARY SCHOOL,4102 WAKEFIELD BLVD,ALEXANDRIA,LA,71303,NOT AVAILABLE,(318) 445-7725
68628,220015802319,LAKE CHARLES CHARTER ACADEMY,3160 POWER CENTER PARKWAY,LAKE CHARLES,LA,70607,NOT AVAILABLE,(337) 475-7900
69170,220114000830,GOLDONNA ELEMENTARY & JUNIOR HIGH SCHOOL,248 ASH STREET,GOLDONNA,LA,71031,NOT AVAILABLE,(318) 727-9449
31631,220099000748,I.A. LEWIS SCHOOL,1000 MITCHELL AVENUE,RUSTON,LA,71270,NOT AVAILABLE,(318) 255-5963
35201,220054000408,PARK FOREST ELEMENTARY SCHOOL,10717 ELAINE STREET,BATON ROUGE,LA,70814,NOT AVAILABLE,(225) 272-0814
35862,220030001551,CADDO PARISH MAGNET HIGH SCHOOL,1601 VIKING DRIVE,SHREVEPORT,LA,71101,5200,(318) 221-2501
37696,220195001467,EPPS HIGH SCHOOL,4044 CIRCLE DRIVE,EPPS,LA,71237,NOT AVAILABLE,(318) 926-3624
39104,220006000030,OAKDALE MIDDLE SCHOOL,124 SOUTH 13TH STREET,OAKDALE,LA,71463,NOT AVAILABLE,(318) 335-1558
39184,220027000116,BENTON ELEMENTARY SCHOOL,562 HIGHWAY 162,BENTON,LA,71006,NOT AVAILABLE,(318) 549-5170
1981,220033000228,DOLBY ELEMENTARY SCHOOL,817 JEFFERSON DRIVE,LAKE CHARLES,LA,70605,NOT AVAILABLE,(337) 217-4730
2984,220030001510,MIDWAY PROFESSIONAL DEVELOPMENT CENTER,3840 GREENWOOD ROAD,SHREVEPORT,LA,71109,NOT AVAILABLE,(318) 636-1861
3591,220174001354,LACACHE MIDDLE SCHOOL,5266 HWY. 56,CHAUVIN,LA,70344,NOT AVAILABLE,(985) 594-3945
6240,220028201937,LAKE FOREST ELEMENTARY CHARTER SCHOOL,11110 LAKE FOREST BLVD,NEW ORLEANS,LA,70128,NOT AVAILABLE,(504) 826-7140
6490,220029302439,THE NET 2 CHARTER HIGH SCHOOL,6601 FRANKLIN AVE,NEW ORLEANS,LA,70122,NOT AVAILABLE,(504) 267-9060
7299,220033000279,WESTWOOD ELEMENTARY SCHOOL,1900 SAMPSON STREET,WESTLAKE,LA,70669,NOT AVAILABLE,(337) 217-4940
26107,220192001457,BRUSLY HIGH SCHOOL,630 FRONTAGE ROAD,BRUSLY,LA,70719,NOT AVAILABLE,(225) 749-2815
28870,220165001565,ABITA SPRINGS MIDDLE SCHOOL,72079 MAPLE STREET,ABITA SPRINGS,LA,70420,NOT AVAILABLE,(985) 892-2070
10817,220084000578,A.C. ALEXANDER ELEMENTARY SCHOOL,600 WEST ESPLANADE AVENUE,KENNER,LA,70065,2799,(504) 469-7326
11825,220072001924,ST. CHARLES STREET ELEMENTARY SCHOOL,1921 ST. CHARLES STREET,JEANERETTE,LA,70544,NOT AVAILABLE,(337) 276-9712
12251,220045000310,HOMER ELEMENTARY SCHOOL,624 PELICAN DRIVE,HOMER,LA,71040,NOT AVAILABLE,(318) 927-2393
13655,220138001110,FLORIEN HIGH SCHOOL,500 HIGH SCHOOL DRIVE,FLORIEN,LA,71429,NOT AVAILABLE,(318) 586-3681
15184,220084000588,BRIDGEDALE ELEMENTARY SCHOOL,808 ZINNIA STREET,METAIRIE,LA,70001,4594,(504) 888-6807
19974,220102002060,NORTH CORBIN JUNIOR HIGH SCHOOL,32725 NORTH CORBIN ROAD,WALKER,LA,70785,NOT AVAILABLE,(225) 686-2038
70505,220165001283,MADISONVILLE ELEMENTARY SCHOOL,317 HIGHWAY 1077,MADISONVILLE,LA,70447,NOT AVAILABLE,(985) 845-3671
72415,220084000638,YOUNG AUDIENCES CHARTER SCHOOL,1407 VIRGIL STREET,GRETNA,LA,70113,1060,(504) 717-1200
75142,220001801789,LOUISIANA SCHOOL FOR THE DEAF,2888 BRIGHTSIDE LANE,BATON ROUGE,LA,70820,NOT AVAILABLE,(225) 769-8160
75342,220189001451,NORTH WEBSTER HIGH SCHOOL,101 SOUTH ARKANSAS,SPRINGHILL,LA,71075,NOT AVAILABLE,(318) 539-2563
79360,220030001676,TURNER ELEMENTARY MIDDLE SCHOOL,5904 WEST 70TH STREET,SHREVEPORT,LA,71129,NOT AVAILABLE,(318) 688-4380
79733,228010002351,METHODIST HOME FOR CHILDREN OF GREATER NEW ORLEANS,23515 HWY 190-QUAIL LANE,MANDEVILLE,LA,70448,NOT AVAILABLE,(985) 626-6521
42292,220084000579,JUDGE LIONEL R. COLLINS ELEMENTARY SCHOOL,500 PINE STREET,MARRERO,LA,70072,1598,(504) 347-0254
44635,220048000324,VIDALIA HIGH SCHOOL,2201 MURRAY DRIVE,VIDALIA,LA,71373,NOT AVAILABLE,(318) 336-6231
45792,220012000052,LABADIEVILLE MIDDLE SCHOOL,2747 HWY 1,LABADIEVILLE,LA,70372,NOT AVAILABLE,(985) 526-4227
48480,220159001218,BREAUX BRIDGE PRIMARY SCHOOL,1020 EAST BRIDGE STREET,BREAUX BRIDGE,LA,70517,NOT AVAILABLE,(337) 332-1821
84238,220120000990,JACK HAYES ELEMENTARY SCHOOL,3631 OLD STERLINGTON ROAD,MONROE,LA,71203,NOT AVAILABLE,(318) 343-4560
84959,220087000669,O. COMEAUX HIGH SCHOOL,100 WEST BLUEBIRD DRIVE,LAFAYETTE,LA,70508,NOT AVAILABLE,(337) 521-7970
85526,220054001920,SOUTHDOWNS SCHOOL,2050 HOOD AVENUE,BATON ROUGE,LA,70808,NOT AVAILABLE,(225) 346-1127
50914,228010002372,RIVER OAKS HOSPITAL,1525 RIVER OAKS ROAD WEST,HARAHAN,LA,70123,NOT AVAILABLE,(504) 734-1740
51710,220009002326,SORRENTO PRIMARY SCHOOL,42111 NORTH CITY PARC DRIVE,SORRENTO,LA,70778,NOT AVAILABLE,(225) 391-6900
52943,220026602352,LAWRENCE D. CROCKER COLLEGE PREP,2301 MARENGO STREET,NEW ORLEANS,LA,70115,NOT AVAILABLE,(504) 522-0100
52945,220114001616,NATCHITOCHES JR. HIGH SCHOOL,1621 WELCH STREET,NATCHITOCHES,LA,71457,NOT AVAILABLE,(318) 238-0066
54554,220030002413,PATHWAYS IN EDUCATION - NORTH MARKET,1909 N. MARKET,SHREVEPORT,LA,71107,NOT AVAILABLE,(318) 424-8138
56997,220005400175,LINWOOD PUBLIC CHARTER SCHOOL,401 WEST 70TH STREET,SHREVEPORT,LA,71106,NOT AVAILABLE,(318) 683-2500
90779,220081000562,ELTON ELEMENTARY SCHOOL,614 POWELL ROAD,ELTON,LA,70532,NOT AVAILABLE,(337) 584-2892
91584,220087000664,BROADMOOR ELEMENTARY SCHOOL,609 BROADMOOR BOULEVARD,LAFAYETTE,LA,70503,NOT AVAILABLE,(337) 521-7620
92135,220165000384,CYPRESS COVE ELEMENTARY SCHOOL,540 SOUTH MILITARY ROAD,SLIDELL,LA,70461,2616,(985) 641-3033
92904,220174001338,H. L. BOURGEOIS HIGH SCHOOL,#1 RESERVATION COURT,GRAY,LA,70359,9730,(985) 872-3277
60182,220099000752,RUSTON HIGH SCHOOL,900 BEARCAT DRIVE,RUSTON,LA,71270,NOT AVAILABLE,(318) 255-0807
62181,220084000592,HELEN COX HIGH SCHOOL,2200 LAPALCO BOULEVARD,HARVEY,LA,70058,3075,(504) 367-6388
62207,220014602282,D'ARBONNE WOODS CHARTER SCHOOL,1002 STERLINGTON HIGHWAY,FARMERVILLE,LA,71241,NOT AVAILABLE,(318) 368-8051
63479,220075000543,PLAQUEMINE SENIOR HIGH SCHOOL,59595 BELLEVIEW DRIVE,PLAQUEMINE,LA,70764,NOT AVAILABLE,(225) 687-6367
100141,228010002356,NORTHLAKE YOUTH ACADEMY,23515 HWY 190-QUAIL LANE,MANDEVILLE,LA,70470,NOT AVAILABLE,(985) 626-6521
105067,220027002450,HAUGHTON ELEMENTARY SCHOOL,395 SOUTH ELM STREET,HAUGHTON,LA,71037,NOT AVAILABLE,(318) 549-7400
105068,220027002490,BENTON INTERMEDIATE SCHOOL,6140 HIGHWAY 3,BENTON,LA,71006,NOT AVAILABLE,(318) 549-5310
105080,220031402466,LIVING SCHOOL,6003 BULLARD AVE. SUITE 16,NEW ORLEANS,LA,70128,NOT AVAILABLE,(504) 218-4437
105083,220031702492,EDWARD HYNES CHARTER SCHOOL - LAKEVIEW,990 HARRISON AVE,NEW ORLEANS,LA,70122,NOT AVAILABLE,(504) 324-7160
40288,220102000757,DENHAM SPRINGS ELEMENTARY SCHOOL,306 NORTH RANGE AVENUE,DENHAM SPRINGS,LA,70726,NOT AVAILABLE,(225) 665-5855
41033,220129001075,JULIUS PATRICK 6TH GRADE ACADEMY,1402 REED AVENUE,ALEXANDRIA,LA,71301,NOT AVAILABLE,(318) 443-5443
42280,220033000266,SULPHUR HIGH SCHOOL,100 SYCAMORE STREET,SULPHUR,LA,70663,NOT AVAILABLE,(337) 217-4430
42282,220003000009,NORTH CROWLEY ELEMENTARY SCHOOL,820 WEST FIFTEENTH STREET,CROWLEY,LA,70526,2699,(337) 783-8755
42289,220030000204,UNIVERSITY ELEMENTARY SCHOOL,9900 SMITHERMAN DRIVE,SHREVEPORT,LA,71115,NOT AVAILABLE,(318) 797-2240
42295,220090000725,THIBODAUX HIGH SCHOOL,1355 TIGER DRIVE,THIBODAUX,LA,70301,NOT AVAILABLE,(985) 447-4071
42302,220108000799,NEVILLE HIGH SCHOOL,600 FORSYTHE AVENUE,MONROE,LA,71201,NOT AVAILABLE,(318) 323-2237
42303,220108000803,WOSSMAN HIGH SCHOOL,1600 ARIZONA STREET,MONROE,LA,71202,NOT AVAILABLE,(318) 387-2932
43165,220030000189,RIDGEWOOD MIDDLE SCHOOL,2001 RIDGEWOOD DRIVE,SHREVEPORT,LA,71118,3396,(318) 686-0383
44081,220129002344,CAROLINE DORMON JUNIOR HIGH SCHOOL,8906 HWY 165 SOUTH,WOODWORTH,LA,71485,NOT AVAILABLE,(318) 473-4066
44516,220165001949,HONEY ISLAND ELEMENTARY SCHOOL,500 SOUTH MILITARY ROAD,SLIDELL,LA,70461,NOT AVAILABLE,(985) 641-3557
48472,220069000498,GRANT JUNIOR HIGH SCHOOL,17773 HIGHWAY 167,DRY PRONG,LA,71423,NOT AVAILABLE,(318) 899-5697
30077,220102001707,FRENCH SETTLEMENT ELEMENTARY SCHOOL,15810 LA HIGHWAY 16,FRENCH SETTLEMENT,LA,70733,NOT AVAILABLE,(225) 698-6848
30658,220009000039,GALVEZ MIDDLE SCHOOL,42018 HWY 933,PRAIRIEVILLE,LA,70769,NOT AVAILABLE,(225) 391-6350
31810,220015001378,LA SCHOOL FOR AG SCIENCE,5303 HIGHWAY 115,BUNKIE,LA,71322,NOT AVAILABLE,(318) 346-2762
31904,220096000731,JENA ELEMENTARY SCHOOL,1941 EAST OAK STREET,JENA,LA,71342,NOT AVAILABLE,(318) 992-5175
34347,220081000573,WELSH ELEMENTARY SCHOOL,222 EAST BOURGEOIS STREET,WELSH,LA,70591,NOT AVAILABLE,(337) 734-2351
36729,220054000409,PARK FOREST MIDDLE SCHOOL,3760 ALETHA DRIVE,BATON ROUGE,LA,70814,NOT AVAILABLE,(225) 275-6650
39239,220156001210,PORT BARRE HIGH SCHOOL,846 SAIZAN ST.,PORT BARRE,LA,70577,NOT AVAILABLE,(337) 585-7256
52941,220026200932,KIPP MORIAL,7701 GRANT ST,NEW ORLEANS,LA,70126,NOT AVAILABLE,(504) 592-8520
53086,220012000054,NAPOLEONVILLE MIDDLE SCHOOL,4847 HWY 1,NAPOLEONVILLE,LA,70390,NOT AVAILABLE,(985) 369-6587
53443,220084000606,GRAND ISLE HIGH SCHOOL,149 LUDWIG LANE,GRAND ISLE,LA,70358,0995,(985) 787-2577
54548,220129010374,PHOENIX MAGNET ELEMENTARY SCHOOL,4500 LINCOLN ROAD,ALEXANDRIA,LA,71302,NOT AVAILABLE,(318) 445-6296
55419,220009001862,GALVEZ PRIMARY SCHOOL,16093 HENDERSON BAYOU ROAD,PRAIRIEVILLE,LA,70769,NOT AVAILABLE,(225) 391-6600
55799,220066000496,WINNSBORO ELEMENTARY SCHOOL,1310 WARREN STREET,WINNSBORO,LA,71295,NOT AVAILABLE,(318) 435-5066
57607,220054002440,ISTROUMA HIGH SCHOOL,3730 WINBOURNE,BATON ROUGE,LA,70805,NOT AVAILABLE,(225) 636-2686
57609,220087002441,EDWARD J SAM ACCELERATED SCHOOL OF LAFAYETTE,200 18TH ST.,LAFAYETTE,LA,70501,NOT AVAILABLE,(337) 521-7560
57614,220147002443,ST. HELENA EARLY LEARNING CENTER,1590 LA 1042,GREENSBURG,LA,70441,NOT AVAILABLE,(225) 222-6291
59864,220027000113,APOLLO ELEMENTARY SCHOOL,2400 VIKING DRIVE,BOSSIER CITY,LA,71111,NOT AVAILABLE,(318) 549-6010
20387,220174001334,ACADIAN ELEMENTARY SCHOOL,1020 SAADI STREET,HOUMA,LA,70363,NOT AVAILABLE,(985) 876-0612
24087,220156001209,PORT BARRE ELEMENTARY SCHOOL,199 O G TRACK RD.,PORT BARRE,LA,70577,NOT AVAILABLE,(337) 585-6172
25018,220072000505,ANDERSON MIDDLE SCHOOL,1059 ANDERSON STREET,NEW IBERIA,LA,70560,NOT AVAILABLE,(337) 365-3932
25877,220156001184,GRAND COTEAU ELEMENTARY SCHOOL,238 CHURCH STREET,GRAND COTEAU,LA,70541,NOT AVAILABLE,(337) 662-5421
29265,220003902013,COPPER MILL ELEMENTARY/MIDDLE SCHOOL,1300 INDEPENDENCE BLVD.,ZACHARY,LA,70791,NOT AVAILABLE,(225) 658-1288
81043,220174001337,BOURG ELEMENTARY SCHOOL,4413 ST. ANDREW STREET,BOURG,LA,70343,NOT AVAILABLE,(985) 594-3663
85275,220087001546,J. WALLACE JAMES ELEMENTARY SCHOOL,1500 W. WILLOW ST.,SCOTT,LA,70583,5303,(337) 521-7700
86386,220087002072,EARLY COLLEGE ACADEMY,320 DEVALCOURT DRIVE,LAFAYETTE,LA,70506,4124,(337) 521-8956
87132,220174001340,CALDWELL MIDDLE SCHOOL,445 HWY. 311,SCHRIEVER,LA,70395,NOT AVAILABLE,(985) 868-2565
88007,220129001066,PEABODY MONTESSORI ELEMENTARY SCHOOL,2416 3RD STREET,ALEXANDRIA,LA,71302,NOT AVAILABLE,(318) 442-5012
64066,220060000461,EAST FELICIANA MIDDLE SCHOOL,10410 PLANK ROAD,CLINTON,LA,70722,NOT AVAILABLE,(225) 683-3321
64532,220033000227,DEQUINCY HIGH SCHOOL,207 N OVERTON,DEQUINCY,LA,70633,NOT AVAILABLE,(337) 217-4530
66194,220003000011,ESTHERWOOD ELEMENTARY SCHOOL,214 JEFFERSON AVENUE,ESTHERWOOD,LA,70534,9999,(337) 783-6788
91729,220015000075,AVOYELLES HIGH SCHOOL,287 MAIN STREET,MOREAUVILLE,LA,71355,NOT AVAILABLE,(318) 985-2361
92476,220072000514,JOHNSTON HOPKINS ELEMENTARY SCHOOL,1200 HOPKINS STREET,NEW IBERIA,LA,70560,NOT AVAILABLE,(337) 369-9687
93741,220054000392,LASALLE ELEMENTARY SCHOOL,8000 LASALLE,BATON ROUGE,LA,70806,NOT AVAILABLE,(225) 927-6130
94909,220003000012,EVANGELINE ELEMENTARY SCHOOL,1448 OLD EVANGELINE HIGHWAY,EVANGELINE,LA,70537,3305,(337) 824-1368
96464,220051000623,MANSFIELD ELEMENTARY SCHOOL,1915 MCARTHUR DR,MANSFIELD,LA,71052,NOT AVAILABLE,(318) 872-1772
70191,220027000112,AIRLINE HIGH SCHOOL,2801 AIRLINE DRIVE,BOSSIER CITY,LA,71111,NOT AVAILABLE,(318) 549-5080
79362,220129001063,NORTH BAYOU RAPIDES ELEMENTARY,5500 ENGLAND DRIVE,ALEXANDRIA,LA,71303,NOT AVAILABLE,(318) 445-4260
100494,220171001328,TENSAS HIGH SCHOOL,720 PLANK ROAD,ST. JOSEPH,LA,71366,NOT AVAILABLE,(318) 766-3585
101742,220162001238,CENTERVILLE HIGH SCHOOL,9225 HIGHWAY 182 WEST,CENTERVILLE,LA,70522,NOT AVAILABLE,(337) 836-5103
102003,220030000183,OAK PARK MICROSOCIETY ELEMENTARY SCHOOL,4331 HENRY STREET,SHREVEPORT,LA,71109,NOT AVAILABLE,(318) 635-2141
105090,220032402498,NEW ORLEANS ACCELERATED HIGH SCHOOL,3649 LAUREL ST.,NEW ORLEANS,LA,70115,NOT AVAILABLE,(504) 267-3882
105111,220192002485,BRUSLY UPPER ELEMENTARY SCHOOL,601 NORTH KIRKLAND,BRUSLY,LA,70719,NOT AVAILABLE,(225) 343-8309
59,220084002417,BONELLA A. ST. VILLE ELEMENTARY SCHOOL,1121 PAILET STREET,HARVEY,LA,70058,3753,(504) 366-1708
939,220018702283,SUCCESS PREPARATORY ACADEMY,4621 CANAL STREET,NEW ORLEANS,LA,70119,NOT AVAILABLE,(504) 388-0208
1414,220156001685,MAGNET ACADEMY FOR CULTURAL ARTS,1100 E LEO STREET,OPELOUSAS,LA,70570,NOT AVAILABLE,(337) 942-6195
1848,220054000398,MELROSE ELEMENTARY SCHOOL,1348 VALCOUR ST,BATON ROUGE,LA,70806,NOT AVAILABLE,(225) 926-2353
2882,220054000362,CEDARCREST-SOUTHMOOR ELEMENTARY SCHOOL,10187 TWIN CEDARS,BATON ROUGE,LA,70816,NOT AVAILABLE,(225) 293-9950
4248,220006001049,KINDER MIDDLE SCHOOL,414 NORTH 12TH STREET,KINDER,LA,70648,NOT AVAILABLE,(318) 738-3223
6686,220021302366,LOUISIANA KEY ACADEMY,3172 GOVERNMENT ST,BATON ROUGE,LA,70806,NOT AVAILABLE,(225) 298-1223
8287,220003000022,SOUTH CROWLEY ELEMENTARY SCHOOL,1102 SOUTH PARKERSON AVENUE,CROWLEY,LA,70526,6299,(337) 783-1300
8290,220129001712,FOREST HILL JUNIOR HIGH SCHOOL,15 HWY 497 FOREST HILL,FOREST HILL,LA,71430,NOT AVAILABLE,(318) 748-6844
8439,220129001080,W.O. HALL 6TH GRADE ACADEMY,3111 JONES AVENUE,ALEXANDRIA,LA,71302,NOT AVAILABLE,(318) 443-9093
8455,220084000625,GRACE KING HIGH SCHOOL,4301 GRACE KING PLACE,METAIRIE,LA,70002,3199,(504) 888-7334
8946,220054000420,RIVEROAKS ELEMENTARY SCHOOL,950 FONTAINBLEAU DR,BATON ROUGE,LA,70815,NOT AVAILABLE,(225) 275-4600
9651,220174001356,LISA PARK ELEMENTARY SCHOOL,6639 LISA PARK AVENUE,HOUMA,LA,70364,NOT AVAILABLE,(985) 876-1055
14131,220021000092,CASTOR HIGH SCHOOL,140 FRONT STREET,CASTOR,LA,71016,NOT AVAILABLE,(318) 544-7271
19730,220108000787,CARROLL HIGH SCHOOL,2939 RENWICK STREET,MONROE,LA,71201,NOT AVAILABLE,(318) 387-8441
2450,220054002342,LEE HIGH SCHOOL,1105 LEE DRIVE,BATON ROUGE,LA,70808,NOT AVAILABLE,(225) 924-9406
3230,220174001353,HOUMA JUNIOR HIGH SCHOOL,315 ST. CHARLES,HOUMA,LA,70360,NOT AVAILABLE,(985) 872-1511
6069,220048000326,VIDALIA LOWER ELEMENTARY SCHOOL,300 STAMPLEY STREET,VIDALIA,LA,71373,NOT AVAILABLE,(318) 336-6220
7786,220123001026,PHOENIX HIGH SCHOOL,12700 HWY 23,BRAITHWAITE,LA,70040,NOT AVAILABLE,(504) 595-6466
8995,220120001016,SWAYZE ELEMENTARY SCHOOL,2400 BURG JONES LANE,MONROE,LA,71202,NOT AVAILABLE,(318) 325-1357
60185,220165001258,MAGNOLIA TRACE ELEMENTARY SCHOOL,1405 HIGHWAY 1088,MANDEVILLE,LA,70448,NOT AVAILABLE,(985) 626-8238
64799,220075001980,DORSEYVILLE ELEMENTARY SCHOOL,31505 HWY. 1 SOUTH,WHITE CASTLE,LA,70788,NOT AVAILABLE,(225) 545-3805
65889,220129001069,PINEVILLE HIGH SCHOOL,1511 LINE STREET,PINEVILLE,LA,71360,NOT AVAILABLE,(318) 442-8990
67551,220030000167,CADDO MIDDLE CAREER AND TECHNOLOGY SCHOOL,6310 CLIFT STREET,SHREVEPORT,LA,71106,NOT AVAILABLE,(318) 868-2753
10801,220138001111,MANY ELEMENTARY SCHOOL,1501 NATCHITOCHES HWY.,MANY,LA,71449,NOT AVAILABLE,(318) 256-3450
14171,220084000599,ALLEN ELLENDER SCHOOL,4501 EAST AMES BOULEVARD,MARRERO,LA,70072,6309,(504) 341-9469
14449,220183001412,PICKERING ELEMENTARY SCHOOL,116 LEBLEU ROAD,LEESVILLE,LA,71446,NOT AVAILABLE,(337) 537-3394
14692,220066000487,GILBERT SCHOOL,174 FIRST STREET,GILBERT,LA,71336,NOT AVAILABLE,(318) 435-5961
19862,220084000604,FISHER MIDDLE/HIGH SCHOOL,2529 JEAN LAFITTE BOULEVARD,LAFITTE,LA,70067,9801,(504) 689-3665
42287,220030000171,JUDSON FUNDAMENTAL ELEMENTARY SCHOOL,3809 JUDSON STREET,SHREVEPORT,LA,71109,NOT AVAILABLE,(318) 635-1132
44724,220168001298,AMITE HIGH MAGNET,403 SOUTH LAUREL STREET,AMITE,LA,70422,NOT AVAILABLE,(985) 748-9301
48305,220165001282,E. E. LYON ELEMENTARY SCHOOL,1615 NORTH FLORIDA STREET,COVINGTON,LA,70433,NOT AVAILABLE,(985) 892-0869
49022,220156001182,EUNICE JUNIOR HIGH SCHOOL,751 WEST OAK STREET,EUNICE,LA,70535,NOT AVAILABLE,(337) 457-7386
49024,220159001216,BREAUX BRIDGE ELEMENTARY SCHOOL,915 SAINT CHARLES STREET,BREAUX BRIDGE,LA,70517,NOT AVAILABLE,(337) 332-1270
30745,220138001112,MANY HIGH SCHOOL,100 TIGER DRIVE,MANY,LA,71449,NOT AVAILABLE,(318) 256-2114
30957,220066000489,CROWVILLE SCHOOL,139 SCHOOL ROAD,CROWVILLE,LA,71230,NOT AVAILABLE,(318) 722-3244
31813,220090001603,SOUTH LAROSE ELEMENTARY SCHOOL,154 WEST 25TH STREE,LAROSE,LA,70373,NOT AVAILABLE,(985) 693-7597
32054,220030000147,C.E. BYRD HIGH SCHOOL,3201 LINE AVENUE,SHREVEPORT,LA,71104,NOT AVAILABLE,(318) 869-2567
37107,220186001424,FRANKLINTON HIGH SCHOOL,1 DEMON CIRCLE,FRANKLINTON,LA,70438,NOT AVAILABLE,(985) 839-6781
54388,220022400914,LAFAYETTE ACADEMY,2727 SOUTH CARROLLTON AVENUE,NEW ORLEANS,LA,70118,NOT AVAILABLE,(504) 861-8370
55329,220174001355,LEGION PARK ELEMENTARY SCHOOL,710 WILLIAMS AVENUE,HOUMA,LA,70364,NOT AVAILABLE,(985) 876-2272
57103,220029202422,EINSTEIN CHARTER AT SHERWOOD FOREST,4801 MAID MARION,NEW ORLEANS,LA,70129,NOT AVAILABLE,(504) 503-0110
57379,220029802361,GEO PREP MID-CITY OF GREATER BATON ROUGE,1900 LOBDELL BLVD,BATON ROUGE,LA,70806,NOT AVAILABLE,(225) 236-9333
57603,220029502427,EINSTEIN CHARTER HIGH SCHOOL AT SARAH TOWLES REED,5316 MICHOUD BLVD,NEW ORLEANS,LA,70129,NOT AVAILABLE,(504) 503-0470
59657,220090000717,RACELAND LOWER ELEMENTARY SCHOOL,144 BOWIE ROAD,RACELAND,LA,70394,NOT AVAILABLE,(985) 537-6837
59662,220177001377,UNION PARISH JUNIOR HIGH SCHOOL,606 BERNICE STREET,FARMERVILLE,LA,71241,NOT AVAILABLE,(318) 368-9507
90328,220051000626,MANSFIELD MIDDLE SCHOOL,1915 MCARTHUR DR,MANSFIELD,LA,71052,NOT AVAILABLE,(318) 872-1309
92768,220102000726,EASTSIDE ELEMENTARY SCHOOL,9735 LOCKHART ROAD,DENHAM SPRINGS,LA,70726,NOT AVAILABLE,(225) 791-8581
94006,220090002330,BAYOU COMMUNITY ACADEMY CHARTER SCHOOL,800 EAST SEVENTH STREET,THIBODAUX,LA,70301,NOT AVAILABLE,(985) 446-3011
98006,220165001269,GLYNN H. BROCK ELEMENTARY SCHOOL,259 BRAKEFIELD STREET,SLIDELL,LA,70458,NOT AVAILABLE,(985) 643-5166
98046,220168001311,LORANGER ELEMENTARY SCHOOL,54101 MARTIN STREET,LORANGER,LA,70446,NOT AVAILABLE,(985) 878-4538
21061,220027000133,PLANTATION PARK ELEMENTARY SCHOOL,2410 PLANTATION DRIVE,BOSSIER CITY,LA,71111,NOT AVAILABLE,(318) 549-5700
21627,220084001881,GERALDINE BOUDREAUX ELEMENTARY SCHOOL,950 BEHRMAN HIGHWAY,TERRYTOWN,LA,70056,4548,(504) 393-8732
25984,220054000435,TWIN OAKS ELEMENTARY SCHOOL,819 TRAMMEL DRIVE,BATON ROUGE,LA,70815,NOT AVAILABLE,(225) 275-6620
29409,220030000182,NORTHWOOD HIGH SCHOOL,5939 OLD MOORINGSPORT ROAD,SHREVEPORT,LA,71107,NOT AVAILABLE,(318) 929-3513
80252,220027000132,PLAIN DEALING HIGH SCHOOL,300 EAST VANCE STREET,PLAIN DEALING,LA,71064,NOT AVAILABLE,(318) 759-2700
81842,220180001846,ERATH MIDDLE SCHOOL,800 SOUTH BROADWAY,ERATH,LA,70533,NOT AVAILABLE,(337) 937-4441
81865,228010002014,RENAISSANCE HOME FOR YOUTH,1501 VANDENBURG DR.,ALEXANDRIA,LA,71303,NOT AVAILABLE,(318) 448-8592
83276,220087001397,N. P. MOSS PREPARATORY ACADEMY,516 W PINHOOK RD,LAFAYETTE,LA,70503,NOT AVAILABLE,(337) 521-7590
87570,220018002332,SOUTH BEAUREGARD UPPER ELEMENTARY SCHOOL,12378 HWY. 171,LONGVILLE,LA,70652,NOT AVAILABLE,(337) 725-4228
89270,220090000724,THIBODAUX ELEMENTARY SCHOOL,700 EAST SEVENTH STREET,THIBODAUX,LA,70301,NOT AVAILABLE,(985) 446-6116
72408,220030000199,E.B. WILLIAMS STONER HILL ELEMENTARY SCHOOL,2127 C. E. GALLOWAY BOULEVARD,SHREVEPORT,LA,71104,NOT AVAILABLE,(318) 222-5317
73103,220072000316,IBERIA MIDDLE SCHOOL,613 WEEKS ISLAND ROAD,NEW IBERIA,LA,70560,NOT AVAILABLE,(337) 364-3927
74174,220186001423,FRANKLINTON PRIMARY SCHOOL,610 T.W. BARKER DRIVE,FRANKLINTON,LA,70438,NOT AVAILABLE,(985) 839-5674
74921,220084000576,JOHN Q. ADAMS MIDDLE SCHOOL,5525 HENICAN PLACE,METAIRIE,LA,70003,1099,(504) 887-5240
75159,220054001703,WHITE HILLS ELEMENTARY SCHOOL,5300 BENTLEY DRIVE,BAKER,LA,70714,NOT AVAILABLE,(225) 775-5891
76030,220102000768,MAUREPAS SCHOOL,25125 HWY 22,MAUREPAS,LA,70449,NOT AVAILABLE,(225) 695-6111
77795,220030000163,GREEN OAKS PERFORMING ARTS ACADEMY,2550 THOMAS E. HOWARD DRIVE,SHREVEPORT,LA,71107,NOT AVAILABLE,(318) 425-3411
100156,220024000104,BYRD AVENUE PRIMARY SCHOOL,1600 BYRD AVENUE,BOGALUSA,LA,70427,NOT AVAILABLE,(985) 281-2190
101627,220189001442,J. L. JONES ELEMENTARY SCHOOL,620 DISTRICT DR,MINDEN,LA,71055,NOT AVAILABLE,(318) 377-1815
102005,220120000986,CENTRAL ELEMENTARY SCHOOL,1163 HIGHWAY 151 S,CALHOUN,LA,71225,NOT AVAILABLE,(318) 644-5842
105088,220032202495,LAFAYETTE ACADEMY CHARTER SCHOOL,9330 FORSHEY ST,NEW ORLEANS,LA,70118,NOT AVAILABLE,(504) 934-4683
105105,220117002468,EDWARD HYNES CHARTER SCHOOL (UNO CAMPUS),6101 CHATHAM DRIVE,NEW ORLEANS,LA,70122,NOT AVAILABLE,(504) 359-7700
31905,220114002025,NATCHITOCHES MAGNET SCHOOL,800 KOONCE STREET,NATCHITOCHES,LA,71457,NOT AVAILABLE,(318) 357-1252
34594,220129001065,PARADISE ELEMENTARY SCHOOL,5010 MONROE HIGHWAY,BALL,LA,71405,NOT AVAILABLE,(318) 640-1033
34627,220168001305,GREENVILLE PARK LEADERSHIP ACADEMY,111 JW DAVIS DRIVE,HAMMOND,LA,70401,NOT AVAILABLE,(985) 345-2654
38868,220003900450,ZACHARY HIGH SCHOOL,4100 BRONCO LANE,ZACHARY,LA,70791,NOT AVAILABLE,(225) 654-2776
18230,220132000784,WARE YOUTH CENTER,3565 HIGHWAY 71,COUSHATTA,LA,71019,NOT AVAILABLE,(318) 932-4411
18807,220009000034,G. W. CARVER PRIMARY SCHOOL,11310 LEGACY OAKS LANE,GONZALES,LA,70737,NOT AVAILABLE,(225) 391-6800
60034,220003000004,CHURCH POINT HIGH SCHOOL,305 EAST LOUGARRE STREET,CHURCH POINT,LA,70525,4105,(337) 684-5472
66041,220072000528,NORTH LEWIS ELEMENTARY SCHOOL,604 NORTH LEWIS STREET,NEW IBERIA,LA,70563,NOT AVAILABLE,(337) 369-6132
67966,220075001980,DORSEYVILLE ELEMENTARY SCHOOL,31505 HWY. 1 SOUTH,WHITE CASTLE,LA,70788,NOT AVAILABLE,(225) 545-3805
20663,220186001431,WESLEY RAY ELEMENTARY SCHOOL,30523 WESLEY RAY ROAD,ANGIE,LA,70426,NOT AVAILABLE,(985) 986-3131
22395,220054002379,BROOKSTOWN MIDDLE,4375 BROOKSTOWN DR.,BATON ROUGE,LA,70805,NOT AVAILABLE,(225) 355-6556
26757,220033000248,MAPLEWOOD MIDDLE SCHOOL,4401 MAPLEWOOD DR,SULPHUR,LA,70663,NOT AVAILABLE,(337) 217-4920
93733,220147001157,ST. HELENA ARTS AND TECHNOLOGY ACADEMY,1798 HIGHWAY 1042,GREENSBURG,LA,70441,NOT AVAILABLE,(225) 222-4364
98095,220129001042,BOLTON HIGH SCHOOL,2101 VANCE AVENUE,ALEXANDRIA,LA,71301,NOT AVAILABLE,(318) 448-3628
99838,220117002468,EDWARD HYNES CHARTER SCHOOL (UNO CAMPUS),6101 CHATHAM DRIVE,NEW ORLEANS,LA,70122,NOT AVAILABLE,(504) 359-7700
50381,220165001279,FOLSOM ELEMENTARY SCHOOL,82144 HIGHWAY 25,FOLSOM,LA,70437,NOT AVAILABLE,(985) 796-3820
51260,220150001165,PAULINA ELEMENTARY SCHOOL,2756 HIGHWAY 44,PAULINA,LA,70763,NOT AVAILABLE,(225) 258-4704
51516,220054000446,WINBOURNE ELEMENTARY SCHOOL,4503 WINBOURNE AVE,BATON ROUGE,LA,70805,NOT AVAILABLE,(225) 355-4446
52942,220026502334,G W CARVER HIGH SCHOOL,3059 HIGGINS BLVD,NEW ORLEANS,LA,70126,NOT AVAILABLE,(504) 256-9561
56490,220123002028,SOUTH PLAQUEMINES HIGH SCHOOL,34121 HIGHWAY 23,BURAS,LA,70041,NOT AVAILABLE,(504) 595-6435
56645,220054000679,J. K. HAYNES CHARTER INC.,8600 ELM GROVE GARDEN DRIVE,BATON ROUGE,LA,70807,NOT AVAILABLE,(225) 774-1311
57610,220087002442,SOUTHSIDE HIGH SCHOOL,312 ALMONASTER RD,YOUNGSVILLE,LA,70592,NOT AVAILABLE,(337) 521-7600
59308,220186001421,FRANKLINTON ELEMENTARY SCHOOL,345 JAGUAR DRIVE,FRANKLINTON,LA,70438,NOT AVAILABLE,(985) 839-3580
82454,220135001095,DELHI HIGH SCHOOL,413 MAIN STREET,DELHI,LA,71232,NOT AVAILABLE,(318) 878-2235
85382,220201001479,CALVIN HIGH SCHOOL,223 SECOND STREET,CALVIN,LA,71410,NOT AVAILABLE,(318) 727-8784
87234,220084000643,MARIE B. RIVIERE ELEMENTARY SCHOOL,1564 LAKE AVENUE,METAIRIE,LA,70005,1431,(504) 835-8439
74073,220060000465,EAST FELICIANA HIGH SCHOOL,3501 HIGHWAY 10,JACKSON,LA,70748,NOT AVAILABLE,(225) 634-5931
74251,220177001694,UNION PARISH ELEMENTARY SCHOOL,7195 HIGHWAY 33,FARMERVILLE,LA,71241,NOT AVAILABLE,(318) 368-9542
75289,220174001346,ELLENDER MEMORIAL HIGH SCHOOL,3012 PATRIOT DRIVE,HOUMA,LA,70363,NOT AVAILABLE,(985) 868-7903
76721,220138001108,EBARB SCHOOL,5340 HWY. 482,NOBLE,LA,71462,NOT AVAILABLE,(318) 645-9402
724,220027000118,BOSSIER ELEMENTARY SCHOOL,1000 TRAFFIC STREET,BOSSIER CITY,LA,71111,NOT AVAILABLE,(318) 549-6350
1078,220117002412,FOUNDATION PREPARATORY,2733 ESPLANADE AVE,NEW ORLEANS,LA,70119,NOT AVAILABLE,(504) 270-1653
1692,220033000230,FAIRVIEW ELEMENTARY SCHOOL,3955 GERSTNER MEM. DRIVE,LAKE CHARLES,LA,70607,NOT AVAILABLE,(337) 217-4490
2986,220195002011,OAK GROVE ELEMENTARY SCHOOL,206 TIGER DRIVE,OAK GROVE,LA,71263,NOT AVAILABLE,(318) 428-4810
4625,220030002424,NORTH CADDO ELEMENTARY-MIDDLE SCHOOL,100 W KENTUCKY,VIVIAN,LA,71082,NOT AVAILABLE,(318) 375-3271
5105,220087002301,DAVID THIBODAUX STEM MAGNET ACADEMY,805 TEURLINGS DRIVE,LAFAYETTE,LA,70501,NOT AVAILABLE,(337) 262-5962
7392,220054000423,SCOTLANDVILLE MAGNET HIGH SCHOOL,9870 SCOTLAND AVENUE,BATON ROUGE,LA,70807,NOT AVAILABLE,(225) 775-3715
7453,220081000563,FENTON ELEMENTARY SCHOOL,509 FIRST STREET,FENTON,LA,70640,NOT AVAILABLE,(337) 756-2326
9448,220165001591,CREEKSIDE JUNIOR HIGH,65434 HIGHWAY 41,PEARL RIVER,LA,70452,NOT AVAILABLE,(985) 863-5882
46766,220087000661,L.J. ALLEMAN MIDDLE SCHOOL,600 ROSELAWN BOULEVARD,LAFAYETTE,LA,70503,NOT AVAILABLE,(337) 521-7850
46811,220162001243,FRANKLIN JUNIOR HIGH SCHOOL,525 MORRIS STREET,FRANKLIN,LA,70538,6604,(337) 828-0855
47318,220081000572,LAKE ARTHUR HIGH SCHOOL,4374 TIGER LANE,LAKE ARTHUR,LA,70549,NOT AVAILABLE,(337) 774-5152
47932,220156001636,EUNICE CAREER & TECHNICAL EDUCATION CENTER,421 SOUTH 10TH STREET,EUNICE,LA,70535,NOT AVAILABLE,(337) 457-8686
48024,220006000028,OAKDALE ELEMENTARY SCHOOL,1515 HIGHWAY 1153,OAKDALE,LA,71463,NOT AVAILABLE,(318) 335-0690
48344,220063000475,MAMOU HIGH SCHOOL,1008 SEVENTH STREET,MAMOU,LA,70554,NOT AVAILABLE,(337) 468-5793
102006,220108000789,CARVER ELEMENTARY SCHOOL,1700 ORANGE STREET,MONROE,LA,71202,NOT AVAILABLE,(318) 322-4245
82890,220129001078,L.S. RUGG ELEMENTARY SCHOOL,1319 BUSH AVENUE,ALEXANDRIA,LA,71301,NOT AVAILABLE,(318) 442-4536
82914,220102000767,LIVE OAK HIGH SCHOOL,35086 OLD LA HWY 16,WATSON,LA,70786,NOT AVAILABLE,(225) 665-8858
84185,220099000751,RUSTON ELEMENTARY SCHOOL,200 N. BERNARD STREET,RUSTON,LA,71270,NOT AVAILABLE,(318) 255-4714
88033,220033000255,A. A. NELSON ELEMENTARY SCHOOL,1001 COUNTRY CLUB ROAD,LAKE CHARLES,LA,70605,NOT AVAILABLE,(337) 217-4790
88611,220033000253,MOSS BLUFF MIDDLE SCHOOL,1104 RECREATION BLVD,LAKE CHARLES,LA,70611,NOT AVAILABLE,(337) 217-4570
96966,220054001554,GLASGOW MIDDLE SCHOOL,1676 GLASGOW AVE,BATON ROUGE,LA,70808,NOT AVAILABLE,(225) 925-2942
101474,220051002064,NORTH DESOTO UPPER ELEMENTARY SCHOOL,2535 HIGHWAY 171,STONEWALL,LA,71078,NOT AVAILABLE,(318) 925-1610
105073,220030702461,ROSENWALD COLLEGIATE ACADEMY,6501 BERKLEY DR.,NEW ORLEANS,LA,70131,NOT AVAILABLE,(504) 264-8183
105082,220031602481,WARREN EASTON CHARTER HIGH SCHOOL,3019 CANAL STREET,NEW ORLEANS,LA,70119,NOT AVAILABLE,(504) 324-7400
105097,220072002479,BELLE PLACE ELEMENTARY SCHOOL,411 LEBOURGEOIS ROAD,NEW IBERIA,LA,70563,NOT AVAILABLE,(337) 369-3738
50550,220141002302,ARABI ELEMENTARY SCHOOL,7200 ALEXANDER AVENUE,ARABI,LA,70032,1638,(504) 218-5058
51622,220090000701,SIXTH WARD MIDDLE SCHOOL,1865 CHOCTAW ROAD,THIBODAUX,LA,70301,NOT AVAILABLE,(985) 633-2449
51869,220159001222,CECILIA PRIMARY SCHOOL,1021 ALCIDE BONIN ROAD,CECILIA,LA,70521,NOT AVAILABLE,(337) 667-6700
52302,220102000761,DOYLE HIGH SCHOOL,20480 CIRCLE DRIVE,LIVINGSTON,LA,70754,NOT AVAILABLE,(225) 686-2318
53089,220180001390,ERATH HIGH SCHOOL,808 SOUTH BROADWAY,ERATH,LA,70533,NOT AVAILABLE,(337) 937-8451
55086,220024000102,CENTRAL ELEMENTARY SCHOOL,420 SPARTAN'S AVENUE,BOGALUSA,LA,70427,NOT AVAILABLE,(985) 281-2232
57171,220028300858,EINSTEIN CHARTER SCHOOL AT VILLAGE DE L'EST,5316 MICHOUD BLVD,NEW ORLEANS,LA,70129,NOT AVAILABLE,(504) 717-9074
57599,220028400944,MCDONOGH 42 CHARTER SCHOOL,1651 N TONTI STREET,NEW ORLEANS,LA,70119,NOT AVAILABLE,(504) 942-3660
58725,220102002313,JUBAN PARC ELEMENTARY SCHOOL,12555 BROWN ROAD,DENHAM SPRINGS,LA,70726,6931,(225) 665-4079
59658,220120001017,WEST MONROE HIGH SCHOOL,201 RIGGS STREET,WEST MONROE,LA,71291,NOT AVAILABLE,(318) 323-3771
977,220023702068,ABRAMSON SCI ACADEMY,5552 READ BLVD,NEW ORLEANS,LA,70127,NOT AVAILABLE,(504) 241-0037
4172,220180001391,FORKED ISLAND/E. BROUSSARD ELEM SCHOOL,19635 COLUMBUS ROAD,ABBEVILLE,LA,70510,NOT AVAILABLE,(337) 642-9100
6262,220028501620,AUDUBON CHARTER SCHOOL,428 BROADWAY AVENUE,NEW ORLEANS,LA,70118,3514,(504) 324-7100
6489,220028902364,BRICOLAGE ACADEMY,2426 ESPLANADE,NEW ORLEANS,LA,70119,NOT AVAILABLE,(504) 593-4505
7290,220003000010,EGAN ELEMENTARY SCHOOL,2166 EGAN HIGHWAY,EGAN,LA,70531,3308,(337) 783-4148
9660,220084001512,J.J. AUDUBON ELEMENTARY SCHOOL,200 WEST LOYOLA DRIVE,KENNER,LA,70065,4024,(504) 466-0525
31389,220081000568,WARD ELEMENTARY SCHOOL,208 EAST SHANKLAND AVENUE,JENNINGS,LA,70546,NOT AVAILABLE,(337) 824-1235
33535,220111000805,BASTROP HIGH SCHOOL,402 HIGHLAND AVENUE,BASTROP,LA,71220,NOT AVAILABLE,(318) 281-0194
35535,220156001186,GROLEE ELEMENTARY SCHOOL,1540 WEST GROLEE STREET,OPELOUSAS,LA,70570,NOT AVAILABLE,(337) 942-3130
66170,220072001585,DELCAMBRE ELEMENTARY SCHOOL,706 MARTIN LUTHER KING DRIVE,DELCAMBRE,LA,70528,NOT AVAILABLE,(337) 685-2376
66577,228010001725,EASTERN LA MENTAL SYSTEM,HWY. 10,JACKSON,LA,70748,NOT AVAILABLE,(225) 634-0552
68228,220036000283,UNION CENTRAL ELEMENTARY SCHOOL,649 HIGHWAY 849,COLUMBIA,LA,71418,NOT AVAILABLE,(318) 649-2569
20283,220087000693,WESTSIDE ELEMENTARY SCHOOL,912 DELHOMME AVE,SCOTT,LA,70583,NOT AVAILABLE,(337) 521-7820
21628,220129001085,TIOGA JUNIOR HIGH SCHOOL,1150 TIOGA ROAD,PINEVILLE,LA,71360,NOT AVAILABLE,(318) 640-9412
22938,220108000791,BARKDULL FAULK ELEMENTARY SCHOOL,2110 JACKSON STREET,MONROE,LA,71202,NOT AVAILABLE,(318) 322-1300
25379,220060002321,SLAUGHTER COMMUNITY CHARTER SCHOOL,2944 HIGHWAY 412 WEST,SLAUGHTER,LA,70777,3232,(225) 570-8682
28698,220189001436,DOYLINE HIGH SCHOOL,804 COLLEGE ST.,DOYLINE,LA,71023,NOT AVAILABLE,(318) 745-3673
11089,220168001326,AMITE WESTSIDE MIDDLE MAGNET,401 WEST OAK STREET,AMITE,LA,70422,NOT AVAILABLE,(985) 748-9073
12176,220120001002,OUACHITA JUNIOR HIGH SCHOOL,5500 BLANKS STREET,MONROE,LA,71203,NOT AVAILABLE,(318) 345-5100
15128,220054000390,LABELLE AIRE ELEMENTARY SCHOOL,12255 TAMS DRIVE,BATON ROUGE,LA,70815,NOT AVAILABLE,(225) 275-7480
17063,220090000711,LAROSE-CUT OFF MIDDLE SCHOOL,13356 WEST MAIN STREET,LAROSE,LA,70373,NOT AVAILABLE,(985) 693-3273
17066,220021000094,CRAWFORD ELEMENTARY SCHOOL,935 DANIEL STREET,ARCADIA,LA,71001,NOT AVAILABLE,(318) 263-8757
17294,220003900405,NORTHWESTERN ELEMENTARY SCHOOL,4200 ROLLINS ROAD,ZACHARY,LA,70791,NOT AVAILABLE,(225) 654-2786
18965,220009000042,LOWERY MIDDLE SCHOOL,2389-A HWY 1 SOUTH,DONALDSONVILLE,LA,70346,NOT AVAILABLE,(225) 391-7550
70089,220054000394,MAGNOLIA WOODS ELEMENTARY SCHOOL,760 MAXINE DRIVE,BATON ROUGE,LA,70808,NOT AVAILABLE,(225) 769-6845
70661,220162001248,B. EDWARD BOUDREAUX MIDDLE SCHOOL,18333 HWY 182 WEST,BALDWIN,LA,70514,NOT AVAILABLE,(337) 924-7990
75126,220201001487,WINNFIELD HIGH SCHOOL,631 THOMAS MILL ROAD,WINNFIELD,LA,71483,NOT AVAILABLE,(318) 628-3506
44511,220030000196,SOUTHERN HILLS ELEMENTARY SCHOOL,9075 KINGSTON ROAD,SHREVEPORT,LA,71118,NOT AVAILABLE,(318) 686-1974
46451,220180002398,NORTH VERMILION MIDDLE SCHOOL,11609-A LA HWY 699,MAURICE,LA,70555,NOT AVAILABLE,(337) 893-1583
48608,220099000747,HILLCREST ELEMENTARY SCHOOL,301 EAST KENTUCKY AVENUE,RUSTON,LA,71270,NOT AVAILABLE,(318) 255-0550
10393,228010001627,RAYMOND LABORDE CORRECTIONAL CENTER,1630 PRISON ROAD,COTTONPORT,LA,71327,NOT AVAILABLE,(318) 876-2891
12975,220090000703,EAST THIBODAUX MIDDLE SCHOOL,802 EAST SEVENTH STREET,THIBODAUX,LA,70301,NOT AVAILABLE,(985) 446-5616
13508,220108000792,CLARA HALL ACCELERATED SCHOOL,1000 PLUM STREET,MONROE,LA,71202,NOT AVAILABLE,(318) 322-8501
16643,220033000252,MOSS BLUFF ELEMENTARY SCHOOL,215 SCHOOL STREET,LAKE CHARLES,LA,70611,NOT AVAILABLE,(337) 217-4640
17469,220183001410,LEESVILLE HIGH SCHOOL,502 BERRY AVENUE,LEESVILLE,LA,71446,NOT AVAILABLE,(337) 239-3464
19930,220075001997,IBERVILLE ELEMENTARY SCHOOL,58650 IRON FARM ROAD,PLAQUEMINE,LA,70764,NOT AVAILABLE,(225) 687-2217
1438,220150001163,LUTCHER HIGH SCHOOL,1910 WEST MAIN STREET,LUTCHER,LA,70071,NOT AVAILABLE,(225) 869-5741
1617,220129001038,ACADIAN ELEMENTARY,310 RICHMOND DRIVE,ALEXANDRIA,LA,71302,NOT AVAILABLE,(318) 487-1202
2933,220084002305,JCFA,475 MANHATTAN BOULEVARD,HARVEY,LA,70058,NOT AVAILABLE,(504) 410-3121
3426,220012000056,PIERRE PART ELEMENTARY SCHOOL,3321 HWY 70,PIERRE PART,LA,70339,NOT AVAILABLE,(985) 252-6359
7039,220105000780,MADISON HIGH SCHOOL,1234 MADISON HIGH DRIVE,TALLULAH,LA,71282,NOT AVAILABLE,(318) 574-3529
8175,220084000618,HAZEL PARK/HILDA KNOFF SCHOOL,8809 JEFFERSON HIGHWAY,RIVER RIDGE,LA,70123,3524,(504) 737-6163
91662,220174001367,SOUTH TERREBONNE HIGH SCHOOL,3879 HWY. 24,BOURG,LA,70343,9706,(985) 868-7850
92661,220015000076,PLAUCHEVILLE ELEMENTARY SCHOOL,HWY 1181 - SCHOOL LOOP 50,PLAUCHEVILLE,LA,71362,NOT AVAILABLE,(318) 922-3311
97035,220156001185,GRAND PRAIRIE ELEMENTARY SCHOOL,669 HWY. 363,WASHINGTON,LA,70589,NOT AVAILABLE,(337) 826-3391
97743,220054000399,MERRYDALE ELEMENTARY SCHOOL,6700 RIO STREET,BATON ROUGE,LA,70812,NOT AVAILABLE,(225) 355-0346
80350,220120000988,CROSLEY ELEMENTARY SCHOOL,700 NATCHITOCHES STREET,WEST MONROE,LA,71291,NOT AVAILABLE,(318) 325-3634
86827,220075000536,CRESCENT ELEMENTARY/JUNIOR HIGH SCHOOL,62575 BAYOU ROAD,PLAQUEMINE,LA,70764,NOT AVAILABLE,(225) 659-2437
87724,220156001183,GLENDALE ELEMENTARY SCHOOL,900 WEST DEAN STREET,EUNICE,LA,70535,NOT AVAILABLE,(337) 457-4121
88358,220027000120,BOSSIER HIGH SCHOOL,777 BEARKAT DRIVE,BOSSIER CITY,LA,71111,NOT AVAILABLE,(318) 549-6680
75106,220189001432,BROWN UPPER ELEMENTARY SCHOOL,804 4TH ST. SW,SPRINGHILL,LA,71075,NOT AVAILABLE,(318) 539-2818
75711,220102000775,WALKER FRESHMAN HIGH SCHOOL,13443 BURGESS AVENUE,WALKER,LA,70785,NOT AVAILABLE,(225) 665-8970
76720,220120000995,LENWIL ELEMENTARY SCHOOL,112 ARRANT ROAD,WEST MONROE,LA,71292,NOT AVAILABLE,(318) 323-3604
78035,220084000583,ALICE BIRNEY ELEMENTARY SCHOOL,4829 HASTINGS STREET,METAIRIE,LA,70006,2676,(504) 885-1054
78484,220111000807,MOREHOUSE JUNIOR HIGH SCHOOL,1001 WEST MADISON AVENUE,BASTROP,LA,71220,NOT AVAILABLE,(318) 281-0776
79263,220099000753,SIMSBORO HIGH SCHOOL,1 TIGER DRIVE,SIMSBORO,LA,71275,NOT AVAILABLE,(318) 247-6265
79359,220012001696,BAYOU L'OURSE PRIMARY SCHOOL,1397 HWY 662,MORGAN CITY,LA,70380,NOT AVAILABLE,(985) 631-9268
53401,220030000179,NORTH CADDO HIGH SCHOOL,201 AIRPORT DRIVE,VIVIAN,LA,71082,3403,(318) 375-3258
56069,220027202428,GREATER GRACE CHARTER ACADEMY INC.,21490 B HIGHWAY 40,VACHERIE,LA,70900,NOT AVAILABLE,(225) 267-7318
56812,220162001242,FRANKLIN SENIOR HIGH SCHOOL,1401 CYNTHIA STREET,FRANKLIN,LA,70538,3795,(337) 828-0143
56831,220117000856,MARY BETHUNE ELEMENTARY LITERATURE/TECHNOLOGY,2401 HUMANITY STREET,NEW ORLEANS,LA,70122,NOT AVAILABLE,(504) 324-7076
57039,220135001102,RAYVILLE HIGH SCHOOL,193 HWY. 3048,RAYVILLE,LA,71269,NOT AVAILABLE,(318) 728-3296
57598,220028100234,NEW ORLEANS CHARTER SCIENCE AND MATHEMATICS HS,5625 LOYOLA AVENUE,NEW ORLEANS,LA,70115,5014,(504) 324-7061
59661,220165001649,MADISONVILLE JUNIOR HIGH SCHOOL,106 CEDAR STREET,MADISONVILLE,LA,70447,NOT AVAILABLE,(985) 845-3355
31123,220033000222,JESSIE D. CLIFTON ELEMENTARY SCHOOL,100 N PRATER ST,LAKE CHARLES,LA,70601,NOT AVAILABLE,(337) 217-4420
34593,220129001084,TIOGA HIGH SCHOOL,1207 TIOGA ROAD,BALL,LA,71405,NOT AVAILABLE,(318) 640-9661
35863,220002201922,LSU LABORATORY SCHOOL,45 DALRYMPLE DRIVE,BATON ROUGE,LA,70803,0501,(225) 578-3221
63081,220003000011,ESTHERWOOD ELEMENTARY SCHOOL,214 JEFFERSON AVENUE,ESTHERWOOD,LA,70534,9999,(337) 783-6788
65453,220033001674,GILLIS ELEMENTARY SCHOOL,916 TOPSY ROAD,LAKE CHARLES,LA,70611,NOT AVAILABLE,(337) 217-4550
65481,220078000560,WESTON HIGH SCHOOL,213 HIGHWAY 505,JONESBORO,LA,71251,NOT AVAILABLE,(318) 259-7313
69276,220057000457,SOUTHSIDE ELEMENTARY SCHOOL,1307 GOULD STREET,LAKE PROVIDENCE,LA,71254,0128,(318) 559-0325
21674,220027000138,SUN CITY ELEMENTARY SCHOOL,4230 VAN DEEMAN STREET,BOSSIER CITY,LA,71112,NOT AVAILABLE,(318) 549-7000
41943,220099000745,GLEN VIEW ELEMENTARY SCHOOL,1601 BITTERSWEET,RUSTON,LA,71270,NOT AVAILABLE,(318) 255-5724
42172,220027000124,CURTIS ELEMENTARY SCHOOL,5600 BARKSDALE BOULEVARD,BOSSIER CITY,LA,71112,NOT AVAILABLE,(318) 549-6450
42311,220003201375,V. B. GLENCOE CHARTER SCHOOL,4491 HWY 83,FRANKLIN,LA,70538,NOT AVAILABLE,(337) 923-6932
43975,220069000503,POLLOCK ELEMENTARY SCHOOL,4001 HIGHWAY 8,POLLOCK,LA,71467,NOT AVAILABLE,(318) 765-3511
48593,220081000569,JENNINGS ELEMENTARY SCHOOL,620 FLORENCE STREET,JENNINGS,LA,70546,5444,(337) 824-4972
100361,220081000570,LACASSINE HIGH SCHOOL,409 ALGONIA AVENUE,LACASSINE,LA,70650,NOT AVAILABLE,(337) 588-4206
105081,220031502469,CAPITOL HIGH SCHOOL,1000 N. 23RD STREET,BATON ROUGE,LA,70802,NOT AVAILABLE,(225) 239-7506
105094,220054002454,THE EMERGE SCHOOL FOR AUTISM,7784 INNOVATION PARK DRIVE,BATON ROUGE,LA,70820,NOT AVAILABLE,(225) 343-4232
1436,220120001940,GEORGE WELCH ELEMENTARY SCHOOL,199 CALDWELL ROAD,WEST MONROE,LA,71291,NOT AVAILABLE,(318) 397-1100
5886,220029602414,WILSON CHARTER SCHOOL,3617 GENERAL PERSHING STREET,NEW ORLEANS,LA,70125,4530,(504) 250-2137
6003,220029002335,THRIVE ACADEMY,2585 BRIGHTSIDE DRIVE,BATON ROUGE,LA,70820,NOT AVAILABLE,(225) 367-6855
9787,220054000341,AUDUBON ELEMENTARY SCHOOL,10730 GOODWOOD BLVD,BATON ROUGE,LA,70815,NOT AVAILABLE,(225) 272-2620
70366,220084001597,JOSEPH A. CUILLIER SR. CAREER CENTER,1429-B AMES BOULEVARD,MARRERO,LA,70072,2857,(504) 340-6963
71998,220009000038,EAST ASCENSION HIGH SCHOOL,612 E WORTHY STREET,GONZALES,LA,70737,NOT AVAILABLE,(225) 391-6100
73687,220168001297,AMITE ELEMENTARY MAGNET SCHOOL,301 VERNON AVENUE,AMITE,LA,70422,NOT AVAILABLE,(985) 748-6953
74752,220054000421,RYAN ELEMENTARY SCHOOL,10337 ELM GROVE GARDEN DR.,BATON ROUGE,LA,70807,NOT AVAILABLE,(225) 775-2407
81996,220018001864,SOUTH BEAUREGARD ELEMENTARY SCHOOL,12380 HIGHWAY 171,LONGVILLE,LA,70652,NOT AVAILABLE,(337) 725-6302
85849,220066000486,FORT NECESSITY SCHOOL,10630 HIGHWAY 562,FORT NECESSITY,LA,71243,NOT AVAILABLE,(318) 723-4793
86118,220114000828,EAST NATCHITOCHES ELEMENTARY & MIDDLE SCHOOL,1001 EAST FIFTH STREET,NATCHITOCHES,LA,71457,NOT AVAILABLE,(318) 352-4516
87271,220090000713,LOCKPORT LOWER ELEMENTARY SCHOOL,1421 CRESCENT AVENUE,LOCKPORT,LA,70374,NOT AVAILABLE,(985) 532-2846
89399,220003900449,ZACHARY ELEMENTARY SCHOOL,3775 HEMLOCK STREET,ZACHARY,LA,70791,NOT AVAILABLE,(225) 654-4036
30148,220168001322,SOUTHEASTERN LA UNIVERSITY LAB SCHOOL,1200 NORTH GENERAL PERSHING,HAMMOND,LA,70402,NOT AVAILABLE,(985) 549-2185
31604,220084001681,WOODMERE ELEMENTARY,3191 ALEX KORNMAN BLVD.,HARVEY,LA,70058,NOT AVAILABLE,(504) 348-2410
32111,220003000023,SOUTH RAYNE ELEMENTARY SCHOOL,101 EAST BRANCHE STREET,RAYNE,LA,70578,6697,(337) 334-3610
36963,220027000126,GREENACRES MIDDLE SCHOOL,2220 AIRLINE DRIVE,BOSSIER CITY,LA,71111,NOT AVAILABLE,(318) 549-6210
37435,220180001400,MEAUX ELEMENTARY SCHOOL,12419 LA HIGHWAY 696,ABBEVILLE,LA,70510,NOT AVAILABLE,(337) 893-3901
39043,220030000153,CHEROKEE PARK ELEMENTARY SCHOOL,2010 EAST ALGONQUIN TRAIL,SHREVEPORT,LA,71107,NOT AVAILABLE,(318) 221-6782
39088,220102001719,NORTH LIVE OAK ELEMENTARY SCHOOL,36605 OUTBACK ROAD,DENHAM SPRINGS,LA,70706,NOT AVAILABLE,(225) 667-3135
62575,220036000282,CALDWELL PARISH JUNIOR HIGH SCHOOL,114 TROJAN DRIVE,COLUMBIA,LA,71418,NOT AVAILABLE,(318) 649-2340
101593,220174001360,MULBERRY ELEMENTARY SCHOOL,450 COUGAR DRIVE,HOUMA,LA,70360,NOT AVAILABLE,(985) 872-5328
105072,220030602455,DWIGHT D. EISENHOWER CHARTER SCHOOL,3700 TALL PINES DR.,NEW ORLEANS,LA,70131,NOT AVAILABLE,(504) 227-3057
21697,220084000585,BONNABEL MAGNET ACADEMY HIGH SCHOOL,2801 BRUIN DRIVE,KENNER,LA,70065,4707,(504) 443-4565
22419,220054000367,CLAIBORNE ELEMENTARY SCHOOL,4707 DENHAM STREET,BATON ROUGE,LA,70805,NOT AVAILABLE,(225) 357-9712
27966,220069000502,MONTGOMERY HIGH SCHOOL,900 HARRISON DRIVE,MONTGOMERY,LA,71454,NOT AVAILABLE,(318) 646-2879
29329,220120001013,STERLINGTON HIGH SCHOOL,233 KEYSTONE ROAD,MONROE,LA,71203,NOT AVAILABLE,(318) 665-2725
29973,220165001280,FOLSOM JUNIOR HIGH SCHOOL,83055 HAY HOLLOW ROAD,FOLSOM,LA,70437,NOT AVAILABLE,(985) 796-3724
96287,220165002317,ABNEY ELEMENTARY EARLY CHILDHOOD CENTER,829 KOSTMAYER AVENUE,SLIDELL,LA,70458,NOT AVAILABLE,(985) 649-1858
97118,220018000089,SOUTH BEAUREGARD HIGH SCHOOL,151 LONGVILLE CHURCH ROAD,LONGVILLE,LA,70652,NOT AVAILABLE,(337) 725-3536
97590,220186001429,VARNADO HIGH SCHOOL,25543 WASHINGTON STREET,VARNADO,LA,70467,NOT AVAILABLE,(985) 732-2025
42304,220126002001,ROUGON ELEMENTARY SCHOOL,13258 LA HIGHWAY 416,ROUGON,LA,70773,NOT AVAILABLE,(225) 627-4291
44351,220054000347,BATON ROUGE MAGNET HIGH SCHOOL,2825 GOVERNMENT ST,BATON ROUGE,LA,70806,NOT AVAILABLE,(225) 383-0520
49016,220165001272,CHAHTA-IMA ELEMENTARY SCHOOL,27488 PICHON ROAD,LACOMBE,LA,70445,NOT AVAILABLE,(985) 882-7541
49304,220006000032,OBERLIN HIGH SCHOOL,#1 TIGER LANE,OBERLIN,LA,70655,NOT AVAILABLE,(337) 639-4341
52913,220021502348,JS CLARK LEADERSHIP ACADEMY,1517 STATESMAN RD,OPELOUSAS,LA,70570,NOT AVAILABLE,(337) 212-3549
52919,220024500870,JOSEPH A. CRAIG CHARTER SCHOOL,1423 ST. PHILLIP STREET,NEW ORLEANS,LA,70116,2933,(504) 373-6298
52944,220084002411,LAUREATE ACADEMY CHARTER SCHOOL,2115 OAKMERE DR,HARVEY,LA,70058,NOT AVAILABLE,(504) 503-0170
54859,220029700926,LUSHER CHARTER SCHOOL,5624 FRERET STREET,NEW ORLEANS,LA,70115,NOT AVAILABLE,(504) 304-3960
58555,220009001863,LAKE ELEMENTARY SCHOOL,14185 HWY 431,ST. AMANT,LA,70774,NOT AVAILABLE,(225) 391-6550
59385,220123001024,BOOTHVILLE-VENICE ELEMENTARY SCHOOL,#1 OILER DRIVE,BOOTHVILLE,LA,70038,NOT AVAILABLE,(504) 595-6455
10088,220168002399,TANGIPAHOA ALTERNATIVE SOLUTIONS PROGRAM,411 CRYSTAL STREET,HAMMOND,LA,70401,NOT AVAILABLE,(985) 542-5634
12324,220084000608,GREEN PARK ELEMENTARY SCHOOL,1409 NORTH UPLAND STREET,METAIRIE,LA,70003,5757,(504) 466-0205
14098,220165001268,BOYET JUNIOR HIGH SCHOOL,59295 REBEL DRIVE,SLIDELL,LA,70461,NOT AVAILABLE,(985) 643-3775
14400,220054000447,WOODLAWN HIGH SCHOOL,15755 JEFFERSON HIGHWAY,BATON ROUGE,LA,70817,NOT AVAILABLE,(225) 753-1200
17062,220084000639,VIC A. PITRE ELEMENTARY SCHOOL,1525 SPRUCE STREET,WESTWEGO,LA,70094,4899,(504) 341-6517
40020,220186001426,PINE SCHOOL,28315 HIGHWAY 424,FRANKLINTON,LA,70438,NOT AVAILABLE,(985) 848-5243
40064,220099000745,GLEN VIEW ELEMENTARY SCHOOL,1601 BITTERSWEET,RUSTON,LA,71270,NOT AVAILABLE,(318) 255-5724
42299,220120001001,OUACHITA PARISH HIGH SCHOOL,681 HIGHWAY 594,MONROE,LA,71203,NOT AVAILABLE,(318) 343-2769
46452,220033002387,MAPLEWOOD ELEMENTARY,4401 MAPLEWOOD DR.,SULPHUR,LA,70663,6495,(337) 217-4920
51621,220030000197,SOUTHWOOD HIGH SCHOOL,9000 WALKER ROAD,SHREVEPORT,LA,71118,NOT AVAILABLE,(318) 686-9512
51974,220023901800,EDGAR P. HARNEY SPIRIT OF EXCELLENCE ACADEMY,2503 WILLOW STREET,NEW ORLEANS,LA,70113,3234,(504) 952-5047
52946,220105010412,CHRISTIAN ACRES ALTERNATIVE SCHOOL,200 LOOP ROAD,TALLULAH,LA,71282,NOT AVAILABLE,(318) 574-1563
54362,220018802340,THE NET CHARTER HIGH SCHOOL,1614 ORETHA CASTLE HALEY BLVD,NEW ORLEANS,LA,70113,NOT AVAILABLE,(504) 228-4294
54364,220019502021,RENEW DOLORES T. AARON ELEMENTARY,10200 CURRAN BLVD,NEW ORLEANS,LA,70127,NOT AVAILABLE,(504) 570-6354
54544,220025800389,KENILWORTH SCIENCE AND TECHNOLOGY CHARTER SCHOOL,7600 BOONE DRIVE,BATON ROUGE,LA,70808,NOT AVAILABLE,(225) 766-8111
58646,220165002089,LITTLE PEARL ELEMENTARY SCHOOL,63829 HWY 11,PEARL RIVER,LA,70452,NOT AVAILABLE,(985) 863-5906
59869,220177001374,DOWNSVILLE COMMUNITY CHARTER SCHOOL,4787 HIGHWAY 151,DOWNSVILLE,LA,71234,NOT AVAILABLE,(318) 982-5318
30081,220129001074,CARTER C. RAYMOND JUNIOR HIGH SCHOOL,2510 ST. CHARLES,LECOMPTE,LA,71346,NOT AVAILABLE,(318) 776-5489
35739,220162002280,RAINTREE ELEMENTARY SCHOOL,501 RAINTREE DRIVE,BALDWIN,LA,70514,NOT AVAILABLE,(337) 923-0494
36287,220168001305,GREENVILLE PARK LEADERSHIP ACADEMY,111 JW DAVIS DRIVE,HAMMOND,LA,70401,NOT AVAILABLE,(985) 345-2654
36330,220084000598,JOHN EHRET HIGH SCHOOL,4300 PATRIOT ST.,MARRERO,LA,70072,4394,(504) 340-7651
37897,220001800193,LOUISIANA SCHOOL FOR THE VISUALLY IMPAIRED,2888 BRIGHTSIDE LANE,BATON ROUGE,LA,70820,NOT AVAILABLE,(225) 757-3482
39427,220195001471,KILBOURNE HIGH SCHOOL,229 WEST LA. AVENUE,KILBOURNE,LA,71253,NOT AVAILABLE,(318) 428-3721
39804,220004701780,RIVERSIDE ALTERNATIVE HIGH SCHOOL,3225 RIVER ROAD,BRIDGE CITY,LA,70094,NOT AVAILABLE,(504) 437-3050
53,220024702354,DELTA CHARTER SCHOOL MST,300 LYNWOOD DRIVE,FERRIDAY,LA,71334,NOT AVAILABLE,(318) 757-3202
61,220102010339,SPRINGFIELD MIDDLE SCHOOL,24145 COATES ROAD,SPRINGFIELD,LA,70462,NOT AVAILABLE,(225) 294-3306
966,220117002412,FOUNDATION PREPARATORY,2733 ESPLANADE AVE,NEW ORLEANS,LA,70119,NOT AVAILABLE,(504) 270-1653
3288,220054000340,ARLINGTON PREPARATORY ACADEMY,931 DEAN LEE DRIVE,BATON ROUGE,LA,70820,NOT AVAILABLE,(225) 766-8188
5579,220120001012,STERLINGTON ELEMENTARY SCHOOL,9040 HIGHWAY 165 NORTH,STERLINGTON,LA,71280,NOT AVAILABLE,(318) 432-2050
6556,228010001614,RIVERSIDE ALTERNATIVE HIGH SCHOOL,3225 RIVER ROAD,BRIDGE CITY,LA,70094,NOT AVAILABLE,(504) 437-3054
7810,220054000365,NORTHEAST HIGH SCHOOL,13700 PRIDE-PORT HUDSON RD.,PRIDE,LA,70770,9200,(225) 654-5808
9429,220060000468,SLAUGHTER ELEMENTARY SCHOOL,3170 CHURCH STREET,SLAUGHTER,LA,70777,NOT AVAILABLE,(225) 654-4527
9832,220084000614,T.H. HARRIS MIDDLE SCHOOL,911 ELISE AVENUE,METAIRIE,LA,70003,3798,(504) 733-0867
20398,220018001572,K.R. HANCHEY ELEMENTARY SCHOOL,611 FRUSHA DRIVE,DERIDDER,LA,70634,NOT AVAILABLE,(337) 463-4479
21629,220129001070,PINEVILLE JUNIOR HIGH SCHOOL,501 EDGEWOOD DRIVE,PINEVILLE,LA,71360,NOT AVAILABLE,(318) 640-0512
25049,220138001117,ZWOLLE ELEMENTARY SCHOOL,743 CHAMPIONSHIP DRIVE,ZWOLLE,LA,71486,NOT AVAILABLE,(318) 645-6294
26538,220072000532,PESSON ADDITION ELEMENTARY SCHOOL,619 BROUSSARD STREET,NEW IBERIA,LA,70560,4612,(337) 369-9907
11547,220054000434,TARA HIGH SCHOOL,9002 WHITEHALL,BATON ROUGE,LA,70806,NOT AVAILABLE,(225) 927-6100
12974,220084000605,HENRY FORD MIDDLE SCHOOL,435 SOUTH JAMIE BOULEVARD,AVONDALE,LA,70094,2898,(504) 436-2474
15284,220129001562,BALL ELEMENTARY SCHOOL,89 CAMP LIVINGSTON ROAD,BALL,LA,71405,NOT AVAILABLE,(318) 640-5394
17069,220156001188,HIGHLAND ELEMENTARY SCHOOL,1341 DUCK AVENUE,EUNICE,LA,70535,NOT AVAILABLE,(337) 457-5161
91744,220144001148,NORCO ELEMENTARY SCHOOL,102 FIFTH STREET,NORCO,LA,70079,NOT AVAILABLE,(985) 764-7079
92316,220168001900,HAMMOND WESTSIDE MONTESSORI,2600 WESTPARK AVENUE,HAMMOND,LA,70403,NOT AVAILABLE,(985) 345-7233
92477,220087000667,CARENCRO HEIGHTS ELEMENTARY SCHOOL,601 TEE MA ROAD,CARENCRO,LA,70520,NOT AVAILABLE,(337) 521-7640
95143,220051001919,NORTH DESOTO LOWER ELEMENTARY SCHOOL,2623 HWY 171,STONEWALL,LA,71078,NOT AVAILABLE,(318) 925-2383
95482,220078000557,JONESBORO-HODGE MIDDLE SCHOOL,440 OLD WINNFIELD HIGHWAY,JONESBORO,LA,71251,NOT AVAILABLE,(318) 259-6611
95488,220084000600,J.C. ELLIS ELEMENTARY SCHOOL,801 BROCKENBRAUGH COURT,METAIRIE,LA,70005,2051,(504) 833-7254
96414,220039000293,SOUTH CAMERON HIGH SCHOOL,753 OAK GROVE HIGHWAY,GRAND CHENIER,LA,70643,NOT AVAILABLE,(337) 542-4628
70698,220102001559,SOUTHSIDE JUNIOR HIGH SCHOOL,26535 HWY 16,DENHAM SPRINGS,LA,70726,NOT AVAILABLE,(225) 664-4221
73130,220096000735,NEBO ELEMENTARY SCHOOL,300 HWY. 777,JENA,LA,71342,NOT AVAILABLE,(318) 992-4416
77220,220030000162,FOREST HILL ELEMENTARY SCHOOL,2005 FRANCAIS DRIVE,SHREVEPORT,LA,71118,NOT AVAILABLE,(318) 686-1783
61395,220084000607,GREENLAWN TERRACE ELEMENTARY SCHOOL,1500 38TH STREET,KENNER,LA,70065,2898,(504) 468-1016
66344,220171001332,TENSAS ELEMENTARY SCHOOL,FRONTAGE ROAD,ST. JOSEPH,LA,71366,NOT AVAILABLE,(318) 766-3346
80077,220072000522,LOREAUVILLE ELEMENTARY SCHOOL,318 ED BROUSSARD ROAD,LOREAUVILLE,LA,70552,NOT AVAILABLE,(337) 229-6363
80151,220174001341,COTEAU-BAYOU BLUE ELEMENTARY SCHOOL,2550 COTEAU ROAD,HOUMA,LA,70364,NOT AVAILABLE,(985) 868-4267
80514,220084001680,PAUL J. SOLIS ELEMENTARY SCHOOL,2850 MT. LAUREL DRIVE,GRETNA,LA,70056,7899,(504) 392-7867
85274,220006000025,FAIRVIEW HIGH SCHOOL,4239 HIGHWAY 377,GRANT,LA,70644,NOT AVAILABLE,(318) 634-5354
86139,220165001651,ST. TAMMANY JUNIOR HIGH SCHOOL,701 CLEVELAND AVENUE,SLIDELL,LA,70458,NOT AVAILABLE,(985) 643-1592
87366,220009002262,LAKESIDE PRIMARY SCHOOL,16500 LA HWY 431,PRAIRIEVILLE,LA,70769,NOT AVAILABLE,(225) 391-7750
88365,220144001145,J.B. MARTIN MIDDLE SCHOOL,434 SOUTH STREET,PARADIS,LA,70080,NOT AVAILABLE,(985) 758-7579
105066,220009002488,BLUFF MIDDLE SCHOOL,15464 BLUFF ROAD,PRAIRIEVILLE,LA,70769,NOT AVAILABLE,(225) 391-2000
105076,220031002476,IDEA OSCAR DUNN,12000 HAYNE BLVD,NEW ORLEANS,LA,70128,NOT AVAILABLE,(504) 356-6730
105077,220031102463,GLEN OAKS MIDDLE SCHOOL,5300 MONARCH AVE,BATON ROUGE,LA,70811,NOT AVAILABLE,(225) 290-1564
22397,220003000018,MORSE ELEMENTARY SCHOOL,200 WISCONSIN STREET,MORSE,LA,70559,NOT AVAILABLE,(337) 783-5391
22937,220099001815,RUSTON JUNIOR HIGH SCHOOL,481 TARBUTTON ROAD,RUSTON,LA,71270,NOT AVAILABLE,(318) 251-1601
23178,220183001415,ROSEPINE HIGH SCHOOL,502 LOUISIANA AVENUE,ROSEPINE,LA,70659,NOT AVAILABLE,(337) 463-6079
25251,220033000226,DEQUINCY MIDDLE SCHOOL,1603 W FOURTH ST,DEQUINCY,LA,70633,NOT AVAILABLE,(337) 217-4770
25878,220165001686,L.P. MONTELEONE JUNIOR HIGH SCHOOL,63000 BLUE MARLIN DRIVE,MANDEVILLE,LA,70448,NOT AVAILABLE,(985) 951-8088
27994,220150001169,SIXTH WARD ELEMENTARY SCHOOL,3245 VALCOUR AIME STREET,VACHERIE,LA,70090,NOT AVAILABLE,(225) 258-4642
28933,220090000708,GOLDEN MEADOW UPPER ELEMENTARY SCHOOL,124 NORTH THIRD STREET,GOLDEN MEADOW,LA,70357,NOT AVAILABLE,(985) 475-7669
29682,220003000007,CROWLEY MIDDLE SCHOOL,401 WEST NORTHERN AVENUE,CROWLEY,LA,70526,2799,(337) 783-5305
47,220026302405,WILLOW CHARTER ACADEMY,1818 NORTHEAST EVANGELINE THROUGHWAY,LAFAYETTE,LA,70501,NOT AVAILABLE,(337) 534-8218
1134,220045000308,HAYNESVILLE JR./SR. HIGH SCHOOL,9930 HIGHWAY 79,HAYNESVILLE,LA,71038,NOT AVAILABLE,(318) 624-0905
2967,220174001362,OAKSHIRE ELEMENTARY SCHOOL,5459 VICARI STREET,HOUMA,LA,70364,NOT AVAILABLE,(985) 876-1007
6013,220029900888,BENJAMIN FRANKLIN HIGH SCHOOL,2001 LEON C. SIMON DRIVE,NEW ORLEANS,LA,70122,3525,(504) 286-2600
7714,220120001466,RIVERBEND ELEMENTARY SCHOOL,700 AUSTIN AVENUE,WEST MONROE,LA,71292,NOT AVAILABLE,(318) 361-0155
8451,220120002325,STERLINGTON MIDDLE SCHOOL,206 HIGH AVENUE,STERLINGTON,LA,71280,NOT AVAILABLE,(318) 665-0696
9550,220102000769,NORTHSIDE ELEMENTARY SCHOOL,1090 ROBBIE STREET,DENHAM SPRINGS,LA,70726,NOT AVAILABLE,(225) 664-4223
10960,220027001079,PRINCETON ELEMENTARY SCHOOL,1895 WINFIELD ROAD,PRINCETON,LA,71067,NOT AVAILABLE,(318) 549-5750
11508,220018001507,EAST BEAUREGARD ELEMENTARY SCHOOL,5368 HIGHWAY 113,DERIDDER,LA,70634,NOT AVAILABLE,(337) 328-8551
12175,220009001976,DUTCHTOWN PRIMARY SCHOOL,13046 HWY 73,GEISMAR,LA,70734,NOT AVAILABLE,(225) 391-7850
13275,220030001917,DONNIE BICKHAM MIDDLE SCHOOL,7240 OLD MOORINGSPORT ROAD,SHREVEPORT,LA,71107,NOT AVAILABLE,(318) 929-4106
15617,220096000733,JENA JUNIOR HIGH SCHOOL,114 E. SOUTHERN AVE.,JENA,LA,71342,NOT AVAILABLE,(318) 992-5815
15990,220192000448,LUKEVILLE UPPER ELEMENTARY,6123 HIGHWAY 1 SOUTH,BRUSLY,LA,70719,NOT AVAILABLE,(225) 749-8386
16572,220054000416,NORTHEAST ELEMENTARY SCHOOL,13801 PRIDE/PORT HUDSON RD.,PRIDE,LA,70770,NOT AVAILABLE,(225) 654-5113
17061,220072000530,PARK ELEMENTARY SCHOOL,1609 WEST ADMIRAL DOYLE DRIVE,NEW IBERIA,LA,70560,NOT AVAILABLE,(337) 369-6189
19957,220102000764,FROST SCHOOL,19672 LA HIGHWAY 42,LIVINGSTON,LA,70754,NOT AVAILABLE,(225) 698-3780
100171,220144001149,ALBERT CAMMON MIDDLE SCHOOL,234 PIRATE DRIVE,ST. ROSE,LA,70087,NOT AVAILABLE,(504) 467-4536
105071,220030402457,NEW HARMONY HIGH INSTITUTE,5400 DOUGLAS,NEW ORLEANS,LA,70117,NOT AVAILABLE,(504) 444-9404
105074,220030802465,RED RIVER CHARTER ACADEMY,1869 SAINT JEAN STREET,MANSURA,LA,71350,NOT AVAILABLE,(318) 409-4015
51265,220159001216,BREAUX BRIDGE ELEMENTARY SCHOOL,915 SAINT CHARLES STREET,BREAUX BRIDGE,LA,70517,NOT AVAILABLE,(337) 332-1270
52917,220024302362,PAUL HABANS CHARTER SCHOOL,3501 SEINE STREET,NEW ORLEANS,LA,70114,NOT AVAILABLE,(504) 941-1810
54369,220135001102,RAYVILLE HIGH SCHOOL,193 HWY. 3048,RAYVILLE,LA,71269,NOT AVAILABLE,(318) 728-3296
54385,220022102323,RENEW ACCELERATED HIGH SCHOOL,3649 LAUREL STREET,NEW ORLEANS,LA,70115,NOT AVAILABLE,(504) 875-4864
54546,220026002390,BATON ROUGE UNIVERSITY PREPARATORY ELEMENTARY,7802 HOWELL BLVD,BATON ROUGE,LA,70807,NOT AVAILABLE,(225) 364-9805
54861,220030102445,JCFA LAFAYETTE,1501 AMBASSADOR CAFFERY PARKWAY,LAFAYETTE,LA,70506,NOT AVAILABLE,(337) 703-4448
56951,220117000907,EDWARD HYNES CHARTER SCHOOL,990 HARRISON AVENUE,NEW ORLEANS,LA,70124,NOT AVAILABLE,(504) 324-7160
57604,220029700926,LUSHER CHARTER SCHOOL,5624 FRERET STREET,NEW ORLEANS,LA,70115,NOT AVAILABLE,(504) 304-3960
57613,220120002446,EAST OUACHITA MIDDLE SCHOOL,859 SWARTZ FAIRBANKS,MONROE,LA,71203,NOT AVAILABLE,(318) 432-2150
82453,220084001704,CHATEAU ESTATES ELEMENTARY SCHOOL,4121 MEDOC DRIVE,KENNER,LA,70065,1922,(504) 464-5662
82478,220054000350,BELFAIR MONTESSORI SCHOOL,4451 FAIRFIELDS AVE,BATON ROUGE,LA,70802,NOT AVAILABLE,(225) 356-6191
83521,220006000029,OAKDALE HIGH SCHOOL,101 NORTH 13TH STREET,OAKDALE,LA,71463,NOT AVAILABLE,(318) 335-2338
84045,220114000836,N.S.U. ELEMENTARY LAB SCHOOL,125 CENTRAL AVENUE,NATCHITOCHES,LA,71457,NOT AVAILABLE,(318) 357-6973
87129,220120001939,WEST OUACHITA HIGH SCHOOL,4061 CAPLES ROAD,WEST MONROE,LA,71292,NOT AVAILABLE,(318) 249-2117
88046,220186001427,THOMAS ELEMENTARY SCHOOL,30341 HIGHWAY 424,FRANKLINTON,LA,70438,NOT AVAILABLE,(985) 848-2881
94312,220084000602,ESTELLE ELEMENTARY SCHOOL,2800 BARATARIA BOULEVARD,MARRERO,LA,70072,5604,(504) 347-3727
95754,220054002316,INSPIRE CHARTER ACADEMY (NATL. HERITAGE ACAD.),5454 NORTH FOSTER DRIVE,BATON ROUGE,LA,70805,NOT AVAILABLE,(225) 356-3936
40600,220168001321,ROSELAND MONTESSORI,12516 TIME AVENUE,ROSELAND,LA,70456,NOT AVAILABLE,(985) 748-9307
46566,220048000317,FERRIDAY HIGH SCHOOL,801 E. E. WALLACE BOULEVARD,FERRIDAY,LA,71334,NOT AVAILABLE,(318) 757-8626
31867,220087000675,JUDICE MIDDLE SCHOOL,2645 SOUTH FIELDSPAN ROAD,DUSON,LA,70529,NOT AVAILABLE,(337) 521-7890
35424,220054000442,WESTDALE MIDDLE SCHOOL,5650 CLAYCUT ROAD,BATON ROUGE,LA,70806,NOT AVAILABLE,(225) 924-1308
39087,220045000307,HAYNESVILLE ELEMENTARY SCHOOL,9777 HIGHWAY 79,HAYNESVILLE,LA,71038,NOT AVAILABLE,(318) 624-1084
60183,220156000191,ARNAUDVILLE ELEMENTARY SCHOOL,120 WEST RAILROAD AVE.,ARNAUDVILLE,LA,70512,NOT AVAILABLE,(337) 754-5320
60303,220102000765,HOLDEN HIGH SCHOOL,30120 HWY 441,HOLDEN,LA,70744,NOT AVAILABLE,(225) 567-9367
61806,220084000654,WEST JEFFERSON HIGH SCHOOL,2200 EIGHTH STREET,HARVEY,LA,70058,4099,(504) 368-6055
64791,220027001574,T.L. RODES ELEMENTARY SCHOOL,4670 EAST HIGHWAY 80,HAUGHTON,LA,71037,NOT AVAILABLE,(318) 549-5940
65748,220111002359,BEEKMAN CHARTER SCHOOL,15190 AM BAKER ROAD,BASTROP,LA,71220,NOT AVAILABLE,(318) 281-1743
67309,220156001213,SUNSET ELEMENTARY SCHOOL,236 CHURCH HILL ST.,SUNSET,LA,70584,NOT AVAILABLE,(337) 662-3194
71952,220087000660,ACADIANA HIGH SCHOOL,315 RUE DU BELIER,LAFAYETTE,LA,70506,NOT AVAILABLE,(337) 521-7950
73315,220189001448,NORTH WEBSTER LOWER ELEMENTARY SCHOOL,229 HWY ALT 2,SHONGALOO,LA,71072,NOT AVAILABLE,(318) 846-2541
11197,220144001139,DESTREHAN HIGH SCHOOL,1 WILDCAT LN,DESTREHAN,LA,70047,NOT AVAILABLE,(985) 764-9946
12412,220174001370,UPPER LITTLE CAILLOU ELEMENTARY SCHOOL,4824 HWY. 56,CHAUVIN,LA,70344,NOT AVAILABLE,(985) 594-4071
13083,220084000612,SHIRLEY JOHNSON/GRETNA PARK ELEMENTARY SCHOOL,1130 GRETNA BOULEVARD,GRETNA,LA,70053,7598,(504) 366-1660
14096,220162001235,BERWICK ELEMENTARY SCHOOL,400 TEXAS STREET,BERWICK,LA,70342,NOT AVAILABLE,(985) 384-8355
16532,220138001107,CONVERSE HIGH SCHOOL,400 WILDCAT DRIVE,CONVERSE,LA,71419,NOT AVAILABLE,(318) 567-2673
17070,220177001376,UNION PARISH HIGH SCHOOL,1126 MARION HWY,FARMERVILLE,LA,71241,NOT AVAILABLE,(318) 327-3550
18042,220090000704,GALLIANO ELEMENTARY SCHOOL,148 W. 158TH STREET,GALLIANO,LA,70354,NOT AVAILABLE,(985) 632-7211
18043,220129001048,CHEROKEE ELEMENTARY SCHOOL,5700 PRESCOTT ROAD,ALEXANDRIA,LA,71301,NOT AVAILABLE,(318) 442-1987
51267,220162001251,MORGAN CITY HIGH SCHOOL,2400 TIGER DRIVE,MORGAN CITY,LA,70380,1051,(985) 384-1754
51999,220072000525,WESTGATE HIGH SCHOOL,2305 JEFFERSON ISLAND ROAD,NEW IBERIA,LA,70560,NOT AVAILABLE,(337) 365-2431
53087,220129001053,HORSESHOE DRIVE ELEMENTARY NEW VISION ACADEMY,2905 HORSESHOE DRIVE,ALEXANDRIA,LA,71301,NOT AVAILABLE,(318) 443-0579
54390,220022802357,MARY D. COGHILL CHARTER SCHOOL,4617 MIRABEAU AVE,NEW ORLEANS,LA,70126,NOT AVAILABLE,(504) 373-6237
56072,220027602433,LIVINGSTON COLLEGIATE ACADEMY,7301 DWYER ROAD,NEW ORLEANS,LA,70126,NOT AVAILABLE,(504) 296-0202
42288,220030001578,SHREVE ISLAND ELEMENTARY SCHOOL,836 SEWANNE PLACE,SHREVEPORT,LA,71105,2246,(318) 869-2335
46810,220150001170,VACHERIE ELEMENTARY SCHOOL,13440 HIGHWAY 644,VACHERIE,LA,70090,NOT AVAILABLE,(225) 258-5252
46812,220165001950,WHISPERING FOREST ELEMENTARY SCHOOL,38374 SPIEHLER ROAD,SLIDELL,LA,70458,NOT AVAILABLE,(985) 641-3400
49018,220018000082,DERIDDER JUNIOR HIGH SCHOOL,415 FRUSHA DRIVE,DERIDDER,LA,70634,NOT AVAILABLE,(337) 463-9083
49160,220129001054,D.F. HUDDLE ELEMENTARY,505 TEXAS AVENUE,ALEXANDRIA,LA,71301,NOT AVAILABLE,(318) 442-7921
49711,220087000663,PAUL BREAUX MIDDLE SCHOOL,1400 SOUTH ORANGE STREET,LAFAYETTE,LA,70501,NOT AVAILABLE,(337) 521-7860
958,220020302297,MORRIS JEFF COMMUNITY SCHOOL,211 LOPEZ STREET,NEW ORLEANS,LA,70119,NOT AVAILABLE,(504) 373-6258
4433,220033000259,PRIEN LAKE ELEMENTARY SCHOOL,3741 NELSON ROAD,LAKE CHARLES,LA,70605,NOT AVAILABLE,(337) 217-4910
6988,220027000135,HAUGHTON MIDDLE SCHOOL,250 CHAMPION SHORES,HAUGHTON,LA,71037,NOT AVAILABLE,(318) 549-5560
22015,220183001415,ROSEPINE HIGH SCHOOL,502 LOUISIANA AVENUE,ROSEPINE,LA,70659,NOT AVAILABLE,(337) 463-6079
23171,220156001190,LAWTELL ELEMENTARY SCHOOL,1010 SCHOOL RD.,LAWTELL,LA,70550,NOT AVAILABLE,(337) 543-2315
30082,220129001046,BUCKEYE ELEMENTARY SCHOOL,642 HIGHWAY 1207,DEVILLE,LA,71328,NOT AVAILABLE,(318) 466-3233
31812,220033000250,JOHN J. JOHNSON II ELEMENTARY SCHOOL,500 MALCOLM STREET,LAKE CHARLES,LA,70601,NOT AVAILABLE,(337) 217-4900
32012,220027000123,CENTRAL PARK ELEMENTARY SCHOOL,900 CENTRAL PARK BOULEVARD,BOSSIER CITY,LA,71112,NOT AVAILABLE,(318) 549-6400
36902,228010001626,RAYBURN CORRECTIONAL INSTITUTE,27268 HWY. 21,ANGIE,LA,70426,NOT AVAILABLE,(985) 661-6329
37493,220003801539,DELHI CHARTER SCHOOL,6940 HWY 17,DELHI,LA,71232,NOT AVAILABLE,(318) 878-0433
38869,220165001274,COVINGTON HIGH SCHOOL,73030 LION DRIVE,COVINGTON,LA,70433,NOT AVAILABLE,(985) 892-3422
90761,220084000591,GEORGE COX ELEMENTARY SCHOOL,2630 BELLE CHASSE HIGHWAY,GRETNA,LA,70056,7184,(504) 394-5890
92481,220150001161,GRAMERCY ELEMENTARY SCHOOL,601 E SECOND STREET,GRAMERCY,LA,70052,NOT AVAILABLE,(225) 258-4804
95672,220024000104,BYRD AVENUE PRIMARY SCHOOL,1600 BYRD AVENUE,BOGALUSA,LA,70427,NOT AVAILABLE,(985) 281-2190
95959,220090000709,W.S. LAFARGUE ELEMENTARY SCHOOL,700 PLANTATION ROAD,THIBODAUX,LA,70301,NOT AVAILABLE,(985) 447-9292
96612,220036000284,COLUMBIA ELEMENTARY SCHOOL,205 CHURCH STREET,COLUMBIA,LA,71418,NOT AVAILABLE,(318) 649-2654
97985,220069000504,VERDA ELEMENTARY SCHOOL,2580 HIGHWAY 122,MONTGOMERY,LA,71454,NOT AVAILABLE,(318) 646-3146
99055,220123001023,BELLE CHASSE MIDDLE SCHOOL,13476 HIGHWAY 23,BELLE CHASSE,LA,70037,NOT AVAILABLE,(504) 656-2315
70118,220096000729,FELLOWSHIP ELEMENTARY SCHOOL,1650 HWY. 773,TROUT,LA,71371,NOT AVAILABLE,(318) 992-5177
70504,220165001285,MANDEVILLE HIGH SCHOOL,#1 SKIPPER DRIVE,MANDEVILLE,LA,70471,NOT AVAILABLE,(985) 626-5225
70839,220054000358,BUCHANAN ELEMENTARY SCHOOL,1222 EAST BUCHANAN,BATON ROUGE,LA,70802,NOT AVAILABLE,(225) 343-4585
72383,220084001812,LUCILLE CHERBONNIER/NORBERT RILLIEUX ELEM. SCHOOL,700 DANDELION DRIVE,WAGGAMAN,LA,70094,2290,(504) 431-9740
75699,220081000564,HATHAWAY HIGH SCHOOL,4040 PINE ISLAND HIGHWAY,JENNINGS,LA,70546,NOT AVAILABLE,(337) 824-4452
75733,220135001101,MANGHAM JUNIOR HIGH SCHOOL,113 MCCONNELL STREET,MANGHAM,LA,71259,NOT AVAILABLE,(318) 248-2729
77255,220165001273,COVINGTON ELEMENTARY SCHOOL,325 SOUTH JACKSON STREET,COVINGTON,LA,70433,NOT AVAILABLE,(985) 892-4311
82493,220054000440,WEDGEWOOD ELEMENTARY SCHOOL,2330 ASPENWOOD AVE,BATON ROUGE,LA,70816,NOT AVAILABLE,(225) 753-7301
86767,220054000404,NORTHDALE SUPERINTENDENT'S ACADEMY,10755 CLETUS,BATON ROUGE,LA,70815,NOT AVAILABLE,(225) 272-2036
87131,220165001271,CAROLYN PARK MIDDLE SCHOOL,35708 LIBERTY DRIVE,SLIDELL,LA,70460,NOT AVAILABLE,(985) 643-8593
100021,220084000597,EAST JEFFERSON HIGH SCHOOL,400 PHLOX STREET,METAIRIE,LA,70001,4557,(504) 888-7171
100158,220159001220,CATAHOULA ELEMENTARY SCHOOL,1016-A CATAHOULA SCHOOL HWY.,ST. MARTINVILLE,LA,70582,NOT AVAILABLE,(337) 394-3641
100463,220168001309,O.W. DILLON LEADERSHIP ACADEMY,1459 I 55 SERVICE RD,KENTWOOD,LA,70403,NOT AVAILABLE,(985) 229-8225
102004,220084000615,WILLIAM HART ELEMENTARY SCHOOL,2001 HANCOCK STREET,GRETNA,LA,70053,3597,(504) 366-4346
102054,220042000298,HARRISONBURG HIGH SCHOOL,505 BUSHLEY STREET,HARRISONBURG,LA,71340,NOT AVAILABLE,(318) 744-5679
41431,220063000470,BASILE HIGH SCHOOL,2835 2ND STREET,BASILE,LA,70515,NOT AVAILABLE,(337) 432-5012
42294,220090000722,SOUTH THIBODAUX ELEMENTARY SCHOOL,200 IRIS STREET,THIBODAUX,LA,70301,NOT AVAILABLE,(985) 446-8471
42310,220156001181,EUNICE HIGH SCHOOL,301 SOUTH BOBCAT DRIVE,EUNICE,LA,70535,NOT AVAILABLE,(337) 457-3011
46800,220144001137,ALLEMANDS ELEMENTARY SCHOOL,1471 WPA ROAD (HWY. 632),DES ALLEMANDS,LA,70030,NOT AVAILABLE,(985) 758-7427
48032,220129001045,MABEL BRASHER MONTESSORI,601 CLOVERLEAF BOULEVARD,ALEXANDRIA,LA,71303,NOT AVAILABLE,(318) 442-0878
48745,220015902331,LYCEE FRANCAIS DE LA NOUVELLE-ORLEANS,5951 PATTON STREET,NEW ORLEANS,LA,70115,NOT AVAILABLE,(504) 620-5500
51620,220030000156,CRESWELL ELEMENTARY SCHOOL,2901 CRESWELL AVENUE,SHREVEPORT,LA,71104,NOT AVAILABLE,(318) 222-5935
51709,220003001504,MARTIN PETITJEAN ELEMENTARY SCHOOL,4039 CROWLEY-RAYNE HIGHWAY,RAYNE,LA,70578,4047,(337) 334-9501
54176,220084000642,RIVERDALE HIGH SCHOOL,240 RIVERDALE DRIVE,JEFFERSON,LA,70121,3599,(504) 833-7288
54384,220022000946,HARRIET TUBMAN CHARTER SCHOOL,2013 GENERAL MEYER AVE,NEW ORLEANS,LA,70114,NOT AVAILABLE,(504) 227-3800
56297,220120001014,SWARTZ UPPER ELEMENTARY SCHOOL,400 LINCOLN HILL DRIVE,MONROE,LA,71203,NOT AVAILABLE,(318) 343-1723
56595,220054000339,EBR READINESS SUPERINTENDENT ACADEMY,2401 72ND AVENUE,BATON ROUGE,LA,70807,NOT AVAILABLE,(225) 757-9679
57356,220141002449,ARLENE MERAUX ELEMENTARY SCHOOL,4004 PARIS RD,CHALMETTE,LA,70043,NOT AVAILABLE,(504) 556-0900
30086,220189001445,J. A. PHILLIPS ELEMENTARY SCHOOL,811 DURWOOD DR,MINDEN,LA,71055,NOT AVAILABLE,(318) 377-0314
30846,220030000182,NORTHWOOD HIGH SCHOOL,5939 OLD MOORINGSPORT ROAD,SHREVEPORT,LA,71107,NOT AVAILABLE,(318) 929-3513
34322,220033000258,CYPRESS COVE ELEMENTARY SCHOOL,700 CURRIE DRIVE,SULPHUR,LA,70665,NOT AVAILABLE,(337) 217-4970
35303,220117000880,WARREN EASTON SENIOR HIGH SCHOOL,3019 CANAL STREET,NEW ORLEANS,LA,70119,6305,(504) 324-7400
36030,220087001173,ERNEST GALLET ELEMENTARY SCHOOL,2901 E MILTON AVE,YOUNGSVILLE,LA,70592,NOT AVAILABLE,(337) 521-7690
37144,220087000374,W. D. & MARY BAKER SMITH CAREER CENTER,200 18TH STREET,LAFAYETTE,LA,70501,NOT AVAILABLE,(337) 521-7570
39044,220192001459,CHAMBERLIN ELEMENTARY SCHOOL,6024 SECTION ROAD,PORT ALLEN,LA,70767,NOT AVAILABLE,(225) 627-6691
39196,220033000270,VINTON HIGH SCHOOL,1603 GRACE STREET,VINTON,LA,70668,NOT AVAILABLE,(337) 217-4400
39848,220183001408,HICKS HIGH SCHOOL,1296 HICKS SCHOOL ROAD,LEESVILLE,LA,71446,NOT AVAILABLE,(337) 239-9645
39908,220141002338,LACOSTE ELEMENTARY SCHOOL,1625 MISSOURI STREET,CHALMETTE,LA,70043,NOT AVAILABLE,(504) 304-5747
22113,220033000214,S. P. ARNETT MIDDLE SCHOOL,400 SULPHUR AVE,WESTLAKE,LA,70669,NOT AVAILABLE,(337) 217-4630
25927,220084001884,HARRY S. TRUMAN MIDDLE SCHOOL,5417 EHRET ROAD,MARRERO,LA,70072,5363,(504) 341-0961
25968,220099000742,CHOUDRANT HIGH SCHOOL,2555 HWY. 80,CHOUDRANT,LA,71227,NOT AVAILABLE,(318) 768-2541
28517,220015000072,MARKSVILLE ELEMENTARY SCHOOL,430 WEST WADDIL STREET,MARKSVILLE,LA,71351,NOT AVAILABLE,(318) 253-7464
65675,220183001411,LEESVILLE JUNIOR HIGH SCHOOL,480 BERRY AVENUE,LEESVILLE,LA,71446,NOT AVAILABLE,(337) 239-3874
68494,220120000992,HIGHLAND ELEMENTARY SCHOOL,1501 WELLERMAN ROAD,WEST MONROE,LA,71291,NOT AVAILABLE,(318) 396-1213
68917,220102001612,LEVI MILTON ELEMENTARY SCHOOL,31450 WALKER NORTH ROAD,WALKER,LA,70785,NOT AVAILABLE,(225) 664-9711
92698,220183000192,NORTH POLK ELEMENTARY SCHOOL,4978 UNIVERSITY PARKWAY,LEESVILLE,LA,71446,NOT AVAILABLE,(337) 537-5109
93976,220084002268,RAY ST. PIERRE ACADEMY FOR ADVANCED STUDIES,2820 MOUNT KENNEDY DRIVE,MARRERO,LA,70072,5261,(504) 347-4739
97810,220183001406,EAST LEESVILLE ELEMENTARY SCHOOL,203 BELVIEW ROAD,LEESVILLE,LA,71446,NOT AVAILABLE,(337) 239-4966
51,220021102307,KIPP LEADERSHIP,2300 ST. CLAUDE AVE,NEW ORLEANS,LA,70117,NOT AVAILABLE,(504) 308-3359
99,590014600046,CHITIMACHA TRIBAL SCHOOL,3613 CHITIMACHA TRAIL,JEANERETTE,LA,70544,NOT AVAILABLE,(337) 923-9960
961,220021600958,KIPP BELIEVE,421 BURDETTE ST.,NEW ORLEANS,LA,70118,NOT AVAILABLE,(504) 304-8857
975,220023502396,LAFAYETTE RENAISSANCE CHARTER ACADEMY,205 VIENNE LANE,LAFAYETTE,LA,70507,NOT AVAILABLE,(337) 706-0066
2508,220087000691,TRUMAN EARLY CHILDHOOD EDUCATION CENTER,200 CLARA STREET,LAFAYETTE,LA,70501,NOT AVAILABLE,(337) 521-7810
7391,220027000129,MEADOWVIEW ELEMENTARY SCHOOL,4312 SHED ROAD,BOSSIER CITY,LA,71111,NOT AVAILABLE,(318) 549-5640
8084,220003000014,IOTA HIGH SCHOOL,456 SOUTH FIFTH STREET,IOTA,LA,70543,6024,(337) 779-2534
8980,220156001178,EAST ELEMENTARY SCHOOL,550 BROTHER J. RD.,EUNICE,LA,70535,NOT AVAILABLE,(337) 457-2215
10409,220156001206,PARK VISTA ELEMENTARY SCHOOL,1000 ABDALLA BLVD.,OPELOUSAS,LA,70570,NOT AVAILABLE,(337) 942-7456
11974,220033001677,PEARL WATSON ELEMENTARY SCHOOL,1300 5TH STREET,LAKE CHARLES,LA,70601,NOT AVAILABLE,(337) 217-4860
70108,220189001444,MINDEN HIGH SCHOOL,1103 S COLLEGE ST,MINDEN,LA,71055,NOT AVAILABLE,(318) 377-2766
71812,220174001349,GIBSON ELEMENTARY SCHOOL,6357 S. BAYOU BLACK DRIVE,GIBSON,LA,70356,NOT AVAILABLE,(985) 575-3260
75548,220174001335,BAYOU BLACK ELEMENTARY SCHOOL,4449 BAYOU BLACK DRIVE,HOUMA,LA,70360,NOT AVAILABLE,(985) 872-2460
77715,220102000403,SOUTH WALKER ELEMENTARY SCHOOL,13745 MILTON LANE,WALKER,LA,70785,NOT AVAILABLE,(225) 665-0446
80349,220087000662,ALICE N. BOUCHER ELEMENTARY SCHOOL,400 PATTERSON STREET,LAFAYETTE,LA,70501,NOT AVAILABLE,(337) 521-7610
83689,220060000464,JACKSON ELEMENTARY SCHOOL,3505 HIGHWAY 10,JACKSON,LA,70748,NOT AVAILABLE,(225) 634-5933
85201,220009000044,PRAIRIEVILLE MIDDLE SCHOOL,16200 HWY 930,PRAIRIEVILLE,LA,70769,NOT AVAILABLE,(225) 391-6300
86319,220084000584,BISSONET PLAZA ELEMENTARY SCHOOL,6818 KAWANEE AVENUE,METAIRIE,LA,70003,3198,(504) 887-0470
87627,220135001096,DELHI MIDDLE SCHOOL,106 TOOMBS STREET,DELHI,LA,71232,NOT AVAILABLE,(318) 878-3748
88938,220198001474,BAINS ELEMENTARY SCHOOL,9792 BAINS ROAD,ST. FRANCISVILLE,LA,70775,NOT AVAILABLE,(225) 635-3272
105069,220030202460,FIRSTLINE LIVE OAK,3128 CONSTANCE ST.,NEW ORLEANS,LA,70115,NOT AVAILABLE,(504) 941-1826
105089,220032302496,ESPERANZA CHARTER SCHOOL,4407 S CARROLLTON AVE,NEW ORLEANS,LA,70119,NOT AVAILABLE,(504) 373-6272
105102,220087002473,MARTIAL BILLEAUD ELEMENTARY SCHOOL,500 E. FAIRFIELD DR.,BROUSSARD,LA,70518,NOT AVAILABLE,(337) 521-7270
84186,220192001461,DEVALL MIDDLE SCHOOL,11851 NORTH RIVER ROAD,PORT ALLEN,LA,70767,NOT AVAILABLE,(225) 627-4268
84796,220009000045,ST. AMANT MIDDLE SCHOOL,44317 HWY 429,ST. AMANT,LA,70774,NOT AVAILABLE,(225) 391-6500
88752,220075000550,WHITE CASTLE HIGH SCHOOL,32695 GRAHAM STREET,WHITE CASTLE,LA,70788,NOT AVAILABLE,(225) 545-3621
89407,220033000238,IOWA HIGH SCHOOL,401 W MILLER AVE,IOWA,LA,70647,NOT AVAILABLE,(337) 217-4380
89475,220033000219,BRENTWOOD ELEMENTARY SCHOOL,3825 BRENTWOOD AVENUE,LAKE CHARLES,LA,70607,NOT AVAILABLE,(337) 217-4610
100803,220084001965,GRETNA NO. 2 ACADEMY FOR ADVANCED STUDIES,701 AMELIA STREET,GRETNA,LA,70053,5441,(504) 366-3582
101822,220054000368,CRESTWORTH ELEMENTARY SCHOOL,11200 AVENUE F,BATON ROUGE,LA,70807,NOT AVAILABLE,(225) 778-1317
105079,220031302470,GEO NEXT GENERATION HIGH SCHOOL,2311 SHERWOOD FOREST DR,BATON ROUGE,LA,70815,NOT AVAILABLE,(225) 314-2044
105084,220031802493,EDWARD HYNES CHARTER SCHOOL - UNO,6101 CHATHAM DR.,NEW ORLEANS,LA,70122,NOT AVAILABLE,(504) 359-7700
105096,220054002491,CSAL ELEMENTARY,1705 MADISON AVENUE,BATON ROUGE,LA,70802,NOT AVAILABLE,(225) 412-9900
22415,220162001232,J.S. AUCOIN ELEMENTARY SCHOOL,739 JULIA STREET,AMELIA,LA,70340,1040,(985) 631-2464
23787,220114002022,LAKEVIEW ANNEX,7305 HWY. 9,CAMPTI,LA,71411,NOT AVAILABLE,(318) 476-3360
28117,220114000101,LAKEVIEW JR./SR. HIGH SCHOOL,7305 HWY 9,CAMPTI,LA,71411,NOT AVAILABLE,(318) 476-3360
28932,220054000385,HOWELL PARK ELEMENTARY SCHOOL,6125 WINBOURNE AVE,BATON ROUGE,LA,70805,NOT AVAILABLE,(225) 356-0104
70503,220108000800,MINNIE RUFFIN ELEMENTARY SCHOOL,1801 PARKVIDW DRIVE,MONROE,LA,71202,NOT AVAILABLE,(318) 322-3447
72063,220138001114,NEGREET HIGH SCHOOL,4129 HIGHWAY 476,NEGREET,LA,71460,NOT AVAILABLE,(318) 256-2349
72311,220102000770,SEVENTH WARD ELEMENTARY SCHOOL,24495 HWY 16,DENHAM SPRINGS,LA,70726,NOT AVAILABLE,(225) 665-5815
78267,220156001204,OPELOUSAS SENIOR HIGH SCHOOL,1014 JUDSON WALSH DRIVE,OPELOUSAS,LA,70570,NOT AVAILABLE,(337) 942-5634
78483,220030000180,NORTH HIGHLANDS ELEMENTARY SCHOOL,885 POLEMAN ROAD,SHREVEPORT,LA,71107,NOT AVAILABLE,(318) 221-6346
79453,220087001176,LIVE OAK ELEMENTARY SCHOOL,3020 N UNIVERSITY AVE,LAFAYETTE,LA,70507,NOT AVAILABLE,(337) 521-7730
65305,220120001564,GOOD HOPE MIDDLE SCHOOL,400 GOOD HOPE ROAD,WEST MONROE,LA,71291,NOT AVAILABLE,(318) 396-9693
66792,220021000090,ARCADIA HIGH SCHOOL,967 DANIEL STREET,ARCADIA,LA,71001,NOT AVAILABLE,(318) 263-2264
69607,220132001090,RED RIVER HIGH SCHOOL,915 EAST CARROLL,COUSHATTA,LA,71019,NOT AVAILABLE,(318) 932-4913
11260,220084001882,LEO E. KERNER JR. ELEMENTARY SCHOOL,4924 CITY PARK DRIVE,LAFITTE,LA,70067,9758,(504) 689-4136
12417,220180001389,EATON PARK ELEMENTARY SCHOOL,1502 SYLVESTER STREET,ABBEVILLE,LA,70510,NOT AVAILABLE,(337) 893-4978
17065,220002000267,LOUISIANA SPECIAL EDUCATION CENTER,5400 COLISEUM BLVD.,ALEXANDRIA,LA,71303,NOT AVAILABLE,(318) 487-5484
30965,220081000571,LAKE ARTHUR ELEMENTARY SCHOOL,500 MILL AVENUE,LAKE ARTHUR,LA,70549,NOT AVAILABLE,(337) 774-3323
30994,220054000375,FOREST HEIGHTS ACADEMY OF EXCELLENCE,7447 SUMRALL DRIVE,BATON ROUGE,LA,70812,NOT AVAILABLE,(225) 355-5681
31354,220054000360,CAPITOL MIDDLE SCHOOL,5100 GREENWELL SPRINGS RD.,BATON ROUGE,LA,70806,NOT AVAILABLE,(225) 231-9292
32899,220081000568,WARD ELEMENTARY SCHOOL,208 EAST SHANKLAND AVENUE,JENNINGS,LA,70546,NOT AVAILABLE,(337) 824-1235
35533,220057000453,GRIFFIN MIDDLE SCHOOL ACADEMY,1205 GOULD STREET,LAKE PROVIDENCE,LA,71254,3699,(318) 559-1395
35829,220030000208,BOOKER T. WASHINGTON NEW TECHNOLOGY HIGH SCHOOL,2104 MILAM STREET,SHREVEPORT,LA,71103,NOT AVAILABLE,(318) 222-2186
37464,220003000005,CHURCH POINT MIDDLE SCHOOL,340 MARTIN LUTHER KING DRIVE,CHURCH POINT,LA,70525,2599,(337) 684-6381
38080,220030000169,HUNTINGTON HIGH SCHOOL,6801 RASBERRY LANE,SHREVEPORT,LA,71129,NOT AVAILABLE,(318) 687-6655
42279,220030000190,RIVERSIDE ELEMENTARY SCHOOL,625 DIXIE GARDEN DRIVE,SHREVEPORT,LA,71105,NOT AVAILABLE,(318) 865-3576
42300,220120001008,RISER ELEMENTARY SCHOOL,100 PRICE DRIVE,WEST MONROE,LA,71292,NOT AVAILABLE,(318) 387-0577
42315,220165001295,SLIDELL JUNIOR HIGH SCHOOL,333 PENNSYLVANIA AVENUE,SLIDELL,LA,70458,NOT AVAILABLE,(985) 641-5914
50814,220003902347,ROLLINS PLACE ELEMENTARY,4488 ROLLINS ROAD,ZACHARY,LA,70791,NOT AVAILABLE,(225) 658-1940
53282,220054000397,MCKINLEY SENIOR HIGH SCHOOL,800 EAST MCKINLEY,BATON ROUGE,LA,70802,NOT AVAILABLE,(225) 344-7696
54540,220025202397,NORTHEAST CLAIBORNE CHARTER,100 WEST HOLLY,JUNCTION CITY,LA,71749,NOT AVAILABLE,(318) 986-4974
54612,220033000216,ALFRED M. BARBE HIGH SCHOOL,2200 WEST MCNEESE,LAKE CHARLES,LA,70605,NOT AVAILABLE,(337) 217-4460
55829,220012500364,CENTRAL MIDDLE SCHOOL,12656 SULLIVAN ROAD,CENTRAL,LA,70818,NOT AVAILABLE,(225) 261-2237
57391,220029400911,EDNA KARR HIGH SCHOOL,3332 HUNTLEE DRIVE,NEW ORLEANS,LA,70131,NOT AVAILABLE,(504) 302-7135
57,220026702062,FANNIE C. WILLIAMS CHARTER SCHOOL,11755 DWYER ROAD,NEW ORLEANS,LA,70128,NOT AVAILABLE,(504) 373-6228
715,220030000178,MOORINGSPORT ELEMENTARY SCHOOL,602 LATIMER STREET,MOORINGSPORT,LA,71060,NOT AVAILABLE,(318) 222-5214
849,220018702283,SUCCESS PREPARATORY ACADEMY,4621 CANAL STREET,NEW ORLEANS,LA,70119,NOT AVAILABLE,(504) 388-0208
1082,220026102277,JOHN F. KENNEDY HIGH SCHOOL,6026 PARIS AVENUE,NEW ORLEANS,LA,70122,NOT AVAILABLE,(504) 267-8811
4624,220027502421,LINCOLN PREPARATORY SCHOOL,407 CENTRAL AVENUE,GRAMBLING,LA,71245,NOT AVAILABLE,(318) 274-6153
5479,220087002301,DAVID THIBODAUX STEM MAGNET ACADEMY,805 TEURLINGS DRIVE,LAFAYETTE,LA,70501,NOT AVAILABLE,(337) 262-5962
8194,220027002310,ELM GROVE ELEMENTARY SCHOOL,1541 OLD HIGHWAY 71,ELM GROVE,LA,71051,NOT AVAILABLE,(318) 549-6500
8289,220120001466,RIVERBEND ELEMENTARY SCHOOL,700 AUSTIN AVENUE,WEST MONROE,LA,71292,NOT AVAILABLE,(318) 361-0155
90166,220144001632,HARRY M. HURST MIDDLE SCHOOL,170 ROAD RUNNER LANE,DESTREHAN,LA,70047,NOT AVAILABLE,(985) 764-6367
90227,220099000743,CYPRESS SPRINGS ELEMENTARY SCHOOL,1040 SARATOGA STREET,RUSTON,LA,71270,NOT AVAILABLE,(318) 255-0791
93551,220003900449,ZACHARY ELEMENTARY SCHOOL,3775 HEMLOCK STREET,ZACHARY,LA,70791,NOT AVAILABLE,(225) 654-4036
95707,220099001983,CHOUDRANT ELEMENTARY SCHOOL,160 WALKER ROAD,CHOUDRANT,LA,71227,NOT AVAILABLE,(318) 768-4106
96844,220135001098,HOLLY RIDGE ELEMENTARY SCHOOL,2306 HWY. 183,RAYVILLE,LA,71269,NOT AVAILABLE,(318) 728-6495
97779,220084000636,J.D. MEISLER MIDDLE SCHOOL,3700 CLEARY AVENUE,METAIRIE,LA,70002,4599,(504) 888-5832
50,220020802071,AKILI ACADEMY OF NEW ORLEANS,3811 N. GALVEZ STREET,NEW ORLEANS,LA,70122,NOT AVAILABLE,(504) 355-4172
940,220019602383,CELERITY DALTON CHARTER SCHOOL,3605 ONTARIO BLVD,BATON ROUGE,LA,70805,NOT AVAILABLE,(225) 290-1564
964,220025000872,ESPERANZA CHARTER SCHOOL,4407 SOUTH CARROLLTON AVENUE,NEW ORLEANS,LA,70119,6823,(504) 373-6272
1357,220033000217,BELL CITY HIGH SCHOOL,7161 HIGHWAY 14 EAST,BELL CITY,LA,70630,NOT AVAILABLE,(337) 217-4500
7819,220120001004,PINECREST ELEMENTARY/MIDDLE SCHOOL,3604 HIGHWAY 557,WEST MONROE,LA,71292,NOT AVAILABLE,(318) 325-4331
7839,220009000037,DUTCHTOWN MIDDLE SCHOOL,13078 HWY 73,GEISMAR,LA,70734,NOT AVAILABLE,(225) 391-7800
42314,220165001278,FLORIDA AVENUE ELEMENTARY SCHOOL,342 FLORIDA AVENUE,SLIDELL,LA,70458,NOT AVAILABLE,(985) 643-1605
44514,220144001633,LAKEWOOD ELEMENTARY SCHOOL,501 EAST HEATHER DRIVE,LULING,LA,70070,NOT AVAILABLE,(985) 785-1161
44975,220009000035,DONALDSONVILLE PRIMARY SCHOOL,38210 HWY 3089,DONALDSONVILLE,LA,70346,NOT AVAILABLE,(225) 391-7600
45631,220168001951,LORANGER MIDDLE SCHOOL,54123 ALLMAN STREET,LORANGER,LA,70446,NOT AVAILABLE,(985) 878-9455
48478,220003000003,CENTRAL RAYNE KINDERGARTEN SCHOOL,507 NORTH POLK STREET,RAYNE,LA,70578,6017,(337) 334-3669
49081,220168001307,INDEPENDENCE HIGH MAGNET,270 TIGER AVENUE,INDEPENDENCE,LA,70443,NOT AVAILABLE,(985) 878-9436
74265,220141001127,J.F. GAUTHIER SCHOOL,1200 EAST LA HIGHWAY 46,ST. BERNARD,LA,70085,NOT AVAILABLE,(504) 272-0700
75248,220180001403,SEVENTH WARD ELEMENTARY SCHOOL,12012 AUDUBON ROAD,ABBEVILLE,LA,70510,NOT AVAILABLE,(337) 893-5875
78608,220078000555,JONESBORO-HODGE HIGH SCHOOL,225 PERSHING HIGHWAY,JONESBORO,LA,71251,NOT AVAILABLE,(318) 259-4138
79158,220084000651,MILLER WALL ELEMENTARY SCHOOL,2001 BONNIE ANN DRIVE,MARRERO,LA,70072,4899,(504) 340-4941
52478,220030000212,WOODLAWN LEADERSHIP ACADEMY,7340 WYNGATE DRIVE,SHREVEPORT,LA,71106,NOT AVAILABLE,(318) 686-3161
52709,220114001404,NATCHITOCHES PARISH TECHNICAL AND CAREER CENTER,820 KOONCE ST.,NATCHITOCHES,LA,71457,NOT AVAILABLE,(318) 357-9410
52910,220019002386,IMPACT CHARTER SCHOOL,4815 LAVEY LN.,BAKER,LA,70714,NOT AVAILABLE,(225) 308-9565
54545,220025900897,SAMUEL J. GREEN CHARTER SCHOOL,2319 VALENCE STREET,NEW ORLEANS,LA,70115,5959,(504) 304-3532
54552,220165010400,PONTCHARTRAIN ELEMENTARY SCHOOL,1500 WEST CAUSEWAY APPROACH,MANDEVILLE,LA,70471,NOT AVAILABLE,(985) 626-3748
55162,220201001486,WINNFIELD MIDDLE SCHOOL,685 THOMAS MILL ROAD,WINNFIELD,LA,71483,NOT AVAILABLE,(318) 628-2765
56005,220072002260,CANEVIEW ELEMENTARY SCHOOL,5301 HWY 90 FRONTAGE ROAD,NEW IBERIA,LA,70560,NOT AVAILABLE,(337) 369-6517
56074,220030002426,CADDO VIRTUAL ACADEMY,5950 UNION AVE,SHREVEPORT,LA,71108,NOT AVAILABLE,(318) 603-5910
57611,220102002435,LIVE OAK JUNIOR HIGH,35086 HWY 16 SPUR,WATSON,LA,70786,NOT AVAILABLE,(225) 667-4195
58697,220168001319,PONCHATOULA HIGH SCHOOL,19452 HIGHWAY 22 EAST,PONCHATOULA,LA,70454,NOT AVAILABLE,(985) 386-3514
59423,220090000706,GOLDEN MEADOW MIDDLE SCHOOL,630 SOUTH BAYOU DRIVE,GOLDEN MEADOW,LA,70357,NOT AVAILABLE,(985) 475-7314
83088,220048000321,FERRIDAY UPPER ELEMENTARY SCHOOL,151 MARTIN LUTHER KING,FERRIDAY,LA,71334,NOT AVAILABLE,(318) 757-3105
84759,220016002327,NEW ORLEANS MILITARY & MARITIME ACADEMY,425 O BANNON STREET,NEW ORLEANS,LA,70114,NOT AVAILABLE,(504) 227-3810
85704,220003000008,CROWLEY KINDERGARTEN SCHOOL,1119 NORTH PARKERSON AVENUE,CROWLEY,LA,70526,3610,(337) 783-4670
87451,220069000501,GRANT HIGH SCHOOL,17779 HIGHWAY 167,DRY PRONG,LA,71423,NOT AVAILABLE,(318) 899-3331
17060,220033000215,BARBE ELEMENTARY SCHOOL,400 PENN STREET,LAKE CHARLES,LA,70601,NOT AVAILABLE,(337) 217-4660
91001,220054000428,SHERWOOD MIDDLE ACADEMIC ACADEMY,1020 MARLBROOK DR,BATON ROUGE,LA,70815,NOT AVAILABLE,(225) 272-3090
96857,220168001313,MIDWAY ELEMENTARY SCHOOL,48405 HWY 51,TICKFAW,LA,70466,NOT AVAILABLE,(985) 345-2376
61130,220102001709,LEWIS VINCENT ELEMENTARY SCHOOL,7686 VINCENT ROAD,DENHAM SPRINGS,LA,70726,NOT AVAILABLE,(225) 665-8198
62111,220012500433,TANGLEWOOD ELEMENTARY SCHOOL,9352 RUSTLING OAKS,BATON ROUGE,LA,70811,NOT AVAILABLE,(225) 261-3454
62538,220027000128,R. V. KERR ELEMENTARY SCHOOL,1700 AIRLINE DRIVE,BOSSIER CITY,LA,71112,NOT AVAILABLE,(318) 549-6560
68275,220087000694,WOODVALE ELEMENTARY SCHOOL,100 LEON DRIVE,LAFAYETTE,LA,70503,NOT AVAILABLE,(337) 521-7830
68496,220180001385,ABBEVILLE HIGH SCHOOL,1305 WILDCAT DR,ABBEVILLE,LA,70510,NOT AVAILABLE,(337) 893-1874
21675,220054000352,BERNARD TERRACE ELEMENTARY SCHOOL,241 EDISON STREET,BATON ROUGE,LA,70806,NOT AVAILABLE,(225) 343-5769
22396,220003000016,MIDLAND HIGH SCHOOL,735 SOUTH CROCKER,MIDLAND,LA,70559,1943,(337) 783-3310
26215,220168001841,PERRIN EARLY LEARNING CENTER,350 WEST ASH STREET,PONCHATOULA,LA,70454,NOT AVAILABLE,(985) 386-9734
26829,220087000682,MILTON ELEMENTARY SCHOOL,222 W. MILTON AVENUE,LAFAYETTE,LA,70508,NOT AVAILABLE,(337) 521-7740
28405,220102000759,DENHAM SPRINGS JUNIOR HIGH SCHOOL,401 HATCHELL LANE,DENHAM SPRINGS,LA,70726,NOT AVAILABLE,(225) 665-8898
29376,220120001527,CALHOUN ELEMENTARY SCHOOL,237 CALHOUN ROAD,CALHOUN,LA,71225,NOT AVAILABLE,(318) 644-1114
31435,220183001418,WEST LEESVILLE ELEMENTARY SCHOOL,1200 ABE ALLEN MEMORIAL DRIVE,LEESVILLE,LA,71446,NOT AVAILABLE,(337) 239-2330
31602,220156001215,WASHINGTON ELEMENTARY SCHOOL,1530 HWY. 10,WASHINGTON,LA,70589,NOT AVAILABLE,(318) 826-3393
32831,220165001567,MANDEVILLE JUNIOR HIGH SCHOOL,639 CARONDELET STREET,MANDEVILLE,LA,70448,NOT AVAILABLE,(985) 626-4428
35534,220090000710,NORTH LAROSE ELEMENTARY SCHOOL,175 RICHARDEL DRIVE,LAROSE,LA,70373,NOT AVAILABLE,(985) 693-3445
36353,220135001104,RAYVILLE ELEMENTARY SCHOOL,124 LEARNING PLACE STREET,RAYVILLE,LA,71269,NOT AVAILABLE,(318) 728-2029
36594,220165001284,MANDEVILLE ELEMENTARY SCHOOL,519 MASSENA STREET,MANDEVILLE,LA,70448,NOT AVAILABLE,(985) 626-3950
105095,220054002459,IDEA INNOVATION,7800 INNOVATION PARK DRIVE,BATON ROUGE,LA,70820,NOT AVAILABLE,(225) 249-2622
105104,220102002484,WALKER JUNIOR HIGH,13443 BURGESS AVE.,WALKER,LA,70785,NOT AVAILABLE,(225) 664-0243
52272,220168001320,D.C. REEVES ELEMENTARY SCHOOL,18026 SISTERS ROAD,PONCHATOULA,LA,70454,NOT AVAILABLE,(985) 386-6433
54406,220023002420,GEO PREP ACADEMY OF GREATER BATON ROUGE,2311 N SHERWOOD FOREST,BATON ROUGE,LA,70815,NOT AVAILABLE,(225) 337-7636
54793,220084000320,RIVERDALE MIDDLE SCHOOL,3900 JEFFERSON HWY.,JEFFERSON,LA,70121,1628,(504) 828-2706
57124,220024002371,NORTHSHORE CHARTER SCHOOL,111 WALKER STREET,BOGALUSA,LA,70427,NOT AVAILABLE,(985) 732-0005
57597,220027900903,ALICE M HARTE ELEMENTARY CHARTER SCHOOL,5300 BERKLEY DR.,NEW ORLEANS,LA,70131,NOT AVAILABLE,(504) 373-6281
57605,220030002444,FAIR PARK MIDDLE SCHOOL,3222 GREENWOOD ROAD,SHREVEPORT,LA,71109,NOT AVAILABLE,(318) 635-8181
59656,220033000247,W. W. LEWIS MIDDLE SCHOOL,1752 CYPRESS,SULPHUR,LA,70663,NOT AVAILABLE,(337) 217-4700
59690,220183001665,ROSEPINE ELEMENTARY SCHOOL,1208 TEXAS STREET,ROSEPINE,LA,70659,NOT AVAILABLE,(337) 463-4203
40350,220045000315,SUMMERFIELD HIGH SCHOOL,4200 HIGHWAY 9,SUMMERFIELD,LA,71079,NOT AVAILABLE,(318) 927-3621
40396,220030000190,RIVERSIDE ELEMENTARY SCHOOL,625 DIXIE GARDEN DRIVE,SHREVEPORT,LA,71105,NOT AVAILABLE,(318) 865-3576
83252,220021000098,RINGGOLD HIGH SCHOOL,4044 BIENVILLE RD. SUITE B,RINGGOLD,LA,71068,NOT AVAILABLE,(318) 894-2271
88579,220165001648,LITTLE OAK MIDDLE SCHOOL,59241 REBEL DRIVE,SLIDELL,LA,70461,NOT AVAILABLE,(985) 641-6510
88676,220135001631,RICHLAND CAREER CENTER AT ARCHIBALD,3768 HWY 15,ARCHIBALD,LA,71218,NOT AVAILABLE,(318) 248-2461
89796,220201001484,WINNFIELD PRIMARY SCHOOL,401 SOUTH ST. JOHN STREET,WINNFIELD,LA,71483,NOT AVAILABLE,(318) 628-4105
70296,220030002343,ACADEMIC RECOVERY OMBUDSMAN,401 NORTH HOLZMAN,SHREVEPORT,LA,71101,NOT AVAILABLE,(318) 347-9502
73035,220012000050,BELLE ROSE MIDDLE SCHOOL,7177 HWY 1,BELLE ROSE,LA,70341,NOT AVAILABLE,(225) 473-8917
73038,220156001200,NORTHEAST ELEMENTARY SCHOOL,1125 E MAMIE STREET,OPELOUSAS,LA,70570,NOT AVAILABLE,(337) 942-5390
91134,220099002304,LINCOLN PARISH EARLY CHILDHOOD CENTER,801 EAST MISSISSIPPI AVENUE,RUSTON,LA,70270,4699,(318) 513-1470
92834,220165001293,SIXTH WARD ELEMENTARY SCHOOL,72360 HIGHWAY 41,PEARL RIVER,LA,70452,NOT AVAILABLE,(985) 863-7126
93822,220108000797,LEXINGTON ELEMENTARY SCHOOL,1905 SPENCER AVENUE,MONROE,LA,71201,NOT AVAILABLE,(318) 322-9753
95040,220186001425,MT. HERMON SCHOOL,36119 HIGHWAY 38,MT. HERMON,LA,70450,NOT AVAILABLE,(985) 877-4642
97383,220002301921,SOUTHERN UNIVERSITY LAB SCHOOL,129 SWAN STREET,BATON ROUGE,LA,70813,NOT AVAILABLE,(225) 771-3490
60436,220024000103,BOGALUSA HIGH SCHOOL,100 M.J. ISRAEL DRIVE,BOGALUSA,LA,70427,NOT AVAILABLE,(985) 281-2180
61753,220120000994,LAKESHORE SCHOOL,550 BALBOA STREET,MONROE,LA,71203,NOT AVAILABLE,(318) 343-1173
62550,220030000213,YOUREE DR. MIDDLE ADVANCED PLACEMENT MAGNET SCHOOL,6008 YOUREE DRIVE,SHREVEPORT,LA,71105,NOT AVAILABLE,(318) 868-5324
64931,220042000299,JONESVILLE ELEMENTARY SCHOOL,1219 CORA DRIVE,JONESVILLE,LA,71343,NOT AVAILABLE,(318) 339-8588
65147,220084000620,L.W. HIGGINS HIGH SCHOOL,7201 LAPALCO BOULEVARD,MARRERO,LA,70072,4598,(504) 341-2273
66178,220054000354,BROADMOOR MIDDLE SCHOOL,1225 SHARP ROAD,BATON ROUGE,LA,70815,NOT AVAILABLE,(225) 272-0540
66432,220102001678,LIVINGSTON PARISH LITERACY & TECHNOLOGY CENTER,9261 FLORIDA BLVD.,WALKER,LA,70785,NOT AVAILABLE,(225) 667-5268
68626,220084001964,THOMAS JEFFERSON HIGH SCHOOL FOR ADVANCED STUDIES,17 GRETNA BLVD.,GRETNA,LA,70053,NOT AVAILABLE,(504) 363-4300
31811,220030000200,SUMMERFIELD ELEMENTARY SCHOOL,3131 ARDIS TAYLOR DRIVE,SHREVEPORT,LA,71118,NOT AVAILABLE,(318) 686-1930
32013,220198001476,WEST FELICIANA HIGH SCHOOL,8604 U.S. HWY. 61,ST. FRANCISVILLE,LA,70775,NOT AVAILABLE,(225) 635-4561
32319,220141002065,ST. BERNARD MIDDLE SCHOOL,2601 TORRES DRIVE,ST. BERNARD,LA,70085,NOT AVAILABLE,(504) 267-7878
37595,220168001325,MARTHA VINYARD ELEMENTARY SCHOOL,40105 DUNSON ROAD,PONCHATOULA,LA,70454,NOT AVAILABLE,(985) 386-6364
37913,220165001566,CLEARWOOD JUNIOR HIGH SCHOOL,130 CLEARWOOD DRIVE,SLIDELL,LA,70458,NOT AVAILABLE,(985) 641-8200
21659,220027001573,COPE MIDDLE SCHOOL,4814 SHED ROAD,BOSSIER CITY,LA,71111,NOT AVAILABLE,(318) 549-5380
14099,220168001300,CHESBROUGH ELEMENTARY SCHOOL,68495 HIGHWAY 1054,KENTWOOD,LA,70444,NOT AVAILABLE,(985) 229-6377
17064,220120000987,CLAIBORNE SCHOOL,1011 WALLACE DEAN ROAD,WEST MONROE,LA,71291,NOT AVAILABLE,(318) 396-8200
18934,220018000087,PINE WOOD ELEMENTARY SCHOOL,800 MEL BRANCH MEMORIAL DRIVE,DERIDDER,LA,70634,NOT AVAILABLE,(337) 463-8810
943,220019901208,JAMES M. SINGLETON CHARTER SCHOOL,2220 ORETHA CASTLE HALEY BOULEVARD,NEW ORLEANS,LA,70113,NOT AVAILABLE,(504) 568-3466
976,220023600853,MARTIN BEHRMAN CHARTER ACAD OF CREATIVE ARTS & SCI,715 OPELOUSAS AVENUE,NEW ORLEANS,LA,70114,NOT AVAILABLE,(504) 302-7090
1582,220090002339,VIRTUAL ACADEMY OF LAFOURCHE,639 HARRISON STREET,THIBODAUX,LA,70301,NOT AVAILABLE,(985) 446-2877
3551,220156001642,WASHINGTON CAREER & TECHNICAL EDUCATION CENTER,605 BUHOT STREET,WASHINGTON,LA,70589,NOT AVAILABLE,(337) 826-7360
63323,220165002328,HENRY MAYFIELD ELEMENTARY SCHOOL,31820 HIGHWAY 90 WEST,SLIDELL,LA,70460,NOT AVAILABLE,(985) 643-5693
64232,220027000114,BELLAIRE ELEMENTARY SCHOOL,1310 BELLAIRE BOULEVARD,BOSSIER CITY,LA,71112,NOT AVAILABLE,(318) 549-6300
65097,220153002004,LAKE PONTCHARTRAIN ELEMENTARY SCHOOL,3328 HWY 51,LAPLACE,LA,70068,NOT AVAILABLE,(985) 652-2003
67888,220033001543,LEBLEU SETTLEMENT ELEMENTARY SCHOOL,6509 HWY 3059,LAKE CHARLES,LA,70615,NOT AVAILABLE,(337) 217-4880
68101,220042000299,JONESVILLE ELEMENTARY SCHOOL,1219 CORA DRIVE,JONESVILLE,LA,71343,NOT AVAILABLE,(318) 339-8588
68495,220123002026,SOUTH PLAQUEMINES ELEMENTARY SCHOOL,218 SCHOOL RD,PORT SULPHUR,LA,70083,NOT AVAILABLE,(504) 595-6415
102293,220129000115,RAPIDES TRAINING ACADEMY,4020 AARON STREET,ALEXANDRIA,LA,70302,NOT AVAILABLE,(318) 443-6694
105070,220030302458,AUDUBON CHARTER SCHOOL - GENTILLY,4720 PAINTERS STREET,NEW ORLEANS,LA,70122,NOT AVAILABLE,(504) 324-7100
105093,220054002453,IDEA BRIDGE,1500 NORTH AIRWAY DRIVE,BATON ROUGE,LA,70815,NOT AVAILABLE,(225) 778-9091
71074,220009001540,DUPLESSIS PRIMARY SCHOOL,38101 HWY 621,GONZALES,LA,70737,NOT AVAILABLE,(225) 391-6650
73176,220051000275,NORTH DESOTO MIDDLE SCHOOL 6-8,2535 HWY. 171,STONEWALL,LA,71078,NOT AVAILABLE,(318) 925-4520
75917,220090000700,CHACKBAY ELEMENTARY SCHOOL,450 HWY 20,THIBODAUX,LA,70301,NOT AVAILABLE,(985) 633-2348
76418,220072000509,CENTER STREET ELEMENTARY SCHOOL,1520 CENTER STREET,NEW IBERIA,LA,70560,NOT AVAILABLE,(337) 369-9059
78209,220004000344,BAKER HIGH SCHOOL,3200 GROOM ROAD,BAKER,LA,70714,NOT AVAILABLE,(225) 775-1259
79218,220063001659,JAMES STEPHENS MONTESSORI SCHOOL,1500 MARTIN LUTHER KING,VILLE PLATTE,LA,70586,NOT AVAILABLE,(337) 363-4745
79599,220168001299,CHAMP COOPER ELEMENTARY SCHOOL,42530 HIGHWAY 445,PONCHATOULA,LA,70454,NOT AVAILABLE,(985) 542-6182
11362,220159001645,EARLY LEARNING CENTER,1004 S MARTIN ST,ST. MARTINVILLE,LA,70582,NOT AVAILABLE,(337) 394-4763
11636,220165001287,PEARL RIVER HIGH SCHOOL,39110 REBEL LANE,PEARL RIVER,LA,70452,NOT AVAILABLE,(985) 863-2591
11734,220162001250,JULIA B. MAITLAND SCHOOL,1907 FEDERAL AVENUE,MORGAN CITY,LA,70380,2600,(985) 384-4986
13141,220081000561,ELTON HIGH SCHOOL,903 SECOND STREET,ELTON,LA,70532,NOT AVAILABLE,(337) 584-2991
15842,220033000272,WASHINGTON/MARION MAGNET HIGH SCHOOL,2802 PINEVIEW STREET,LAKE CHARLES,LA,70601,NOT AVAILABLE,(337) 217-4540
19971,220054000378,GLEN OAKS SENIOR HIGH SCHOOL,6650 CEDAR GROVE DR,BATON ROUGE,LA,70812,NOT AVAILABLE,(225) 356-4306
974,220023102392,ACADIANA RENAISSANCE CHARTER ACADEMY,600 SAVOY RD,YOUNGSVILLE,LA,70592,NOT AVAILABLE,(337) 374-1209
2001,220162001241,W.P. FOSTER ELEMENTARY SCHOOL,101 SECOND STREET,FRANKLIN,LA,70538,6103,(337) 828-1905
3444,220030001088,CADDO CAREER & TECHNICAL CENTER,5950 UNION AVENUE,SHREVEPORT,LA,71108,NOT AVAILABLE,(318) 636-5150
6491,220029900888,BENJAMIN FRANKLIN HIGH SCHOOL,2001 LEON C. SIMON DRIVE,NEW ORLEANS,LA,70122,3525,(504) 286-2600
7669,220057000454,GENERAL TRASS HIGH SCHOOL,700 MARTIN LUTHER KING DRIVE,LAKE PROVIDENCE,LA,71254,2999,(318) 559-1984
22292,220027002080,LEGACY ELEMENTARY SCHOOL,4830 SWAN LAKE ROAD,BOSSIER CITY,LA,71111,6402,(318) 759-2000
24494,220033000261,COMBRE-FONDEL ELEMENTARY SCHOOL,2115 FITZENRIETER RD.,LAKE CHARLES,LA,70601,1199,(337) 217-4890
25343,220081000574,WELSH HIGH SCHOOL,306 EAST BOURGEOIS STREET,WELSH,LA,70591,NOT AVAILABLE,(337) 734-2361
29270,220006000031,OBERLIN ELEMENTARY SCHOOL,110 SOUTH 4TH STREET,OBERLIN,LA,70655,NOT AVAILABLE,(337) 639-2241
33796,220033000257,OAK PARK MIDDLE SCHOOL,2200 OAK PARK BLVD,LAKE CHARLES,LA,70601,NOT AVAILABLE,(337) 217-4830
34030,220132001529,RED RIVER ELEMENTARY SCHOOL,1001 ASHLAND ROAD,COUSHATTA,LA,71019,NOT AVAILABLE,(318) 932-9290
34592,220123001022,BELLE CHASSE HIGH SCHOOL,8346 HIGHWAY 23,BELLE CHASSE,LA,70037,NOT AVAILABLE,(504) 394-2810
36678,220108001482,THOMAS JEFFERSON ELEMENTARY,1001 PECAN STREET,MONROE,LA,71202,NOT AVAILABLE,(318) 410-1378
38156,220003601499,NEW ORLEANS CENTER FOR CREATIVE ARTS,2800 CHARTRES ST.,NEW ORLEANS,LA,70117,7316,(504) 940-2787
38867,220027001870,STOCKWELL PLACE ELEMENTARY SCHOOL,5801 SHED ROAD,BOSSIER CITY,LA,71111,NOT AVAILABLE,(318) 549-5820
39969,220033002292,DEQUINCY ELEMENTARY SCHOOL,1605 WEST FOURTH STREET,DEQUINCY,LA,70633,3699,(337) 217-4650
51953,220022802357,MARY D. COGHILL CHARTER SCHOOL,4617 MIRABEAU AVE,NEW ORLEANS,LA,70126,NOT AVAILABLE,(504) 373-6237
54383,220021700414,DR. MARTIN LUTHER KING CHARTER SCHOOL FOR SCI TECH,1617 CAFFIN AVENUE,NEW ORLEANS,LA,70117,NOT AVAILABLE,(504) 940-2243
54561,220168010414,FLORIDA PARISHES JUVENILE DETENTION CNTR.,28528 HIGHWAY 190,COVINGTON,LA,70433,NOT AVAILABLE,(985) 893-6292
57606,220030102445,JCFA LAFAYETTE,1501 AMBASSADOR CAFFERY PARKWAY,LAFAYETTE,LA,70506,NOT AVAILABLE,(337) 703-4448
57608,220084002447,RALPH J BUNCHE ELEMENTARY,8101 SIMON STREET,METAIRIE,LA,70003,6493,(504) 934-4875
57612,220117002437,ROOTED SCHOOL,4238 ST. CHARLES AVENUE,NEW ORLEANS,LA,70115,NOT AVAILABLE,(504) 208-6571
58633,220117001522,YOUTH STUDY CENTER,1100 MILTON STREET,NEW ORLEANS,LA,70122,NOT AVAILABLE,(504) 658-3400
59004,220114000845,M.R. WEAVER ELEMENTARY SCHOOL,520 ST.MAURICE LANE,NATCHITOCHES,LA,71457,NOT AVAILABLE,(318) 352-3623
80096,220189001446,E. S. RICHARDSON ELEMENTARY SCHOOL,515 W TODD,MINDEN,LA,71055,NOT AVAILABLE,(318) 377-2213
84325,220168001902,HAMMOND EASTSIDE MAGNET,45050 RIVER ROAD,HAMMOND,LA,70401,NOT AVAILABLE,(985) 345-8494
86458,228010001609,ELAYN HUNT CORRECTIONAL CENTER,6925 HWY. 74,ST. GABRIEL,LA,70776,NOT AVAILABLE,(225) 319-4516
89055,220096000736,OLLA-STANDARD ELEMENTARY SCHOOL,4170 SCHOOL DRIVE,OLLA,LA,71465,NOT AVAILABLE,(318) 495-5163
89920,220033000223,COLLEGE OAKS ELEMENTARY SCHOOL,3618 ERNEST STREET,LAKE CHARLES,LA,70605,NOT AVAILABLE,(337) 217-4560
92482,220159001225,PARKS PRIMARY SCHOOL,1034 MAIN STREET,ST. MARTINVILLE,LA,70582,NOT AVAILABLE,(337) 845-4663
94287,220051001579,NORTH DESOTO HIGH SCHOOL,2571 HWY. 171,STONEWALL,LA,71078,NOT AVAILABLE,(318) 925-6917
94910,220102000904,DENHAM SPRINGS FRESHMAN HIGH SCHOOL,940 RANGE AVENUE NE,DENHAM SPRINGS,LA,70726,NOT AVAILABLE,(225) 665-7890
99813,220009002472,BULLION PRIMARY SCHOOL,17005 SILLS DRIVE,PRAIRIEVILLE,LA,70769,NOT AVAILABLE,(225) 391-6950
44020,220021002066,BIENVILLE EDUCATIONAL CENTER,325 MAIN STREET-HIGHWAY 507,BIENVILLE,LA,71008,NOT AVAILABLE,(318) 385-7554
44955,220003301485,INTERNATIONAL SCHOOL OF LOUISIANA,1400 CAMP STREET,NEW ORLEANS,LA,70130,4295,(504) 654-1088
46450,220030002382,PATHWAYS IN EDUCATION-LOUISIANA INC.,8999 MANSFIELD RD.,SHREVEPORT,LA,71118,NOT AVAILABLE,(318) 688-2301
49994,220069000497,COLFAX ELEMENTARY SCHOOL,301 THIRD STREET,COLFAX,LA,71417,NOT AVAILABLE,(318) 627-3254
70950,220030000146,BROADMOOR MIDDLE LABORATORY SCHOOL,441 ATLANTIC STREET,SHREVEPORT,LA,71105,NOT AVAILABLE,(318) 861-2403
71943,220120001525,RICHWOOD HIGH SCHOOL,5901 HIGHWAY 165 S,MONROE,LA,71202,NOT AVAILABLE,(318) 361-0467
72160,220039000291,JOHNSON BAYOU HIGH SCHOOL,6304 GULF BEACH HIGHWAY,CAMERON,LA,70631,NOT AVAILABLE,(337) 569-2138
78607,220021000099,SALINE HIGH SCHOOL,1255 COOPER STREET,SALINE,LA,71070,NOT AVAILABLE,(318) 576-3215
78766,220156001205,PALMETTO ELEMENTARY SCHOOL,235 RIDEAU STREET,PALMETTO,LA,71358,NOT AVAILABLE,(337) 623-4482
79643,220159001230,STEPHENSVILLE ELEMENTARY SCHOOL,3243 HIGHWAY 70,MORGAN CITY,LA,70380,NOT AVAILABLE,(985) 385-1366
92856,220156001192,LEONVILLE ELEMENTARY SCHOOL,3774 HWY. 31,LEONVILLE,LA,70551,NOT AVAILABLE,(337) 879-2385
97358,220102001708,ALBANY MIDDLE SCHOOL,29801 REEVES LANE,ALBANY,LA,70711,NOT AVAILABLE,(225) 567-5231
60840,220002501000,NEW VISION LEARNING ACADEMY,507 SWAYZE STREET,MONROE,LA,71201,NOT AVAILABLE,(318) 338-9995
63901,220009000040,GONZALES MIDDLE SCHOOL,1502 WEST ORICE ROTH STREET,GONZALES,LA,70737,NOT AVAILABLE,(225) 391-6450
65890,220144001144,LULING ELEMENTARY SCHOOL,904 SUGARHOUSE ROAD,LULING,LA,70070,NOT AVAILABLE,(985) 785-6086
68985,220030000177,MOORETOWN ELEMENTARY PROFESSIONAL DEVELOP. CTR.,3913 POWELL STREET,SHREVEPORT,LA,71109,NOT AVAILABLE,(318) 631-7297
42283,220009000046,ST. AMANT HIGH SCHOOL,12035 HWY 431,ST. AMANT,LA,70774,NOT AVAILABLE,(225) 391-6000
43805,220003001505,CHURCH POINT ELEMENTARY SCHOOL,415 EAST LOUGARRE STREET,CHURCH POINT,LA,70525,4198,(337) 684-5722
46976,220135001099,MANGHAM ELEMENTARY SCHOOL,419 HIXON ST.,MANGHAM,LA,71259,NOT AVAILABLE,(318) 248-2575
80199,220027000137,RUSHEON MIDDLE SCHOOL,2401 OLD MINDEN ROAD,BOSSIER CITY,LA,71112,NOT AVAILABLE,(318) 549-6610
82469,220102000754,ALBANY LOWER ELEMENTARY SCHOOL,30051 WEST SCHOOL STREET,ALBANY,LA,70711,NOT AVAILABLE,(225) 567-9281
83697,220033000251,RAY D. MOLO MIDDLE MAGNET SCHOOL,2300 MEDORA,LAKE CHARLES,LA,70601,NOT AVAILABLE,(318) 217-4710
87130,220165001267,BONNE ECOLE ELEMENTARY SCHOOL,900 RUE VERAND,SLIDELL,LA,70458,NOT AVAILABLE,(985) 643-0674
11648,220165001650,NORTHSHORE HIGH SCHOOL,100 PANTHER DRIVE,SLIDELL,LA,70461,NOT AVAILABLE,(985) 649-6400
14608,220090000698,BAYOU BOEUF ELEMENTARY SCHOOL,4138 HWY 307,THIBODAUX,LA,70301,NOT AVAILABLE,(985) 633-2352
15834,220030000203,JACK P. TIMMONS ELEMENTARY SCHOOL,1410 GREENWOOD-MOORINGSPORT ROAD,SHREVEPORT,LA,71107,NOT AVAILABLE,(318) 929-3950
19660,220003000020,RICHARD ELEMENTARY SCHOOL,1616 CHARLENE HIGHWAY,CHURCH POINT,LA,70525,5619,(337) 684-3339
19861,220084000640,ELLA C. PITTMAN ELEMENTARY SCHOOL,3800 THIRTEENTH STREET,HARVEY,LA,70058,2400,(504) 340-4937
50484,220168001312,LORANGER HIGH SCHOOL,19404 HIATTI STREET,LORANGER,LA,70446,NOT AVAILABLE,(985) 878-6271
50810,220030002336,J. S. CLARK ELEMENTARY SCHOOL,351 HEARNE AVENUE,SHREVEPORT,LA,71103,NOT AVAILABLE,(318) 425-8742
54541,220025300877,PHILLIS WHEATLEY COMMUNITY SCHOOL,2300 DUMAINE ST.,NEW ORLEANS,LA,70119,NOT AVAILABLE,(504) 373-6205
57974,220054002363,NORTH BANKS MIDDLE SCHOOL OF EXCELLENCE,5959 CADILLAC STREET,BATON ROUGE,LA,70811,NOT AVAILABLE,(225) 357-3371
59307,220126001029,LIVONIA HIGH SCHOOL,3118 LA HIGHWAY 78,LIVONIA,LA,70755,NOT AVAILABLE,(225) 637-2532
20710,220141002306,CHALMETTE ELEMENTARY SCHOOL,75 EAST CHALMETTE CIRCLE,CHALMETTE,LA,70043,4522,(504) 304-0370
21201,220027000117,BENTON HIGH SCHOOL,6136 HIGHWAY 3,BENTON,LA,71006,NOT AVAILABLE,(318) 549-5240
22219,220063000473,CHATAIGNIER ELEMENTARY SCHOOL,5762 VINE STREET,CHATAIGNIER,LA,70524,NOT AVAILABLE,(337) 885-3173
22398,220006000033,REEVES HIGH SCHOOL,13770 HIGHWAY 113,REEVES,LA,70658,NOT AVAILABLE,(337) 666-2414
22579,220168001315,NATALBANY MIDDLE,47370 MORRISON BLVD,TICKFAW,LA,70466,NOT AVAILABLE,(985) 345-0854
26361,220066000484,BASKIN SCHOOL,1926 HWY 857,BASKIN,LA,71219,NOT AVAILABLE,(318) 248-2381
31853,220048000318,FERRIDAY JUNIOR HIGH SCHOOL,201 MARTIN LUTHER KING,FERRIDAY,LA,71334,NOT AVAILABLE,(318) 757-8695
32972,220180001399,CECIL PICARD ELEMENTARY SCHOOL AT MAURICE,203 SOUTH ALBERT AVENUE,MAURICE,LA,70555,NOT AVAILABLE,(337) 893-3887
33727,220015101195,HOWARD SCHOOL,904 DEVILLE LANE,RUSTON,LA,71270,NOT AVAILABLE,(318) 255-5763
36329,220054000438,VILLA DEL REY ELEMENTARY SCHOOL,9765 CUYHANGA PKWY,BATON ROUGE,LA,70815,NOT AVAILABLE,(225) 924-1606
36677,220090000719,ST. CHARLES ELEMENTARY SCHOOL,1690 HWY 1,THIBODAUX,LA,70301,NOT AVAILABLE,(985) 446-6862
37373,220129001073,RAPIDES HIGH SCHOOL,9463 HIGHWAY 71 SOUTH,LECOMPTE,LA,71346,NOT AVAILABLE,(318) 776-9371
38311,220096000732,JENA HIGH SCHOOL,243 EAST HIGH SCHOOL DRIVE,JENA,LA,71342,NOT AVAILABLE,(318) 992-5195
938,220018600981,SOPHIE B. WRIGHT INSTITUTE OF ACADEMIC EXCELLENCE,1426 NAPOLEON AVENUE,NEW ORLEANS,LA,70115,NOT AVAILABLE,(504) 304-3916
1083,220026802385,ADVANTAGE CHARTER ACADEMY,14740 PLANK ROAD,BAKER,LA,70714,NOT AVAILABLE,(225) 774-3111
2762,220195002011,OAK GROVE ELEMENTARY SCHOOL,206 TIGER DRIVE,OAK GROVE,LA,71263,NOT AVAILABLE,(318) 428-4810
6521,220156001180,EUNICE ELEMENTARY SCHOOL,451 SOUTH 9TH STREET,EUNICE,LA,70535,NOT AVAILABLE,(337) 457-2380
7044,220156001180,EUNICE ELEMENTARY SCHOOL,451 SOUTH 9TH STREET,EUNICE,LA,70535,NOT AVAILABLE,(337) 457-2380
105112,228010002497,CENTRAL LOUISIANA SUPPORTS AND SERVICES CENTER,5400 COLISEUM BLVD.,ALEXANDRIA,LA,71306,7797,(318) 487-5487
60539,220192001458,BRUSLY MIDDLE SCHOOL,601 NORTH KIRKLAND,BRUSLY,LA,70719,NOT AVAILABLE,(225) 749-3123
68801,220033000246,LEBLANC MIDDLE SCHOOL,1100 N CROCKER,SULPHUR,LA,70663,NOT AVAILABLE,(337) 217-4510
10384,220003000006,CROWLEY HIGH SCHOOL,263 HENSGENS ROAD,CROWLEY,LA,70526,8304,(337) 783-5313
11415,220021000097,RINGGOLD ELEMENTARY SCHOOL,4044 BIENVILLE RD. SUITE A,RINGGOLD,LA,71068,NOT AVAILABLE,(318) 894-2911
11549,220045000310,HOMER ELEMENTARY SCHOOL,624 PELICAN DRIVE,HOMER,LA,71040,NOT AVAILABLE,(318) 927-2393
12585,220027000139,WALLER ELEMENTARY SCHOOL,1130 PATRICIA DRIVE,BOSSIER CITY,LA,71112,NOT AVAILABLE,(318) 549-6850
14409,220114000841,PROVENCAL ELEMENTARY & JUNIOR HIGH SCHOOL,132 CHERRY STREET,PROVENCAL,LA,71468,NOT AVAILABLE,(318) 472-6174
14991,220030000203,JACK P. TIMMONS ELEMENTARY SCHOOL,1410 GREENWOOD-MOORINGSPORT ROAD,SHREVEPORT,LA,71107,NOT AVAILABLE,(318) 929-3950
40836,220114000838,N.S.U. MIDDLE LAB SCHOOL,100 TARLTON DRIVE TEC BUILDING POD A,NATCHITOCHES,LA,71497,NOT AVAILABLE,(318) 357-4509
44954,220027000127,HAUGHTON HIGH SCHOOL,210 EAST MCKINLEY STREET,HAUGHTON,LA,71037,NOT AVAILABLE,(318) 549-5450
26088,220030000201,SUMMER GROVE ELEMENTARY SCHOOL,2955 BERT KOUNS INDUSTRIAL LOOP,SHREVEPORT,LA,71118,NOT AVAILABLE,(318) 686-1754
29271,220114001617,L.P. VAUGHN ELEMENTARY & MIDDLE SCHOOL,1500 GOLD STREET,NATCHITOCHES,LA,71457,NOT AVAILABLE,(318) 352-2369
29984,220168001308,INDEPENDENCE MAGNET,300 WEST SECOND STREET,INDEPENDENCE,LA,70443,NOT AVAILABLE,(985) 878-4376
74657,220156001475,PORT BARRE MIDDLE SCHOOL,846 SAIZAN ST.,PORT BARRE,LA,70577,NOT AVAILABLE,(337) 585-7256
77735,220027002074,W.T. LEWIS ELEMENTARY SCHOOL,4701 MODICA LOTT ROAD,BOSSIER CITY,LA,71111,NOT AVAILABLE,(318) 759-2100
58,220033010320,VINCENT SETTLEMENT ELEMENTARY SCHOOL,1072 VINCENT SETTLEMENT ROAD,SULPHUR,LA,70663,NOT AVAILABLE,(337) 217-4580
652,220027000118,BOSSIER ELEMENTARY SCHOOL,1000 TRAFFIC STREET,BOSSIER CITY,LA,71111,NOT AVAILABLE,(318) 549-6350
2114,220030002377,MAGNOLIA SCHOOL OF EXCELLENCE,2290 CLYDE FANT PARKWAY SERVICE ROAD,SHREVEPORT,LA,71105,NOT AVAILABLE,(318) 703-5585
4347,220102000400,ALBANY UPPER ELEMENTARY SCHOOL,29777 SOUTH MONTPELIER ROAD,ALBANY,LA,70711,NOT AVAILABLE,(225) 567-5030
4626,220054002423,EBR VIRTUAL ACADEMY,10755 CLETUS DR.,BATON ROUGE,LA,70815,NOT AVAILABLE,(225) 478-9264
6486,220028002430,EINSTEIN CHARTER MIDDLE SCH AT SARAH TOWLES REED,5316 MICHOUD BLVD,NEW ORLEANS,LA,70129,NOT AVAILABLE,(504) 503-0470
6748,220114000829,FAIRVIEW-ALPHA ELEMENTARY & JUNIOR HIGH SCHOOL,1439 HIGHWAY 71,CAMPTI,LA,71411,NOT AVAILABLE,(318) 476-4616
9714,220090000714,LOCKPORT UPPER ELEMENTARY SCHOOL,201 SCHOOL STREET,LOCKPORT,LA,70374,NOT AVAILABLE,(985) 532-3223
31172,220078000556,QUITMAN HIGH SCHOOL,181 WOLVERINE DRIVE,QUITMAN,LA,71268,NOT AVAILABLE,(318) 259-2698
31524,220084002298,AIRLINE PARK ACADEMY FOR ADVANCED STUDIES,6201 CAMPHOR STREET,METAIRIE,LA,70003,3697,(504) 888-0969
35536,220162001262,WYANDOTTE ELEMENTARY SCHOOL,2 GLENWOOD AVENUE,MORGAN CITY,LA,70380,2398,(985) 384-0724
36681,220162001259,HATTIE A. WATTS ELEMENTARY SCHOOL,1307 THIRD STREET,PATTERSON,LA,70392,0639,(985) 395-5976
38807,220153000430,GARYVILLE/MT. AIRY MATH & SCIENCE MAGNET SCHL.,240 HWY 54,GARYVILLE,LA,70051,NOT AVAILABLE,(985) 535-5400
50917,220117002373,HOMER A. PLESSY COMMUNITY SCHOOL,721 ST. PHILLIP ST,NEW ORLEANS,LA,70116,NOT AVAILABLE,(504) 421-5711
51619,220015000061,BUNKIE ELEMENTARY SCHOOL,311 PERSHING AVENUE,BUNKIE,LA,71322,NOT AVAILABLE,(318) 346-7292
51623,220156001175,CENTRAL MIDDLE SCHOOL,602 S. MARTIN LUTHER KING DRIVE,EUNICE,LA,70535,NOT AVAILABLE,(337) 457-5895
54583,220084000609,GRETNA MIDDLE SCHOOL,910 GRETNA BOULEVARD,GRETNA,LA,70053,6999,(504) 366-0120
83478,220078000558,JONESBORO-HODGE ELEMENTARY SCHOOL,2105 SOUTH POLK STREET,JONESBORO,LA,71251,NOT AVAILABLE,(318) 259-4489
84938,220030000158,CADDO PARISH MIDDLE MAGNET SCHOOL,7635 CORNELIOUS DRIVE,SHREVEPORT,LA,71106,NOT AVAILABLE,(318) 868-6588
100744,220084000655,MYRTLE C. THIBODEAUX ELEMENTARY SCHOOL,537 AVENUE D,WESTWEGO,LA,70094,4397,(504) 341-1451
102277,220027000125,ELM GROVE MIDDLE SCHOOL,4301 PANTHER DRIVE,BOSSIER CITY,LA,71112,NOT AVAILABLE,(318) 759-2400
105078,220031202477,MCDONOGH 35 SENIOR HIGH SCHOOL,4000 CADILLAC ST.,NEW ORLEANS,LA,70122,NOT AVAILABLE,(504) 227-3057
24051,220156001989,NORTH CENTRAL HIGH SCHOOL,6579 HWY. 10,WASHINGTON,LA,70589,NOT AVAILABLE,(337) 623-4239
24122,228010002355,PINEHILL ALTERNATIVE HIGH SCHOOL,132 HWY 850,COLUMBIA,LA,71418,NOT AVAILABLE,(318) 649-6097
27232,220084001884,HARRY S. TRUMAN MIDDLE SCHOOL,5417 EHRET ROAD,MARRERO,LA,70072,5363,(504) 341-0961
29378,220192001548,PORT ALLEN MIDDLE SCHOOL,610 ROSEDALE STREET,PORT ALLEN,LA,70767,NOT AVAILABLE,(225) 383-5777
29896,220054000360,CAPITOL MIDDLE SCHOOL,5100 GREENWELL SPRINGS RD.,BATON ROUGE,LA,70806,NOT AVAILABLE,(225) 231-9292
49,220020600976,LANGSTON HUGHES CHARTER ACADEMY,3519 TRAFALGAR STREET,NEW ORLEANS,LA,70119,NOT AVAILABLE,(504) 373-6251
1656,228010001619,SOUTHSIDE ALTERNATIVE HIGH SCHOOL,4701 S GRAND STREET,MONROE,LA,71202,NOT AVAILABLE,(318) 362-5000
2527,220144001146,MIMOSA PARK ELEMENTARY SCHOOL,222 BIRCH STREET,LULING,LA,70070,NOT AVAILABLE,(985) 785-8266
3997,220036000285,GRAYSON ELEMENTARY SCHOOL,5237 HIGHWAY 126 EAST,GRAYSON,LA,71435,NOT AVAILABLE,(318) 649-2703
4173,220183001416,SIMPSON HIGH SCHOOL,4262 HIGHWAY 8,SIMPSON,LA,71474,NOT AVAILABLE,(337) 383-7810
7596,220003000017,MIRE ELEMENTARY SCHOOL,5484 MIRE HIGHWAY,RAYNE,LA,70578,7730,(337) 873-6602
34354,220033000265,STARKS HIGH SCHOOL,137 HIGHWAY 10P S,STARKS,LA,70661,NOT AVAILABLE,(337) 217-4820
36345,220018000088,SINGER HIGH SCHOOL,153 HIGHWAY 110 EAST,SINGER,LA,70660,NOT AVAILABLE,(337) 463-5908
39021,220129001039,ALEXANDRIA MIDDLE MAGNET SCHOOL,122 MARYLAND AVENUE,ALEXANDRIA,LA,71301,NOT AVAILABLE,(318) 445-5343
39158,220033000274,J. I. WATSON ELEMENTARY SCHOOL,201 E FIRST ST,IOWA,LA,70647,NOT AVAILABLE,(337) 217-4670
10771,220102000766,LIVE OAK ELEMENTARY SCHOOL,35194 OLD HWY 16,DENHAM SPRINGS,LA,70706,NOT AVAILABLE,(225) 665-6702
13738,220102000776,WALKER ELEMENTARY SCHOOL,13327 WILDCAT DRIVE,WALKER,LA,70785,NOT AVAILABLE,(225) 665-5534
15975,220054000396,MCKINLEY MIDDLE MAGNET SCHOOL,1550 EDDIE ROBINSON SR. DRIVE,BATON ROUGE,LA,70802,NOT AVAILABLE,(225) 388-0089
18564,220165001535,LAKE HARBOR MIDDLE SCHOOL,1700 VIOLA STREET,MANDEVILLE,LA,70448,NOT AVAILABLE,(985) 674-4440
18727,220162001236,BERWICK HIGH SCHOOL,700 PATTI DRIVE,BERWICK,LA,70342,2037,(985) 384-8450
60621,220168001840,JEWEL M. SUMNER HIGH SCHOOL,15841 HIGHWAY 440,KENTWOOD,LA,70444,NOT AVAILABLE,(985) 229-8805
62984,220153001836,WEST ST. JOHN ELEMENTARY SCHOOL (K-7),2555 LA HWY. 18,EDGARD,LA,70049,NOT AVAILABLE,(985) 497-3347
65403,220162001234,BAYOU VISTA ELEMENTARY SCHOOL,1155 DELMAR STREET,MORGAN CITY,LA,70380,4099,(985) 395-3758
66798,220030000150,CADDO HEIGHTS MATH/SCIENCE ELEMENTARY SCHOOL,1702 CORBITT STREET,SHREVEPORT,LA,71108,NOT AVAILABLE,(318) 636-9610
68008,220198002012,BAINS LOWER ELEMENTARY SCHOOL,9794 BAINS ROAD,ST. FRANCISVILLE,LA,70775,NOT AVAILABLE,(225) 635-4696
68729,220087000685,MYRTLE PLACE ELEMENTARY SCHOOL,1100 MYRTLE PLACE BOULEVARD,LAFAYETTE,LA,70506,NOT AVAILABLE,(337) 521-7760
69522,220189001440,CENTRAL ELEMENTARY SCHOOL,5701 HWY 531,DUBBERLY,LA,71024,NOT AVAILABLE,(318) 377-2591
69815,220051000275,NORTH DESOTO MIDDLE SCHOOL 6-8,2535 HWY. 171,STONEWALL,LA,71078,NOT AVAILABLE,(318) 925-4520
70806,220201001480,DODSON HIGH SCHOOL,305 JONES STREET,DODSON,LA,71422,NOT AVAILABLE,(318) 628-2172
75026,220108000794,MARTIN LUTHER KING JUNIOR HIGH SCHOOL,3716 NUTLAND ROAD,MONROE,LA,71202,NOT AVAILABLE,(318) 387-1825
77809,220012000051,BELLE ROSE PRIMARY SCHOOL,7100 HWY 308,BELLE ROSE,LA,70341,NOT AVAILABLE,(225) 473-7706
42285,220030000195,SOUTH HIGHLANDS ELEMENTARY MAGNET SCHOOL,831 ERIE STREET,SHREVEPORT,LA,71106,NOT AVAILABLE,(318) 865-5119
45786,220003002381,AMIKIDS ACADIANA,611 CELESTINE LA TORTUE ROAD,BRANCH,LA,70516,3323,(337) 334-4838
48442,220060000459,CLINTON ELEMENTARY SCHOOL,10701 REILEY STREET,CLINTON,LA,70722,NOT AVAILABLE,(225) 683-8293
80466,220033000232,FRASCH ELEMENTARY SCHOOL,540 S HUNTINGTON,SULPHUR,LA,70663,NOT AVAILABLE,(337) 217-4550
51261,220156002006,NORTHWEST HIGH SCHOOL,3746 HWY. 104,OPELOUSAS,LA,70570,NOT AVAILABLE,(337) 543-2255
51423,220105000779,MADISON MIDDLE SCHOOL,1234 MADISON HIGH DRIVE,TALLULAH,LA,71282,NOT AVAILABLE,(318) 574-0933
55281,220003501494,AVOYELLES PUBLIC CHARTER SCHOOL,201 LONGFELLOW RD,MANSURA,LA,71350,NOT AVAILABLE,(318) 240-8285
57947,220129002374,RAPIDES ALTERNATIVE POSITIVE PROGRAM FOR STUDENTS,2121 MASON STREET,ALEXANDRIA,LA,71301,NOT AVAILABLE,(318) 449-3148
59659,220144001152,R.J. VIAL ELEMENTARY SCHOOL,510 LOUISIANA STREET,PARADIS,LA,70080,NOT AVAILABLE,(985) 758-2771
94837,220033000220,JAKE DROST SCHOOL FOR EXCEPTIONAL CHILDREN,1100 N CROCKER ST,SULPHUR,LA,70663,NOT AVAILABLE,(337) 217-4510
96996,220183001413,PITKIN HIGH SCHOOL,7239 HIGHWAY 463,PITKIN,LA,70656,NOT AVAILABLE,(318) 358-3121
97652,220054000426,SHENANDOAH ELEMENTARY SCHOOL,16555 APPOMATTOX AVE,BATON ROUGE,LA,70817,NOT AVAILABLE,(225) 753-3560
100991,220030000207,WALNUT HILL ELEMENTARY/MIDDLE SCHOOL,9360 WOOLWORTH ROAD,SHREVEPORT,LA,71129,NOT AVAILABLE,(318) 687-6610
102002,220012000055,NAPOLEONVILLE PRIMARY SCHOOL,185 HWY 1008,NAPOLEONVILLE,LA,70390,NOT AVAILABLE,(985) 369-6396
105092,220054002451,BASIS BATON ROUGE,12010 LAKELAND PARK BLVD. SUITE 113,BATON ROUGE,LA,70809,NOT AVAILABLE,(225) 394-9576
105101,220087002467,DR. RAPHAEL A. BARANCO ELEMENTARY SCHOOL,801 MUDD AVE.,LAFAYETTE,LA,70501,NOT AVAILABLE,(337) 521-7500
61739,220102001550,NORTH CORBIN ELEMENTARY SCHOOL,32645 NORTH CORBIN,WALKER,LA,70785,NOT AVAILABLE,(225) 686-9169
63302,220102000765,HOLDEN HIGH SCHOOL,30120 HWY 441,HOLDEN,LA,70744,NOT AVAILABLE,(225) 567-9367
63360,220030000211,WESTWOOD ELEMENTARY SCHOOL,7325 JEWELLA AVENUE,SHREVEPORT,LA,71108,NOT AVAILABLE,(318) 686-5489
63372,220087000678,LAFAYETTE HIGH SCHOOL,3000 WEST CONGRESS STREET,LAFAYETTE,LA,70506,NOT AVAILABLE,(337) 984-5284
67545,220174001653,SCHOOL FOR EXCEPTIONAL CHILDREN,105 MOFFET ROAD,HOUMA,LA,70363,NOT AVAILABLE,(985) 872-2496
67792,220009001540,DUPLESSIS PRIMARY SCHOOL,38101 HWY 621,GONZALES,LA,70737,NOT AVAILABLE,(225) 391-6650
69945,220054002311,MENTORSHIP STEAM ACADEMY,339 FLORIDA STREET,BATON ROUGE,LA,70801,NOT AVAILABLE,(225) 505-5013
11587,220009002269,SPANISH LAKE PRIMARY SCHOOL,13323 BLUFF ROAD,GEISMAR,LA,70734,NOT AVAILABLE,(225) 391-7650
14095,220090000716,RACELAND MIDDLE SCHOOL,3737 HWY 308,RACELAND,LA,70394,NOT AVAILABLE,(985) 537-5140
18966,220087000683,S.J. MONTGOMERY ELEMENTARY SCHOOL,600 FOREMAN DRIVE,LAFAYETTE,LA,70506,NOT AVAILABLE,(337) 521-7750
82911,220075000536,CRESCENT ELEMENTARY/JUNIOR HIGH SCHOOL,62575 BAYOU ROAD,PLAQUEMINE,LA,70764,NOT AVAILABLE,(225) 659-2437
85254,220129001076,ROSENTHAL MONTESSORI ELEMENTARY SCHOOL,1951 MONROE STREET,ALEXANDRIA,LA,71301,NOT AVAILABLE,(318) 442-5791
87450,220006000029,OAKDALE HIGH SCHOOL,101 NORTH 13TH STREET,OAKDALE,LA,71463,NOT AVAILABLE,(318) 335-2338
88045,220069000084,SOUTH GRANT ELEMENTARY SCHOOL,1000 HIGHWAY 1241,DRY PRONG,LA,71423,NOT AVAILABLE,(318) 641-1882
88076,220004000342,BAKER HEIGHTS ELEMENTARY SCHOOL,3750 HARDING STREET,BAKER,LA,70714,NOT AVAILABLE,(225) 775-1493
1983,220084000647,WALTER SCHNECKENBURGER ELEM SCHOOL,26 EARNEST STREET,KENNER,LA,70065,3306,(504) 443-1236
2562,220027001057,BOSSIER PS FOR TECHNOLOGY & INNOVATIVE LEARNING,1020 INNOVATION DRIVE,BOSSIER,LA,71111,NOT AVAILABLE,(318) 759-2900
4328,220054002423,EBR VIRTUAL ACADEMY,10755 CLETUS DR.,BATON ROUGE,LA,70815,NOT AVAILABLE,(225) 478-9264
7040,220156002007,PLAISANCE ELEMENTARY SCHOOL,3264 HWY. 167,OPELOUSAS,LA,70570,NOT AVAILABLE,(337) 826-3335
8288,220111000778,MOREHOUSE MAGNET SCHOOL,909 LARCHE LANE,BASTROP,LA,71220,NOT AVAILABLE,(318) 281-3126
30892,220009002081,PECAN GROVE PRIMARY SCHOOL,1712 SOUTH PECAN GROVE AVENUE,GONZALES,LA,70737,NOT AVAILABLE,(225) 391-7450
32661,220129001077,RUBY-WISE ELEMENTARY SCHOOL,5279 OLD MARKSVILLE HIGHWAY,PINEVILLE,LA,71360,NOT AVAILABLE,(318) 443-6089
34713,220048000327,VIDALIA UPPER ELEMENTARY SCHOOL,1 CONCORDIA AVENUE,VIDALIA,LA,71373,NOT AVAILABLE,(318) 336-6224
35286,220102000772,SPRINGFIELD ELEMENTARY SCHOOL,25190 BLOOD RIVER ROAD,SPRINGFIELD,LA,70462,NOT AVAILABLE,(225) 294-3398
35814,220048001515,CONCORDIA EDUCATION CENTER,160 KINDERGARTEN ROAD,FERRIDAY,LA,71334,NOT AVAILABLE,(318) 757-3941
40507,220054000445,WILDWOOD ELEMENTARY SCHOOL,444 HALFWAY TREE RD,BATON ROUGE,LA,70810,NOT AVAILABLE,(225) 766-6002
42305,220120001553,SWARTZ LOWER ELEMENTARY SCHOOL,235 SWARTZ SCHOOL RD,MONROE,LA,71203,NOT AVAILABLE,(318) 343-8883
42316,220168001323,SPRING CREEK ELEMENTARY SCHOOL,72961 HIGHWAY 1061,KENTWOOD,LA,70444,NOT AVAILABLE,(985) 229-8363
42377,220141001125,CHALMETTE HIGH SCHOOL,1100 EAST JUDGE PEREZ DR.,CHALMETTE,LA,70043,NOT AVAILABLE,(504) 301-2600
44512,220108000795,BERG JONES ELEMENTARY SCHOOL,3000 BURG JONES LANE,MONROE,LA,71202,NOT AVAILABLE,(318) 325-8982
45047,220075001998,NORTH IBERVILLE ELEMENTARY,13770 HWY. 77,ROSEDALE,LA,70772,NOT AVAILABLE,(225) 625-2522
46808,220009000036,DONALDSONVILLE HIGH SCHOOL,100 TIGER DRIVE,DONALDSONVILLE,LA,70346,NOT AVAILABLE,(225) 391-7900
50878,220063000482,VILLE PLATTE HIGH SCHOOL,210 WEST COTTON STREET,VILLE PLATTE,LA,70586,NOT AVAILABLE,(337) 363-3387
51262,220156001189,KROTZ SPRINGS ELEMENTARY SCHOOL,445 DIVISION STREET,KROTZ SPRINGS,LA,70750,NOT AVAILABLE,(337) 566-3585
51859,220009000047,LOWERY ELEMENTARY SCHOOL,2389-B HWY 1 SOUTH,DONALDSONVILLE,LA,70346,NOT AVAILABLE,(225) 391-7500
55212,220144001150,ST. ROSE ELEMENTARY SCHOOL,230 PIRATE DRIVE,ST. ROSE,LA,70087,NOT AVAILABLE,(504) 464-9254
57600,220028702350,ENCORE ACADEMY,2518 ARTS ST,NEW ORLEANS,LA,70117,NOT AVAILABLE,(504) 442-2224
58858,220180001569,J.H. WILLIAMS MIDDLE SCHOOL,1105 PRAIRIE AVENUE,ABBEVILLE,LA,70510,NOT AVAILABLE,(337) 893-3943
58960,220138001118,ZWOLLE HIGH SCHOOL,649 CHAMPIONSHIP DRIVE,ZWOLLE,LA,71486,NOT AVAILABLE,(318) 645-6104
59199,220054000443,WESTMINSTER ELEMENTARY SCHOOL,8935 WESTMINSTER DR,BATON ROUGE,LA,70809,NOT AVAILABLE,(225) 927-2930
71030,220033000268,RICHARD W. VINCENT ELEMENTARY SCHOOL,1634 BEGLIS PARKWAY,SULPHUR,LA,70663,NOT AVAILABLE,(337) 217-4690
71995,220030000198,A.C. STEERE ELEMENTARY SCHOOL,4009 YOUREE DRIVE,SHREVEPORT,LA,71105,NOT AVAILABLE,(318) 865-5675
72380,220033000278,WESTLAKE HIGH SCHOOL,1000 GARDEN DRIVE,WESTLAKE,LA,70669,NOT AVAILABLE,(337) 217-4950
72676,220075000231,EAST IBERVILLE ELEMENTARY/HIGH SCHOOL,3285 HIGHWAY 75,ST. GABRIEL,LA,70776,NOT AVAILABLE,(225) 642-0032
77252,220015000077,RIVERSIDE ELEMENTARY SCHOOL,549 NORWOOD STREET,SIMMESPORT,LA,71369,NOT AVAILABLE,(318) 941-2699
77645,220129001071,PLAINVIEW HIGH SCHOOL,10935 HIGHWAY 112,GLENMORA,LA,71433,NOT AVAILABLE,(318) 634-5944
20400,220120001020,WOODLAWN ELEMENTARY SCHOOL,5946 JONESBORO ROAD,WEST MONROE,LA,71292,NOT AVAILABLE,(318) 325-1578
25839,220003000013,IOTA ELEMENTARY SCHOOL,470 WEST KENNEDY STREET,IOTA,LA,70543,6021,(337) 779-2581
91986,220033000280,F. K. WHITE MIDDLE SCHOOL,1000 E MCNEESE,LAKE CHARLES,LA,70607,NOT AVAILABLE,(337) 217-4810
96922,220054002353,MAYFAIR LABORATORY SCHOOL,9880 HYACINTH AVENUE,BATON ROUGE,LA,70810,NOT AVAILABLE,(225) 761-7849
96944,220189001450,LAKESIDE JUNIOR-SENIOR HIGH SCHOOL,9090 HWY 371,SIBLEY,LA,71073,NOT AVAILABLE,(318) 377-2133
