OBJECTID,NCESID,NAME,ADDRESS,CITY,STATE,ZIP,ZIP4,TELEPHONE
10952,280225000429,JDC HIGH SCHOOL,891 BASS BURKETT RD,BASSFIELD,MS,39421,NOT AVAILABLE,(601) 943-5391
11505,280228000985,EAST JONES ELEMENTARY SCHOOL,108 NORTHEAST DRIVE,LAUREL,MS,39443,NOT AVAILABLE,(601) 425-9799
12038,280282001247,WEST MARION HIGH SCHOOL,2 WEST MARION STREET,FOXWORTH,MS,39483,NOT AVAILABLE,(601) 736-6381
12708,280255001122,SHANNON ELEMENTARY SCHOOL,695 ROMIE HILL AVE.,SHANNON,MS,38868,NOT AVAILABLE,(662) 767-9514
7937,280255001000,MOOREVILLE ELEMENTARY SCHOOL,967 C.R. 1409,MOOREVILLE,MS,38857,NOT AVAILABLE,(662) 844-7105
41047,280177000960,HARRISON COUNTY ALTERNATIVE SCHOOL,11072 HIGHWAY 49,GULFPORT,MS,39503,NOT AVAILABLE,(228) 539-5956
62714,280264000516,WEST LINCOLN SCHOOL,948 JACKSON LIBERTY DRIVE SW,BROOKHAVEN,MS,39601,NOT AVAILABLE,(601) 833-4600
62911,280141000208,CHARLESTON MIDDLE SCHOOL,17 OAK GROVE ROAD,CHARLESTON,MS,38921,NOT AVAILABLE,(662) 647-2115
63149,280432000820,TUPELO LEE CO VOC TECH SCHOOL,4125 GOLDEN WAVE DRIVE,TUPELO,MS,38801,NOT AVAILABLE,(662) 841-8990
63393,280109000132,CLINTON JR HI SCHOOL,711 LAKEVIEW DRIVE,CLINTON,MS,39056,NOT AVAILABLE,(601) 924-0619
65099,280240000987,JEFFERSON/TODD ALTERNATIVE PROGRAM,424 MARTIN LUTHER KING DRIVE,PURVIS,MS,39475,NOT AVAILABLE,(601) 794-1097
67062,280204000349,IDA GREENE LOWER ELEMENTARY,209 FOURTH STREET,BELZONI,MS,39038,NOT AVAILABLE,(662) 247-6080
67821,280219000378,CAREER DEVELOPMENT CENTER,2703 FIRST AVENUE,JACKSON,MS,39209,NOT AVAILABLE,(601) 960-5322
105458,280018501526,WEST BOLIVAR HIGH SCHOOL,1213 SOUTH MAIN,ROSEDALE,MS,38769,NOT AVAILABLE,(662) 759-3743
26453,280375000722,WHEELER HIGH SCHOOL,318 CR 5011,BOONEVILLE,MS,38829,NOT AVAILABLE,(662) 365-2629
81191,280321000630,NORTH PANOLA HIGH SCHOOL,500 HWY 51 NORTH,SARDIS,MS,38666,NOT AVAILABLE,(662) 487-1070
83986,280180000311,THAMES ELEMENTARY SCHOOL,2900 JAMESTOWN ROAD,HATTIESBURG,MS,39402,NOT AVAILABLE,(601) 582-6655
85785,280282001246,WEST MARION ELEMENTARY,2 WEST MARION STREET,FOXWORTH,MS,39483,NOT AVAILABLE,(601) 731-2076
88235,280129000181,MOUNT OLIVE ATTENDANCE CENTER,301 SOUTH 4TH STREET,MOUNT OLIVE,MS,39119,NOT AVAILABLE,(601) 797-3939
88802,280228000450,SOUTH JONES HIGH SCHOOL,313 ANDERSON STREET,ELLISVILLE,MS,39437,NOT AVAILABLE,(601) 477-8451
89761,280432001255,EARLY CHILDHOOD EDUCATION CENTER,1402 N GREEN STREET,TUPELO,MS,38804,NOT AVAILABLE,(662) 840-5237
34889,280132001569,DESOTO CENTRAL HIGH SCHOOL,2911 CENTRAL PARKWAY,SOUTHAVEN,MS,38672,NOT AVAILABLE,(662) 536-3612
94374,280219000395,LAKE ELEMENTARY SCHOOL,472 MT VERNON AVENUE,JACKSON,MS,39209,NOT AVAILABLE,(601) 960-5308
51032,280090001394,HUEY L. PORTER MIDDLE SCHOOL,551 FINNEY ROAD,CANTON,MS,39046,NOT AVAILABLE,(601) 407-1815
52474,280357000689,PERRY CENTRAL MIDDLE SCHOOL,100 8TH AVE. SOUTH,NEW AUGUSTA,MS,39462,NOT AVAILABLE,(601) 964-3226
54285,280018901440,SUDDUTH ELEMENTARY SCHOOL,101 GREENFIELD DRIVE,STARKVILLE,MS,39759,NOT AVAILABLE,(662) 324-4150
74172,280036001372,ABERDEEN ELEMENTARY SCHOOL,508 W. COMMERCE ST,ABERDEEN,MS,39730,NOT AVAILABLE,(662) 369-4782
75622,280327001139,FALKNER ELEMENTARY SCHOOL,20771 HIGHWAY 15,FALKNER,MS,38629,NOT AVAILABLE,(662) 837-3947
77896,280306000611,NESHOBA CENTRAL ELEMENTARY SCHOOL,1002 ST FRANCIS DRIVE,PHILADELPHIA,MS,39350,NOT AVAILABLE,(601) 656-2182
79700,280390001387,LAKE ELEMENTARY SCHOOL,200 SCHOOL STREET,LAKE,MS,39092,NOT AVAILABLE,(601) 775-3011
79890,280201000347,HOUSTON CAREER & TECHNOLOGY ED.,634-A STARKVILLE ROAD,HOUSTON,MS,38851,NOT AVAILABLE,(662) 456-3748
1606,280057001376,WAVELAND ELEMENTARY SCHOOL,1101 ST JOSEPH STREET,WAVELAND,MS,39576,NOT AVAILABLE,(228) 467-6630
3400,280336000652,PECAN PARK ELEMENTARY SCHOOL,504 HANLEY ROAD,OCEAN SPRINGS,MS,39564,NOT AVAILABLE,(228) 875-2851
5758,280261001059,LELAND HIGH SCHOOL,402 E. THIRD STREET,LELAND,MS,38756,NOT AVAILABLE,(662) 686-5020
6769,280174001338,WEST HANCOCK ELEMENTARY SCHOOL,23350 HIGHWAY 43,PICAYUNE,MS,39466,NOT AVAILABLE,(228) 586-6054
7831,280312000615,NEW ALBANY HIGH SCHOOL,201 HIGHWAY 15 NORTH,NEW ALBANY,MS,38652,NOT AVAILABLE,(662) 534-1805
8988,280300000592,MAGNOLIA MIDDLE SCHOOL,4630 MAGNOLIA ST,MOSS POINT,MS,39563,NOT AVAILABLE,(228) 475-1429
44589,280105000122,KIRKPATRICK HEALTH /WELLNESS,1101 SMITH STREET,CLARKSDALE,MS,38614,NOT AVAILABLE,(662) 627-8588
49902,280279001220,MADISON CENTRAL HIGH SCHOOL,1417 HIGHLAND COLONY PARKWAY,MADISON,MS,39110,NOT AVAILABLE,(601) 856-7121
63395,280390001144,LAKE MIDDLE SCHOOL,1770 EAST SCOTT ROAD,LAKE,MS,39092,NOT AVAILABLE,(601) 775-3614
65439,280438000825,UNION HIGH SCHOOL,101 FOREST STREET,UNION,MS,39365,NOT AVAILABLE,(601) 774-8257
66303,280288000556,MCCOMB HIGH SCHOOL,310 SEVENTH STREET,MCCOMB,MS,39648,NOT AVAILABLE,(601) 684-5678
67025,280219000947,YOUTH COURT SCHOOL,940 EAST MCDOWELL ROAD,JACKSON,MS,39204,NOT AVAILABLE,(601) 985-3061
67680,280279000537,LUTHER BRANSON SCHOOL,3903 HIGHWAY 16 E,CANTON,MS,39046,NOT AVAILABLE,(601) 859-2743
67832,280168000262,GRENADA HIGH,1875 FAIRGROUND ROAD,GRENADA,MS,38901,NOT AVAILABLE,(662) 226-8844
54852,280189000333,SANDERS ELEMENTARY SCHOOL,502 WEST WASHINGTON STREET,HOLLANDALE,MS,38748,NOT AVAILABLE,(662) 827-2024
55590,280109001028,LOVETT ELEM SCHOOL,2002 W. NORTHSIDE DRIVE,CLINTON,MS,39056,NOT AVAILABLE,(601) 924-5664
92517,280339000655,OKOLONA VOC COMPLEX,605 NORTH CHURCH ST,OKOLONA,MS,38860,NOT AVAILABLE,(662) 447-3331
92657,280363000688,CENTER FOR ALTERNATIVE EDUCATION,900 EAST THIRD STREET,PICAYUNE,MS,39466,NOT AVAILABLE,(601) 799-0684
93264,280051001020,KOSCIUSKO ATTALA CAREER TECHNICAL C,450 HWY 12 EAST,KOSCIUSKO,MS,39090,NOT AVAILABLE,(662) 289-2689
95239,280162000240,COLEMAN MIDDLE SCHOOL,400 DR. MARTIN LUTHER KING BLVD,GREENVILLE,MS,38701,NOT AVAILABLE,(662) 334-7036
95413,280273001126,CALEDONIA MIDDLE SCHOOL,105 CONFEDERATE DRIVE,CALEDONIA,MS,39740,NOT AVAILABLE,(662) 356-2042
95640,280423000799,EAST TATE ELEMENTARY SCHOOL,6832 EAST TATE RD,COLDWATER,MS,38618,NOT AVAILABLE,(662) 562-4688
99065,280352000002,PEARL LOWER ELEMENTARY SCHOOL,160 MARY ANN DRIVE,PEARL,MS,39208,NOT AVAILABLE,(601) 932-7976
80014,280186000984,BOLTON-EDWARDS ELEM./MIDDLE SCHOOL,9700 I-20 WEST,BOLTON,MS,39041,NOT AVAILABLE,(601) 866-2522
83759,280366000702,PONTOTOC RIDGE CAREER & TECH. CNT.,354 CENTER RIDGE DRIVE,PONTOTOC,MS,38863,NOT AVAILABLE,(662) 489-1826
105487,280019801522,GREENWOOD MIDDLE SCHOOL,1200 GARRARD AVENUE,GREENWOOD,MS,38930,NOT AVAILABLE,(662) 455-3661
12777,280120000158,FAIRVIEW ELEMENTARY SCHOOL,225 AIRLINE ROAD,COLUMBUS,MS,39702,NOT AVAILABLE,(662) 241-7140
13287,280383000739,MCLAURIN ATTENDANCE CENTER,130 TIGER DRIVE,FLORENCE,MS,39073,NOT AVAILABLE,(601) 845-2247
15010,280426000927,TISHOMINGO CO ALTERNATIVE SCHOOL,34A MONROE ST,TISHOMINGO,MS,38873,NOT AVAILABLE,(662) 438-6800
17173,590019400043,BOGUE CHITTO ELEMENTARY SCHOOL,13241 HWY 491 NORTH,PHILADELPHIA,MS,39350,NOT AVAILABLE,(601) 389-1000
17559,280351000682,DELISLE ELEMENTARY SCHOOL,6303 W WITTMAN ROAD,PASS CHRISTIAN,MS,39571,NOT AVAILABLE,(228) 255-6219
18201,280405000765,POPE ELEMENTARY SCHOOL,1110 MAIN STREET,POPE,MS,38658,NOT AVAILABLE,(662) 563-3732
18407,280219000423,WINGFIELD HIGH SCHOOL,1985 SCANLON DRIVE,JACKSON,MS,39204,NOT AVAILABLE,(601) 371-4350
31061,280168000266,GRENADA ENRICHMENT & TRANSITION CEN,809 TIE PLANT ROAD,GRENADA,MS,38901,NOT AVAILABLE,(662) 226-3311
32609,280228000441,MOSELLE ELEMENTARY SCHOOL,168 RAYNER ROAD,MOSELLE,MS,39459,NOT AVAILABLE,(601) 582-7586
33687,280465000872,R H BEARDEN ELEMENTARY SCHOOL,1090 FRIENDSHIP RD.,SUMNER,MS,38957,NOT AVAILABLE,(662) 375-8304
33908,280042000027,AMITE COUNTY HIGH SCHOOL,600 IRENE ST,LIBERTY,MS,39645,NOT AVAILABLE,(601) 657-8920
35179,280132001336,SOUTHAVEN INTERMEDIATE SCHOOL,175 RASCO ROAD W,SOUTHAVEN,MS,38671,NOT AVAILABLE,(662) 253-0123
36882,280216001051,JACKSON COUNTY VOCATIONAL CENTER,12425 HWY 57,VANCLEAVE,MS,39565,NOT AVAILABLE,(228) 826-5944
72452,280279001350,MANNSDALE ELEMENTARY,443 MANNSDALE ROAD,MADISON,MS,39110,NOT AVAILABLE,(601) 879-0309
79016,280018301317,ROGER AMOS MCMURTRY SCHOOL,14426 JAMES BOND ROAD,GULFPORT,MS,39503,NOT AVAILABLE,(228) 328-6000
22061,280162000237,ARMSTRONG ELEMENTARY SCHOOL,528 REDBUD STREET,GREENVILLE,MS,38701,NOT AVAILABLE,(662) 334-7121
23245,280279001318,MADISON CO PRE SCHOOL,476 HIGHLAND COLONY PARKWAY,RIDGELAND,MS,39157,NOT AVAILABLE,(601) 853-1326
23973,280285000553,H. W. BYERS HIGH SCHOOL (5-12),4178 HWY 72 EAST,HOLLY SPRINGS,MS,38635,NOT AVAILABLE,(662) 851-7871
28046,280273001128,NEW HOPE MIDDLE SCHOOL,3419 NEW HOPE ROAD,COLUMBUS,MS,39702,NOT AVAILABLE,(662) 244-4740
70069,280369001162,PONTOTOC JUNIOR HIGH SCHOOL,132 NORTH MAIN STREET,PONTOTOC,MS,38863,NOT AVAILABLE,(662) 489-8360
75402,280399000757,SIMPSON CENTRAL SCHOOL,755 SIMPSON HWY 28 WEST,PINOLA,MS,39149,NOT AVAILABLE,(601) 847-2630
90826,280153000223,FRANKLIN LOWER ELEMENTARY,481 HWY 98 E,MEADVILLE,MS,39653,NOT AVAILABLE,(601) 384-5605
92656,280348000668,CENTRAL ELEMENTARY SCHOOL,1100 DUPONT STREET,PASCAGOULA,MS,39567,NOT AVAILABLE,(228) 938-6559
95279,280318001137,NEWTON ELEMENTARY SCHOOL,301 W. TATUM STREET,NEWTON,MS,39345,NOT AVAILABLE,(601) 683-3979
99240,280219000405,PEEPLES MIDDLE SCHOOL,2940 BELVEDERE DRIVE,JACKSON,MS,39212,NOT AVAILABLE,(601) 346-5660
101399,280291000559,GEORGE WASHINGTON CARVER MIDDLE,900 44TH AVENUE,MERIDIAN,MS,39307,NOT AVAILABLE,(601) 484-4484
101549,280288000555,OTKEN ELEMENTARY SCHOOL,401 MONTANA AVENUE,MCCOMB,MS,39648,NOT AVAILABLE,(601) 684-3749
80214,280149000217,NORTH FORREST ATTENDANCE CENTER,702 EATONVILLE ROAD,HATTIESBURG,MS,39401,NOT AVAILABLE,(601) 584-6466
80266,280345000663,OXFORD HIGH SCHOOL,101 CHARGER LOOP,OXFORD,MS,38655,NOT AVAILABLE,(662) 234-1562
85337,280186000914,MAIN STREET ALTERNATIVE SCHOOL,130 CHAMPION HILL RD,BOLTON,MS,39041,NOT AVAILABLE,(601) 866-2642
87214,280210000357,FAIRVIEW ATTENDANCE CENTER,66 FAIRVIEW ROAD,GOLDEN,MS,38847,NOT AVAILABLE,(662) 585-3127
88559,280132000194,OLIVE BRANCH MIDDLE,6530 S. BLOCKER STREET,OLIVE BRANCH,MS,38654,NOT AVAILABLE,(662) 895-4610
52426,280219000403,MURRAH HIGH SCHOOL,1400 MURRAH DRIVE,JACKSON,MS,39202,NOT AVAILABLE,(601) 960-5380
56202,280019201471,JOEL E. SMILOW PREP,787 E. NORTHSIDE DRIVE,JACKSON,MS,39206,NOT AVAILABLE,(769) 524-5330
57770,590010000057,TUCKER ELEMENTARY SCHOOL,126 EAST TUCKER CIRCLE,PHILADELPHIA,MS,39350,NOT AVAILABLE,(601) 656-8775
59233,280219001365,KIRKSEY MIDDLE SCHOOL,5677 HIGHLAND DR,JACKSON,MS,39206,NOT AVAILABLE,(601) 987-8360
22000,280042001375,AMITE COUNTY ELEMENTARY,3457 SOUTH GREENSBURG ROAD,LIBERTY,MS,39645,NOT AVAILABLE,(601) 657-8311
22751,280122000168,CRYSTAL SPRINGS HIGH SCHOOL,201 NEWTON STREET,CRYSTAL SPRINGS,MS,39059,NOT AVAILABLE,(601) 892-4791
23972,280432000293,TUPELO MIDDLE SCHOOL,1009 VARSITY DRIVE,TUPELO,MS,38801,NOT AVAILABLE,(662) 840-8780
24244,280156000870,LT TAYLOR INTERMEDIATE SCHOOL,159 MABLE ST,LUCEDALE,MS,39452,NOT AVAILABLE,(601) 947-6065
24983,280117000150,COLUMBIA PRIMARY SCHOOL,913 WEST AVENUE,COLUMBIA,MS,39429,3135,(601) 736-2216
25623,280402001146,RALEIGH ELEMENTARY SCHOOL,201 WHITE OAK AVENUE,RALEIGH,MS,39153,NOT AVAILABLE,(601) 782-9507
60723,280432000813,JOYNER ELEMENTARY SCHOOL,1201 JOYNER AVENUE,TUPELO,MS,38804,NOT AVAILABLE,(662) 841-8900
61351,280219000371,BARR ELEMENTARY SCHOOL,1593 W CAPITOL STREET,JACKSON,MS,39203,NOT AVAILABLE,(601) 960-5336
61355,280189001273,HOLLANDALE ALTERNATIVE PROGRAM,115 NORTH STREET,HOLLANDALE,MS,38748,NOT AVAILABLE,(662) 827-0610
63522,280132000185,GREENBROOK ELEMENTARY SCHOOL,730 S. RASCO ROAD,SOUTHAVEN,MS,38671,NOT AVAILABLE,(662) 342-2330
65326,280264000513,ENTERPRISE SCHOOL,1601 HWY 583 SE,BROOKHAVEN,MS,39601,NOT AVAILABLE,(601) 833-7284
68750,280453000851,WAYNESBORO RIVERVIEW ELE SCHOOL,155 WAYNE STREET,WAYNESBORO,MS,39367,2999,(601) 735-3159
69090,280378001182,CLARKE CO CAREER & TECHNOLOGY CTR,910 NORTH ARCHUSA AVE.,QUITMAN,MS,39355,NOT AVAILABLE,(601) 776-5219
30130,280471001580,WILLIAM WINANS MIDDLE SCHOOL,166 EAST CHEROKEE,CENTREVILLE,MS,39631,0610,(601) 645-0008
30786,280132001281,OVERPARK ELEMENTARY,8530 FOREST HILL IRENE ROAD,OLIVE BRANCH,MS,38654,NOT AVAILABLE,(662) 890-8745
36232,280132000933,SOUTHAVEN MIDDLE SCHOOL,899 RASCO ROAD,SOUTHAVEN,MS,38671,NOT AVAILABLE,(662) 280-0422
38925,280447000830,VICKSBURG HIGH SCHOOL,3701 DRUMMOND STREET,VICKSBURG,MS,39180,NOT AVAILABLE,(601) 636-2914
15531,280405000764,BATESVILLE JUNIOR HIGH SCHOOL,507 TIGER DRIVE,BATESVILLE,MS,38606,NOT AVAILABLE,(662) 563-4503
16061,280465000873,WEST TALLAHATCHIE HIGH SCHOOL,2104 HIGH SCHOOL ROAD,WEBB,MS,38966,NOT AVAILABLE,(662) 375-8829
17193,280219000412,SIWELL MIDDLE SCHOOL,1983 N SIWELL ROAD,JACKSON,MS,39209,NOT AVAILABLE,(601) 923-2550
18155,280216001047,ST MARTIN UPPER ELEMENTARY,11000 YELLOW JACKET BLVD.,OCEAN SPRINGS,MS,39564,NOT AVAILABLE,(228) 818-2849
19307,280186000961,RAYMOND ELEMENTARY SCHOOL,417 PALESTINE ROAD,RAYMOND,MS,39154,NOT AVAILABLE,(601) 857-0213
19651,280408000773,SOUTH PIKE SENIOR HIGH SCHOOL,205 WEST MYRTLE STREET,MAGNOLIA,MS,39652,NOT AVAILABLE,(601) 783-0420
44077,280177000288,HARRISON CENTRAL HIGH SCHOOL,15600 SCHOOL ROAD,GULFPORT,MS,39503,NOT AVAILABLE,(228) 832-2610
47733,280383001143,RICHLAND ELEMENTARY SCHOOL,200 SPELL DRIVE,RICHLAND,MS,39218,NOT AVAILABLE,(601) 939-4375
1186,280273001125,CALEDONIA HIGH SCHOOL,111 CONFEDERATE DRIVE,CALEDONIA,MS,39740,NOT AVAILABLE,(662) 356-2001
7848,280105000127,CARL KEEN VOC,1050 WALNUT STREET,CLARKSDALE,MS,38614,NOT AVAILABLE,(662) 627-8580
8060,280375000719,NEW SITE HIGH SCHOOL,1020 HWY. 4 EAST,NEW SITE,MS,38859,NOT AVAILABLE,(662) 728-5205
9519,280369000706,PONTOTOC HIGH SCHOOL,123 NORTH MAIN STREET,PONTOTOC,MS,38863,NOT AVAILABLE,(662) 489-1275
90219,280453000997,WAYNE COUNTY ALTERNATIVE SCHOOL,1325 AZALEA DR,WAYNESBORO,MS,39367,NOT AVAILABLE,(601) 735-2851
91097,280180000310,HATTIESBURG HIGH SCHOOL,301 HUTCHINSON AVE,HATTIESBURG,MS,39401,NOT AVAILABLE,(601) 544-0811
91254,280291000918,MARION PARK COMPLEX,2815 25TH ST.,MERIDIAN,MS,39301,NOT AVAILABLE,(601) 484-5166
91415,280285000550,BYHALIA ELEMENTARY SCHOOL (K-4),172 HIGHWAY 309 NORTH,BYHALIA,MS,38611,NOT AVAILABLE,(662) 838-6980
92933,280219000407,POWELL MIDDLE SCHOOL,3655 LIVINGSTON ROAD,JACKSON,MS,39213,NOT AVAILABLE,(601) 987-3580
93343,280177000287,HARRISON CENTRAL ELEMENTARY,15451 DEDEAUX ROAD,GULFPORT,MS,39503,NOT AVAILABLE,(228) 832-2701
95093,280084000952,MULLINS SCHOOL,711 MARTIN LUTHER KING JR. DRIVE,BROOKHAVEN,MS,39601,NOT AVAILABLE,(601) 833-7479
95221,280039001150,ALCORN CENTRAL ELEMENTARY SCHOOL,20 CR 254,GLEN,MS,38846,NOT AVAILABLE,(662) 286-6899
95562,280018701433,CARVER ELEMENTARY SCHOOL,404 JEFFERSON STREET,INDIANOLA,MS,38751,NOT AVAILABLE,(662) 884-1250
62689,280243001056,NORTHEAST LAUDERDALE ELEMENTARY,6750 NEWELL ROAD,MERIDIAN,MS,39305,NOT AVAILABLE,(601) 485-4882
65517,280045000031,AMORY CAREER TECHNICAL CENTER,1006 SAM HASKELL CIRCLE,AMORY,MS,38821,0330,(662) 256-7601
66954,280228000443,NORTHEAST JONES HIGH SCHOOL,68 NORTHEAST DRIVE,LAUREL,MS,39443,NOT AVAILABLE,(601) 425-2347
69761,280348000666,ARLINGTON HEIGHTS ELEM SCHOOL,3511 ARLINGTON STREET,PASCAGOULA,MS,39581,NOT AVAILABLE,(228) 938-6552
88256,280315001135,NEWTON COUNTY HIGH SCHOOL,16255 HWY 503,DECATUR,MS,39327,NOT AVAILABLE,(601) 635-4261
52771,280090000100,CANTON ELEMENTARY SCHOOL,365 VANBUREN STREET,CANTON,MS,39046,NOT AVAILABLE,(601) 859-2400
53543,280159000233,MC LAIN ELEMENTARY SCHOOL,114 SHOWS STREET/198 BYPASS,MCLAIN,MS,39456,NOT AVAILABLE,(601) 753-2257
56203,280036001467,BELLE SHIVERS MIDDLE SCHOOL,518 WEST VINE STREET,ABERDEEN,MS,39730,NOT AVAILABLE,(662) 369-2649
56779,280228000904,JONES COUNTY LEARNING CENTER,923-B SAWMILL ROAD,LAUREL,MS,39440,NOT AVAILABLE,(601) 649-8080
59561,280291000570,OAKLAND HEIGHTS ELEMENTARY SCHOOL,601 59TH AVE,MERIDIAN,MS,39307,NOT AVAILABLE,(601) 482-3541
40438,280171000276,GULFPORT HIGH SCHOOL,100 PERRY STREET,GULFPORT,MS,39507,NOT AVAILABLE,(228) 896-1750
43746,280119401201,MS SCHOOL FOR MATH AND SCIENCE,5TH AVE SOUTH AND MSCW DR,COLUMBUS,MS,39701,NOT AVAILABLE,(662) 329-7360
46113,280018501426,WEST BOLIVAR ELEM,1212 SOUTH MAIN STREET,ROSEDALE,MS,38769,NOT AVAILABLE,(662) 759-3823
72142,280348001236,MARTIN BLUFF,1306 ROY'S ROAD,GAUTIER,MS,39553,NOT AVAILABLE,(228) 522-8850
72158,280408000910,SOUTH PIKE ALTERNATIVE SCHOOL,205 WEST MYRTLE,MAGNOLIA,MS,39652,NOT AVAILABLE,(601) 783-0430
75461,280327000637,CHALYBEATE ELEMENTARY SCHOOL,2471 HWY 354,WALNUT,MS,38683,NOT AVAILABLE,(662) 223-4311
75605,280432000814,LAWHON ELEMENTARY SCHOOL,140 LAKE STREET,TUPELO,MS,38804,NOT AVAILABLE,(662) 841-8910
75610,280129000178,CARVER MIDDLE SCHOOL,104 CARVER DR.,COLLINS,MS,39428,NOT AVAILABLE,(601) 765-4908
76381,280240001316,SUMRALL MIDDLE SCHOOL,1217 HIGHWAY 42,SUMRALL,MS,39482,NOT AVAILABLE,(601) 758-4416
79969,280054000042,BALDWYN HIGH SCHOOL,512 NORTH FOURTH STREET,BALDWYN,MS,38824,NOT AVAILABLE,(662) 365-1020
33831,280132000195,SOUTHAVEN ELEMENTARY,8274 CLAIBORNE DRIVE,SOUTHAVEN,MS,38671,NOT AVAILABLE,(662) 342-2289
38633,280417000791,STONE MIDDLE SCHOOL,532 E CENTRAL AVE.,WIGGINS,MS,39577,NOT AVAILABLE,(601) 928-4876
39404,280372000992,MIDDLE SCHOOL OF POPLARVILLE,6 SPIRIT STREET,POPLARVILLE,MS,39470,NOT AVAILABLE,(601) 795-1350
10329,280383000742,PUCKETT ATTENDANCE CENTER,6382 HIGHWAY 18,PUCKETT,MS,39151,NOT AVAILABLE,(601) 825-5742
11027,590003100047,CHOCTAW CENTRAL HIGH SCHOOL,150 RECREATION RD,CHOCTAW,MS,39350,NOT AVAILABLE,(601) 663-7777
11912,280195000337,HOLLY SPRINGS PRIMARY SCHOOL,405 SOUTH MAURY STREET,HOLLY SPRINGS,MS,38635,NOT AVAILABLE,(662) 252-1768
15808,280366001384,NORTH PONTOTOC UPPER ELEMENTARY,1620 OLD HIGHWAY 15,ECRU,MS,38841,NOT AVAILABLE,(662) 489-2295
18353,280267000521,WJ QUARLES ELEMENTARY SCHOOL,111 QUARLES STREET,LONG BEACH,MS,39560,NOT AVAILABLE,(228) 864-3946
832,280018901446,WEST ELEMENTARY SCHOOL,127 STURGIS MABEN ROAD,STURGIS,MS,39769,NOT AVAILABLE,(662) 465-7956
4218,280396000753,SOUTH DELTA HIGH SCHOOL,303 PARKWAY,ROLLING FORK,MS,39159,NOT AVAILABLE,(662) 873-4308
5807,280156001474,GEORGE COUNTY ALTERNATIVE,9284 OLD HWY 63 SOUTH,LUCEDALE,MS,39452,NOT AVAILABLE,(601) 947-6993
7849,280132000197,HOPE SULLIVAN ELEMENTARY SCHOOL,7985 SOUTHAVEN CIRCLE W,SOUTHAVEN,MS,38671,NOT AVAILABLE,(662) 393-2919
8580,280402000758,MIZE ATTENDANCE CENTER,125 SCHOOL DR,MIZE,MS,39116,NOT AVAILABLE,(601) 733-2242
9334,280303001397,NATCHEZ FRESHMAN ACADEMY,208 LYNDA LEE DRIVE,NATCHEZ,MS,39120,NOT AVAILABLE,(601) 445-2941
20367,280075000084,PARKS ELEMENTARY SCHOOL,1301 TERRACE ROAD,CLEVELAND,MS,38732,NOT AVAILABLE,(662) 843-3166
20834,280402000759,RALEIGH HIGH SCHOOL,491 MAGNOLIA DRIVE,RALEIGH,MS,39153,NOT AVAILABLE,(601) 782-4261
21461,280453001096,WAYNE CO CAREER & TECHNICAL,800 COLLINS STREET,WAYNESBORO,MS,39367,NOT AVAILABLE,(601) 735-5036
100804,280375000720,PRENTISS CO VOC COMPLEX,302 W. GEORGE E. ALLEN DR.,BOONEVILLE,MS,38829,NOT AVAILABLE,(662) 728-9259
91429,280423000801,STRAYHORN ELEMENTARY SCHOOL,3402 HWY 4 WEST,SARAH,MS,38665,NOT AVAILABLE,(662) 562-8637
93146,280132001288,LEWISBURG HIGH SCHOOL,1755 CRAFT ROAD,OLIVE BRANCH,MS,38654,NOT AVAILABLE,(662) 890-6708
32172,280352001354,PEARL JUNIOR HIGH SCHOOL,200 MARY ANN DRIVE,PEARL,MS,39208,NOT AVAILABLE,(601) 932-7952
35476,280219000389,HARDY MIDDLE SCHOOL,545 ELLIS AVENUE,JACKSON,MS,39209,NOT AVAILABLE,(601) 960-5362
10288,280459000899,BAY SPRINGS MIDDLE SCH,124 EDMUND KING ROAD,BAY SPRINGS,MS,39422,0587,(601) 425-8530
13701,280219000384,FOREST HILL HIGH SCHOOL,2607 RAYMOND ROAD,JACKSON,MS,39212,NOT AVAILABLE,(601) 371-4313
14138,280447000996,WARREN CENTRAL INTERMEDIATE,2147 SHERMAN AVE,VICKSBURG,MS,39183,NOT AVAILABLE,(601) 638-5656
16023,280426001227,TISHOMINGO COUNTY HIGH SCHOOL,701 HWY 72,IUKA,MS,38852,7257,(662) 423-7300
16070,280426000803,BELMONT SCHOOL,9 SCHOOL DRIVE,BELMONT,MS,38827,NOT AVAILABLE,(662) 454-7924
16350,280252000490,LEAKE COUNTY HIGH SCHOOL,220 SPRUCE STREET,WALNUT GROVE,MS,39189,NOT AVAILABLE,(601) 253-2393
20897,280132001282,LAKE CORMORANT MIDDLE,3203 WILSON MILL ROAD,LAKE CORMORANT,MS,38641,NOT AVAILABLE,(662) 781-0778
22961,280243001573,SOUTHEAST LAUDERDALE ELEMENTARY,2362 A LONG CREEK ROAD,MERIDIAN,MS,39301,NOT AVAILABLE,(601) 486-2500
23578,280432000818,THOMAS STREET ELEMENTARY SCHOOL,520 S THOMAS STREET,TUPELO,MS,38801,NOT AVAILABLE,(662) 841-8960
26362,280162000244,GREENVILLE HIGH SCHOOL,419 EAST ROBERTSHAW STREET,GREENVILLE,MS,38701,NOT AVAILABLE,(662) 334-7063
53291,280383001353,STONEBRIDGE ELEMENTARY,115 STONEBRIDGE BLVD.,BRANDON,MS,39042,NOT AVAILABLE,(601) 824-3287
54899,280240001322,PURVIS UPPER ELEMENTARY,310 MITCHELL,PURVIS,MS,39475,NOT AVAILABLE,(601) 794-2959
56549,280249000485,TOPEKA TILTON ATTENDANCE CENTER,853 HIGHWAY 27 SOUTH,MONTICELLO,MS,39654,NOT AVAILABLE,(601) 587-4895
61365,280216001050,VANCLEAVE HIGH SCHOOL,12424 HWY 57,VANCLEAVE,MS,39565,NOT AVAILABLE,(228) 826-4701
62146,280153001110,FRANKLIN UPPER ELEMENTARY,409 HWY 98 E,MEADVILLE,MS,39653,NOT AVAILABLE,(601) 384-2940
64221,280240001240,OAK GROVE UPPER ELEMENTARY,1760 OLD HWY. 24,HATTIESBURG,MS,39402,NOT AVAILABLE,(601) 264-6724
73444,280075001212,HAYES COOPER CENTER FOR MATH SC TEC,500 MARTIN L. KING,MERIGOLD,MS,38759,NOT AVAILABLE,(662) 748-2734
74628,280366001008,NORTH PONTOTOC ELEMENTARY SCHOOL,8324 HWY 15 NORTH,ECRU,MS,38841,NOT AVAILABLE,(662) 489-5613
75719,590017200055,RED WATER ELEMENTARY SCHOOL,107 BRAVES BOULEVARD,CARTHAGE,MS,39051,NOT AVAILABLE,(601) 267-8500
41309,280447000993,DANA ROAD ELEMENTARY,1247 DANA ROAD,VICKSBURG,MS,39180,NOT AVAILABLE,(601) 619-2340
46759,280174000982,EAST HANCOCK ELEMENTARY SCHOOL,4221 KILN DELISLE RD.,KILN,MS,39556,NOT AVAILABLE,(228) 255-6637
842,280019101457,WEST POINT VOC COMP,3413 EAST CHURCH HILL ROAD,WEST POINT,MS,39773,NOT AVAILABLE,(662) 494-6176
1722,280336000647,OAK PARK ELEMENTARY SCHOOL,2230 GOVERNMENT STREET,OCEAN SPRINGS,MS,39564,NOT AVAILABLE,(228) 875-5847
4088,280120000166,MCKELLAR VOCATIONAL CENTER,810 N BROWDER STREET,COLUMBUS,MS,39702,NOT AVAILABLE,(662) 241-7290
7545,280456000856,WEBSTER CO CAREER & TECHNOL CTR,605 HALL ROAD,EUPORA,MS,39744,NOT AVAILABLE,(662) 258-8206
8659,280285000549,GALENA ELEMENTARY SCHOOL (K-6),4202 HWY 4 WEST,HOLLY SPRINGS,MS,38635,NOT AVAILABLE,(662) 564-2229
9318,280456000853,EUPORA ELEMENTARY SCHOOL,1 NARON STREET,EUPORA,MS,39744,NOT AVAILABLE,(662) 258-6735
80390,280291000567,MERIDIAN HIGH SCHOOL,2320 32ND STREET,MERIDIAN,MS,39305,NOT AVAILABLE,(601) 485-3848
82033,280219000413,SMITH ELEMENTARY SCHOOL,3900 PARKWAY DRIVE,JACKSON,MS,39213,NOT AVAILABLE,(601) 987-3525
84529,280279001290,MADISON CROSSING ELEMENTARY,300 YANDELL ROAD,CANTON,MS,39046,NOT AVAILABLE,(601) 898-7710
87699,280339000654,OKOLONA HIGH SCHOOL,404 HOWARD GUNN STREET,OKOLONA,MS,38860,NOT AVAILABLE,(662) 447-2362
105499,280324001509,NORTH PIKE UPPER ELEMENTARY SCHOOL,1035 NORTH PIKE CIRCLE,SUMMIT,MS,39666,NOT AVAILABLE,(601) 465-0100
24330,280084000090,ALEXANDER JUNIOR HIGH SCHOOL,713 BEAUREGARD STREET,BROOKHAVEN,MS,39601,NOT AVAILABLE,(601) 833-7549
25051,280345000566,OXFORD LEARNING CENTER,399 NORTH FIFTH STREET,OXFORD,MS,38655,NOT AVAILABLE,(662) 234-3588
29593,280363000697,PICAYUNE JUNIOR HIGH SCHOOL,702 GOODYEAR BLVD.,PICAYUNE,MS,39466,3220,(601) 798-5449
835,280018901453,ARMSTRONG JUNIOR HIGH SCHOOL,303 MCKEE STREET,STARKVILLE,MS,39759,NOT AVAILABLE,(662) 324-4070
3708,280399001085,MAGEE MIDDLE SCHOOL,413 CHOCTAW EAST SUITE100,MAGEE,MS,39111,NOT AVAILABLE,(601) 849-3334
5171,280132000183,DESOTO CO VOC COMPLEX,847 RASCO ROAD,SOUTHAVEN,MS,38671,NOT AVAILABLE,(662) 393-6211
7711,280264000512,BOGUE CHITTO SCHOOL,385 WEST MONTICELLO STREET,BOGUE CHITTO,MS,39629,NOT AVAILABLE,(601) 734-2723
7919,280363000700,WEST SIDE ELEMENTARY SCHOOL,111 KIRKWOOD STREET,PICAYUNE,MS,39466,NOT AVAILABLE,(601) 798-3625
8071,280383000737,BRANDON MIDDLE SCHOOL,408 SOUTH COLLEGE ST.,BRANDON,MS,39042,NOT AVAILABLE,(601) 825-5998
40322,280383000743,RICHLAND HIGH SCHOOL,1202 HIGHWAY 49 SOUTH,RICHLAND,MS,39218,NOT AVAILABLE,(601) 939-5144
41345,280231000454,STENNIS VOC TECH COMPLEX,16 MARTIN LUTHER KING JR STREET,DEKALB,MS,39328,NOT AVAILABLE,(601) 743-5226
41643,280444000834,SALEM ATTENDANCE CENTER,881 HIGHWAY 27 NORTH,TYLERTOWN,MS,39667,NOT AVAILABLE,(601) 876-2580
42114,280453000846,BEAT FOUR ELEMENTARY SCHOOL,5090 HWY. 84,WAYNESBORO,MS,39367,9736,(601) 735-2124
42954,280408000369,SOUTH PIKE CAREER & TECHNICAL CENTE,252 WEST BAY STREET,MAGNOLIA,MS,39652,NOT AVAILABLE,(601) 783-0438
43873,280396000754,SOUTH DELTA VOCATIONAL COMPLEX,285 MAPLE STREET,ROLLING FORK,MS,39159,NOT AVAILABLE,(662) 873-2029
46202,280018701413,INDIANOLA ACADEMIC ACHIEVEMENT,300 JEFFERSON STREET,INDIANOLA,MS,38751,NOT AVAILABLE,(662) 884-1278
46654,280210000362,TREMONT ATTENDANCE CENTER,320 SCHOOL LOOP,TREMONT,MS,38876,NOT AVAILABLE,(662) 652-3391
91061,280219001242,MCWILLIE ELEMENTARY SCHOOL,4851 MCWILLIE CIRCLE,JACKSON,MS,39206,NOT AVAILABLE,(601) 987-3709
95666,280060000049,ASHLAND MIDDLE-HIGH SCHOOL,101 SCHOOL STREET,ASHLAND,MS,38603,NOT AVAILABLE,(662) 224-6247
56773,280063001235,LOPEZ SCHOOL,140 ST. JOHN STREET,BILOXI,MS,39531,NOT AVAILABLE,(228) 432-7783
86500,280122000169,WESSON ATTENDANCE CENTER,1048 GROVE STREET,WESSON,MS,39191,NOT AVAILABLE,(601) 643-2221
87167,280294001063,MONROE CO VOC TECH,50057 AIRPORT ROAD,ABERDEEN,MS,39730,NOT AVAILABLE,(662) 369-7845
89527,280383000738,FLORENCE MIDDLE SCHOOL,123 BEVERLY DRIVE,FLORENCE,MS,39073,NOT AVAILABLE,(601) 845-2862
100895,280383001075,FLORENCE HIGH SCHOOL,232 HIGHWAY 469 NORTH,FLORENCE,MS,39073,NOT AVAILABLE,(601) 845-2205
105474,280019601500,WINONA VOC COMPLEX,300 NORTH APPLEGATE STREET,WINONA,MS,38967,NOT AVAILABLE,(662) 283-3601
107175,280019501528,S V MARSHALL MIDDLE SCHOOL,12572 HIGHWAY 12,LEXINGTON,MS,39095,NOT AVAILABLE,(662) 235-5226
107176,280231001530,KEMPER COUNTY UPPER ELEMENTARY,364 JOHN C STENNIS AVENUE,DE KALB,MS,39328,NOT AVAILABLE,(601) 743-2432
10330,280225000432,J E JOHNSON ELEMENTARY,2429 MISSISSIPPI AVE.,PRENTISS,MS,39424,NOT AVAILABLE,(601) 792-4581
11096,280171000271,CENTRAL ELEM,1043 PASS ROAD,GULFPORT,MS,39501,NOT AVAILABLE,(228) 865-4642
11816,280306000612,NESHOBA CENTRAL HIGH SCHOOL,1123 GOLF COURSE ROAD,PHILADELPHIA,MS,39350,NOT AVAILABLE,(601) 656-3654
11893,280432001001,CARVER ELEMENTARY SCHOOL,910 NORTH GREEN STREET,TUPELO,MS,38804,NOT AVAILABLE,(662) 841-8870
11975,280042001100,AMITE COUNTY VOC COMPLEX,1501 IRENE ST,LIBERTY,MS,39645,NOT AVAILABLE,(601) 657-8081
13621,280399000942,SIMPSON COUNTY ACHIEVEMENT CENTER,177 SIMPSON HWY 149,MAGEE,MS,39111,NOT AVAILABLE,(601) 849-6135
15200,280149000219,RAWLS SPRINGS ATTENDANCE CENTER,10 ARCHIE SMITH ROAD,HATTIESBURG,MS,39402,NOT AVAILABLE,(601) 268-2217
17224,280060000929,BENTON CO REGIONAL VOCATIONAL CEN,25 INDUSTRIAL DRIVE,ASHLAND,MS,38603,NOT AVAILABLE,(662) 224-3108
18240,280204001041,HUMPHREYS COUNTY HIGH SCHOOL,700 COHN STREET,BELZONI,MS,39038,NOT AVAILABLE,(662) 247-6040
19628,280303000600,MC LAURIN ELEMENTARY SCHOOL,170 SEARGENT S PRENTISS DRIVE,NATCHEZ,MS,39120,NOT AVAILABLE,(601) 445-2953
19640,280159001032,GREENE COUNTY VOCATIONAL TECHNICAL,173 VO-TECH ROAD,LEAKESVILLE,MS,39451,NOT AVAILABLE,(601) 394-2973
30729,280240001314,OAK GROVE LOWER ELEMENTARY,1762 OLD HIGHWAY 24,HATTIESBURG,MS,39402,NOT AVAILABLE,(601) 268-3862
33861,280210000999,ITAWAMBA IMPROVEMENT CENTER,605 S. CUMMINGS ST.,FULTON,MS,38843,NOT AVAILABLE,(662) 862-2159
34092,280216001044,EAST CENTRAL UPPER ELEMENTARY,5404 HURLEY-WADE RD.,MOSS POINT,MS,39562,NOT AVAILABLE,(228) 283-3220
39436,280378001567,QUITMAN ALTERNATIVE SCHOOL,210 SOUTH JACKSON AVE,QUITMAN,MS,39355,NOT AVAILABLE,(601) 776-1047
70580,280084000092,BROOKHAVEN HIGH SCHOOL,443 E MONTICELLO STREET,BROOKHAVEN,MS,39601,NOT AVAILABLE,(601) 833-4498
77948,280063000053,BILOXI HIGH SCHOOL,1845 TRIBE DRIVE,BILOXI,MS,39532,NOT AVAILABLE,(228) 435-6105
78135,280186000326,UTICA ELEM. / MIDDLE SCHOOL,260 HWY 18 & 27,UTICA,MS,39175,NOT AVAILABLE,(601) 885-8765
91002,280144000977,ENTERPRISE MIDDLE SCHOOL,105 SHORT STREET,ENTERPRISE,MS,39330,NOT AVAILABLE,(601) 659-7722
92559,280240001253,OAK GROVE MIDDLE SCHOOL,2543 OLD HWY.24,HATTIESBURG,MS,39402,NOT AVAILABLE,(601) 264-4634
93299,280318001138,NEWTON MUNICIPAL CAREER CENTER,203 W. FIRST STREET,NEWTON,MS,39345,NOT AVAILABLE,(601) 683-6338
93518,280383001079,PISGAH HIGH SCHOOL,115 PISGAH HIGH ROAD,SANDHILL,MS,39161,NOT AVAILABLE,(601) 829-2825
98755,280186001036,GARY ROAD ELEMENTARY,7241 GARY ROAD,JACKSON,MS,39272,NOT AVAILABLE,(601) 373-1319
70869,280444001148,TYLERTOWN PRIMARY SCHOOL,813 BALL AVENUE,TYLERTOWN,MS,39667,NOT AVAILABLE,(601) 876-2149
74807,280219000382,DAWSON ELEMENTARY SCHOOL,4215 SUNSET DRIVE,JACKSON,MS,39213,NOT AVAILABLE,(601) 987-3513
77988,280120000159,FRANKLIN ACADEMY,501 N THIRD AVENUE,COLUMBUS,MS,39701,NOT AVAILABLE,(662) 241-7150
78426,280159001134,LEAKESVILLE JR HIGH SCHOOL,620 MAIN STREET,LEAKESVILLE,MS,39451,NOT AVAILABLE,(601) 394-2495
83132,280429000974,DUNDEE ELEMENTARY SCHOOL,12910 OLD HIGHWAY 61 SOUTH,DUNDEE,MS,38626,NOT AVAILABLE,(662) 363-1810
86483,280171000272,GULFPORT CENTRAL MIDDLE SCHOOL,1310 42ND AVENUE,GULFPORT,MS,39501,NOT AVAILABLE,(228) 870-1035
87883,280279000988,CAMDEN ELEMENTARY,4784 HWY 43 NORTH,CAMDEN,MS,39045,NOT AVAILABLE,(662) 468-2833
89945,280051000039,MCADAMS ATTENDANCE CENTER,6315 ATTALA ROAD 4167,MCADAMS,MS,39107,NOT AVAILABLE,(662) 289-3838
105467,280019501490,GRADUATES WITHIN REACH ACADEMY,32 SCHOOL STREET,TCHULA,MS,39169,NOT AVAILABLE,(662) 235-5637
105477,280019801512,AMANDA ELZY HIGH SCHOOL,604 ELZY AVENUE,GREENWOOD,MS,38930,NOT AVAILABLE,(662) 459-0834
105486,280019801521,THREADGILL ELEMENTARY SCHOOL,1001 BROAD STREET,GREENWOOD,MS,38930,NOT AVAILABLE,(662) 455-7440
15446,280411000777,RIPLEY ELEMENTARY SCHOOL,702 W TERRY STREET,RIPLEY,MS,38663,NOT AVAILABLE,(662) 837-7203
19089,280082000911,NORTHEAST MS REGIONAL ALTERNATIVE,103 MEDICAL DRIVE,BOONEVILLE,MS,38829,0247,(601) 728-7144
19300,280294000582,SMITHVILLE HIGH SCHOOL,60017 HWY 23,SMITHVILLE,MS,38870,NOT AVAILABLE,(662) 651-4276
37643,280240001171,OAK GROVE HIGH SCHOOL,5198 OLD HIGHWAY11,HATTIESBURG,MS,39402,NOT AVAILABLE,(601) 264-7232
38136,280204001039,O M MC NAIR MIDDLE SCHOOL,910 CHURCH STREET,BELZONI,MS,39038,NOT AVAILABLE,(662) 247-6060
39405,280399001087,MENDENHALL JUNIOR HIGH SCHOOL,733 DIXIE AVENUE,MENDENHALL,MS,39114,NOT AVAILABLE,(601) 847-2296
54293,280019101455,CHURCH HILL ELEMENTARY SCHOOL,2050 W CHURCH HILL ROAD,WEST POINT,MS,39773,NOT AVAILABLE,(662) 494-5900
56980,280402000925,COMMUNITY LEARNING CENTER,469 MAGNOLIA DRIVE,RALEIGH,MS,39153,NOT AVAILABLE,(601) 782-4796
59326,280405000766,SOUTH PANOLA HIGH SCHOOL,601 TIGER DRIVE,BATESVILLE,MS,38606,NOT AVAILABLE,(662) 563-4756
25130,280018701403,DREW HUNTER MIDDLE SCHOOL,10 SWOOPE ROAD,DREW,MS,38737,NOT AVAILABLE,(662) 745-8940
25685,280249000483,NEW HEBRON ATTENDANCE CENTER,120 GOLDEN BEAR LANE,NEW HEBRON,MS,39140,NOT AVAILABLE,(601) 694-2151
26428,280447000831,VICKSBURG JUNIOR HIGH SCHOOL,1533 BALDWIN FERRY ROAD,VICKSBURG,MS,39180,NOT AVAILABLE,(601) 636-1966
28591,280075000083,NAILOR ELEMENTARY SCHOOL,600 CROSS STREET,CLEVELAND,MS,38732,NOT AVAILABLE,(662) 843-4528
28829,280330000641,EARL NASH ELEMENTARY SCHOOL,41 GANDY TINDAL RD,MACON,MS,39341,NOT AVAILABLE,(662) 726-5203
29275,280348000679,TRENT LOTT ACADEMY,2234 PASCAGOULA,PASCAGOULA,MS,39567,NOT AVAILABLE,(228) 938-6462
61664,280018701398,RULEVILLE MIDDLE SCHOOL,250 EAST OSCAR ST,RULEVILLE,MS,38771,NOT AVAILABLE,(662) 756-4698
66077,280189001037,SIMMONS HIGH SCHOOL,501 WEST WASHINGTON STREET,HOLLANDALE,MS,38748,NOT AVAILABLE,(662) 827-2228
67316,280084000092,BROOKHAVEN HIGH SCHOOL,443 E MONTICELLO STREET,BROOKHAVEN,MS,39601,NOT AVAILABLE,(601) 833-4498
46571,280129000176,COLLINS ELEMENTARY,401 DOGWOOD ST.,COLLINS,MS,39428,NOT AVAILABLE,(601) 765-4383
48791,280159000234,SAND HILL ELEMENTARY SCHOOL,39455 HWY 63 NORTH,RICHTON,MS,39476,NOT AVAILABLE,(601) 989-2021
7502,280129000179,COVINGTON CO VOCATIONAL TECHNICAL,1200 S. DOGWOOD ST.,COLLINS,MS,39428,NOT AVAILABLE,(601) 765-8253
7787,280357001071,PERRY CENTRAL HIGH SCHOOL,9899 HWY 98 EAST,NEW AUGUSTA,MS,39462,NOT AVAILABLE,(601) 964-3235
8073,280405000763,BATESVILLE ELEMENTARY SCHOOL,110 COLLEGE ST.,BATESVILLE,MS,38606,NOT AVAILABLE,(662) 563-4596
12629,280402000762,TAYLORSVILLE ATTENDANCE CENTER,324 HESTER STREET,TAYLORSVILLE,MS,39168,NOT AVAILABLE,(601) 785-6942
13806,280132000193,OLIVE BRANCH HIGH SCHOOL,9366 E SANDIDGE ROAD,OLIVE BRANCH,MS,38654,NOT AVAILABLE,(662) 893-3344
14342,280138000205,WILLIAM J BERRY ELEMENTARY SCHOOL,4035 COUNTY ROAD 8,HEIDELBERG,MS,39439,NOT AVAILABLE,(601) 787-2607
14999,280111000145,SHERARD ELEMENTARY SCHOOL,3105 BOBO-SHERARD ROAD,CLARKSDALE,MS,38614,NOT AVAILABLE,(662) 624-4629
15509,280468000976,RIVERSIDE HIGH SCHOOL,939 RIVERSIDE ROAD,AVON,MS,38723,NOT AVAILABLE,(662) 335-4527
17170,280039001152,BIGGERSVILLE HIGH SCHOOL,571 HIGHWAY 45 S,CORINTH,MS,38834,NOT AVAILABLE,(662) 286-3542
19154,280348001141,COLLEGE & CAREER TECHNICAL INST.,2602 MARKET STREET,PASCAGOULA,MS,39567,NOT AVAILABLE,(228) 938-6579
848,280183001464,HAZLEHURST ELEMENTARY SCHOOL,112 MARVIN MINOR DRIVE,HAZLEHURST,MS,39083,NOT AVAILABLE,(601) 574-2783
4951,280471000878,MARTIN L KING CAREER TECHNOLOGY,1106 HIGHWAY 24 EAST,WOODVILLE,MS,39669,1193,(601) 888-4394
5307,280099000114,WEIR ELEMENTARY SCHOOL,351 MARION KELLY DRIVE,WEIR,MS,39772,NOT AVAILABLE,(662) 547-7079
7371,280345001312,DELLA DAVIDSON ELEMENTARY,209 COMMONWEALTH BLVD.,OXFORD,MS,38655,NOT AVAILABLE,(662) 236-4870
41322,280093000104,J Z GEORGE HIGH SCHOOL,900 GEORGE STREET,NORTH CARROLLTON,MS,38947,NOT AVAILABLE,(662) 237-4701
30070,280345000664,OXFORD MIDDLE SCHOOL,222 BRAMLETT BLVD,OXFORD,MS,38655,NOT AVAILABLE,(662) 234-2288
36186,280426001225,IUKA ELEMENTARY SCHOOL,1500 WHITEHOUSE RD,IUKA,MS,38852,NOT AVAILABLE,(662) 423-9290
36642,280279001267,ROSA SCOTT SCHOOL,929 POORE'S PASS,MADISON,MS,39110,NOT AVAILABLE,(601) 605-0054
90962,280383001333,HIGHLAND BLUFF ELEMENTARY,5970 HWY 25,BRANDON,MS,39047,NOT AVAILABLE,(601) 992-5168
94894,280411000776,PINE GROVE HIGH SCHOOL,3510A CR 600,RIPLEY,MS,38663,NOT AVAILABLE,(662) 837-7789
74686,280090001396,JIMMIE M. GOODLOE ELEMENTARY SCHOOL,551 FINNEY ROAD,CANTON,MS,39046,NOT AVAILABLE,(601) 407-1810
60268,280216000364,EAST CENTRAL MIDDLE SCHOOL,21725 SLIDER RD,MOSS POINT,MS,39562,NOT AVAILABLE,(228) 588-7009
60619,280417000789,STONE ELEMENTARY SCHOOL,1652 EAST CENTRAL AVE,WIGGINS,MS,39577,NOT AVAILABLE,(601) 928-5473
63264,280216000364,EAST CENTRAL MIDDLE SCHOOL,21725 SLIDER RD,MOSS POINT,MS,39562,NOT AVAILABLE,(228) 283-3170
64120,280353000007,PETAL UPPER ELEMENTARY SCHOOL,400 HILLCREST LOOP,PETAL,MS,39465,NOT AVAILABLE,(601) 584-7660
64285,280240001254,PURVIS MIDDLE SCHOOL,213 SCHOOL STREET,PURVIS,MS,39475,NOT AVAILABLE,(601) 794-1068
69791,280318001179,N H PILATE MIDDLE SCHOOL,531 E. CHURCH STREET,NEWTON,MS,39345,NOT AVAILABLE,(601) 683-3926
80082,280219000946,CAPITAL CITY ALTERNATIVE SCHOOL,2221 BOLING STREET,JACKSON,MS,39213,NOT AVAILABLE,(601) 987-3608
81166,280354001070,PEARL RIVER CENTRAL HIGH SCHOOL,7407 HIGHWAY 11,CARRIERE,MS,39426,NOT AVAILABLE,(601) 798-1986
81252,280171000508,THE LEARNING CENTER,1215 CHURCH STREET,GULFPORT,MS,39507,NOT AVAILABLE,(228) 897-6045
88171,280279001006,EAST FLORA ELEMENTARY,4759 HWY 22 EAST,FLORA,MS,39071,NOT AVAILABLE,(601) 879-8724
56838,590005300056,STANDING PINE ELEMENTARY SCHOOL,538 HIGHWAY 487 EAST,CARTHAGE,MS,39051,NOT AVAILABLE,(601) 267-9225
59324,280267000520,LONG BEACH SENIOR HIGH SCHOOL,300 EAST OLD PASSROAD,LONG BEACH,MS,39560,NOT AVAILABLE,(228) 863-6945
100101,280109000136,NORTHSIDE ELEM,451 ARROW DRIVE,CLINTON,MS,39056,NOT AVAILABLE,(601) 924-7531
101804,280084000095,MAMIE MARTIN ELEMENTARY SCHOOL,420 VIVIAN MERRITT STREET,BROOKHAVEN,MS,39601,NOT AVAILABLE,(601) 833-0007
105501,280339001482,OKOLONA MIDDLE SCHOOL,404 HOWARD GUNN STREET,OKOLONA,MS,38860,NOT AVAILABLE,(662) 447-2362
12475,280246000472,LAUREL MAGNET SCHOOL OF THE ARTS,1125 NORTH 5TH AVENUE,LAUREL,MS,39440,NOT AVAILABLE,(601) 428-7782
16330,280219000372,BLACKBURN MIDDLE SCHOOL,1311 W PEARL STREET,JACKSON,MS,39203,NOT AVAILABLE,(601) 960-5329
18077,280118901194,MS SCHOOL FOR THE BLIND,1252 EASTOVER DRIVE,JACKSON,MS,39211,NOT AVAILABLE,(601) 984-8200
83903,280144000211,ENTERPRISE HIGH SCHOOL,501 RIVER ROAD,ENTERPRISE,MS,39330,NOT AVAILABLE,(601) 659-4435
85847,280357001209,PERRY CO VOC COMPLEX,9899 A HWY 98 EAST,NEW AUGUSTA,MS,39462,NOT AVAILABLE,(601) 964-8282
85942,280219000391,ISABLE ELEMENTARY SCHOOL,1716 ISABLE STREET,JACKSON,MS,39204,NOT AVAILABLE,(601) 960-5310
87354,280240001239,OAK GROVE PRIMARY,70 LEAF LANE,HATTIESBURG,MS,39402,NOT AVAILABLE,(601) 264-9764
89811,280132000188,OAK GROVE CENTRAL ELEMENTARY,893 OAK GROVE ROAD,HERNANDO,MS,38632,NOT AVAILABLE,(662) 429-4180
743,280216000366,ST MARTIN N ELEMENTARY SCHOOL,11000 YELLOWJACKET STREET,BILOXI,MS,39532,NOT AVAILABLE,(228) 392-1387
867,280339000653,OKOLONA ELEMENTARY SCHOOL,411 WEST MAIN STREET,OKOLONA,MS,38860,NOT AVAILABLE,(662) 447-5406
5652,280216001046,ST MARTIN HIGH SCHOOL,11300 YELLOW JACKET BLVD.,OCEAN SPRINGS,MS,39564,NOT AVAILABLE,(228) 875-8418
6152,280119101197,WILLIAMS SCHOOL,2375 OAKLEY ROAD,RAYMOND,MS,39154,NOT AVAILABLE,(601) 857-7640
7762,280447000841,REDWOOD ELEMENTARY SCHOOL,100 REDWOOD ROAD,REDWOOD,MS,39156,NOT AVAILABLE,(601) 636-4885
7842,280279000541,VELMA JACKSON HIGH SCHOOL,2000 LORING ROAD,CAMDEN,MS,39045,NOT AVAILABLE,(662) 468-2531
9538,280468000875,O'BANNON ELEMENTARY SCHOOL,1203 S. RACEWAY ROAD,GREENVILLE,MS,38704,NOT AVAILABLE,(662) 332-4830
42664,280156000840,GEORGE COUNTY MIDDLE SCHOOL,330 CHURCH STREET,LUCEDALE,MS,39452,NOT AVAILABLE,(601) 947-3106
43361,280240000464,BAXTERVILLE SCHOOL,5531 HIGHWAY 11,LUMBERTON,MS,39455,NOT AVAILABLE,(601) 796-4483
46898,280219000399,MARSHALL ELEMENTARY SCHOOL,2909 OAK FOREST DRIVE,JACKSON,MS,39212,NOT AVAILABLE,(601) 371-4342
49523,280129000177,COLLINS HIGH SCHOOL,1208 S. DOGWOOD,COLLINS,MS,39428,NOT AVAILABLE,(601) 765-3203
91065,280369000705,PONTOTOC ELEMENTARY SCHOOL,145 FRED DOWDY STREET,PONTOTOC,MS,38863,NOT AVAILABLE,(662) 489-4973
93016,280363000698,ROSELAND PARK ELEMENTARY SCHOOL,1610 GILCREASE STREET,PICAYUNE,MS,39466,NOT AVAILABLE,(601) 798-6824
94558,280174001232,HANCOCK MIDDLE SCHOOL,7070 STENNIS AIRPORT DRIVE,KILN,MS,39556,NOT AVAILABLE,(228) 467-1889
99722,280153000224,FRANKLIN HIGH SCHOOL,340 EDISON STREET S,MEADVILLE,MS,39653,NOT AVAILABLE,(601) 384-2965
105459,280018501527,MCEVANS SCHOOL,601 HWY 61 NORTH,SHAW,MS,38773,NOT AVAILABLE,(662) 754-6109
105493,280231001489,KEMPER COUNTY MIDDLE SCHOOL,200 MARTIN LUTHER KING JR STREET,DEKALB,MS,39328,NOT AVAILABLE,(601) 743-5292
51969,280465000729,NORTH DELTA ALTERNATIVE SCHOOL,300 JENNING STREET,SUMNER,MS,38957,NOT AVAILABLE,(662) 375-8392
57331,280075001476,D.M. SMITH ELEMENTARY,715 MARTIN LUTHER KING DR,CLEVELAND,MS,38732,NOT AVAILABLE,(662) 843-4355
59885,280369001355,PONTOTOC MIDDLE SCHOOL,135 EDUCATION DRIVE,PONTOTOC,MS,38863,NOT AVAILABLE,(662) 489-6056
34273,280255000495,PLANTERSVILLE MIDDLE SCHOOL,2657 MAIN ST.,PLANTERSVILLE,MS,38862,NOT AVAILABLE,(662) 842-4690
38770,280459000858,BAY SPRINGS ELEM SCH,510 HWY 18,BAY SPRINGS,MS,39422,0927,(601) 425-8520
25150,280060000050,HICKORY FLAT ATTENDANCE CENTER,26 REBEL DR.,HICKORY FLAT,MS,38633,NOT AVAILABLE,(662) 333-7731
25686,280279001219,MADISON AVENUE LOWER ELEMENTARY,1199 MADISON AVENUE,MADISON,MS,39110,NOT AVAILABLE,(601) 856-2951
26469,280468000975,O'BANNON HIGH SCHOOL,1203 S. RACEWAY ROAD,GREENVILLE,MS,38701,NOT AVAILABLE,(662) 335-2637
29948,280447000995,SHERMAN AVE ELEMENTARY,2145 SHERMAN AVE.,VICKSBURG,MS,39183,NOT AVAILABLE,(601) 638-2409
70606,280105000126,JEROME W. STAMPLEY 9TH GRADE ACADEM,301 WASHINGTON AVENUE,CLARKSDALE,MS,38614,NOT AVAILABLE,(662) 627-8570
75807,280156000231,ROCKY CREEK ELEMENTARY SCHOOL,2183 ROCKY CREEK ROAD,LUCEDALE,MS,39452,NOT AVAILABLE,(601) 947-3886
61613,280352000003,PEARL HIGH SCHOOL,500 PIRATES COVE,PEARL,MS,39208,NOT AVAILABLE,(601) 932-7931
67026,280315001258,EAST CENTRAL ALTERNATIVE SCHOOL,273 TENTH AVENUE,DECATUR,MS,39327,NOT AVAILABLE,(601) 635-2118
68730,280132000190,HORN LAKE HIGH,3360 CHURCH ROAD,HORN LAKE,MS,38637,NOT AVAILABLE,(662) 393-5273
35304,280465000872,R H BEARDEN ELEMENTARY SCHOOL,1090 FRIENDSHIP RD.,SUMNER,MS,38957,NOT AVAILABLE,(662) 375-8304
37037,280177000296,PINEVILLE ELEMENTARY SCHOOL,5192 MENGE AVENUE,PASS CHRISTIAN,MS,39571,NOT AVAILABLE,(228) 452-4364
37071,280348000677,LAKE ELEMENTARY SCHOOL,4503 WILLOW STREET,PASCAGOULA,MS,39567,NOT AVAILABLE,(228) 938-6422
820,280216000366,ST MARTIN N ELEMENTARY SCHOOL,11000 YELLOWJACKET STREET,BILOXI,MS,39532,NOT AVAILABLE,(228) 283-3636
850,280273001434,LOWNDES COUNTY ALTERNATIVE SCHOOL,3419 NEW HOPE ROAD,COLUMBUS,MS,39702,NOT AVAILABLE,(662) 244-5060
2117,280246000916,LAUREL EDUCATION CENTER,795 SOUTH 19TH AVENUE,LAUREL,MS,39440,NOT AVAILABLE,(601) 649-5195
6320,280075000077,CLEVELAND VOC TECH COMPLEX,601 THIRD STREET,CLEVELAND,MS,38732,NOT AVAILABLE,(662) 843-8818
20660,280171000277,PASS ROAD ELEMENTARY SCHOOL,37 PASS ROAD,GULFPORT,MS,39507,NOT AVAILABLE,(228) 865-4659
22225,280309000614,NETTLETON PRIMARY SCHOOL,4386 HWY 6 NORTH,NETTLETON,MS,38858,NOT AVAILABLE,(662) 963-2360
25175,280249000480,ROD PAIGE MIDDLE SCHOOL,1570 BROAD ST. WEST,MONTICELLO,MS,39654,NOT AVAILABLE,(601) 587-2128
25818,280363000696,PMHS CAREER & TECHNOLOGY CENTER,600 GOODYEAR BLVD.,PICAYUNE,MS,39466,NOT AVAILABLE,(601) 798-7601
28847,280082001025,ANDERSON ELEMENTARY SCHOOL,111 ANDERSON STREET,BOONEVILLE,MS,38829,NOT AVAILABLE,(662) 728-5465
11863,280279001007,MADISON AVENUE UPPER ELEMENTARY,1209 MADISON AVENUE,MADISON,MS,39110,NOT AVAILABLE,(601) 856-6609
75083,280111000895,JONESTOWN ELEMENTARY SCHOOL,330 MATAGORDA ROAD,JONESTOWN,MS,38639,NOT AVAILABLE,(662) 358-4496
76543,280132000932,OLIVE BRANCH INTERMEDIATE SCHOOL,8631 E. PIGEON ROOST RD,OLIVE BRANCH,MS,38654,NOT AVAILABLE,(662) 893-1221
79585,280351000683,PASS CHRISTIAN ELEM,270 WEST SECOND STREET,PASS CHRISTIAN,MS,39571,NOT AVAILABLE,(228) 452-5200
40040,280177000290,HARRISON CO VOC COMPLEX,15600 SCHOOL ROAD,GULFPORT,MS,39503,NOT AVAILABLE,(228) 832-6652
40514,280219000386,GALLOWAY ELEMENTARY SCHOOL,186 IDLEWILD STREET,JACKSON,MS,39203,NOT AVAILABLE,(601) 960-5313
44575,280210000362,TREMONT ATTENDANCE CENTER,320 SCHOOL LOOP,TREMONT,MS,38876,NOT AVAILABLE,(662) 652-3391
83340,280426001226,IUKA MIDDLE SCHOOL,507 WEST QUITMAN,IUKA,MS,38852,NOT AVAILABLE,(662) 423-3316
84954,280345000662,CENTRAL ELEMENTARY,409 WASHINGTON AVENUE,OXFORD,MS,38655,NOT AVAILABLE,(662) 234-3497
52086,280162000243,GREENVILLE TECHNICAL CENTER,350 SOUTH RACEWAY ROAD,GREENVILLE,MS,38703,4620,(662) 334-7171
52133,280372000710,POPLARVILLE UPPER ELEMENTARY SCH,1 TODD CIRCLE,POPLARVILLE,MS,39470,NOT AVAILABLE,(601) 795-8303
52673,280171000269,BAYOU VIEW ELEMENTARY SCHOOL,4898 WASHINGTON AVENUE,GULFPORT,MS,39507,NOT AVAILABLE,(228) 865-4625
54266,280110000137,COAHOMA EARLY COLLEGE HIGH SCHOOL,3240 FRIARS POINT ROAD,CLARKSDALE,MS,38614,NOT AVAILABLE,(662) 621-4129
54288,280019001448,MIDTOWN PUBLIC CHARTER SCHOOL,301 ADELE ST,JACKSON,MS,39202,NOT AVAILABLE,(601) 354-7770
99312,280237001280,LAFAYETTE UPPER ELEMENTARY SCHOOL,120 COMMODORE DRIVE,OXFORD,MS,38655,NOT AVAILABLE,(662) 236-3761
69748,280363000694,NICHOLSON ELEMENTARY SCHOOL,1887 HWY 11 SOUTH,PICAYUNE,MS,39466,NOT AVAILABLE,(601) 798-6309
105476,280019801511,BANKSTON ELEMENTARY SCHOOL,1312 GRAND BOULEVARD,GREENWOOD,MS,38930,NOT AVAILABLE,(662) 455-7421
105484,280019801519,LEFLORE COUNTY ELEMENTARY SCHOOL,401 LAKESIDE DRIVE,ITTA BENA,MS,38941,NOT AVAILABLE,(662) 581-3038
43230,280126001368,CORINTH ELEMENTARY SCHOOL,1910 DROKE ROAD,CORINTH,MS,38834,NOT AVAILABLE,(662) 286-5245
46398,280402000761,SMITH COUNTY CAREER CENTER,469 MAGNOLIA DRIVE,RALEIGH,MS,39153,NOT AVAILABLE,(601) 782-4211
49371,280240001172,PURVIS HIGH SCHOOL,220 SCHOOL STREET,PURVIS,MS,39475,NOT AVAILABLE,(601) 794-6221
33856,280366000703,SOUTH PONTOTOC HIGH SCHOOL,1523 SOUTH PONTOTOC RD,PONTOTOC,MS,38863,NOT AVAILABLE,(662) 489-5925
34343,280383000736,BRANDON ELEMENTARY SCHOOL,125 OVERBY STREET,BRANDON,MS,39042,NOT AVAILABLE,(601) 825-4706
36723,280149000220,SOUTH FORREST ATTENDANCE CENTER,8 BURBORNE STREET,BROOKLYN,MS,39425,NOT AVAILABLE,(601) 545-7714
52391,280383000955,NORTHWEST RANKIN MIDDLE SCHOOL,ONE PAW PRINT PLACE,FLOWOOD,MS,39232,6675,(601) 992-1329
53211,280222000209,JEFFERSON COUNTY UPPER ELEMENTARY,442 HWY 33,FAYETTE,MS,39069,NOT AVAILABLE,(601) 786-3900
57654,280273001480,LOWNDES CO VOC COMPLEX,1085 LEHMBERG ROAD,COLUMBUS,MS,39702,NOT AVAILABLE,(662) 244-5038
57768,590011100050,CONEHATTA ELEMENTARY SCHOOL,851 TUSHKA DRIVE,CONEHATTA,MS,39057,NOT AVAILABLE,(601) 775-8254
20615,280018501419,SHAW HIGH SCHOOL,601 HWY 61 NORTH,SHAW,MS,38773,NOT AVAILABLE,(662) 588-7398
22673,280195001248,HOLLY SPRINGS JUNIOR HIGH SCHOOL,325 EAST FALCONER,HOLLY SPRINGS,MS,38635,NOT AVAILABLE,(662) 252-7737
25846,590007800048,CHOCTAW CENTRAL MIDDLE SCHOOL,150 RECREATION RD,CHOCTAW,MS,39350,NOT AVAILABLE,(601) 663-7777
26413,280282000546,MARION CO VOC COMPLEX,1140 HIGHWAY 13 SOUTH,COLUMBIA,MS,39429,NOT AVAILABLE,(601) 736-6095
29296,280240001314,OAK GROVE LOWER ELEMENTARY,1762 OLD HIGHWAY 24,HATTIESBURG,MS,39402,NOT AVAILABLE,(601) 268-3862
81831,280039000020,KOSSUTH HIGH SCHOOL,15 CR 604,CORINTH,MS,38834,NOT AVAILABLE,(662) 286-3653
86405,280105000121,HEIDELBERG SCHOOL MATH & SCIENCE,801 MAPLE AVE.,CLARKSDALE,MS,38614,NOT AVAILABLE,(662) 627-8577
60647,280453000850,WAYNE COUNTY HIGH SCHOOL,1325 AZALEA DRIVE,WAYNESBORO,MS,39367,2297,(601) 735-2851
66130,280285000548,BYHALIA HIGH SCHOOL (9-12),278 HIGHWAY 309 NORTH,BYHALIA,MS,38611,NOT AVAILABLE,(662) 838-2206
66157,280381000734,QUITMAN COUNTY MIDDLE SCHOOL,450 HUMPHREY STREET,MARKS,MS,38646,NOT AVAILABLE,(662) 326-6871
67833,280348000678,PASCAGOULA HIGH SCHOOL,1716 TUCKER STREET,PASCAGOULA,MS,39567,NOT AVAILABLE,(228) 938-6443
90212,280090000101,CANTON PUBLIC HIGH SCHOOL,634 FINNEY ROAD,CANTON,MS,39046,NOT AVAILABLE,(601) 859-5325
91544,280423001091,SENATOBIA TATE CO REGIONAL VOC CTR,165 WEST CENTRAL AVENUE,COLDWATER,MS,38618,NOT AVAILABLE,(662) 622-5142
91905,280444000835,TYLERTOWN ELEMENTARY SCHOOL,705 BROAD STREET,TYLERTOWN,MS,39667,NOT AVAILABLE,(601) 876-3561
92280,280279001006,EAST FLORA ELEMENTARY,4759 HWY 22 EAST,FLORA,MS,39071,NOT AVAILABLE,(601) 879-8724
95189,280219000388,GREEN ELEMENTARY SCHOOL,610 FOREST AVENUE,JACKSON,MS,39206,NOT AVAILABLE,(601) 987-3519
95304,280291000560,CRESTWOOD ELEMENTARY SCHOOL,730 CRESTWOOD DR.,MERIDIAN,MS,39301,NOT AVAILABLE,(601) 482-0395
95561,280018701428,RULEVILLE CENTRAL ELEM SCHOOL,410 L F PACKER DRIVE,RULEVILLE,MS,38771,NOT AVAILABLE,(662) 756-4276
98922,280177000284,DIBERVILLE ELEM,4540 BRODIE ROAD,DIBERVILLE,MS,39540,NOT AVAILABLE,(228) 392-2803
70676,280210000356,DORSEY ATTENDANCE CENTER,1 DORSEY SCHOOL ROAD,FULTON,MS,38843,NOT AVAILABLE,(662) 862-3663
71282,280132001262,PLEASANT HILL ELEMENTARY,7686 PLEASANT HILL ROAD,OLIVE BRANCH,MS,38654,NOT AVAILABLE,(662) 890-9654
74638,280279001081,ANN SMITH ELEMENTARY,306 S.PEAR ORCHARD ROAD,RIDGELAND,MS,39157,NOT AVAILABLE,(601) 856-6621
74731,280330000644,NOXUBEE CO VOC TECH,13002 HWY 45,MACON,MS,39341,NOT AVAILABLE,(662) 726-4225
75208,280438001342,UNION ELEMENTARY SCHOOL,101 FOREST ST,UNION,MS,39365,NOT AVAILABLE,(601) 774-8257
105502,280423001499,COLDWATER ELEMENTARY SCHOOL,671 WEST STREET,COLDWATER,MS,38618,NOT AVAILABLE,(662) 622-5511
819,280255001325,SHANNON MIDDLE SCHOOL,232 CHERRY STREET,SHANNON,MS,38868,NOT AVAILABLE,(662) 767-3986
4765,280177001469,NORTH GULFPORT MIDDLE SCHOOL,4715 ILLINOIS AVENUE,GULFPORT,MS,39501,NOT AVAILABLE,(228) 864-8944
8069,280219000409,PROVINE HIGH SCHOOL,2400 ROBINSON ROAD,JACKSON,MS,39209,NOT AVAILABLE,(601) 960-5393
9440,280132001190,CHICKASAW ELEMENTARY SCHOOL,6391 CHICKASAW,OLIVE BRANCH,MS,38654,NOT AVAILABLE,(662) 895-6664
14702,280405000764,BATESVILLE JUNIOR HIGH SCHOOL,507 TIGER DRIVE,BATESVILLE,MS,38606,NOT AVAILABLE,(662) 563-4503
15619,280109001029,SUMNER HILL JR HI SCHOOL,400 W. NORTHSIDE DRIVE,CLINTON,MS,39056,NOT AVAILABLE,(601) 924-5510
18470,280383001277,STEEN'S CREEK ELEMENTARY,300 HIGHWAY 469 NORTH,FLORENCE,MS,39073,NOT AVAILABLE,(601) 845-5724
831,280018801442,REIMAGINE PREP,309 W MCDOWELL RD,JACKSON,MS,39204,NOT AVAILABLE,(601) 941-0844
845,280019101447,WEST CLAY ELEMENTARY SCHOOL,450 JOE STEVENS ROAD,CEDAR BLUFF,MS,39741,NOT AVAILABLE,(662) 494-2350
846,280019101449,SOUTH SIDE ELEMENTARY SCHOOL,237 LOUIS ODNEAL ROAD,WEST POINT,MS,39773,NOT AVAILABLE,(662) 495-6216
904,280447000401,CENTER FOR ALTERNATIVE PROGRAMS,2406 GROVE STREET,VICKSBURG,MS,39183,NOT AVAILABLE,(601) 638-5122
9811,280480000890,YAZOO COUNTY HIGH SCHOOL,191 PANTHER DRIVE,YAZOO CITY,MS,39194,NOT AVAILABLE,(662) 746-1492
60335,280039001566,KOSSUTH MIDDLE SCHOOL,17 CR 604,CORINTH,MS,38834,NOT AVAILABLE,(662) 286-7093
62840,280432001002,LAWNDALE ELEMENTARY SCHOOL,1563 MITCHELL ROAD,TUPELO,MS,38801,NOT AVAILABLE,(662) 841-8890
66405,280432001256,PARKWAY ELEMENTARY SCHOOL,628 RUTHERFORD ROAD,TUPELO,MS,38801,NOT AVAILABLE,(662) 844-6303
69641,280219000381,CLAUSELL ELEMENTARY SCHOOL,3330 HARLEY STREET,JACKSON,MS,39209,NOT AVAILABLE,(601) 960-5319
15881,280348000675,GAUTIER MIDDLE SCHOOL,1920 GRAVELINE ROAD,GAUTIER,MS,39553,NOT AVAILABLE,(228) 522-8806
41043,280408000369,SOUTH PIKE CAREER & TECHNICAL CENTE,252 WEST BAY STREET,MAGNOLIA,MS,39652,NOT AVAILABLE,(601) 783-0438
42184,280396000752,SOUTH DELTA ELEMENTARY SCHOOL,138 WEATHERS AVENUE,ROLLING FORK,MS,39159,NOT AVAILABLE,(662) 873-4849
46412,280018701427,INDIANOLA CAREER & TECH CENTER,801 B.B. KING ROAD,INDIANOLA,MS,38751,NOT AVAILABLE,(662) 884-6000
34255,280159000232,GREENE COUNTY HIGH SCHOOL,4336 HIGH SCHOOL ROAD,LEAKESVILLE,MS,39451,NOT AVAILABLE,(601) 394-5290
34492,280255001264,LEE CO. SCHOOLS IMPROVEMENT CENTER,4677 ENDVILLE RD,BELDEN,MS,38826,NOT AVAILABLE,(662) 842-2050
36184,280249001117,LAWRENCE CO TECH & CAREER CENTER,686 SMITH LANE,MONTICELLO,MS,39654,NOT AVAILABLE,(601) 587-9346
37051,280174001153,HANCOCK HIGH SCHOOL,7084 STENNIS AIRPORT DRIVE,KILN,MS,39556,NOT AVAILABLE,(228) 467-2251
37320,280348000680,SINGING RIVER ACADEMY,4601 VANCLEAVE ROAD,GAUTIER,MS,39553,NOT AVAILABLE,(228) 522-8835
53472,280480001581,YAZOO COUNTY MIDDLE SCHOOL,116 PANTHER DRIVE,YAZOO CITY,MS,39194,NOT AVAILABLE,(662) 746-1596
54066,280132001358,CENTER HILL MIDDLE,8756 FOREST HILL IRENE,OLIVE BRANCH,MS,38654,NOT AVAILABLE,(662) 892-6800
55851,280087001106,VARDAMAN ELEMENTARY SCHOOL,114 W.B. GREGG DR.,VARDAMAN,MS,38878,NOT AVAILABLE,(662) 682-7799
59771,280168000264,GRENADA MIDDLE SCHOOL,28 JONES ROAD,GRENADA,MS,38901,NOT AVAILABLE,(662) 226-5135
94241,280126000171,CORINTH HIGH SCHOOL,1310 HARPER ROAD,CORINTH,MS,38834,NOT AVAILABLE,(662) 286-1000
94565,280177000291,LIZANA ELEMENTARY SCHOOL,15341 LIZANA SCHOOL ROAD,GULFPORT,MS,39503,NOT AVAILABLE,(228) 832-1592
22744,280219001155,NORTHWEST MIDDLE SCHOOL,7020 HIGHWAY 49 N,JACKSON,MS,39213,NOT AVAILABLE,(601) 987-3609
23097,280387000744,RICHTON HIGH SCHOOL,701 ELM AVENUE,RICHTON,MS,39476,NOT AVAILABLE,(601) 788-9608
25615,280018701421,ROBERT L MERRITT JUNIOR HIGH SCHOOL,705 KINLOCK ROAD,INDIANOLA,MS,38751,NOT AVAILABLE,(662) 884-1270
28821,280162001361,T.L. WESTON MIDDLE SCHOOL,901 ARCHER,GREENVILLE,MS,38701,NOT AVAILABLE,(662) 334-7081
28828,280219000420,PECAN PARK ELEMENTARY SCHOOL,415 CLAIBORNE AVENUE,JACKSON,MS,39209,3199,(601) 960-5444
29542,280477001098,YAZOO CITY VOC COMPLEX,1825 MARTIN LUTHER KING DRIVE,YAZOO CITY,MS,39194,NOT AVAILABLE,(662) 746-7642
80599,280477001260,MCCOY ELEMENTARY SCHOOL,1835 SCHOOL DR,YAZOO CITY,MS,39194,NOT AVAILABLE,(662) 746-5800
81165,280087000099,VARDAMAN HIGH SCHOOL,106 W.B. GREGG,VARDAMAN,MS,38878,NOT AVAILABLE,(662) 682-7574
83191,280291001132,ROSS COLLINS VOC CENTER,2640 24TH AVE,MERIDIAN,MS,39305,NOT AVAILABLE,(601) 483-3331
85860,280468000876,RIVERSIDE ELEMENTARY SCHOOL,939 RIVERSIDE ROAD,AVON,MS,38723,NOT AVAILABLE,(662) 335-4528
88701,280321001339,NORTH PANOLA MIDDLE SCHOOL,526 COMPRESS ROAD,COMO,MS,38619,NOT AVAILABLE,(662) 526-5938
70681,280132000198,WALLS ELEMENTARY SCHOOL,6131 DELTA VIEW ROAD,WALLS,MS,38680,NOT AVAILABLE,(662) 781-1280
72757,280195000336,HOLLY SPRINGS INTERMEDIATE SCHOOL,655 SOUTH MAURY,HOLLY SPRINGS,MS,38635,NOT AVAILABLE,(662) 252-2329
73287,280111000139,COAHOMA COUNTY JR/SR HIGH SCHOOL,1535 LEE DRIVE,CLARKSDALE,MS,38614,NOT AVAILABLE,(662) 627-7378
77819,280396000383,SOUTH DELTA MIDDLE SCHOOL,86 MIDDLE SCHOOL STREET,ANGUILLA,MS,38721,NOT AVAILABLE,(662) 873-6535
79586,280312001259,NEW ALBANY ELEMENTARY SCHOOL,874 SAM T. BARKLEY DR.,NEW ALBANY,MS,38652,NOT AVAILABLE,(662) 534-1840
105465,280019501486,S V MARSHALL ELEMENTARY SCHOOL,12572 HIGHWAY 12,LEXINGTON,MS,39169,NOT AVAILABLE,(662) 235-5226
105503,280423001508,COLDWATER HIGH SCHOOL,671 WEST STREET,COLDWATER,MS,38618,NOT AVAILABLE,(662) 622-5511
34245,280162000239,BOYD ELEMENTARY SCHOOL,1021 SOUTH COLORADO,GREENVILLE,MS,38703,NOT AVAILABLE,(662) 334-7166
34652,280102000116,PORT GIBSON HIGH SCHOOL,159 OLD HIGHWAY 18 #1,PORT GIBSON,MS,39150,NOT AVAILABLE,(601) 437-4190
35920,280180000302,GRACE CHRISTIAN ELEMENTARY SCHOOL,2207 W 7TH STREET,HATTIESBURG,MS,39401,NOT AVAILABLE,(601) 583-0662
38457,280267000518,THOMAS L REEVES ELEMENTARY SCHOOL,214 ST. AUGUSTINE DRIVE,LONG BEACH,MS,39560,NOT AVAILABLE,(228) 864-9764
11090,280270001156,FAIR ELEMENTARY SCHOOL,177 N COLUMBUS AVENUE,LOUISVILLE,MS,39339,NOT AVAILABLE,(662) 773-5946
16328,280201000346,HOUSTON UPPER ELEMENTARY,452 PITTSBORO STREET,HOUSTON,MS,38851,NOT AVAILABLE,(662) 456-2797
17661,280177000295,ORANGE GROVE ELEMENTARY,11391 OLD HIGHWAY 49,GULFPORT,MS,39503,NOT AVAILABLE,(228) 832-2322
18569,280219001385,BAILEY MIDDLE APAC SCHOOL,1900 N STATE STREET,JACKSON,MS,39202,NOT AVAILABLE,(601) 960-5343
18827,280144000210,ENTERPRISE ELEMENTARY,103 SHORT STREET,ENTERPRISE,MS,39330,NOT AVAILABLE,(601) 659-7613
61307,280303001414,NATCHEZ EARLY COLLEGE@CO-LIN,319 SEARGENT PRINTISS DR.,NATCHEZ,MS,39120,NOT AVAILABLE,(601) 445-2865
62276,280383001074,BRANDON HIGH SCHOOL,3090 HIGHWAY 18,BRANDON,MS,39042,NOT AVAILABLE,(601) 825-2261
99483,280132001018,CENTER HILL ELEMENTARY SCHOOL,13662 CENTER HILL ROAD,OLIVE BRANCH,MS,38654,NOT AVAILABLE,(662) 890-7705
56570,280447000844,WARRENTON ELEMENTARY SCHOOL,809 BELVA DRIVE,VICKSBURG,MS,39180,NOT AVAILABLE,(601) 636-7549
58668,280252000487,LEAKE CENTRAL HIGH SCHOOL,704 N JORDAN STREET,CARTHAGE,MS,39051,NOT AVAILABLE,(601) 267-7713
59046,280279001082,MADISON MIDDLE SCHOOL,1365 MANNSDALE ROAD,MADISON,MS,39110,NOT AVAILABLE,(601) 605-4171
59821,280219001364,BATES ELEMENTARY SCHOOL,3180 MCDOWELL ROAD EXT,JACKSON,MS,39212,NOT AVAILABLE,(601) 346-1412
81089,280270000524,EILAND MIDDLE SCHOOL,83 CAMILE STREET,LOUISVILLE,MS,39339,NOT AVAILABLE,(662) 773-9001
88952,280270000526,NANIH WAIYA ATTENDANCE CENTER,4880 HWY. 397,LOUISVILLE,MS,39339,NOT AVAILABLE,(662) 773-6770
71035,280267000517,HARPER MC CAUGHAN ELEM SCHOOL,19200 PINEVILLE RD,LONG BEACH,MS,39560,NOT AVAILABLE,(228) 863-0478
77433,280159001031,LEAKESVILLE ELEMENTARY SCHOOL,175 ANNEX ROAD,LEAKESVILLE,MS,39451,NOT AVAILABLE,(601) 394-2493
77883,280219000411,ROWAN MIDDLE SCHOOL,136 E ASH STREET,JACKSON,MS,39202,NOT AVAILABLE,(601) 982-5221
852,280279001439,MANNSDALE UPPER ELEMENTARY,371 MANNSDALE ROAD,MADISON,MS,39110,NOT AVAILABLE,(601) 879-3433
2396,280183000316,HAZLEHURST MIDDLE SCHOOL,112 MARVIN MINOR DRIVE,HAZLEHURST,MS,39083,NOT AVAILABLE,(601) 894-3463
4251,280132001357,LAKE CORMORANT HIGH,10201 STAR LANDING RD.,LAKE CORMORANT,MS,38641,NOT AVAILABLE,(662) 996-3060
7852,280234000459,KOSCIUSKO MIDDLE,233 SOUTH WELLS,KOSCIUSKO,MS,39090,NOT AVAILABLE,(662) 289-4653
8158,280219000396,LANIER HIGH SCHOOL,833 W MAPLE STREET,JACKSON,MS,39203,NOT AVAILABLE,(601) 960-5369
47701,280447000826,BOWMAR AVENUE SCHOOL,912 BOWMAR AVENUE,VICKSBURG,MS,39180,NOT AVAILABLE,(601) 636-2486
105491,280019901531,LEFLORE LEGACY ACADEMY,500 W. WASHINGTON STREET,GREENWOOD,MS,38930,NOT AVAILABLE,(662) 455-3697
81033,280129000182,SEMINARY HIGH SCHOOL,200 MAIN STREET,SEMINARY,MS,39479,NOT AVAILABLE,(601) 722-3220
85908,280168000263,GRENADA VOC COMPLEX,2035 JACKSON AVENUE,GRENADA,MS,38901,NOT AVAILABLE,(662) 226-5969
87353,280353001068,PETAL HIGH SCHOOL,1145 HIGHWAY 42 E,PETAL,MS,39465,NOT AVAILABLE,(601) 583-3538
88621,280369000704,D T COX ELEMENTARY SCHOOL,304 CLARK STREET,PONTOTOC,MS,38863,NOT AVAILABLE,(662) 489-2454
90461,280477000886,WEBSTER STREET ELEMENTARY SCHOOL,622 E.4TH ST.,YAZOO CITY,MS,39194,NOT AVAILABLE,(662) 746-4093
96517,280045000029,AMORY HIGH SCHOOL,1006 SAM HASKELL CIRCLE,AMORY,MS,38821,NOT AVAILABLE,(662) 256-5753
100676,280429001014,ROBINSONVILLE ELEMENTARY SCHOOL,7743 OLD HWY 61 N,ROBINSONVILLE,MS,38664,NOT AVAILABLE,(662) 357-1077
54290,280019101443,EAST SIDE ELEMENTARY SCHOOL,1039 E BROAD STREET,WEST POINT,MS,39773,NOT AVAILABLE,(662) 494-4691
54292,280019101445,FIFTH STREET SCHOOL,418 FIFTH STREET,WEST POINT,MS,39773,NOT AVAILABLE,(662) 494-2191
836,280018901438,HENDERSON/WARD-STEWART ELEMENTARY,200-C DR. MARTIN LUTHER KING DR.,STARKVILLE,MS,39759,NOT AVAILABLE,(662) 324-4160
839,280018901459,THE LEARNING CENTER ALTERNATIVE,2926 SISTEENTH SECTION ROAD,STARKVILLE,MS,39759,NOT AVAILABLE,(662) 323-1462
6056,280063001478,BILOXI UPPER ELEMENTARY,1424 FATHER RYAN AVENUE,BILOXI,MS,39530,NOT AVAILABLE,(228) 432-3700
6786,280177000289,HARRISON CO CHILD DEVELOPMENT CEN,94 29TH ST,GULFPORT,MS,39507,NOT AVAILABLE,(228) 863-0583
9142,280447001016,HINDS COMMUNITY VICKSBURG CENTER,1624 HIGHWAY 27 S,VICKSBURG,MS,39180,NOT AVAILABLE,(601) 638-0600
30094,280234000456,KOSCIUSKO ALTERNATIVE SCHOOL,229 WEST WASHINGTON ST.,KOSCIUSKO,MS,39090,NOT AVAILABLE,(662) 289-1188
61283,280222000950,JEFFERSON COUNTY ALTERNATIVE SCHOOL,468 HWY 33,FAYETTE,MS,39069,NOT AVAILABLE,(601) 786-3900
61801,280177000913,THREE RIVERS ELEMENTARY,13500 THREE RIVERS ROAD,GULFPORT,MS,39503,NOT AVAILABLE,(228) 831-5359
62182,280383001077,NORTHWEST ELEMENTARY SCHOOL,500 VINE DR.,FLOWOOD,MS,39232,6976,(601) 992-0924
66940,280279000304,MADISON STATION ELEMENTARY SCHOOL,459 REUNION PARKWAY,MADISON,MS,39110,NOT AVAILABLE,(601) 856-6246
66968,280075000075,BELL ELEMENTARY SCHOOL,1016 TAYLOR STREET,BOYLE,MS,38730,NOT AVAILABLE,(662) 843-4572
68184,280270000525,WINSTON LOUISVILLE VOC CENTER,366 IVY AVENUE,LOUISVILLE,MS,39339,NOT AVAILABLE,(662) 773-6152
22975,280177000283,BEL AIRE ELEMENTARY SCHOOL,10531 KLEIN ROAD,GULFPORT,MS,39503,NOT AVAILABLE,(228) 832-7436
24715,280282001243,EAST MARION ELEMENTARY SCHOOL,527 EAST MARION SCHOOL ROAD,COLUMBIA,MS,39429,NOT AVAILABLE,(601) 736-7290
27022,280132000192,OLIVE BRANCH ELEM,9549 E PIGEON ROOST ROAD,OLIVE BRANCH,MS,38654,NOT AVAILABLE,(662) 895-2256
10974,280132000998,DESOTO CENTRAL ELEMENTARY SCHOOL,2411 CENTRAL PARKWAY,SOUTHAVEN,MS,38672,NOT AVAILABLE,(662) 349-6234
11503,280246000477,OAK PARK ELEMENTARY SCHOOL,1205 OAK PARK AVENUE,LAUREL,MS,39440,NOT AVAILABLE,(601) 428-5046
12885,280285001379,ALTERNATIVE LEARNING SCHOOL,122 S. SPRING ST.,HOLLY SPRINGS,MS,38659,NOT AVAILABLE,(662) 252-4271
15346,280132001369,DESOTO CENTRAL PRIMARY,3210 GETWELL ROAD,SOUTHAVEN,MS,38672,NOT AVAILABLE,(662) 912-1300
17135,280315001222,NEWTON COUNTY ELEMENTARY SCHOOL,15881 HIGHWAY 15,DECATUR,MS,39327,NOT AVAILABLE,(601) 635-2956
18462,280383001223,RICHLAND UPPER ELEMENTARY,175 WILSON DRIVE,RICHLAND,MS,39218,NOT AVAILABLE,(601) 939-2288
70689,280312000944,NEW ALBANY/S.TIPPAH/UNION CO. ALT,915 DENMILL ROAD,NEW ALBANY,MS,38652,NOT AVAILABLE,(662) 538-4100
73157,280279000938,OLDE TOWNE MIDDLE,210 SUNNYBROOK ROAD,RIDGELAND,MS,39157,NOT AVAILABLE,(601) 898-8730
76470,280117000149,COLUMBIA HIGH SCHOOL,1009 BROAD STREET,COLUMBIA,MS,39429,3135,(601) 736-5335
76480,280291000569,NORTHWEST JUNIOR HIGH SCHOOL,4400 32ND STREET,MERIDIAN,MS,39307,NOT AVAILABLE,(601) 484-4099
49311,280273000531,WEST LOWNDES HIGH SCHOOL,644 SOUTH FRONTAGE ROAD,COLUMBUS,MS,39701,NOT AVAILABLE,(662) 244-5070
12740,280432000816,PIERCE STREET ELEMENTARY SCHOOL,1008 PIERCE STREET,TUPELO,MS,38801,NOT AVAILABLE,(662) 841-8940
12776,280225000431,JEFF DAVIS CO VOC TECH CENTER,5080 HWY 42,CARSON,MS,39427,NOT AVAILABLE,(601) 792-5005
742,280255001325,SHANNON MIDDLE SCHOOL,232 CHERRY STREET,SHANNON,MS,38868,NOT AVAILABLE,(662) 767-3986
870,280324001436,NORTH PIKE CAREER & TECHNICAL CENTE,1034 JAGUAR TRAIL,SUMMIT,MS,39666,NOT AVAILABLE,(601) 276-3594
2902,280285000551,POTTS CAMP HIGH SCHOOL (4-12),7050 CHURCH AVENUE,POTTS CAMP,MS,38659,NOT AVAILABLE,(662) 333-6354
5897,280075001475,CLEVELAND CENTRAL MIDDLE SCHOOL,601 LUCY SEABERY DR,CLEVELAND,MS,38732,NOT AVAILABLE,(662) 843-2338
7863,280450000845,WATER VALLEY HIGH SCHOOL,550 MARKETTE STREET,WATER VALLEY,MS,38965,NOT AVAILABLE,(662) 473-2468
8433,280270000522,LOUISVILLE ELEMENTARY SCHOOL,172 N COLUMBUS AVENUE,LOUISVILLE,MS,39339,NOT AVAILABLE,(662) 773-3258
9403,280204000348,HUMPHREYS CO VOC CENTER,401 FOURTH STREET,BELZONI,MS,39038,NOT AVAILABLE,(662) 247-6030
94623,280357000687,SOUTH PERRY ELEMENTARY SCHOOL,1300 BEAUMONT,BEAUMONT,MS,39423,NOT AVAILABLE,(601) 784-3393
99339,280411000776,PINE GROVE HIGH SCHOOL,3510A CR 600,RIPLEY,MS,38663,NOT AVAILABLE,(662) 837-7789
81190,280132001319,LAKE CORMORANT ELEMENTARY,3285 WILSON MILL RD WEST,LAKE CORMORANT,MS,38641,NOT AVAILABLE,(662) 781-1135
84316,280426000804,BURNSVILLE ELEMENTARY,23 WASHINGTON ST.,BURNSVILLE,MS,38833,NOT AVAILABLE,(662) 427-9226
85859,280141000206,CHARLESTON ELEMENTARY SCHOOL,412 E. CHESTNUT ST.,CHARLESTON,MS,38921,NOT AVAILABLE,(662) 647-2679
87511,280309001159,NETTLETON JUNIOR HIGH SCHOOL,179 MULLEN AVE,NETTLETON,MS,38858,NOT AVAILABLE,(662) 963-7400
50861,280435000823,MYRTLE ATTENDANCE CENTER,1008 HAWK AVENUE,MYRTLE,MS,38650,NOT AVAILABLE,(662) 988-2416
58965,280063000063,POPPS FERRY ELEMENTARY SCHOOL,364 NELSON ROAD,BILOXI,MS,39531,NOT AVAILABLE,(228) 436-5135
32427,280177000292,LYMAN ELEMENTARY SCHOOL,14222 OLD HIGHWAY 49,GULFPORT,MS,39503,NOT AVAILABLE,(228) 832-2257
33809,280231000455,WEST KEMPER ELEMENTARY SCHOOL,364 JOHN C STENNIS AVE,DEKALB,MS,39328,NOT AVAILABLE,(601) 743-2432
36110,280417000788,PERKINSTON ELEMENTARY SCHOOL,40 SECOND STREET,PERKINSTON,MS,39573,NOT AVAILABLE,(601) 928-3380
36886,280240000969,SUMRALL ELEMENTARY SCHOOL,198 TODD RD.,SUMRALL,MS,39482,NOT AVAILABLE,(601) 758-4289
38556,280109000131,CLINTON HIGH SCHOOL,401 ARROW DRIVE,CLINTON,MS,39056,NOT AVAILABLE,(601) 924-5656
38994,280381000732,QUITMAN COUNTY ELEMENTARY SCHOOL,HWY 3 SOUTH,LAMBERT,MS,38643,NOT AVAILABLE,(662) 326-7186
39190,280177001347,WEST HARRISON HIGH SCHOOL,10399 COUNTY FARM ROAD,GULFPORT,MS,39503,NOT AVAILABLE,(228) 539-8900
60920,280453000848,CLARA ELEMENTARY SCHOOL,40 CLARA SCHOOL RD,WAYNESBORO,MS,39367,NOT AVAILABLE,(601) 735-2065
63913,280435000821,EAST UNION ATTENDANCE CENTER,1548 ST HWY 9 SOUTH,BLUE SPRINGS,MS,38828,NOT AVAILABLE,(662) 534-6920
67159,280270000527,NOXAPATER ATTENDANCE CENTER,249 WEST ALICE STREET,NOXAPATER,MS,39346,NOT AVAILABLE,(662) 724-4241
68632,280348001161,EXCEPTIONAL SCHOOL,4311 HOSPITAL ROAD,PASCAGOULA,MS,39581,NOT AVAILABLE,(228) 762-1457
20060,280018501432,WEST BOLIVAR DISTRICT MIDDLE SCHOOL,1213 SOUTH MAIN STREET,ROSEDALE,MS,38769,NOT AVAILABLE,(662) 759-3700
21482,280303000606,JOSEPH L FRAZIER ELEMENTARY,1445 GEORGE F. WEST BOULEVARD,NATCHEZ,MS,39120,NOT AVAILABLE,(601) 445-2885
22264,280219000390,JIM HILL HIGH SCHOOL,2185 COACH FRED HARRIS STREET,JACKSON,MS,39204,NOT AVAILABLE,(601) 960-5354
23228,280162000237,ARMSTRONG ELEMENTARY SCHOOL,528 REDBUD STREET,GREENVILLE,MS,38701,NOT AVAILABLE,(662) 334-7121
27113,280186000902,TERRY HIGH SCHOOL,235 W BEASLEY STREET,TERRY,MS,39170,NOT AVAILABLE,(601) 878-5905
27633,280132001343,LEWISBURG MIDDLE,1711 CRAFT RD,OLIVE BRANCH,MS,38654,NOT AVAILABLE,(662) 892-5050
40298,280348000676,JACKSON ELEMENTARY SCHOOL,3203 LANIER STREET,PASCAGOULA,MS,39581,NOT AVAILABLE,(228) 938-6554
41308,280243001241,WEST LAUDERDALE ELEMENTARY SCHOOL,10350 HIGHWAY 495,MERIDIAN,MS,39305,NOT AVAILABLE,(601) 737-2279
43403,280186000983,GARY ROAD INTERMEDIATE SCHOOL,7255 GARY ROAD,JACKSON,MS,39272,NOT AVAILABLE,(601) 372-8150
44499,280132000140,HERNANDO MIDDLE SCHOOL,700 DILWORTH LANE,HERNANDO,MS,38632,NOT AVAILABLE,(662) 429-4154
44521,280261000509,EDNA M SCOTT ELEMENTARY SCHOOL,404 E THIRD STREET,LELAND,MS,38756,NOT AVAILABLE,(662) 686-5013
49718,280210000358,ITAWAMBA ATTENDANCE CENTER,488 LITTLE INDIAN ROAD,FULTON,MS,38843,NOT AVAILABLE,(662) 862-4641
101711,280321000631,NORTH PANOLA VOC COMP,601 RAILROAD STREET,COMO,MS,38619,NOT AVAILABLE,(662) 526-5804
105469,280019501495,DURANT ELEMENTARY SCHOOL,65 WEST MADISON STREET,DURANT,MS,39063,NOT AVAILABLE,(662) 653-3176
107174,280019501505,HOLMES CO CAREER TECHNICAL CENTER,77 KICKERNICK STREET,LEXINGTON,MS,39095,NOT AVAILABLE,(662) 834-3052
2349,280219000400,MC LEOD ELEMENTARY SCHOOL,1616 SANDLEWOOD PLACE,JACKSON,MS,39211,NOT AVAILABLE,(601) 987-3597
3969,280219000421,WHITTEN MIDDLE SCHOOL,210 DANIEL LAKE BOULEVARD,JACKSON,MS,39212,NOT AVAILABLE,(601) 371-4309
5747,280390000749,SEBASTOPOL ATTENDANCE CENTER,17194 HWY 21 NORTH,SEBASTOPOL,MS,39359,NOT AVAILABLE,(601) 625-8654
9162,280383000924,MCLAURIN ELEMENTARY SCHOOL,2693 STAR ROAD,FLORENCE,MS,39073,NOT AVAILABLE,(601) 845-2127
70616,280156000229,LC HATCHER ELEMENTARY SCHOOL,689 CHURCH ST,LUCEDALE,MS,39452,NOT AVAILABLE,(601) 947-3110
70896,280243000470,SOUTHEAST LAUDERDALE HIGH SCHOOL,2362 LONGCREEK RAOD,MERIDIAN,MS,39301,NOT AVAILABLE,(601) 483-5501
73516,280390001184,MORTON HIGH SCHOOL,238 EAST FOURTH AVENUE,MORTON,MS,39117,NOT AVAILABLE,(601) 732-6210
75996,280450001095,DAVIDSON ELEMENTARY SCHOOL,207 GOODE STREET,WATER VALLEY,MS,38965,NOT AVAILABLE,(662) 473-1110
76114,280039000016,ALCORN CO VOC COMPLEX,2101 NORMAN ROAD,CORINTH,MS,38834,NOT AVAILABLE,(662) 286-7727
77198,280222000425,FAYETTE VOC CENTER,205 INDUSTRIAL PARK DR.,FAYETTE,MS,39069,NOT AVAILABLE,(601) 786-3642
77933,280423000800,INDEPENDENCE HIGH SCHOOL,3184 HIGHWAY 305,COLDWATER,MS,38618,NOT AVAILABLE,(662) 233-4691
78718,280219000377,CALLAWAY HIGH SCHOOL,601 BEASLEY RD,JACKSON,MS,39206,NOT AVAILABLE,(601) 987-3535
83645,280447000842,WARREN CENTRAL HIGH SCHOOL,1000 HIGHWAY 27,VICKSBURG,MS,39180,NOT AVAILABLE,(601) 631-3372
85531,280147000212,FOREST ELEMENTARY SCHOOL,513 CLEVELAND STREET,FOREST,MS,39074,NOT AVAILABLE,(601) 469-3073
85678,280132001373,LEWISBURG PRIMARY,1707 CRAFT ROAD,OLIVE BRANCH,MS,38654,NOT AVAILABLE,(662) 893-6001
86020,280252000238,LEAKE CO CAREER & TECHNICAL CENTER,703 NORTHWEST STREET,CARTHAGE,MS,39051,NOT AVAILABLE,(601) 267-8442
30693,280372000709,POPLARVILLE LOWER ELEMENTARY SCHOOL,804 SOUTH JULIA STREET SUITE A,POPLARVILLE,MS,39470,NOT AVAILABLE,(601) 795-4736
32846,280243001344,WEST LAUDERDALE HIGH SCHOOL,9916 WEST LAUDERDALE ROAD,COLLINSVILLE,MS,39325,NOT AVAILABLE,(601) 737-2277
35139,280228000436,JONES CO CAREER & TECH ED CENTER,2409 MOOSE DRIVE,LAUREL,MS,39440,NOT AVAILABLE,(601) 425-2378
36446,280315000940,NEWTON COUNTY VOC COMPLEX,15935 HIGHWAY 15 NORTH,DECATUR,MS,39327,NOT AVAILABLE,(601) 635-4138
38669,280353001067,PETAL PRIMARY SCHOOL,60 HERRINGTON ROAD,PETAL,MS,39465,NOT AVAILABLE,(601) 554-7244
62151,280177000958,NORTH WOOLMARKET ELEMENTARY AND MID,16237 OLD WOOLMARKET ROAD,BILOXI,MS,39532,NOT AVAILABLE,(228) 396-3674
64992,280354001069,PEARL RIVER CENTRAL JUNIOR HIGH,7391 HWY 11,CARRIERE,MS,39426,NOT AVAILABLE,(601) 798-5654
105463,280019301502,JOEL E SMILOW COLLEGIATE,787 E. NORTHSIDE DRIVE,JACKSON,MS,39206,NOT AVAILABLE,(769) 524-5330
105481,280019801516,GREENWOOD HIGH SCHOOL,1209 GARRARD AVENUE,GREENWOOD,MS,38930,NOT AVAILABLE,(662) 455-7450
105490,280019801525,GREENWOOD ALTERNATIVE SCHOOL,410 MAIN STREET,GREENWOOD,MS,38930,NOT AVAILABLE,(662) 455-8989
23137,280219000410,RAINES ELEMENTARY SCHOOL,156 FLAG CHAPEL ROAD,JACKSON,MS,39209,NOT AVAILABLE,(601) 923-2544
23867,280216001049,VANCLEAVE MIDDLE SCHOOL,4725 BULLDOG LANE,VANCLEAVE,MS,39565,NOT AVAILABLE,(228) 283-3800
23993,280426000805,TISHOMINGO ELEMENTARY,34 A MONROE ST,TISHOMINGO,MS,38873,NOT AVAILABLE,(662) 438-6800
25177,280477001261,ALTERNATIVE LEARNING CENTER,215 EAST 5TH STREET,YAZOO CITY,MS,39194,NOT AVAILABLE,(662) 746-0985
25962,280177000286,DIBERVILLE MIDDLE SCHOOL,3320 WARRIOR DRIVE,DIBERVILLE,MS,39540,NOT AVAILABLE,(228) 392-1746
27299,280156000981,BENNDALE ELEMENTARY SCHOOL,5204 HWY 26 WEST,LUCEDALE,MS,39452,NOT AVAILABLE,(601) 766-6341
90193,280219000395,LAKE ELEMENTARY SCHOOL,472 MT VERNON AVENUE,JACKSON,MS,39209,NOT AVAILABLE,(601) 960-5308
93135,280093000105,MARSHALL ELEMENTARY SCHOOL,802 MARSHALL ROAD,NORTH CARROLLTON,MS,38947,NOT AVAILABLE,(662) 237-6840
98318,280210000361,MANTACHIE ATTENDANCE CENTER,1 MUSTANGE DRIVE,MANTACHIE,MS,38855,NOT AVAILABLE,(662) 282-4276
42142,280303000608,NATCHEZ HIGH SCHOOL,319 SEARGENT PRENTISS DRIVE,NATCHEZ,MS,39120,NOT AVAILABLE,(601) 442-2385
45189,280312000620,SCHOOL OF CAREER AND TECHNICAL ED,203 HIGHWAY 15 NORTH,NEW ALBANY,MS,38652,NOT AVAILABLE,(662) 534-1810
45304,280399001086,MENDENHALL HIGH SCHOOL,207 CIRCLE DRIVE,MENDENHALL,MS,39114,NOT AVAILABLE,(601) 847-2411
54903,280075001477,CLEVELAND CENTRAL HIGH SCHOOL,300 W. SUNFLOWER ST,CLEVELAND,MS,38732,NOT AVAILABLE,(662) 843-2460
56494,280405000766,SOUTH PANOLA HIGH SCHOOL,601 TIGER DRIVE,BATESVILLE,MS,38606,NOT AVAILABLE,(662) 563-4756
14933,280383000740,PELAHATCHIE ATTENDANCE CENTER,213 BROOKS STREET,PELAHATCHIE,MS,39145,NOT AVAILABLE,(601) 854-8135
14960,280018601404,BROOKS ELEM SCHOOL,615 SCHOOL STREET,DUNCAN,MS,38740,NOT AVAILABLE,(662) 337-6523
19404,280399001088,SIMPSON CO TECHNICAL CENTER,3415 SIMPSON HWY 49,MENDENHALL,MS,39114,NOT AVAILABLE,(601) 847-4000
40126,280438001327,UNION MIDDLE SCHOOL,115 JAMES ST,UNION,MS,39365,NOT AVAILABLE,(601) 774-5303
40248,280336001066,KEYS VOC CENTER,6701 OLD SPANISH TRAIL,OCEAN SPRINGS,MS,39564,NOT AVAILABLE,(228) 872-3411
46116,280383001424,PUCKETT ELEMENTARY SCHOOL,6382 HWY 18,PUCKETT,MS,39151,NOT AVAILABLE,(601) 825-6140
49524,280219000416,TIMBERLAWN ELEMENTARY SCHOOL,1980 N SIWELL ROAD,JACKSON,MS,39209,NOT AVAILABLE,(601) 923-2556
55298,280149000221,EARL TRAVILLION ATTENDANCE CENTER,316 TRAVILLION DRIVE,HATTIESBURG,MS,39401,NOT AVAILABLE,(601) 584-9303
57918,280279001283,GERMANTOWN MIDDLE SCHOOL,439 CALHOUN STATION PARKWAY,MADISON,MS,39110,NOT AVAILABLE,(601) 859-0376
58449,280390000745,FOREST SCOTT CO VOC TECH CENTER,521 CLEVELAND STREET,FOREST,MS,39074,NOT AVAILABLE,(601) 469-2913
30010,280246001345,LAUREL MIDDLE SCHOOL,1600 GRANDVIEW DRIVE,LAUREL,MS,39440,NOT AVAILABLE,(601) 428-5312
32508,280119201198,ELLISVILLE STATE SCHOOL,1101 HIGHWAY 11 SOUTH,ELLISVILLE,MS,39437,4444,(601) 477-5801
34887,280249000482,LAWRENCE COUNTY HIGH SCHOOL,713 THOMAS E. JOLLY DR.,MONTICELLO,MS,39654,NOT AVAILABLE,(601) 587-4910
834,280018901458,MILLSAPS CAREER & TECH CENTER,803 LOUISVILLE ROAD,STARKVILLE,MS,39759,NOT AVAILABLE,(662) 324-4170
841,280019101441,WEST POINT HIGH SCHOOL,90 S. ESHMAN AVENUE,WEST POINT,MS,39773,NOT AVAILABLE,(662) 494-5083
854,280288001463,TAC ALTERNATIVE SCHOOL,906 LOUISIANA AVENUE,MCCOMB,MS,39648,NOT AVAILABLE,(601) 249-4765
4067,280429001147,DAVID WILLIAMS JR CAREER &TECH CNT,2400 US HIGHWAY 61 N.,TUNICA,MS,38676,1920,(662) 363-2051
21943,280291000572,POPLAR SPRINGS ELEMENTARY SCHOOL,4101 27TH AVENUE,MERIDIAN,MS,39305,NOT AVAILABLE,(601) 484-4455
21976,280237000463,LAFAYETTE HIGH SCHOOL,160 COMMODORE DR.,OXFORD,MS,38655,NOT AVAILABLE,(662) 234-3614
22963,280324000634,NORTH PIKE ELEMENTARY SCHOOL,1052 JAGUAR TRAIL,SUMMIT,MS,39666,NOT AVAILABLE,(601) 276-2646
24848,280456000855,EAST WEBSTER ELEMENTARY SCHOOL,230 SOUTH STREET,MATHISTON,MS,39752,NOT AVAILABLE,(662) 263-8373
26017,280186000324,HINDS CO CAREER/TECHNICAL CENTER,14020 HWY 18,RAYMOND,MS,39154,NOT AVAILABLE,(601) 857-3678
26919,280402001146,RALEIGH ELEMENTARY SCHOOL,201 WHITE OAK AVENUE,RALEIGH,MS,39153,NOT AVAILABLE,(601) 782-9507
26937,280141000973,E TALLAHATCHIE VOC CENTER,310 N. COSSAR STREET,CHARLESTON,MS,38921,NOT AVAILABLE,(662) 647-5524
11495,280303000453,CENTRAL SCHOOL,208 LYNDA LEE DRIVE,NATCHEZ,MS,39120,NOT AVAILABLE,(601) 445-2941
14275,280119601210,C B NOBLIN SCHOOL,100 HUDSPETH CENTER DRIVE,WHITFIELD,MS,39193,1032,(601) 664-6310
18741,280132000189,HORN LAKE ELEM,6341 RIDGEWOOD RD.,HORN LAKE,MS,38637,NOT AVAILABLE,(662) 393-4608
92161,280255000497,SHANNON HIGH SCHOOL,218 CHERRY ST.,SHANNON,MS,38868,NOT AVAILABLE,(662) 767-9566
94891,280018501409,MCEVANS SCHOOL,601 HWY 61 NORTH,SHAW,MS,38773,0560,(662) 588-7532
95182,280105000123,OAKHURST INTERMEDIATE ACADEMY,120 WEST SECOND STREET,CLARKSDALE,MS,38614,NOT AVAILABLE,(662) 627-8560
97914,280383001079,PISGAH HIGH SCHOOL,115 TORI BOWIE LANE,BRANDON,MS,39047,NOT AVAILABLE,(601) 829-2825
98564,280300001133,MOSS POINT CAREER & TECHNICAL EDUCA,4913 WEEMS STREET,MOSS POINT,MS,39563,0727,(228) 474-1455
99213,280375000716,HILLS CHAPEL SCHOOL,8 CR 2371,BOONEVILLE,MS,38829,7990,(662) 728-5181
99781,280360000691,PHILADELPHIA ELEMENTARY SCHOOL,406 STRIBLING STREET,PHILADELPHIA,MS,39350,NOT AVAILABLE,(601) 656-1623
70374,280234000460,KOSCIUSKO SENIOR HIGH SCHOOL,415 VETERANS MEMORIAL DRIVE,KOSCIUSKO,MS,39090,NOT AVAILABLE,(662) 289-2424
73937,280122000167,CRYSTAL SPRINGS MIDDLE SCHOOL,2092 SOUTH PAT HARRISON,CRYSTAL SPRINGS,MS,39059,NOT AVAILABLE,(601) 892-2722
76452,280219000946,CAPITAL CITY ALTERNATIVE SCHOOL,2221 BOLING STREET,JACKSON,MS,39213,NOT AVAILABLE,(601) 987-3608
77304,280126000006,CORINTH MIDDLE SCHOOL,1000 EAST FIFTH STREET,CORINTH,MS,38834,NOT AVAILABLE,(662) 286-1261
78587,280219000373,BOYD ELEMENTARY SCHOOL,4531 BROADMEADOW DRIVE,JACKSON,MS,39206,NOT AVAILABLE,(601) 987-3504
78640,280234000458,KOSCIUSKO LOWER ELEM,109 VETERANS MEMORIAL DRIVE,KOSCIUSKO,MS,39090,NOT AVAILABLE,(662) 289-3364
60043,280090001285,REUBEN B. MYERS CANTON SCHOOL OF AR,357 OLD YAZOO ROAD,CANTON,MS,39046,NOT AVAILABLE,(601) 855-7819
62275,280149000216,DIXIE ATTENDANCE CENTER,790 ELKS LAKE ROAD,HATTIESBURG,MS,39401,NOT AVAILABLE,(601) 582-4890
65261,280039000018,ALCORN CENTRAL HIGH SCHOOL,8 CR 254,GLEN,MS,38846,NOT AVAILABLE,(662) 286-8720
66393,280288000557,BUSINESS & TECHNOLOGY COMPLEX,1003 VIRGINIA AVENUE,MCCOMB,MS,39648,NOT AVAILABLE,(601) 684-5288
69291,280261000510,LELAND CAREER & TECHNICAL CENTER,404 SOUTH DEER CREEK DRIVE,LELAND,MS,38756,NOT AVAILABLE,(662) 686-5025
80856,280240000968,PURVIS LOWER ELEMENTARY,5976 U.S. HWY. 11,PURVIS,MS,39475,NOT AVAILABLE,(601) 794-3302
83952,280219000402,MORRISON ACADEMIC ADVANCEMENT CTR,1224 EMINENCE ROW,JACKSON,MS,39213,NOT AVAILABLE,(601) 987-3695
86413,280477000886,WEBSTER STREET ELEMENTARY SCHOOL,622 E.4TH ST.,YAZOO CITY,MS,39194,NOT AVAILABLE,(662) 746-4093
88273,280366001009,NORTH PONTOTOC MIDDLE SCHOOL,8324 HWY 15 NORTH,ECRU,MS,38841,NOT AVAILABLE,(662) 489-5612
101668,280132000945,HORN LAKE INTERMEDIATE SCHOOL,6585 HORN LAKE ROAD,HORN LAKE,MS,38637,NOT AVAILABLE,(662) 280-7075
101680,280303000602,MORGANTOWN MIDDLE,101 COTTAGE HOME DRIVE,NATCHEZ,MS,39120,NOT AVAILABLE,(601) 445-2917
105489,280019801524,LEFLORE COUNTY ALTERNATIVE SCHOOL,401 LAKESIDE DRIVE,ITTA BENA,MS,38941,NOT AVAILABLE,(662) 254-9689
105495,280240001484,LUMBERTON HIGH SCHOOL,7920 US HIGHWAY 11,LUMBERTON,MS,39455,NOT AVAILABLE,(601) 796-2451
20273,280255000498,VERONA ELEMENTARY SCHOOL,212 COLLEGE AVE.,VERONA,MS,38879,NOT AVAILABLE,(662) 566-7266
20558,280045000028,EAST AMORY SCHOOL,305 EASTHAVEN DRIVE,AMORY,MS,38821,NOT AVAILABLE,(662) 256-7191
23748,280336000934,OCEAN SPRINGS MIDDLE SCHOOL,3600 HANSHAW ROAD,OCEAN SPRINGS,MS,39564,NOT AVAILABLE,(228) 872-6210
110,280357000941,PERRY COUNTY ALTERNATIVE CENTER,9899 HWY 98 EAST,NEW AUGUSTA,MS,39462,NOT AVAILABLE,(601) 964-3235
4763,280018901468,OVERSTREET ELEMENTARY,307 SOUTH JACKSON STREET,STARKVILLE,MS,39759,NOT AVAILABLE,(662) 324-4193
8302,280279001257,RIDGELAND HIGH SCHOOL,586 SUNNYBROOK ROAD,RIDGELAND,MS,39157,NOT AVAILABLE,(601) 898-5023
10411,280177000298,WOOLMARKET ELEMENTARY SCHOOL,12513 JOHN LEE ROAD,BILOXI,MS,39532,NOT AVAILABLE,(228) 392-5640
11399,280378000724,QUITMAN UPPER ELEMENTARY SCHOOL,300 EAST FRANKLIN STREET,QUITMAN,MS,39355,NOT AVAILABLE,(601) 776-6123
12534,280399000756,MENDENHALL ELEMENTARY SCHOOL,814 EAST STREET,MENDENHALL,MS,39114,NOT AVAILABLE,(601) 847-2621
16122,280147000213,FOREST HIGH SCHOOL,511 CLEVELAND STREET,FOREST,MS,39074,NOT AVAILABLE,(601) 469-3255
101681,280234000457,KOSCIUSKO JUNIOR HIGH SCHOOL,317 EAST JEFFERSON STREET,KOSCIUSKO,MS,39090,NOT AVAILABLE,(662) 289-3737
57034,280201001479,HOUSTON ALTERNATIVE SCHOOL,632 STARKVILLE RD.,HOUSTON,MS,38851,NOT AVAILABLE,(662) 456-9491
58505,280222001292,JEFFERSON CO JR HI,468 HWY 33,FAYETTE,MS,39069,NOT AVAILABLE,(601) 786-3900
81386,280090000953,CANTON EDUCATIONAL SERVICES CENTER,529 MACE STREET,CANTON,MS,39046,NOT AVAILABLE,(601) 859-5010
82485,280084000093,BROOKHAVEN TECHNICAL CENTER,325 EAST COURT ST.,BROOKHAVEN,MS,39601,NOT AVAILABLE,(601) 833-8335
84382,280084000091,BROOKHAVEN ELEMENTARY SCHOOL,300 S CHURCH STREET,BROOKHAVEN,MS,39601,NOT AVAILABLE,(601) 833-3139
84418,280183000315,HAZLEHURST HIGH SCHOOL,101 S. HALEY STREET,HAZLEHURST,MS,39083,NOT AVAILABLE,(601) 894-2489
86750,280363000632,SOUTH SIDE LOWER ELEMENTARY SCHOOL,400 SOUTH BEECH STREET,PICAYUNE,MS,39466,NOT AVAILABLE,(601) 799-0683
90410,280051000036,ETHEL ATTENDANCE CENTER,2178 COLLEGE STREET,ETHEL,MS,39067,NOT AVAILABLE,(662) 674-5673
94546,280180000980,N R BURGER MIDDLE SCHOOL,174 WSF TATUM DRIVE,HATTIESBURG,MS,39401,NOT AVAILABLE,(601) 582-0536
96960,280051000038,LONG CREEK ATTENDANCE CENTER,9534 HWY 429,SALLIS,MS,39160,NOT AVAILABLE,(662) 289-1630
46360,280219001054,NORTH JACKSON ELEMENTARY SCHOOL,650 N. JAMES M. DAVIS DRIVE,JACKSON,MS,39206,NOT AVAILABLE,(601) 987-3528
46724,280243001362,CLARKDALE ELEMENTARY SCHOOL,7000 HIGHWAY 145,MERIDIAN,MS,39031,NOT AVAILABLE,(601) 693-4463
47498,280273001177,WEST LOWNDES ELEMENTARY,1000 GILMER WILBURN ROAD,COLUMBUS,MS,39701,NOT AVAILABLE,(662) 244-5050
31472,280246001345,LAUREL MIDDLE SCHOOL,1600 GRANDVIEW DRIVE,LAUREL,MS,39440,NOT AVAILABLE,(601) 428-5312
33066,280252001120,LEAKE COUNTY ELEMENTARY SCHOOL,1280 SCHOOL STREET,WALNUT GROVE,MS,39189,NOT AVAILABLE,(601) 253-2324
35083,280219000375,BRINKLEY MIDDLE SCHOOL,3535 ALBERMARLE ROAD,JACKSON,MS,39213,NOT AVAILABLE,(601) 987-3573
35182,280279001381,GERMANTOWN HIGH SCHOOL,409 CALHOUN STATION PARKWAY,MADISON,MS,39110,NOT AVAILABLE,(601) 859-6150
60966,280255000920,SALTILLO ELEMENTARY SCHOOL,424 SOUTH 3RD STREET,SALTILLO,MS,38866,NOT AVAILABLE,(662) 869-2211
63418,280321000629,GREEN HILL INTERMEDIATE,599 WEST PEARL STREET,SARDIS,MS,38666,NOT AVAILABLE,(662) 487-1074
63483,280225000430,CARVER ELEMENTARY SCHOOL,381 WILLIAMSBURG RD,BASSFIELD,MS,39421,NOT AVAILABLE,(601) 943-5251
65547,280273000528,CALEDONIA ELEMENTARY SCHOOL,9509 WOLFE ROAD,CALEDONIA,MS,39740,NOT AVAILABLE,(662) 356-2050
67293,280237000967,LAFAYETTE MIDDLE SCHOOL,102 COMMODORE DR.,OXFORD,MS,38655,NOT AVAILABLE,(662) 234-1664
73368,280243000471,WEST LAUDERDALE MIDDLE SCHOOL,9916A WEST LAUDERDALE ROAD,COLLINSVILLE,MS,39325,8802,(601) 737-8689
74660,280228000451,WEST JONES HIGH SCHOOL,254 SPRINGHILL ROAD,LAUREL,MS,39443,NOT AVAILABLE,(601) 729-8144
76397,280246000476,MASON ELEMENTARY SCHOOL,2726 OLD BAY SPRINGS ROAD,LAUREL,MS,39440,NOT AVAILABLE,(601) 428-0393
77083,280180001571,ROWAN ELEMENTARY SCHOOL,500 MARTIN LUTHER KING DRIVE,HATTIESBURG,MS,39401,NOT AVAILABLE,(601) 583-0960
77905,280162000250,TRIGG ELEMENTARY SCHOOL,3004 LINCOLN DRIVE,GREENVILLE,MS,38703,NOT AVAILABLE,(662) 334-7177
78696,280219001370,CARDOZO MIDDLE SCHOOL,3180 MCDOWELL RD EXT,JACKSON,MS,39212,NOT AVAILABLE,(601) 346-5635
11033,280129001337,SEMINARY MIDDLE SCHOOL,200 MAIN ST,SEMINARY,MS,39479,NOT AVAILABLE,(601) 722-4510
12978,280075000085,PEARMAN ELEMENTARY SCHOOL,306 MERRITT DRIVE,CLEVELAND,MS,38732,NOT AVAILABLE,(662) 843-4484
14527,280082001329,R.H. LONG BOONEVILLE MIDDLE SCHOOL,300 A W GEORGE E. ALLEN,BOONEVILLE,MS,38829,NOT AVAILABLE,(662) 728-5843
14624,280057000046,NORTH BAY ELEMENTARY SCHOOL,602 PINE ST.,BAY ST LOUIS,MS,39520,NOT AVAILABLE,(228) 467-4052
16322,280087000097,BRUCE HIGH SCHOOL,430 EAST COUNTISS STREET,BRUCE,MS,38915,NOT AVAILABLE,(662) 983-3350
52298,280216000962,EAST CENTRAL LOWER ELEMENTARY,5621 HWY 614,MOSS POINT,MS,39562,NOT AVAILABLE,(228) 588-7067
52548,280456001097,EUPORA HIGH SCHOOL,65 CLARK AVENUE,EUPORA,MS,39744,NOT AVAILABLE,(662) 258-4041
54295,280180001444,LILLIE BURNEY STEAM ACADEMY,901 IDA AVENUE,HATTIESBURG,MS,39401,NOT AVAILABLE,(601) 582-5291
54305,280447001462,GROVE STREET ACADEMIES,1500 MISSION 66,VICKSBURG,MS,39180,NOT AVAILABLE,(601) 631-2942
55770,280357000690,RUNNELSTOWN ELEMENTARY SCHOOL,9214 HIGHWAY 42,PETAL,MS,39465,NOT AVAILABLE,(601) 544-2811
58158,280109000948,CLINTON ALTERNATIVE SCHOOL,201 EASTHAVEN DRIVE,CLINTON,MS,39056,NOT AVAILABLE,(601) 925-4027
58700,280156000228,GEORGE COUNTY HIGH SCHOOL,9284 HWY 63S,LUCEDALE,MS,39452,NOT AVAILABLE,(601) 947-3116
42940,280132000493,DESOTO COUNTY ALTERNATIVE CENTER,2690 MAGNOLIA STREET,HERNANDO,MS,38632,NOT AVAILABLE,(662) 429-5597
45905,280117000148,COLUMBIA ELEMENTARY SCHOOL,401 MARY STREET,COLUMBIA,MS,39429,3135,(601) 736-2362
6073,280054001481,BALDWYN CAREER ADVANCEMENT CENTER,120 VANDIVER STREET,BALDWYN,MS,38824,NOT AVAILABLE,(662) 365-0062
6244,280162000247,MC BRIDE PRE-K ACADEMY,438 N. POPLAR STREET,GREENVILLE,MS,38701,NOT AVAILABLE,(662) 334-7136
7860,280375000717,JUMPERTOWN HIGH SCHOOL,717 HWY 4 WEST,BOONEVILLE,MS,38829,NOT AVAILABLE,(662) 728-6378
62183,280393001252,SEN./TATE CO. OPTIONAL LEARNING CEN,403 WEST GILMORE,SENATOBIA,MS,38668,2117,(662) 568-5193
62713,280180000314,WOODLEY ELEMENTARY SCHOOL,2006 O FERRELL ST,HATTIESBURG,MS,39401,NOT AVAILABLE,(601) 583-8112
65309,280300000587,MOSS POINT HIGH SCHOOL,4913 WEEMS STREET,MOSS POINT,MS,39563,2649,(228) 475-5721
66423,280219001052,BARACK H OBAMA ELEMENTARY SCHOOL,750 N CONGRESS STREET,JACKSON,MS,39202,NOT AVAILABLE,(601) 960-5333
69344,280294001293,MONROE CO ADVANCED LEARNING CENTER,52251 HIGHWAY 25 SOUTH,AMORY,MS,38821,NOT AVAILABLE,(662) 256-2495
20716,280120000156,COOK ELEMENTARY SCHOOL,2217 N SEVENTH STREET,COLUMBUS,MS,39705,NOT AVAILABLE,(662) 241-7180
23059,280120001380,COLUMBUS MIDDLE SCHOOL,175 HIGHWAY 373,COLUMBUS,MS,39705,NOT AVAILABLE,(662) 241-7300
27394,280273000532,NEW HOPE ELEMENTARY SCHOOL,199 ENLOW ROAD,COLUMBUS,MS,39702,NOT AVAILABLE,(662) 244-4760
31196,280353000005,PETAL MIDDLE SCHOOL,203 EAST CENTRAL AVENUE,PETAL,MS,39465,NOT AVAILABLE,(601) 584-6301
33840,280306000990,NESHOBA CENTRAL MIDDLE SCHOOL,1000 ST. FRANCIS DRIVE,PHILADELPHIA,MS,39350,NOT AVAILABLE,(601) 656-4636
93087,280111000143,LYON ELEMENTARY SCHOOL,2020 ROBERSON ROAD,LYON,MS,38645,NOT AVAILABLE,(662) 624-8544
94157,280408000768,EVA GORDON ELEMENTARY SCHOOL,1175 NORTH CLARK STREET,MAGNOLIA,MS,39652,NOT AVAILABLE,(601) 783-0434
95288,280369000705,PONTOTOC ELEMENTARY SCHOOL,145 FRED DOWDY STREET,PONTOTOC,MS,38863,NOT AVAILABLE,(662) 489-4973
96172,280018701430,INVERNESS SCHOOL,1101 OAK STREET,INVERNESS,MS,38753,NOT AVAILABLE,(662) 265-5752
99787,280210000949,ITAWAMBA AGRICULTURAL HIGH SCHOOL,11900 HIGHWAY 25 SOUTH,FULTON,MS,38843,NOT AVAILABLE,(662) 862-3104
99861,280291000575,WEST HILLS ELEMENTARY SCHOOL,4100 32ND STREET,MERIDIAN,MS,39307,NOT AVAILABLE,(601) 484-4474
71187,280353001330,PETAL ELEMENTARY,1179 HWY 42 E,PETAL,MS,39465,NOT AVAILABLE,(601) 582-7454
71364,280219000404,OAK FOREST ELEMENTARY SCHOOL,1831 SMALLWOOD DRIVE,JACKSON,MS,39212,NOT AVAILABLE,(601) 371-4330
74864,280372000708,POPLARVILLE JR SR HIGH SCHOOL,#1 HORNET DRIVE,POPLARVILLE,MS,39470,NOT AVAILABLE,(601) 795-8424
78251,280090001396,JIMMIE M. GOODLOE ELEMENTARY SCHOOL,551 FINNEY ROAD,CANTON,MS,39046,NOT AVAILABLE,(601) 407-1810
84701,280383001163,FLORENCE ELEMENTARY SCHOOL,285 HIGHWAY 469 NORTH,FLORENCE,MS,39073,NOT AVAILABLE,(601) 845-8164
85636,280429001185,TUNICA ELEMENTARY SCHOOL,690 SCHOOL STREET,TUNICA,MS,38676,1289,(662) 363-1442
86006,280366000701,NORTH PONTOTOC HIGH SCHOOL,8324 HWY 15 NORTH,ECRU,MS,38841,NOT AVAILABLE,(662) 489-5612
100860,280102000115,PORT GIBSON MIDDLE SCHOOL,161 RAMSEY DRIVE,PORT GIBSON,MS,39150,NOT AVAILABLE,(601) 437-4251
101494,280051000038,LONG CREEK ATTENDANCE CENTER,9534 HWY 429,SALLIS,MS,39160,NOT AVAILABLE,(662) 289-1630
40039,280057000045,BAY HIGH SCHOOL,750 BLUE MEADOW ROAD,BAY ST LOUIS,MS,39520,NOT AVAILABLE,(228) 467-6611
43252,280243001429,LAUDERDALE CO EDUCATIONAL & SKILLS,915 HWY 19 NORTH,MERIDIAN,MS,39307,NOT AVAILABLE,(601) 581-3518
45410,280324000636,NORTH PIKE SENIOR HIGH SCHOOL,1022 JAGUAR TRAIL,SUMMIT,MS,39666,NOT AVAILABLE,(601) 276-2175
57653,280075001477,CLEVELAND CENTRAL HIGH SCHOOL,300 W. SUNFLOWER ST,CLEVELAND,MS,38732,NOT AVAILABLE,(662) 843-2460
31979,280219000380,CHASTAIN MIDDLE SCHOOL,4650 MANHATTAN ROAD,JACKSON,MS,39206,NOT AVAILABLE,(601) 987-3550
36474,280327000638,FALKNER HIGH SCHOOL,20350 HWY 15,FALKNER,MS,38629,NOT AVAILABLE,(662) 837-7892
36968,280240001173,SUMRALL HIGH SCHOOL,198 CENTER AVENUE,SUMRALL,MS,39482,NOT AVAILABLE,(601) 758-4730
37321,280383001078,PELAHATCHIE ELEMENTARY SCHOOL,213-B BROOKS STREET,PELAHATCHIE,MS,39145,NOT AVAILABLE,(601) 854-8060
20284,280411000779,RIPLEY MIDDLE SCHOOL,718 S. CLAYTON STREET,RIPLEY,MS,38663,NOT AVAILABLE,(662) 837-7959
21693,280018601416,I T MONTGOMERY ELEMENTARY SCHOOL,202 MARTIN L. KING DRIVE,MOUND BAYOU,MS,38762,NOT AVAILABLE,(662) 333-8952
27226,280075000083,NAILOR ELEMENTARY SCHOOL,600 CROSS STREET,CLEVELAND,MS,38732,NOT AVAILABLE,(662) 843-4528
61308,280345001407,OXFORD INTERMEDIATE SCHOOL,501 MARTIN LUTHER KING JR DRIVE,OXFORD,MS,38655,NOT AVAILABLE,(662) 236-5508
95199,280429000808,ROSA FORT HIGH SCHOOL,1100 ROSA FORT DRIVE,TUNICA,MS,38676,0997,(662) 363-1343
95206,280381000730,M. S. PALMER HIGH SCHOOL,1315 MARTIN LUTHER KING DRIVE,MARKS,MS,38646,NOT AVAILABLE,(662) 326-5191
99735,280132000186,HERNANDO ELEM,455 RILEY STREET,HERNANDO,MS,38632,NOT AVAILABLE,(662) 429-4160
833,280018901451,STARKVILLE HIGH SCHOOL,603 YELLOWJACKET DRIVE,STARKVILLE,MS,39759,NOT AVAILABLE,(662) 324-4130
1648,280219000419,WATKINS ELEMENTARY SCHOOL,3915 WATKINS DRIVE,JACKSON,MS,39206,NOT AVAILABLE,(601) 987-3594
1913,280228001326,NORTH JONES ELEMENTARY SCHOOL,650 TRACE ROAD,LAUREL,MS,39443,NOT AVAILABLE,(601) 426-6632
7124,280174000280,SOUTH HANCOCK ELEMENTARY SCHOOL,6590 LAKESHORE ROAD,BAY ST. LOUIS,MS,39520,NOT AVAILABLE,(228) 467-4655
11167,280105000124,GEO H OLIVER VISUAL/PERF. ARTS,871 RITCHIE AVENUE,CLARKSDALE,MS,38614,NOT AVAILABLE,(662) 627-8605
12179,280119301199,STOVALL SPED COMPLEX,967 REGIONAL CENTER DRIVE,OXFORD,MS,38655,NOT AVAILABLE,(662) 513-7739
15061,280114001108,COFFEEVILLE ELEMENTARY SCHOOL,104 DAVIS STREET,COFFEEVILLE,MS,38922,NOT AVAILABLE,(662) 675-2721
75617,280408000910,SOUTH PIKE ALTERNATIVE SCHOOL,205 WEST MYRTLE,MAGNOLIA,MS,39652,NOT AVAILABLE,(601) 783-0430
76427,280291000571,PARKVIEW ELEMENTARY SCHOOL,1225 26TH STREET,MERIDIAN,MS,39305,NOT AVAILABLE,(601) 484-3616
83305,280156000226,AGRICOLA ELEMENTARY SCHOOL,6165 HWY 613 S,LUCEDALE,MS,39452,NOT AVAILABLE,(601) 947-8447
89851,280405001089,BATESVILLE INTERMEDIATE SCHOOL,200 COLLEGE ST.,BATESVILLE,MS,38606,NOT AVAILABLE,(662) 563-7834
89860,280051000037,GREENLEE ATTENDANCE CENTER,26050 HWY 12,MCCOOL,MS,39108,9160,(662) 674-5263
105460,280018701498,MOORHEAD CENTRAL SCHOOL,506 WASHINGTON STREET,MOORHEAD,MS,38761,NOT AVAILABLE,(662) 246-5680
105462,280018901532,SOCSD/MSU PARTNERSHIP MIDDLE SCHOOL,11200 MS HWY 182,STARKVILLE,MS,39759,NOT AVAILABLE,(662) 324-4181
105470,280019501496,WILLIAM DEAN JR. ELEMENTARY SCHOOL,96 ROCKPORT ROAD,LEXINGTON,MS,39095,NOT AVAILABLE,(662) 834-3003
105497,280240001507,LUMBERTON MIDDLE SCHOOL,7918 US HIGHWAY 11,LUMBERTON,MS,39455,NOT AVAILABLE,(601) 796-2451
80112,280291000569,NORTHWEST JUNIOR HIGH SCHOOL,4400 32ND STREET,MERIDIAN,MS,39307,NOT AVAILABLE,(601) 484-4099
80126,280237000936,OXF/LAF SCHOOL OF APPLIED TECH,134 HWY 7 SOUTH,OXFORD,MS,38655,NOT AVAILABLE,(662) 234-9469
81750,280219000417,VAN WINKLE ELEMENTARY SCHOOL,1655 WHITING ROAD,JACKSON,MS,39209,NOT AVAILABLE,(601) 923-2547
83760,280383000712,RANKIN COUNTY LEARNING CENTER,200 SCHOOL RD.,BRANDON,MS,39042,NOT AVAILABLE,(601) 824-0334
84453,280288000972,DENMAN JUNIOR HIGH SCHOOL,1211 LOUISIANA AVENUE,MCCOMB,MS,39648,NOT AVAILABLE,(601) 684-2387
85699,280444000833,DEXTER ELEMENTARY SCHOOL,927 HIGHWAY 48 EAST,TYLERTOWN,MS,39667,NOT AVAILABLE,(601) 876-3985
86005,280378001142,QUITMAN LOWER ELEMENTARY SCHOOL,101 MCARTHUR STREET,QUITMAN,MS,39355,NOT AVAILABLE,(601) 776-6156
100324,280186000322,CARVER MIDDLE SCHOOL,560 PORT GIBSON ST.,RAYMOND,MS,39154,0100,(601) 857-5006
101717,280171001349,TWENTY EIGHTH ST ELEM,3034 46TH AVENUE,GULFPORT,MS,39501,NOT AVAILABLE,(228) 867-2140
105466,280019501488,HOLMES COUNTY CENTRAL HIGH SCHOOL,9749 BROZVILLE ROAD,LEXINGTON,MS,39095,NOT AVAILABLE,(662) 834-2172
105472,280019601485,WINONA SECONDARY SCHOOL,301 FAIRGROUND STREET,WINONA,MS,38967,NOT AVAILABLE,(662) 283-1244
105479,280019801514,DAVIS ELEMENTARY SCHOOL,400 COTTON STREET,GREENWOOD,MS,38930,NOT AVAILABLE,(662) 455-7425
20664,280383000741,PISGAH ELEMENTARY SCHOOL,125 TORI BOWIE LANE,BRANDON,MS,39047,NOT AVAILABLE,(601) 829-2937
21931,280249000481,MONTICELLO ELEMENTARY SCHOOL,957 W MCPHERSON DRIVE,MONTICELLO,MS,39654,NOT AVAILABLE,(601) 587-7609
23422,280054000041,BALDWYN ELEMENTARY SCHOOL,515 BENDER CIRCLE,BALDWYN,MS,38824,NOT AVAILABLE,(662) 365-1010
26224,280324000635,NORTH PIKE MIDDLE SCHOOL,2034 HWY. 44 NE,SUMMIT,MS,39666,NOT AVAILABLE,(601) 684-3283
29798,280447001332,BOVINA ELEMENTARY SCHOOL,5 WILLOW CREEK DRIVE,VICKSBURG,MS,39183,NOT AVAILABLE,(601) 619-4453
72419,280267000519,LONG BEACH MIDDLE SCHOOL,204 N CLEVELAND AVENUE,LONG BEACH,MS,39560,NOT AVAILABLE,(228) 864-3370
73894,280378000723,QUITMAN JR HIGH SCHOOL,501 W. LYNDA STREET,QUITMAN,MS,39355,NOT AVAILABLE,(601) 776-6243
78610,280102000082,CLAIBORNE COUNTY VOC COMPLEX,161 OLD HWY 18 #1,PORT GIBSON,MS,39150,NOT AVAILABLE,(601) 437-3800
63997,280231001116,KEMPER COUNTY HIGH SCHOOL,200 MARTIN LUTHER KING JR STREET,DEKALB,MS,39328,NOT AVAILABLE,(601) 743-5292
64508,280177000959,WEST WORTHAM ELEMENTARY AND MIDDLE,20199 WEST WORTHAM ROAD,SAUCIER,MS,39574,NOT AVAILABLE,(228) 831-1276
11535,280383000954,ROUSE ELEMENTARY,151 BOYCE-THOMPSON DRIVE,BRANDON,MS,39042,NOT AVAILABLE,(601) 825-5437
12980,280174000281,HANCOCK NORTH CENTRAL ELEMENTARY,6122 CUEVAS TOWN ROAD,KILN,MS,39556,NOT AVAILABLE,(228) 255-7641
13801,280351000684,PASS CHRISTIAN HIGH SCHOOL,720 W. NORTH STREET,PASS CHRISTIAN,MS,39571,NOT AVAILABLE,(228) 452-2008
15469,280219000372,BLACKBURN MIDDLE SCHOOL,1311 W PEARL STREET,JACKSON,MS,39203,NOT AVAILABLE,(601) 960-5329
30791,280291000917,T J HARRIS ELEMENTARY,3951 12TH STREET,MERIDIAN,MS,39307,NOT AVAILABLE,(601) 482-1683
31446,280201000040,HOUSTON MIDDLE SCHOOL,632-A STARKVILLE STREET,HOUSTON,MS,38851,NOT AVAILABLE,(662) 456-5174
32250,280411001090,NORTH SOUTH TIPPAH VOC TECH CENTER,2560 CR 501,RIPLEY,MS,38663,NOT AVAILABLE,(662) 837-9798
37993,280383001271,OAKDALE ELEMENTARY,171 OAKDALE ROAD,BRANDON,MS,39047,NOT AVAILABLE,(601) 992-5442
38670,280348000672,EASTLAWN ELEMENTARY SCHOOL,2611 INGALLS AVE,PASCAGOULA,MS,39567,NOT AVAILABLE,(228) 938-6431
38942,280132000196,SOUTHAVEN HIGH SCHOOL,735 RASCO ROAD,SOUTHAVEN,MS,38671,NOT AVAILABLE,(662) 393-9300
43085,280432000817,RANKIN ELEMENTARY SCHOOL,1908 FORREST STREET,TUPELO,MS,38801,NOT AVAILABLE,(662) 841-8950
55309,280477000888,YAZOO CITY HIGH SCHOOL,1825 DR. MARTIN LUTHER KING DRIVE,YAZOO CITY,MS,39194,NOT AVAILABLE,(662) 746-2378
2899,280363001576,EARLY HEAD START ROSA STREET,1620 ROSA STREET,PICAYUNE,MS,39466,NOT AVAILABLE,(601) 799-4702
7821,280411000775,BLUE MOUNTAIN HIGH SCHOOL,408 W. MILL STREET,BLUE MOUNTAIN,MS,38610,NOT AVAILABLE,(662) 685-4706
8336,280252001118,LEAKE CENTRAL ELEMENTARY SCHOOL,603 HWY. 16 WEST,CARTHAGE,MS,39051,NOT AVAILABLE,(601) 267-9148
92137,280459000859,STRINGER ATTENDANCE CENTER,122 COUNTY ROAD 17,STRINGER,MS,39481,NOT AVAILABLE,(601) 428-5508
94946,280327000640,WALNUT ATTENDANCE CENTER,280 COMMERCE ST.,WALNUT,MS,38683,NOT AVAILABLE,(662) 223-6471
95589,280162000236,AKIN ELEMENTARY SCHOOL,361 BOWMAN BLVD.,GREENVILLE,MS,38701,NOT AVAILABLE,(662) 334-7161
95685,280423000801,STRAYHORN ELEMENTARY SCHOOL,3402 HWY 4 WEST,SARAH,MS,38665,NOT AVAILABLE,(662) 562-8637
96505,280132000191,HORN LAKE MIDDLE SCHOOL,6125 HURT ROAD,HORN LAKE,MS,38637,NOT AVAILABLE,(662) 393-7443
99759,280201000345,HOUSTON HIGH SCHOOL,634 STARKVILLE ROAD,HOUSTON,MS,38851,NOT AVAILABLE,(662) 456-3320
2323,280336000648,MAGNOLIA PARK ELEMENTARY,3500 GOVERNMENT STREET,OCEAN SPRINGS,MS,39564,NOT AVAILABLE,(228) 875-4263
3546,280399001084,MAGEE ELEMENTARY SCHOOL,1035 GOODWATER RD NW,MAGEE,MS,39111,NOT AVAILABLE,(601) 849-3601
4334,280429001147,DAVID WILLIAMS JR CAREER &TECH CNT,2400 US HIGHWAY 61 N.,TUNICA,MS,38676,1920,(662) 363-2051
5430,280456000852,EAST WEBSTER HIGH SCHOOL,195 OLD CUMBERLAND RD.,MABEN,MS,39750,NOT AVAILABLE,(662) 263-5321
6745,280186000321,BYRAM MIDDLE SCHOOL,2009 BYRAM BULLDOG BLVD.,TERRY,MS,39170,NOT AVAILABLE,(601) 372-4597
7240,280195000335,HOLLY SPRINGS HIGH SCHOOL,165 NORTH WALTHALL STREET,HOLLY SPRINGS,MS,38635,NOT AVAILABLE,(662) 252-4371
7382,280084000094,LIPSEY SCHOOL,412 DRURY LANE,BROOKHAVEN,MS,39601,NOT AVAILABLE,(601) 833-6148
9495,280318000626,NEWTON HIGH SCHOOL,201 W. FIRST STREET,NEWTON,MS,39345,NOT AVAILABLE,(601) 683-2232
46315,280063001234,NORTH BAY ELEMENTARY SCHOOL,1825 POPPS FERRY ROAD,BILOXI,MS,39532,NOT AVAILABLE,(228) 435-6166
46572,280132000140,HERNANDO MIDDLE SCHOOL,700 DILWORTH LANE,HERNANDO,MS,38632,NOT AVAILABLE,(662) 429-4154
49712,280122001189,CRYSTAL SPRINGS ELEMENTARY,213 NEWTON STREET,CRYSTAL SPRINGS,MS,39059,NOT AVAILABLE,(601) 892-4795
71286,280153001111,FRANKLIN COUNTY MIDDLE SCHOOL,236 EDISON STREET S,MEADVILLE,MS,39653,NOT AVAILABLE,(601) 384-2441
74119,280109000135,EASTSIDE ELEM,453 ARROW DRIVE,CLINTON,MS,39056,NOT AVAILABLE,(601) 924-7261
75430,280408000772,SOUTH PIKE JR HIGH,275 WEST MYRTLE STREET,MAGNOLIA,MS,39652,NOT AVAILABLE,(601) 783-0425
78541,280171000279,WEST ELEMENTARY SCHOOL,4051 15TH STREET,GULFPORT,MS,39501,NOT AVAILABLE,(228) 870-1025
50796,280390001389,LAKE HIGH SCHOOL,24442 HWY 80,LAKE,MS,39092,NOT AVAILABLE,(601) 775-3248
52046,280270000523,LOUISVILLE HIGH SCHOOL,258 IVY AVENUE,LOUISVILLE,MS,39339,NOT AVAILABLE,(662) 773-3431
52820,280099000111,CHOCTAW COUNTY HIGH SCHOOL,393 EAST MAIN STREET,ACKERMAN,MS,39735,NOT AVAILABLE,(662) 285-4101
55016,590011100050,CONEHATTA ELEMENTARY SCHOOL,851 TUSHKA DRIVE,CONEHATTA,MS,39057,NOT AVAILABLE,(601) 775-8254
55017,590012300054,PEARL RIVER ELEMENTARY SCHOOL,470 INDUSTRIAL ROAD,CHOCTAW,MS,39350,NOT AVAILABLE,(601) 656-9051
57769,590012300054,PEARL RIVER ELEMENTARY SCHOOL,470 INDUSTRIAL ROAD,CHOCTAW,MS,39350,NOT AVAILABLE,(601) 656-9051
58894,280354000686,PEARL RIVER CENTRAL ELEMENTAR,116 ALPHABET AVE,CARRIERE,MS,39426,NOT AVAILABLE,(601) 799-4519
58910,280114000146,COFFEEVILLE HIGH SCHOOL,16900 OKAHOMA STREET,COFFEEVILLE,MS,38922,NOT AVAILABLE,(662) 675-8904
59621,280352000001,NORTHSIDE ELEMENTARY SCHOOL,3600 HARLE STREET,PEARL,MS,39208,NOT AVAILABLE,(601) 932-7971
87338,280285000550,BYHALIA ELEMENTARY SCHOOL (K-5),172 HIGHWAY 309 NORTH,BYHALIA,MS,38611,NOT AVAILABLE,(662) 838-6980
88234,280303000605,CAREER AND TECHNOLOGY CENTER,315 SEARGENT PRENTISS DRIVE,NATCHEZ,MS,39120,NOT AVAILABLE,(601) 445-2902
12037,280303000610,SUSIE B WEST ELEMENTARY SCHOOL,161 LEWIS DRIVE,NATCHEZ,MS,39120,NOT AVAILABLE,(601) 445-2891
14165,280219000398,LESTER ELEMENTARY SCHOOL,2350 OAKHURST DRIVE,JACKSON,MS,39204,NOT AVAILABLE,(601) 371-4339
90696,280303000604,ROBERT LEWIS MAGNET SCHOOL,1221 MARTIN LUTHER KING STREET,NATCHEZ,MS,39120,NOT AVAILABLE,(601) 445-2926
93015,280219000418,WALTON ELEMENTARY SCHOOL,3200 BAILEY AVENUE EXTENSION,JACKSON,MS,39213,NOT AVAILABLE,(601) 987-3591
93060,280219000408,POWER APAC SCHOOL,1120 RIVERSIDE DRIVE,JACKSON,MS,39202,NOT AVAILABLE,(601) 960-5387
95198,280480000891,BENTONIA GIBBS SCHOOL,10340 HWY 433 WEST,BENTONIA,MS,39040,NOT AVAILABLE,(662) 755-2270
95251,280243001174,SOUTHEAST LAUDERDALE MIDDLE SCHOOL,2535 OLD HIGHWAY 19 S.E.,MERIDIAN,MS,39301,NOT AVAILABLE,(601) 485-5751
61142,280252001119,LEAKE CENTRAL JUNIOR HIGH,801 MARTIN LUTHER KING DRIVE,CARTHAGE,MS,39051,NOT AVAILABLE,(601) 267-8909
61345,280348000667,BEACH ELEMENTARY SCHOOL,633 MARKET STREET,PASCAGOULA,MS,39567,NOT AVAILABLE,(228) 938-6428
67831,280156000227,CENTRAL ELEMENTARY SCHOOL,14159 HWY 26 WEST,LUCEDALE,MS,39452,NOT AVAILABLE,(601) 947-2429
21694,280018701425,GENTRY HIGH SCHOOL,801 B.B. KING,INDIANOLA,MS,38751,NOT AVAILABLE,(662) 884-1240
22844,280003101574,MS SCHOOL FOR THE ARTS,308 WEST CHEROKEE STREET,BROOKHAVEN,MS,39601,NOT AVAILABLE,(601) 823-1300
24903,280149000218,NORTH FORREST HIGH SCHOOL,693 EATONVILLE ROAD,HATTIESBURG,MS,39401,NOT AVAILABLE,(601) 545-9304
27866,280151000222,FORREST COUNTY AGRICULTURAL HI SCH,215 OLD HWY 49 EAST,BROOKLYN,MS,39425,NOT AVAILABLE,(601) 582-4741
28132,280345000661,BRAMLETT ELEMENTARY SCHOOL,225 BRAMLETT BOULEVARD,OXFORD,MS,38655,NOT AVAILABLE,(662) 234-2685
29523,280471000877,FINCH ELEMENTARY,1125 SOUTH CROSBY STREET,CENTREVILLE,MS,39631,0130,(601) 645-5081
33862,280309000613,NETTLETON HIGH SCHOOL,165 MULLEN AVENUE,NETTLETON,MS,38858,NOT AVAILABLE,(662) 963-2306
35907,280348000674,GAUTIER ELEMENTARY SCHOOL,505 MAGNOLIA TREE,GAUTIER,MS,39553,NOT AVAILABLE,(228) 522-8824
37277,280363001383,EARLY HEAD START NICHOLSON,1865 HWY 11 SOUTH,PICAYUNE,MS,39466,NOT AVAILABLE,(601) 798-7808
100010,280294000580,HAMILTON HIGH SCHOOL,40201 HAMILTON ROAD,HAMILTON,MS,39746,NOT AVAILABLE,(662) 343-8307
105483,280019801518,LEFLORE COUNTY HIGH SCHOOL,401 LAKESIDE DRIVE,ITTA BENA,MS,38941,NOT AVAILABLE,(662) 374-7078
105494,280231001529,KEMPER COUNTY LOWER ELEMENTARY,132 BINNSVILLE ROAD,SCOOBA,MS,39358,NOT AVAILABLE,(662) 476-8423
51782,280018501402,RAY BROOKS SCHOOL,1827 HWY 1,BENOIT,MS,38725,NOT AVAILABLE,(662) 742-3257
53125,280285000552,MARY REID SCHOOL (K-3),160 PONTOTOC AVENUE,POTTS CAMP,MS,38659,NOT AVAILABLE,(662) 333-7774
56695,280132001358,CENTER HILL MIDDLE,8756 FOREST HILL IRENE,OLIVE BRANCH,MS,38654,NOT AVAILABLE,(662) 892-6800
40291,280129001334,SEMINARY ELEMENTARY SCHOOL,200 MAIN ST.,SEMINARY,MS,39479,NOT AVAILABLE,(601) 722-3355
40355,280063001107,BILOXI JUNIOR HIGH,1921 TRIBE DRIVE,BILOXI,MS,39532,NOT AVAILABLE,(228) 435-1421
82055,280312000618,NEW ALBANY MIDDLE SCHOOL,400 APPLE STREET,NEW ALBANY,MS,38652,NOT AVAILABLE,(662) 534-1820
85256,280351000685,PASS CHRISTIAN MIDDLE,280 WEST SECOND STREET,PASS CHRISTIAN,MS,39571,NOT AVAILABLE,(228) 452-5220
85858,280432001003,MILAM ELEMENTARY SCHOOL,720 WEST JEFFERSON,TUPELO,MS,38804,NOT AVAILABLE,(662) 841-8920
73436,280369001162,PONTOTOC JUNIOR HIGH SCHOOL,132 NORTH MAIN STREET,PONTOTOC,MS,38863,NOT AVAILABLE,(662) 489-8360
73515,280453000898,BUCKATUNNA ELEMENTARY SCHOOL,11 BUCKATUNNA MT. ZION RD.,BUCKATUNNA,MS,39322,0060,(601) 648-2501
73766,280171000270,BAYOU VIEW MIDDLE SCHOOL,212 43RD STREET,GULFPORT,MS,39507,NOT AVAILABLE,(228) 865-4633
75096,280363000699,SOUTH SIDE ELEMENTARY SCHOOL,1500 ROSA STREET,PICAYUNE,MS,39466,NOT AVAILABLE,(601) 798-1105
75383,280219000392,JOHN HOPKINS ELEMENTARY SCHOOL,170 JOHN HOPKINS ROAD,JACKSON,MS,39209,NOT AVAILABLE,(601) 923-2540
76914,280063000901,R D BROWN VOC CENTER,1845 TRIBE DRIVE,BILOXI,MS,39532,NOT AVAILABLE,(228) 435-6318
95483,280291000918,MARION PARK COMPLEX,2815 25TH ST.,MERIDIAN,MS,39301,NOT AVAILABLE,(601) 484-5166
96261,280129000180,HOPEWELL ELEMENTARY SCHOOL,824 HOPEWELL ROAD,COLLINS,MS,39428,NOT AVAILABLE,(601) 765-8568
97794,280435000824,WEST UNION ATTENDANCE CENTER,1610 ST HWY 30 WEST,MYRTLE,MS,38650,NOT AVAILABLE,(662) 534-6745
99786,280132000187,HERNANDO HIGH SCHOOL,805 DILWORTH LANE,HERNANDO,MS,38632,NOT AVAILABLE,(662) 429-4170
61583,280378000725,QUITMAN HIGH SCHOOL,210 SOUTH JACKSON AVE.,QUITMAN,MS,39355,NOT AVAILABLE,(601) 776-3341
61665,280018701399,LOCKARD ELEMENTARY SCHOOL,302 COLLEGE AVENUE,INDIANOLA,MS,38751,NOT AVAILABLE,(662) 884-1260
62454,280174001215,HANCOCK COUNTY CAREER TECHNICAL CEN,7180 AIRPORT ROAD,KILN,MS,39556,NOT AVAILABLE,(228) 467-3568
65096,280336000650,OCEAN SPRINGS HIGH SCHOOL,6701 OLD SPANISH TRAIL,OCEAN SPRINGS,MS,39564,NOT AVAILABLE,(228) 875-0333
68285,280090000102,MC NEAL ELEMENTARY SCHOOL,364 MARTIN LUTHER KING DRIVE,CANTON,MS,39046,NOT AVAILABLE,(601) 859-3654
38611,280132001191,SHADOW OAKS ELEMENTARY SCHOOL,3780 SHADOW OAKS PARKWAY,HORN LAKE,MS,38637,NOT AVAILABLE,(662) 393-4585
38613,280447000994,VICKSBURG INTERMEDIATE,1245 DANA ROAD,VICKSBURG,MS,39180,NOT AVAILABLE,(601) 638-4199
39667,280429000809,TUNICA MIDDLE SCHOOL,2486 US HWY 61 N,TUNICA,MS,38676,0967,(662) 363-4224
100770,280129000180,HOPEWELL ELEMENTARY SCHOOL,824 HOPEWELL ROAD,COLLINS,MS,39428,NOT AVAILABLE,(601) 765-8568
105478,280019801513,AMANDA ELZY JUNIOR HIGH SCHOOL,604 ELZY AVENUE,GREENWOOD,MS,38930,NOT AVAILABLE,(662) 453-9677
105480,280019801515,EAST ELEMENTARY SCHOOL,208 MEADOWBROOK ROAD,GREENWOOD,MS,38930,NOT AVAILABLE,(662) 453-9182
105492,280118901504,MS SCHOOL FOR THE DEAF,1253 EASTOVER DRIVE,JACKSON,MS,39211,NOT AVAILABLE,(601) 984-8000
105498,280282001494,MARION CO ALT SCHOOL,2 W MARION ST.,COLUMBIA,MS,39429,NOT AVAILABLE,(601) 736-7290
20072,280255001265,SALTILLO PRIMARY SCHOOL,1806 HWY 45 N,SALTILLO,MS,38866,NOT AVAILABLE,(662) 869-3724
20466,280090000103,NICHOLS MIDDLE SCHOOL,529 NORTH MACE STREET,CANTON,MS,39046,NOT AVAILABLE,(601) 859-3741
21731,280222000427,JEFFERSON CO HIGH,2277 MAIN ST.,FAYETTE,MS,39069,NOT AVAILABLE,(601) 786-3919
22632,280132001289,CENTER HILL HIGH SCHOOL,13250 KIRK ROAD,OLIVE BRANCH,MS,38654,NOT AVAILABLE,(662) 890-2490
22738,280162000249,STERN ELEMENTARY SCHOOL,522 MCALLISTER STREET,GREENVILLE,MS,38701,NOT AVAILABLE,(662) 334-7131
22962,280273001127,NEW HOPE HIGH SCHOOL,2920 NEW HOPE ROAD,COLUMBUS,MS,39702,NOT AVAILABLE,(662) 244-4701
23221,280387001164,RICHTON ELEMENTARY SCHOOL,701 ELM AVENUE,RICHTON,MS,39476,NOT AVAILABLE,(601) 788-6975
10828,280165000259,THREADGILL ELEMENTARY SCHOOL,1001 BROAD STREET,GREENWOOD,MS,38930,NOT AVAILABLE,(662) 455-7440
10975,280246000479,LAUREL HIGH SCHOOL,1100 W 12TH STREET,LAUREL,MS,39440,NOT AVAILABLE,(601) 649-4145
12415,280255001266,SHANNON PRIMARY SCHOOL,6408 NOAH CURTIS ST.,SHANNON,MS,38868,NOT AVAILABLE,(662) 767-0135
13065,280087001340,CALHOUN CO CAREER & TECH CTR,302 NORTH MADISON,CALHOUN CITY,MS,38916,NOT AVAILABLE,(662) 628-1143
13159,280255001266,SHANNON PRIMARY SCHOOL,6408 NOAH CURTIS ST.,SHANNON,MS,38868,NOT AVAILABLE,(662) 767-0135
16961,280480000893,LINWOOD ELEMENTARY SCHOOL,3439 VAUGHAN ROAD,VAUGHAN,MS,39179,NOT AVAILABLE,(662) 673-9191
18048,280288000554,HIGGINS MIDDLE SCHOOL,1000 ELMWOOD STREET,MCCOMB,MS,39648,NOT AVAILABLE,(601) 684-2038
871,280366001466,PONTOTOC CO ALTERNATIVE PROGRAM,354 CENTER RIDGE DRIVE,PONTOTOC,MS,38863,NOT AVAILABLE,(662) 489-4812
5265,280216001046,ST MARTIN HIGH SCHOOL,11300 YELLOW JACKET BLVD.,OCEAN SPRINGS,MS,39564,NOT AVAILABLE,(228) 875-8418
5522,280330000642,NOXUBEE COUNTY HIGH SCHOOL,16640 HWY 45,MACON,MS,39341,NOT AVAILABLE,(662) 726-4428
6541,280063001478,BILOXI UPPER ELEMENTARY,1424 FATHER RYAN AVENUE,BILOXI,MS,39530,NOT AVAILABLE,(228) 432-3700
9189,280402000758,MIZE ATTENDANCE CENTER,125 SCHOOL DR,MIZE,MS,39116,NOT AVAILABLE,(601) 733-2242
61306,280018701422,THOMAS E. EDWARDS SR. HIGH SCHOOL,360 L F PACKER DRIVE,RULEVILLE,MS,38771,NOT AVAILABLE,(662) 756-4757
61585,280246001374,LAUREL UPPER ELEMENTARY,600 SOUTH 16TH AVENUE,LAUREL,MS,39440,NOT AVAILABLE,(601) 428-1880
66894,280264000515,LOYD STAR SCHOOL,1880 HWY 550 NW,BROOKHAVEN,MS,39601,NOT AVAILABLE,(601) 833-3473
67717,280132001287,HERNANDO HILLS ELEMENTARY,570 MCINGVALE ROAD,HERNANDO,MS,38632,NOT AVAILABLE,(662) 429-9117
105464,280019401492,CLARKSDALE COLLEGIATE,1012 W 2ND STREET,CLARKSDALE,MS,38614,3406,(662) 351-0106
70194,280321000627,COMO PRIMARY,200 LEWERS DRIVE,COMO,MS,38619,NOT AVAILABLE,(662) 526-0396
72583,280132001391,DESOTO CO CAREER CENTER EAST,8890 DEERFIELD DR,OLIVE BRANCH,MS,38654,NOT AVAILABLE,(662) 893-0855
72740,280390001145,BETTYE MAE JACK MIDDLE SCHOOL,128 M.L. KING DRIVE,MORTON,MS,39117,NOT AVAILABLE,(601) 732-6977
73961,280039001188,ALCORN CENTRAL MIDDLE SCHOOL,8A CR 254,GLEN,MS,38846,NOT AVAILABLE,(662) 286-3674
76665,280393001083,SENATOBIA MIDDLE SCHOOL,303 COLLEGE STREET,SENATOBIA,MS,38668,NOT AVAILABLE,(662) 562-4621
78485,280210000360,ITAWAMBA CAREER & TECHNICAL CENTER,200 CAREER TECHNICAL DRIVE,FULTON,MS,38843,NOT AVAILABLE,(662) 862-3137
79174,280219000542,CAREER ACADEMIC PLACEMENT PROGRAM,311 JOEL AVENUE,JACKSON,MS,39209,NOT AVAILABLE,(601) 982-5221
11338,280216001048,ST MARTIN EAST ELEMENTARY SCHOOL,7508 ROSE FARM ROAD,OCEAN SPRINGS,MS,39564,NOT AVAILABLE,(228) 875-3204
13217,280082001024,BOONEVILLE HIGH SCHOOL,300 B W GEORGE E. ALLEN DR.,BOONEVILLE,MS,38829,NOT AVAILABLE,(662) 728-5445
14401,280177001431,RIVER OAKS ELEMENTARY SCHOOL,14111 THREE RIVERS ROAD,GULFPORT,MS,39503,NOT AVAILABLE,(228) 831-1660
15335,280168000900,GRENADA ELEMENTARY SCHOOL,250 PENDER DRIVE,GRENADA,MS,38901,NOT AVAILABLE,(662) 226-2584
16253,280237000462,LAFAYETTE ELEMENTARY SCHOOL,"71 F.D. ""BUDDY"" EAST PARKWAY",OXFORD,MS,38655,NOT AVAILABLE,(662) 234-5627
16309,280255000496,SALTILLO HIGH SCHOOL,146 TIGER DR.,SALTILLO,MS,38866,NOT AVAILABLE,(662) 869-5466
18134,280219000412,SIWELL MIDDLE SCHOOL,1983 N SIWELL ROAD,JACKSON,MS,39209,NOT AVAILABLE,(601) 923-2550
18388,280246001058,LAUREL HIGH SCHOOL VOC COMPLEX,1100 W 11TH STREET,LAUREL,MS,39440,NOT AVAILABLE,(601) 649-4144
772,280273001460,GOLDEN TRIANGLE EARLY COLLEGE,8731 SOUTH FRONTAGE ROAD,MAYHEW,MS,39753,NOT AVAILABLE,(662) 243-1770
4764,280261001472,LELAND SCHOOL PARK,200 MILAM STREET,LELAND,MS,38756,NOT AVAILABLE,(662) 686-5017
9876,280243000568,NORTHEAST LAUDERDALE MIDDLE SCHOOL,7763 HIGHWAY 39 NORTH,MERIDIAN,MS,39305,NOT AVAILABLE,(601) 483-3532
23030,280045000032,WEST AMORY SCHOOL,704 111TH STREET,AMORY,MS,38821,NOT AVAILABLE,(662) 256-2601
32634,280279001129,MADISON CO VOC COMPLEX,379 CALHOUN STATION PARKWAY,MADISON,MS,39110,NOT AVAILABLE,(601) 859-6847
35084,280366001011,SOUTH PONTOTOC MIDDLE SCHOOL,1523 SOUTH PONTOTOC RD,PONTOTOC,MS,38863,NOT AVAILABLE,(662) 489-3476
35790,280219000370,BAKER ELEMENTARY SCHOOL,300 EAST SANTA CLAIR STREET,JACKSON,MS,39212,3044,(601) 371-4327
38707,280057001233,BAY WAVELAND MIDDLE SCHOOL,600 PINE ST.,BAY ST. LOUIS,MS,39520,NOT AVAILABLE,(228) 463-0315
39517,280366001010,SOUTH PONTOTOC ELEMENTARY SCHOOL,1523 SOUTH PONTOTOC RD,PONTOTOC,MS,38863,NOT AVAILABLE,(662) 489-5941
50183,280219000414,SPANN ELEMENTARY SCHOOL,1615 BRECON DRIVE,JACKSON,MS,39211,NOT AVAILABLE,(601) 987-3532
51336,280036000009,ABERDEEN HIGH SCHOOL,205 HWY 145 NORTH,ABERDEEN,MS,39730,NOT AVAILABLE,(662) 369-8933
53147,280300000591,MOSS POINT KREOLE PRIMARY SCHOOL,6312 MARTIN LUTHER KING BLVD,MOSS POINT,MS,39563,0727,(228) 475-3719
53544,280383001270,NORTHSHORE ELEMENTARY,110 NORTHSHORE PARKWAY,BRANDON,MS,39047,NOT AVAILABLE,(601) 992-5279
55292,280171001113,GULFPORT VOCATIONAL ANNEX,100 PERRY STREET,GULFPORT,MS,39507,NOT AVAILABLE,(228) 896-6011
59893,280063000058,GORENFLO ELEMENTARY SCHOOL,771 ELDER STREET,BILOXI,MS,39530,NOT AVAILABLE,(228) 436-5145
80778,280219000394,KEY ELEMENTARY SCHOOL,699 W. MCDOWELL ROAD,JACKSON,MS,39204,NOT AVAILABLE,(601) 371-4333
85851,280255000492,GUNTOWN MIDDLE SCHOOL,1539 MAIN ST.,GUNTOWN,MS,38849,NOT AVAILABLE,(662) 348-8801
89058,280477000887,BETTIE E WOOLFOLK MIDDLE SCHOOL,209 W. 5TH ST,YAZOO CITY,MS,39194,NOT AVAILABLE,(662) 746-2904
93196,280039001151,KOSSUTH ELEMENTARY SCHOOL,14 CR 604,CORINTH,MS,38834,NOT AVAILABLE,(662) 286-2761
93249,280117000151,JEFFERSON MIDDLE SCHOOL,611 OWENS STREET,COLUMBIA,MS,39429,3135,(601) 736-2786
95639,280105000119,W.A. HIGGINS MIDDLE SCHOOL ACADEMY,1749 CHESTNUT STREET,CLARKSDALE,MS,38614,NOT AVAILABLE,(662) 627-8550
40889,280348000561,PASCAGOULA OPPORTUNITY CENTER,1520 TUCKER AVENUE,PASCAGOULA,MS,39567,NOT AVAILABLE,(228) 938-6222
91503,280222000426,JEFFERSON CO ELEM SCHOOL,430 HWY 33,FAYETTE,MS,39069,NOT AVAILABLE,(601) 786-6003
94166,280105000128,BOOKER T WASHINGTON INTERN. STUDIES,1806 SUNFLOWER,CLARKSDALE,MS,38614,NOT AVAILABLE,(662) 627-8567
96113,280018701418,EAST SUNFLOWER SCHOOL,212 EAST CLAIBORNE STREET,SUNFLOWER,MS,38778,NOT AVAILABLE,(662) 569-3137
96615,280147000214,HAWKINS MIDDLE SCHOOL,803 OAK STREET,FOREST,MS,39074,NOT AVAILABLE,(601) 469-1474
98126,280109000133,CLINTON PARK ELEM SCHOOL,501 ARROW DRIVE,CLINTON,MS,39056,NOT AVAILABLE,(601) 924-5205
65275,280099000110,ACKERMAN ELEM,8475 MS HWY 15,ACKERMAN,MS,39735,NOT AVAILABLE,(662) 285-4052
69290,280189001037,SIMMONS HIGH SCHOOL,501 WEST WASHINGTON STREET,HOLLANDALE,MS,38748,NOT AVAILABLE,(662) 827-2228
69798,280228000986,SOUTH JONES ELEMENTARY SCHOOL,27 WARRIOR ROAD,ELLISVILLE,MS,39437,NOT AVAILABLE,(601) 477-3577
40439,280171000268,ANNISTON AVENUE ELEMENTARY SCHOOL,2314 JONES STREET,GULFPORT,MS,39507,NOT AVAILABLE,(228) 896-6309
44027,280393000751,SENATOBIA HIGH SCHOOL,221 WARRIOR DRIVE,SENATOBIA,MS,38668,2726,(662) 562-4230
48497,280352001181,PEARL UPPER SCHOOL,400 TREASURE COVE,PEARL,MS,39208,NOT AVAILABLE,(601) 932-7981
48618,280180001019,MARY BETHUNE ALTERNATIVE,610 DUMAS AVE,HATTIESBURG,MS,39401,NOT AVAILABLE,(601) 584-6311
49310,280138000204,HEIDELBERG HIGH SCHOOL,804 NORTH PINE AVE,HEIDELBERG,MS,39439,NOT AVAILABLE,(601) 787-3414
86419,280090001026,CANTON CAREER CENTER,487 NORTH UNION EXTENSION,CANTON,MS,39046,NOT AVAILABLE,(601) 859-3984
88768,280045000030,AMORY MIDDLE SCHOOL,700 2ND AVENUE NORTH,AMORY,MS,38821,NOT AVAILABLE,(662) 256-5658
12000,280405001250,BATESVILLE MIDDLE SCHOOL,509 TIGER DRIVE,BATESVILLE,MS,38606,NOT AVAILABLE,(662) 563-1924
16195,280168000900,GRENADA ELEMENTARY SCHOOL,250 PENDER DRIVE,GRENADA,MS,38901,NOT AVAILABLE,(662) 226-2584
52440,280132000979,DESOTO CENTRAL MIDDLE SCHOOL,2611 CENTRAL PARKWAY,SOUTHAVEN,MS,38672,NOT AVAILABLE,(662) 349-6660
20652,280195000338,HOLLY SPRINGS CAREER & TECH CENTER,410 EAST FALCONER,HOLLY SPRINGS,MS,38635,NOT AVAILABLE,(662) 252-2071
26563,280288001061,KENNEDY ELEMENTARY SCHOOL,207 S MYRTLE STREET,MCCOMB,MS,39648,NOT AVAILABLE,(601) 684-2889
26570,280383001076,NORTHWEST RANKIN HIGH SCHOOL,5805 HIGHWAY 25,FLOWOOD,MS,39232,6196,(601) 992-2242
27785,280129000957,COVINGTON COUNTY ALTERNATIVE SCHOOL,1104 S. ELM ST.,COLLINS,MS,39428,NOT AVAILABLE,(601) 765-1465
28314,280138001315,HEIDELBERG JUNIOR HIGH SCHOOL,804 NORTH PINE AVENUE,HEIDELBERG,MS,39439,NOT AVAILABLE,(601) 787-3665
29230,280120000154,COLUMBUS HIGH SCHOOL,215 HEMLOCK STREET,COLUMBUS,MS,39702,NOT AVAILABLE,(662) 241-7200
30756,280447001094,SOUTH PARK ELEMENTARY SCHOOL,6530 NAILOR ROAD,VICKSBURG,MS,39180,NOT AVAILABLE,(601) 636-1271
30929,280348000671,WILLIAM M COLMER MIDDLE SCHOOL,3112 EDEN STREET,PASCAGOULA,MS,39581,NOT AVAILABLE,(228) 938-6473
31039,280363000697,PICAYUNE JUNIOR HIGH SCHOOL,702 GOODYEAR BLVD.,PICAYUNE,MS,39466,3220,(601) 798-5449
34474,280039000837,ALCORN ALTERNATIVE SCHOOL,2101A NORMAN ROAD,CORINTH,MS,38834,NOT AVAILABLE,(662) 284-3359
37772,280132001275,LEWISBURG ELEMENTARY SCHOOL,1717 CRAFT ROAD,OLIVE BRANCH,MS,38654,NOT AVAILABLE,(662) 895-8750
38999,280444000836,TYLERTOWN HIGH SCHOOL,204 HIGH SCHOOL ROAD,TYLERTOWN,MS,39667,NOT AVAILABLE,(601) 876-3370
869,280321000909,NORTH PANOLA ACHIEVEMENT ACADEMY,202 LEWERS ROAD,COMO,MS,38619,NOT AVAILABLE,(662) 526-5408
2898,280096000108,HOULKA ATTENDANCE CENTER,510 GRIFFIN AVE.,HOULKA,MS,38850,NOT AVAILABLE,(662) 568-2772
105468,280019501491,WILLIAMS-SULLIVAN MIDDLE SCHOOL,14494 HIGHWAY 51,DURANT,MS,39063,NOT AVAILABLE,(662) 653-6262
60623,280219000393,JOHNSON ELEMENTARY SCHOOL,1339 OAKPARK DRIVE,JACKSON,MS,39213,NOT AVAILABLE,(601) 987-3501
62630,280162000252,WEDDINGTON ELEMENTARY SCHOOL,668 SAMPSON ROAD,GREENVILLE,MS,38701,NOT AVAILABLE,(662) 334-7101
62701,280408000770,OSYKA ELEMENTARY SCHOOL,444 AMITE STREET,OSYKA,MS,39657,NOT AVAILABLE,(601) 783-0427
63276,280288000557,BUSINESS & TECHNOLOGY COMPLEX,1003 VIRGINIA AVENUE,MCCOMB,MS,39648,NOT AVAILABLE,(601) 684-5288
65354,280177000297,SAUCIER ELEMENTARY SCHOOL,24052 FIRST STREET,SAUCIER,MS,39574,NOT AVAILABLE,(228) 832-2440
65408,280243000469,NORTHEAST LAUDERDALE HIGH SCHOOL,702 BRIARWOOD ROAD,MERIDIAN,MS,39305,NOT AVAILABLE,(601) 679-8523
69171,280087001104,CALHOUN CITY ELEMENTARY SCHOOL,506 EAST SEAMANS,CALHOUN CITY,MS,38916,NOT AVAILABLE,(662) 628-5111
18312,280279000989,SHIRLEY D. SIMMONS MIDDLE SCHOOL,820 SULPHUR SPRINGS ROAD,CANTON,MS,39046,NOT AVAILABLE,(601) 855-2406
19615,280186000328,RAYMOND HIGH SCHOOL,14050 HWY 18,RAYMOND,MS,39154,NOT AVAILABLE,(601) 857-8016
46112,280018501401,WEST BOLIVAR DIST HIGH SCHOOL,405 NORTH MAIN,ROSEDALE,MS,38769,NOT AVAILABLE,(662) 759-3346
47772,280231000452,EAST KEMPER ATTENDANCE CENTER,132 BINNSVILLE ROAD,SCOOBA,MS,39358,NOT AVAILABLE,(662) 476-8423
20116,280141000207,CHARLESTON HIGH SCHOOL,310 N. COSSAR,CHARLESTON,MS,38921,NOT AVAILABLE,(662) 647-5359
20804,280399000755,MAGEE HIGH SCHOOL,501 E CHOCTAW STREET,MAGEE,MS,39111,NOT AVAILABLE,(601) 849-2263
23396,280375000718,MARIETTA ELEMENTARY SCHOOL,42 CR 4070,MARIETTA,MS,38856,NOT AVAILABLE,(662) 728-4770
27411,280300000589,MOSS POINT ESCATAWPA UPPER ELEM,4208 JAMESTOWN ROAD,MOSS POINT,MS,39562,NOT AVAILABLE,(228) 474-3300
76398,280432001004,TUPELO ALTERNATIVE SCHOOL,903 FILLMORE DRIVE,TUPELO,MS,38801,NOT AVAILABLE,(662) 841-8956
79470,280099000112,CHOCTAW CO VOCATIONAL COMPLEX,501 EAST CHURCH STREET,ACKERMAN,MS,39735,NOT AVAILABLE,(662) 285-4160
851,280273001460,GOLDEN TRIANGLE EARLY COLLEGE,8731 SOUTH FRONTAGE ROAD,MAYHEW,MS,39753,NOT AVAILABLE,(662) 243-1770
3420,280243001348,CLARKDALE HIGH SCHOOL,7000 HIGHWAY 145,MERIDIAN,MS,39301,NOT AVAILABLE,(601) 693-4463
7858,280432000819,TUPELO HIGH SCHOOL,4125 GOLDEN WAVE DRIVE,TUPELO,MS,38801,NOT AVAILABLE,(662) 841-8970
8620,280360000692,PHILADELPHIA HIGH SCHOOL,248 BYRD AVE.,PHILADELPHIA,MS,39350,NOT AVAILABLE,(601) 656-2672
32132,280162000251,WEBB PREPARATORY SCHOOL,600 S. HARVEY STREET,GREENVILLE,MS,38701,NOT AVAILABLE,(662) 334-7146
33050,280447000843,WARREN CENTRAL JUNIOR HIGH SCHOOL,1630 BALDWIN FERRY ROAD,VICKSBURG,MS,39180,NOT AVAILABLE,(601) 638-3981
53673,280429001579,TCS ALTERNATIVE SCHOOL,1100 ROSA FORT DRIVE,TUNICA,MS,38676,NOT AVAILABLE,(662) 363-1343
58392,280282001060,WEST MARION PRIMARY SCHOOL,20 CEDAR STREET,FOXWORTH,MS,39483,NOT AVAILABLE,(601) 736-3713
59406,280447000844,WARRENTON ELEMENTARY SCHOOL,809 BELVA DRIVE,VICKSBURG,MS,39180,NOT AVAILABLE,(601) 636-7549
80145,280219000415,SYKES ELEMENTARY SCHOOL,3555 SIMPSON STREET,JACKSON,MS,39212,NOT AVAILABLE,(601) 371-4303
80640,280288000972,DENMAN JUNIOR HIGH SCHOOL,1211 LOUISIANA AVENUE,MCCOMB,MS,39648,NOT AVAILABLE,(601) 684-2387
82838,280216000964,VANCLEAVE LOWER ELEMENTARY,12602 HWY 57,VANCLEAVE,MS,39565,NOT AVAILABLE,(228) 283-3900
84509,280234000461,KOSCIUSKO UPPER ELEM,120 4TH AVENUE,KOSCIUSKO,MS,39090,NOT AVAILABLE,(662) 289-2264
84598,280228001237,WEST JONES ELEMENTARY SCHOOL,5652 HIGHWAY 84 WEST,LAUREL,MS,39443,NOT AVAILABLE,(601) 763-4850
87898,280372001073,POPLARVILLE CAREER DEVELOPMENT CTR,9 CAREER CENTER CIRCLE,POPLARVILLE,MS,39470,NOT AVAILABLE,(601) 795-8343
88991,280348000935,GAUTIER HIGH SCHOOL,4307 GAUTIER/VANCLEAVE,GAUTIER,MS,39553,NOT AVAILABLE,(228) 522-8783
89348,280063001263,NICHOLS ELEMENTARY SCHOOL,590 DIVISION STREET,BILOXI,MS,39530,NOT AVAILABLE,(228) 374-7250
100067,280348000670,COLLEGE PARK ELEM,2617 LADNIER RD,GAUTIER,MS,39553,NOT AVAILABLE,(228) 522-8829
100075,280435000822,INGOMAR ATTENDANCE CENTER,1384 CR 101,NEW ALBANY,MS,38652,NOT AVAILABLE,(662) 534-5463
102212,280300000558,MOSS POINT ALTERNATIVE SCHOOL,3524 PRENTISS AVE,MOSS POINT,MS,39563,NOT AVAILABLE,(228) 475-3543
105461,280018701533,ROSSER EARLY LEARNING CENTER,601 INGRAM STREET,MOORHEAD,MS,38761,NOT AVAILABLE,(662) 246-5395
105473,280019601493,WINONA ELEMENTARY SCHOOL,513 SOUTH APPLEGATE STREET,WINONA,MS,38967,NOT AVAILABLE,(662) 283-4129
105488,280019801523,CAREER AND TECHNICAL CENTER,616 SYCAMORE AVENUE,GREENWOOD,MS,38930,NOT AVAILABLE,(662) 455-7414
105496,280240001487,LUMBERTON ELEMENTARY,7922 US HIGHWAY 11 S,LUMBERTON,MS,39455,NOT AVAILABLE,(601) 796-3721
25300,280279000937,HIGHLAND ELEMENTARY,330 BRAME ROAD,RIDGELAND,MS,39157,NOT AVAILABLE,(601) 853-8103
26969,280120000616,CMSD ALTERNATIVE SCHOOL,924 20TH STREET NORTH,COLUMBUS,MS,39701,NOT AVAILABLE,(662) 241-7250
28232,280471000879,WILKINSON COUNTY HIGH,522 POND PINCKNEYVILLE POND ROAD,WOODVILLE,MS,39669,NOT AVAILABLE,(601) 888-4228
847,280019101461,WEST POINT LEARNING CENTER,8355 HIGHWAY 45 ALT NORTH,WEST POINT,MS,39773,NOT AVAILABLE,(662) 494-5967
853,280288001456,SUMMIT ELEMENTARY SCHOOL,1201 BALDWIN STREET,SUMMIT,MS,39666,NOT AVAILABLE,(601) 276-3077
999,280447000401,CENTER FOR ALTERNATIVE PROGRAMS,2406 GROVE STREET,VICKSBURG,MS,39183,NOT AVAILABLE,(601) 638-5122
3252,280453000849,WAYNE CENTRAL ELEMENTARY SCHOOL,1022 AZALEA DRIVE,WAYNESBORO,MS,39367,2504,(601) 735-2205
3285,280411000778,RIPLEY HIGH SCHOOL,720 S CLAYTON STREET,RIPLEY,MS,38663,NOT AVAILABLE,(662) 837-7583
5231,280279000939,MADISON CO. ALTERNATIVE SCHOOL,300 INDUSTRIAL DRIVE SOUTH,MADISON,MS,39110,NOT AVAILABLE,(601) 607-7963
31395,280255000494,MOOREVILLE HIGH SCHOOL,115 ROAD 1429,MOOREVILLE,MS,38857,NOT AVAILABLE,(662) 842-6859
33409,280383000711,FLOWOOD ELEMENTARY SCHOOL,102 WINNER'S CIRCLE,FLOWOOD,MS,39232,NOT AVAILABLE,(601) 992-6277
36188,280201000344,HOUSTON LOWER ELEMENTARY,123 STARKVILLE STREET,HOUSTON,MS,38851,NOT AVAILABLE,(662) 456-3323
36266,280099000113,FRENCH CAMP ELEM SCHOOL,300 CHURCH STREET,FRENCH CAMP,MS,39745,NOT AVAILABLE,(662) 547-7102
36901,280348000669,CHEROKEE ELEMENTARY SCHOOL,4102 SCOVEL RD,PASCAGOULA,MS,39581,NOT AVAILABLE,(228) 938-6547
12207,280228000985,EAST JONES ELEMENTARY SCHOOL,108 NORTHEAST DRIVE,LAUREL,MS,39443,NOT AVAILABLE,(601) 425-9799
63394,280375000721,THRASHER HIGH SCHOOL,167 CR 1040,BOONEVILLE,MS,38829,NOT AVAILABLE,(662) 728-5233
70259,280039000017,BIGGERSVILLE ELEMENTARY,571 A HIGHWAY 45 SOUTH,CORINTH,MS,38834,NOT AVAILABLE,(662) 286-6593
72146,280177001351,CROSSROADS ELEMENTARY SCHOOL,10453 KLEIN ROAD,GULFPORT,MS,39503,NOT AVAILABLE,(228) 832-6711
73780,280240001200,LAMAR CO VOC TECH CENTER,41 COLLEGE DRIVE,PURVIS,MS,39475,NOT AVAILABLE,(601) 794-8298
74190,280219000422,WILKINS ELEMENTARY SCHOOL,1970 CASTLE HILL DRIVE,JACKSON,MS,39204,NOT AVAILABLE,(601) 371-4306
74203,280330000643,B F LIDDELL MIDDLE SCHOOL,200 NORTH WAYNE STREET,MACON,MS,39341,NOT AVAILABLE,(662) 726-4880
77612,280219000397,LEE ELEMENTARY SCHOOL,330 JUDY STREET,JACKSON,MS,39212,NOT AVAILABLE,(601) 371-4336
79178,280444001015,WALTHALL CO CAREER AND TECH CENTER,803 BALL AVENUE,TYLERTOWN,MS,39667,NOT AVAILABLE,(601) 222-1500
40245,280177000285,DIBERVILLE SENIOR HIGH SCH,15625 LAMEY BRIDGE ROAD,BILOXI,MS,39532,NOT AVAILABLE,(228) 392-2678
41329,280471001149,WILKINSON COUNTY ELEMENTARY,522 POND PINCKNEYVILLE,WOODVILLE,MS,39669,1197,(601) 888-4331
44026,280459000857,BAY SPRINGS HIGH SCHOOL,510 HWY 18,BAY SPRINGS,MS,39422,0389,(601) 425-8510
45196,280018701410,A W JAMES ELEMENTARY SCHOOL,400 SOUTH BLVD,DREW,MS,38737,NOT AVAILABLE,(662) 745-8892
46294,280063000055,JEFF DAVIS ELEMENTARY SCHOOL,340 ST. MARY BLVD.,BILOXI,MS,39531,NOT AVAILABLE,(228) 436-5110
47147,280102001213,A. W. WATSON ELEMENTARY,880 ANTHONY ST.,PORT GIBSON,MS,39150,NOT AVAILABLE,(601) 437-5070
48522,280354001359,CENTER FOR ALTERNATIVE EDUCATION,461 BURGETOWN RD.,CARRIERE,MS,39426,NOT AVAILABLE,(601) 798-6852
83235,280099000112,CHOCTAW CO VOCATIONAL COMPLEX,501 EAST CHURCH STREET,ACKERMAN,MS,39735,NOT AVAILABLE,(662) 285-4152
83604,280282000545,EAST MARION HIGH SCHOOL,527 EAST MARION SCHOOL ROAD,COLUMBIA,MS,39429,NOT AVAILABLE,(601) 736-3006
88249,280109000134,CLINTON VOC COMPLEX,401 ARROW DRIVE,CLINTON,MS,39056,NOT AVAILABLE,(601) 924-0247
89385,280216000368,VANCLEAVE UPPER ELEMENTARY,13901 HWY 57,VANCLEAVE,MS,39565,NOT AVAILABLE,(228) 283-3838
50794,280336001392,OCEAN SPRINGS UPPER ELEMENTARY SCHO,2320 GOVERNMENT STREET,OCEAN SPRINGS,MS,39564,NOT AVAILABLE,(228) 875-4367
50928,280240001395,LONGLEAF ELEMENTARY,5279 W. 4TH STREET,HATTIESBURG,MS,39402,NOT AVAILABLE,(601) 264-3858
51751,280447001186,BEECHWOOD ELEMENTARY SCHOOL,999 HIGHWAY 27 S,VICKSBURG,MS,39180,NOT AVAILABLE,(601) 638-3874
54294,280090001465,CANTON PUBLIC 9TH GRADE SCHOOL,634 FINNEY ROAD,CANTON,MS,39046,NOT AVAILABLE,(601) 859-3866
54624,280075001476,D.M. SMITH ELEMENTARY,715 MARTIN LUTHER KING DR,CLEVELAND,MS,38732,NOT AVAILABLE,(662) 843-4355
90432,280390000747,MORTON ELEMENTARY SCHOOL,265 E SECOND AVENUE,MORTON,MS,39117,NOT AVAILABLE,(601) 732-8529
91572,280243000468,CLARKDALE MIDDLE SCHOOL,7000 HIGHWAY 145,MERIDIAN,MS,39301,NOT AVAILABLE,(601) 693-4463
92121,280291000564,MAGNOLIA MIDDLE SCHOOL,1350 24TH STREET,MERIDIAN,MS,39305,NOT AVAILABLE,(601) 484-4064
93498,280255001276,MOOREVILLE MIDDLE SCHOOL,964 CR 1409,MOOREVILLE,MS,38857,NOT AVAILABLE,(662) 680-4894
95192,280390000748,SCOTT CENTRAL ATTENDANCE CENTER,2415 OLD JACKSON ROAD,FOREST,MS,39074,NOT AVAILABLE,(601) 469-4883
105500,280327001534,FALKNER ATTENDANCE CENTER,20771 HWY. 15,FALKNER,MS,38629,NOT AVAILABLE,(662) 837-3947
65575,280228000439,GLADE ELEMENTARY SCHOOL,990 HIGHWAY 15 SOUTH,LAUREL,MS,39443,NOT AVAILABLE,(601) 428-4265
69178,280393000750,SENATOBIA ELEMENTARY SCHOOL,301 MARVIN STREET,SENATOBIA,MS,38668,2576,(662) 562-9613
10153,280423001295,STRAYHORN HIGH SCHOOL,86 MUSTANG DRIVE,SARAH,MS,38665,3402,(662) 562-9246
14959,280309001160,NETTLETON INTERMEDIATE SCHOOL,179 MULLEN AVENUE,NETTLETON,MS,38858,NOT AVAILABLE,(662) 963-7406
83145,280408000769,EVA GORDON UPPER ELEMENTARY SCHOOL,1147 NORTH CLARK STREET,MAGNOLIA,MS,39652,NOT AVAILABLE,(601) 783-0432
84951,280105000118,CLARKSDALE HIGH SCHOOL,1101 WILDCAT DRIVE,CLARKSDALE,MS,38614,NOT AVAILABLE,(662) 627-8530
88680,280363000695,PICAYUNE MEMORIAL HIGH SCHOOL,800 FIFTH AVENUE,PICAYUNE,MS,39466,NOT AVAILABLE,(601) 798-1380
89729,280285001291,BYHALIA MIDDLE SCHOOL (5-8),172 HIGHWAY 309 NORTH,BYHALIA,MS,38611,NOT AVAILABLE,(662) 838-2591
3636,280216001045,EAST CENTRAL HIGH SCHOOL,21700 SLIDER RD.,MOSS POINT,MS,39562,NOT AVAILABLE,(228) 588-7000
4291,280120000164,SALE ELEMENTARY SCHOOL,520 WARPATH ROAD,COLUMBUS,MS,39702,NOT AVAILABLE,(662) 241-7260
32813,280153000225,FRANKLIN CAREER & TECHNICAL CENTER,129 VO-TECH LANE,MEADVILLE,MS,39653,NOT AVAILABLE,(601) 384-5889
37412,280177001347,WEST HARRISON HIGH SCHOOL,10399 COUNTY FARM ROAD,GULFPORT,MS,39503,NOT AVAILABLE,(228) 539-8900
38216,280327000638,FALKNER HIGH SCHOOL,20350 HWY 15,FALKNER,MS,38629,NOT AVAILABLE,(662) 837-7892
38217,280426000806,TISH. CO. CAREER AND TECHNICAL CENT,1421 HWY 25 N,TISHOMINGO,MS,38873,NOT AVAILABLE,(662) 438-6689
41886,280285001268,H. W. BYERS ELEMENTARY (K-4),4178 HIGHWAY 72 EAST,HOLLY SPRINGS,MS,38635,NOT AVAILABLE,(662) 851-7826
44155,280294000581,HATLEY HIGH SCHOOL,60286 HATLEY ROAD,AMORY,MS,38821,NOT AVAILABLE,(662) 256-4563
45810,280018501420,JOE BARNES VOCATIONAL CENTER,505 BRADFORD STREET,ROSEDALE,MS,38769,NOT AVAILABLE,(662) 759-3791
48496,280219001054,NORTH JACKSON ELEMENTARY SCHOOL,650 N. JAMES M. DAVIS DRIVE,JACKSON,MS,39206,NOT AVAILABLE,(601) 987-3528
52867,280417000790,STONE HIGH SCHOOL,400 EAST BORDER AVE.,WIGGINS,MS,39577,NOT AVAILABLE,(601) 928-5492
54484,280111000141,FRIARS POINT ELEMENTARY SCHOOL,350 SOUTH STREET,FRIARS POINT,MS,38631,NOT AVAILABLE,(662) 383-2477
70652,280060000048,ASHLAND ELEMENTARY SCHOOL,768 LAMAR ROAD,ASHLAND,MS,38603,NOT AVAILABLE,(662) 224-6622
21900,280219000379,CASEY ELEMENTARY SCHOOL,2101 LAKE CIRCLE,JACKSON,MS,39211,NOT AVAILABLE,(601) 987-3510
22034,280120000152,STOKES BEARD ELEMENTARY SCHOOL,311 MARTIN LUTHER KING DR.,COLUMBUS,MS,39701,NOT AVAILABLE,(662) 241-7270
22737,280087000098,CALHOUN CITY HIGH SCHOOL,201 NORTH BEADLE,CALHOUN CITY,MS,38916,NOT AVAILABLE,(662) 628-5112
27814,280381000731,QUITMAN CO VOCATIONAL COMPLEX,HWY # 3 SOUTH,MARKS,MS,38646,NOT AVAILABLE,(662) 326-8427
92136,280087001102,BRUCE ELEMENTARY SCHOOL,136 SOUTH MCSWEYN,BRUCE,MS,38915,NOT AVAILABLE,(662) 983-3373
94605,280216000963,ST. MARTIN MIDDLE SCHOOL,10800 YELLOW JACKET BLVD.,OCEAN SPRINGS,MS,39564,NOT AVAILABLE,(228) 818-4833
95830,280186000322,CARVER MIDDLE SCHOOL,560 PORT GIBSON ST.,RAYMOND,MS,39154,0100,(601) 857-5006
95854,280018601411,NORTHSIDE HIGH SCHOOL,1305 MARTIN LUTHER KING DRIVE,SHELBY,MS,38774,0149,(662) 398-2378
100131,280180001570,HAWKINS ELEMENTARY SCHOOL,526 FORREST STREET,HATTIESBURG,MS,39401,NOT AVAILABLE,(601) 583-4311
105471,280019501503,GOODMAN PICKENS ELEMENTARY SCHOOL,3877 HIGHWAY 51 SOUTH,GOODMAN,MS,39079,NOT AVAILABLE,(662) 468-2116
105475,280019701510,AMBITION PREPARATORY CHARTER SCHOOL,5331 CLINTON BLVD.,JACKSON,MS,39209,3003,(601) 850-1798
105482,280019801517,THREADGILL PRIMARY SCHOOL,1300 CARROLLTON AVENUE,GREENWOOD,MS,38930,NOT AVAILABLE,(662) 644-0685
105485,280019801520,CLAUDINE F BROWN ELEMENTARY SCHOOL,3827 COUNTY ROAD 363,GREENWOOD,MS,38930,NOT AVAILABLE,(662) 459-8005
