OBJECTID,NCESID,NAME,ADDRESS,CITY,STATE,ZIP,ZIP4,TELEPHONE
14001,350261000591,ARREY ELEMENTARY,7 ARREY CEMETERY RD,ARREY,NM,87930,NOT AVAILABLE,(575) 894-8150
15684,350006000053,JANET KAHN FINE ARTS ACADEMY,9717 INDIAN SCHOOL RD NE,ALBUQUERQUE,NM,87112,NOT AVAILABLE,(505) 299-4483
16199,350006000025,ALVARADO ELEMENTARY,1100 SOLAR RD NW,ALBUQUERQUE,NM,87107,NOT AVAILABLE,(505) 344-4412
18278,350069000242,MEMORIAL ELEMENTARY,1000 SOUTH 10TH ST,DEMING,NM,88030,NOT AVAILABLE,(575) 546-2502
19098,350129000359,HONDO ELEMENTARY,111 DON PABLO LANE,HONDO,NM,88336,NOT AVAILABLE,(575) 653-4411
776,590003900098,TE TSU GEH OWEENGE DAY SCHOOL,TESUQUE PUEBLO,TESUQUE PUEBLO,NM,87506,NOT AVAILABLE,(505) 303-1255
6181,350237001139,MILAGRO MIDDLE,351 W. ZIA ROAD,SANTA FE,NM,87505,NOT AVAILABLE,(505) 467-3300
6188,350006000962,LA RESOLANA LEADERSHIP,230 TRUMAN NE,ALBUQUERQUE,NM,87108,NOT AVAILABLE,(505) 243-8114
8550,350006000066,HOOVER MIDDLE,12015 TIVOLI NE,ALBUQUERQUE,NM,87111,NOT AVAILABLE,(505) 298-6896
9014,350006000019,JOHN ADAMS MIDDLE,5401 GLENRIO RD NW,ALBUQUERQUE,NM,87105,NOT AVAILABLE,(505) 831-0400
48076,350006000108,SCHOOL ON WHEELS HIGH SCHOOL,129 HARTLINE RD SW,ALBUQUERQUE,NM,87105,NOT AVAILABLE,(505) 243-2395
63057,350006000457,SIERRA ALTERNATIVE,2611 EUBANK NE,ALBUQUERQUE,NM,87112,NOT AVAILABLE,(505) 296-6708
69664,350001000736,ERNEST STAPLETON ELEMENTARY,3100 STAPLETON AVE NE,RIO RANCHO,NM,87124,NOT AVAILABLE,(505) 891-8473
105770,350001001159,JOE HARRIS ELEMENTARY,2100 10TH STREET SE,RIO RANCHO,NM,87124,NOT AVAILABLE,(505) 896-0706
105774,350006000890,GILBERT L SENA CHARTER HS,69 HOTEL CIR NE,ALBUQUERQUE,NM,87123,NOT AVAILABLE,(505) 237-2374
20795,350018000146,RIO GRANDE ELEMENTARY,15 EASTSIDE SCHOOL RD,BELEN,NM,87002,NOT AVAILABLE,(505) 966-2200
22239,350057000208,BARRY ELEMENTARY,3401 THORNTON ST,CLOVIS,NM,88101,NOT AVAILABLE,(575) 769-4300
22347,350030000169,CARLSBAD INTERMEDIATE SCHOOL,800 WEST CHURCH,CARLSBAD,NM,88220,NOT AVAILABLE,(575) 234-3300
25250,350225000517,MONTERREY ELEMENTARY,910 WEST GAYLE ST,ROSWELL,NM,88203,NOT AVAILABLE,(575) 637-3475
26250,350024000156,BLOOMFIELD HIGH,520 NORTH FIRST ST,BLOOMFIELD,NM,87413,NOT AVAILABLE,(505) 634-3400
26265,350225000508,DEL NORTE ELEMENTARY,2701 NORTH GARDEN AVE,ROSWELL,NM,88201,NOT AVAILABLE,(575) 637-3325
26516,350108000631,GADSDEN MIDDLE,1301 WEST WASHINGTON,ANTHONY,NM,88021,NOT AVAILABLE,(575) 882-6203
80281,350177000694,MAGDALENA MIDDLE,201 DUGGINS DR,MAGDALENA,NM,87825,NOT AVAILABLE,(575) 854-2241
86021,350006000070,JOHN BAKER ELEMENTARY,12015-B TIVOLI ST NE,ALBUQUERQUE,NM,87111,NOT AVAILABLE,(505) 298-7486
87120,350006000856,VISION QUEST ALTERNATIVE MIDDLE,5401 GLENRIO RD NW,ALBUQUERQUE,NM,87105,NOT AVAILABLE,(505) 352-0343
88397,350006000065,L.B. JOHNSON MIDDLE,6811 TAYLOR RANCH DR NW,ALBUQUERQUE,NM,87120,NOT AVAILABLE,(505) 898-1492
31749,350117000334,MOUNT TAYLOR ELEMENTARY,1607 DEL NORTE,GRANTS,NM,87020,NOT AVAILABLE,(505) 285-2740
35966,350174000446,LEA ELEMENTARY,1202 WEST BIRCH AVE,LOVINGTON,NM,88260,NOT AVAILABLE,(575) 739-2625
36657,350213000493,QUEMADO HIGH,HWY 60,QUEMADO,NM,87829,NOT AVAILABLE,(575) 773-4700
38370,350168000792,DESERT VIEW ELEMENTARY,49 CAMINO LA CANADA,LOS LUNAS,NM,87031,NOT AVAILABLE,(505) 866-8231
95567,350030001109,CARLSBAD EARLY COLLEGE HIGH,1500 UNIVERSITY DR,CARLSBAD,NM,88220,NOT AVAILABLE,(575) 234-9415
97602,350001000101,RIO RANCHO ELEMENTARY,4601 PEPE ORTIZ SE,RIO RANCHO,NM,87124,NOT AVAILABLE,(505) 892-0220
51006,350165000434,PINON ELEMENTARY,90 GRAND CANYON DR,WHITE ROCK,NM,87547,NOT AVAILABLE,(505) 663-2680
51890,350006000020,ADOBE ACRES ELEMENTARY,1724 CAMINO DEL VALLE SW,ALBUQUERQUE,NM,87105,NOT AVAILABLE,(505) 877-4799
59097,350006000124,ZIA ELEMENTARY,440 JEFFERSON ST NE,ALBUQUERQUE,NM,87108,NOT AVAILABLE,(505) 260-2020
70392,350018000145,JARAMILLO ELEMENTARY,900 ESPERANZA DR,BELEN,NM,87002,NOT AVAILABLE,(505) 966-2001
70594,350117000332,MESA VIEW ELEMENTARY,400 EAST WASHINGTON,GRANTS,NM,87020,NOT AVAILABLE,(505) 285-2717
70885,350030000170,MONTERREY ELEMENTARY,1101 NORTH 9TH ST,CARLSBAD,NM,88220,NOT AVAILABLE,(575) 234-3300
72366,350123000666,HATCH VALLEY MIDDLE,901 EAST HERRERA,HATCH,NM,87937,NOT AVAILABLE,(575) 267-8250
74398,350006000094,REGINALD CHAVEZ ELEMENTARY,2700 MOUNTAIN RD NW,ALBUQUERQUE,NM,87104,NOT AVAILABLE,(505) 764-2008
78024,350183000466,MELROSE HIGH,100 MISSOURI AVE,MELROSE,NM,88124,NOT AVAILABLE,(575) 253-4267
79547,350048000199,EAGLE NEST ELEMENTARY,132 NORTH COLLISON,EAGLE NEST,NM,87718,NOT AVAILABLE,(575) 376-2445
710,350039001115,JUDY NELSON ELEMENTARY,40 RD 6580,KIRTLAND,NM,87417,NOT AVAILABLE,(505) 598-6285
3641,350231000464,SIERRA VISTA PRIMARY,199 WHITE MOUNTAIN DR,RUIDOSO,NM,88345,NOT AVAILABLE,(575) 258-4943
4225,350171000443,LOVING HIGH,602 SOUTH SIXTH,LOVING,NM,88256,NOT AVAILABLE,(575) 745-2020
5137,350006000924,ALICE KING COMMUNITY SCHOOL,8100 MOUNTAIN RD. NE,ALBUQUERQUE,NM,87110,NOT AVAILABLE,(505) 344-0746
5659,350186000637,MORA ELEMENTARY,HWY 518 AND RANGER DR,MORA,NM,87732,NOT AVAILABLE,(575) 387-3132
8828,350051000203,CLAYTON HIGH,323 SOUTH 5TH ST,CLAYTON,NM,88415,NOT AVAILABLE,(575) 374-9611
40518,350198000475,MESA VISTA HIGH,HWY 285 JUNCTION 111,OJO CALIENTE,NM,87549,NOT AVAILABLE,(575) 583-2274
41707,350030000162,CARLSBAD SIXTH GRADE ACADEMY,301 SOUTH ALTA VISTA,CARLSBAD,NM,88220,NOT AVAILABLE,(575) 234-3300
44441,350147000375,LAKE ARTHUR HIGH,700 BROADWAY,LAKE ARTHUR,NM,88253,NOT AVAILABLE,(575) 365-2000
47287,350003000799,ACADEMY DEL SOL ALT.,1200 N FLORIDA AVE BLDG C,ALAMOGORDO,NM,88310,NOT AVAILABLE,(575) 812-5500
48077,350003000016,YUCCA ELEMENTARY,310 DALE SCOTT BLVD,ALAMOGORDO,NM,88310,NOT AVAILABLE,(575) 812-6900
63098,350111030021,DAVID SKEET ELEMENTARY,JONES RANCH RD 45,VANDERWAGEN,NM,87326,NOT AVAILABLE,(505) 721-1051
63332,350186000784,LAZARO LARRY GARCIA MIDDLE,HWY 518,MORA,NM,87732,NOT AVAILABLE,(575) 387-3127
65540,350174000445,JEFFERSON ELEMENTARY,300 WEST JEFFERSON AVE,LOVINGTON,NM,88260,NOT AVAILABLE,(575) 739-2540
67110,350006000916,EARLY COLLEGE ACADEMY,807 MOUNTAIN RD NE,ALBUQUERQUE,NM,87102,NOT AVAILABLE,(505) 247-3658
68552,350138000368,GALLINA ELEMENTARY,1903 STATE HIGHWAY 96,GALLINA,NM,87017,NOT AVAILABLE,(575) 638-5419
53554,590002800094,SAN ILDEFONSO DAY SCHOOL,36 TUNYO PO,SANTA FE,NM,87506,NOT AVAILABLE,(505) 455-2366
56228,350017600846,ROOTS & WINGS COMMUNITY,35 OLD LAMA RD,QUESTA,NM,87556,NOT AVAILABLE,(575) 586-2076
57278,350017901136,HOZHO ACADEMY,104 E AZTEC AVENUE,GALLUP,NM,87301,NOT AVAILABLE,(505) 722-4463
58415,350001001024,CLEVELAND HIGH SCHOOL,4800 CLEVELAND HEIGHTS RD NE,RIO RANCHO,NM,87144,NOT AVAILABLE,(505) 938-0300
59589,350006000046,MACARTHUR ELEMENTARY,1100 MACARTHUR RD NW,ALBUQUERQUE,NM,87107,NOT AVAILABLE,(505) 344-1482
95250,350000100607,VAUGHN ELEMENTARY,101 4TH,VAUGHN,NM,88353,NOT AVAILABLE,(575) 584-2283
80558,350030000166,EARLY CHILDHOOD EDUCATION CENTER,1801 WEST LEA,CARLSBAD,NM,88220,NOT AVAILABLE,(575) 234-3300
80839,350021000728,WD CARROLL ELEMENTARY,842 CAMINO DON TOMAS,BERNALILLO,NM,87004,NOT AVAILABLE,(505) 867-4441
100237,350153000406,ROBERTSON HIGH,1236 5TH STREET,LAS VEGAS,NM,87701,NOT AVAILABLE,(505) 454-5770
100279,350006000031,BARCELONA ELEMENTARY,2311 BARCELONA RD SW,ALBUQUERQUE,NM,87105,NOT AVAILABLE,(505) 877-0400
10121,590008100152,ISLETA ELEMENTARY SCHOOL,1000 MOONLIGHT DRIVE,ALBUQUERQUE,NM,87105,NOT AVAILABLE,(505) 869-2321
11924,350237000550,SALAZAR ELEMENTARY,1231 APACHE AVE.,SANTA FE,NM,87505,NOT AVAILABLE,(505) 467-3900
14833,350225000524,VALLEY VIEW ELEMENTARY,1400 S WASHINGTON,ROSWELL,NM,88203,NOT AVAILABLE,(575) 637-3600
19588,350162000424,LORDSBURG HIGH,501 WEST FOURTH ST,LORDSBURG,NM,88045,NOT AVAILABLE,(575) 542-3782
30297,350126000356,TAYLOR ELEMENTARY,1520 N. BRECKON,HOBBS,NM,88240,NOT AVAILABLE,(575) 433-2000
31830,350123000344,HATCH VALLEY HIGH,170 EAST HERRERA,HATCH,NM,87937,NOT AVAILABLE,(575) 267-8230
37256,350012000133,YUCCA ELEMENTARY,900 NORTH 13TH ST,ARTESIA,NM,88210,NOT AVAILABLE,(575) 746-3585
38736,350006000692,MARYANN BINFORD ELEMENTARY,1400 CORRIZ SW,ALBUQUERQUE,NM,87121,NOT AVAILABLE,(505) 836-0623
78026,350111000301,CROWNPOINT HIGH,#1 EAGLE DR,CROWNPOINT,NM,87313,NOT AVAILABLE,(505) 721-1051
25863,350039000186,SHIPROCK HIGH,HWY 64,SHIPROCK,NM,87420,NOT AVAILABLE,(505) 368-5161
27703,350099030006,FARMINGTON PRESCHOOL ACADEMY EAST,5840 FORTUNA,FARMINGTON,NM,87402,NOT AVAILABLE,(505) 324-9840
27731,350057000221,SANDIA ELEMENTARY,2801 LORE ST,CLOVIS,NM,88101,NOT AVAILABLE,(575) 769-4300
28153,350246000572,R. SARRACINO MIDDLE,1425 EL CAMINO REAL,SOCORRO,NM,87801,NOT AVAILABLE,(575) 835-0283
72236,350126000351,HOUSTON MIDDLE SCHOOL,300 NORTH HOUSTON,HOBBS,NM,88240,NOT AVAILABLE,(575) 433-1300
75044,350102000294,FLOYD ELEMENTARY,1564 NM 267,FLOYD,NM,88118,NOT AVAILABLE,(575) 478-2211
79117,350111000311,RAMAH ELEMENTARY,17 EVANS CIRCLE,RAMAH,NM,87321,NOT AVAILABLE,(505) 721-1051
90984,350216000495,ALTA VISTA INTERMEDIATE,4 WILDCAT RD,QUESTA,NM,87556,NOT AVAILABLE,(575) 586-0032
94206,350057000213,CLOVIS HIGH,1900 THORNTON,CLOVIS,NM,88101,NOT AVAILABLE,(575) 769-4300
97780,350048000197,CIMARRON ELEMENTARY,132 NORTH COLLISON AVE,CIMARRON,NM,87714,NOT AVAILABLE,(575) 376-2445
98301,350006000104,SAN ANTONITO ELEMENTARY,12555 N HWY 14,SANDIA PARK,NM,87047,NOT AVAILABLE,(505) 281-3931
100404,350018401149,RAICES DEL SABER XINACHTLI COMMUNITY SCHOOL,2211 NORTH VALLEY DRIVE,LAS CRUCES,NM,88007,NOT AVAILABLE,(575) 571-2177
101758,350225000509,EAST GRAND PLAINS ELEMENTARY,3773 EAST GRAND PLAINS,ROSWELL,NM,88203,NOT AVAILABLE,(575) 637-3350
105777,350006001074,ACE LEADERSHIP HIGH SCHOOL,1240 BELLAMAH AVE. NW,ALBUQUERQUE,NM,87104,NOT AVAILABLE,(505) 242-4733
82826,350003000005,HIGH ROLLS MOUNTAIN PARK ELEMENTARY,23 KARR CANYON,HIGH ROLLS,NM,88325,NOT AVAILABLE,(575) 812-5275
82832,350015000139,LYDIA RIPPEY ELEMENTARY,401 RIO PECOS RD,AZTEC,NM,87410,NOT AVAILABLE,(575) 334-9474
83183,350006000088,MITCHELL ELEMENTARY,10121 COMANCHE RD NE,ALBUQUERQUE,NM,87111,NOT AVAILABLE,(505) 299-1937
85904,350156000815,WLV FAMILY PARTNERSHIP,1341 SOUTH GONZALES ST,LAS VEGAS,NM,87701,NOT AVAILABLE,(505) 426-2559
87311,350006000030,BANDELIER ELEMENTARY,3309 PERSHING ST SE,ALBUQUERQUE,NM,87106,NOT AVAILABLE,(505) 255-8744
52206,350105000718,FORT SUMNER MIDDLE,1001 SUMNER AVE,FORT SUMNER,NM,88119,NOT AVAILABLE,(575) 355-7734
22870,350219000501,RATON INTERMEDIATE,500 SOUTH THIRD,RATON,NM,87740,NOT AVAILABLE,(575) 445-9881
60082,590010800157,PINE HILL SCHOOLS,1003 TURNERVILLE ROAD,PINE HILL,NM,87357,NOT AVAILABLE,(505) 775-3244
60555,350225000511,EL CAPITAN ELEMENTARY,2807 WEST BLAND ST,ROSWELL,NM,88203,NOT AVAILABLE,(575) 637-3400
61211,350006000102,ROOSEVELT MIDDLE,11799 STATE HIGHWAY 14S,TIJERAS,NM,87059,NOT AVAILABLE,(505) 281-3316
61548,350039000947,KIRTLAND PRE-K EARLY,30 RD 6446,KIRTLAND,NM,87417,NOT AVAILABLE,(505) 598-4550
32577,350006000087,MISSION AVENUE ELEMENTARY,725 MISSION AV NE,ALBUQUERQUE,NM,87107,NOT AVAILABLE,(505) 344-5269
34310,350126000345,BROADMOOR ELEMENTARY,1500 NORTH HOUSTON,HOBBS,NM,88240,NOT AVAILABLE,(575) 433-1500
35307,350015000135,AZTEC HIGH,500 EAST CHACO,AZTEC,NM,87410,NOT AVAILABLE,(575) 334-9474
15864,350111000661,JOHN F. KENNEDY MIDDLE,600 SOUTH BOARDMAN DR,GALLUP,NM,87301,NOT AVAILABLE,(505) 721-1051
43172,350189000469,MORIARTY MIDDLE,200 CENTER ST,MORIARTY,NM,87035,NOT AVAILABLE,(505) 835-5835
46516,350021000151,PLACITAS ELEMENTARY,5 CALLE DEL CARBON,BERNALILLO,NM,87004,NOT AVAILABLE,(505) 867-2488
47590,350150000649,DESERT HILLS ELEMENTARY,280 NORTH ROADRUNNER PKWY,LAS CRUCES,NM,88011,NOT AVAILABLE,(575) 527-9619
709,350017401113,DZIT DIT LOOL SCHOOL OF EMPOWERMENT ACTION AND PERSEVERANCE,SHEPARD SPRINGS BOULEVARD AND,NAVAJO,NM,87328,NOT AVAILABLE,(505) 777-2053
2383,350150001063,MESA MIDDLE,7225 JORNADA RD NORTH,LAS CRUCES,NM,88012,NOT AVAILABLE,(575) 527-9510
7311,350126000355,SOUTHERN HEIGHTS ELEMENTARY,101 EAST TEXAS,HOBBS,NM,88240,NOT AVAILABLE,(575) 433-1900
7923,350057000218,MARSHALL MIDDLE,100 COMMERCE WAY,CLOVIS,NM,88101,NOT AVAILABLE,(575) 769-4300
92993,350174000448,LOVINGTON HIGH,701 WEST AVE K,LOVINGTON,NM,88260,NOT AVAILABLE,(575) 739-2230
93167,350006000896,EDWARD GONZALES ELEMENTARY,554 90TH ST SW,ALBUQUERQUE,NM,87121,NOT AVAILABLE,(505) 831-6214
93581,350123000342,GARFIELD ELEMENTARY,8820 HWY 187,GARFIELD,NM,87936,NOT AVAILABLE,(575) 267-8280
96534,350001000710,MARTIN KING JR ELEMENTARY,1301 NICKLAUS DR SE,RIO RANCHO,NM,87124,NOT AVAILABLE,(505) 892-2575
99340,350141000372,JEMEZ VALLEY ELEMENTARY,8501 HWY 4,JEMEZ PUEBLO,NM,87024,NOT AVAILABLE,(575) 834-7391
61569,350099000283,COUNTRY CLUB ELEMENTARY,5300 FOOTHILLS DR,FARMINGTON,NM,87401,NOT AVAILABLE,(505) 324-9840
80456,350150000669,PICACHO MIDDLE,1040 NORTH MOTEL BLVD,LAS CRUCES,NM,88001,NOT AVAILABLE,(575) 527-9455
83206,350069000237,CHAPARRAL ELEMENTARY,1400 EAST HOLLY,DEMING,NM,88030,NOT AVAILABLE,(575) 546-2047
83513,350093000278,LOWER ELEMENTARY,624 8TH ST,ESTANCIA,NM,87016,NOT AVAILABLE,(505) 384-2001
47904,350072000246,DES MOINES HIGH,500 DES MOINES AVENUE,DES MOINES,NM,88418,NOT AVAILABLE,(575) 278-2611
75911,350180000460,MAXWELL ELEMENTARY,4TH ST AND PARQUE,MAXWELL,NM,87728,NOT AVAILABLE,(575) 375-2371
76666,350150030009,TOMBAUGH ELEMENTARY,226 CARVER RD,LAS CRUCES,NM,88005,NOT AVAILABLE,(575) 527-9575
78991,350015301083,MCCURDY CHARTER SCHOOL,515 CALLE ARBOLERA,ESPANOLA,NM,87532,NOT AVAILABLE,(505) 692-6090
30640,350147000701,LAKE ARTHUR MIDDLE,700 BROADWAY,LAKE ARTHUR,NM,88253,NOT AVAILABLE,(575) 365-2000
31510,350198000705,MESA VISTA MIDDLE,HWY 285 JUNCTION 111,OJO CALIENTE,NM,87549,NOT AVAILABLE,(575) 583-2274
31754,350018030003,LA MERCED ELEMENTARY,301 ALAME LOOP,BELEN,NM,87002,NOT AVAILABLE,(505) 966-2100
33922,350009000619,ANIMAS 7-12 SCHOOL,1 PANTHER DR,ANIMAS,NM,88020,NOT AVAILABLE,(575) 548-2299
33928,350006000075,LA MESA ELEMENTARY,7500 COPPER AV NE,ALBUQUERQUE,NM,87108,NOT AVAILABLE,(505) 262-1581
35891,350006001033,RUDOLFO ANAYA ELEMENTARY,2800 VERMEJO PARK DR SW,ALBUQUERQUE,NM,87121,NOT AVAILABLE,(505) 452-3137
16032,350159000420,LOGAN ELEMENTARY,301 NORTH 2ND ST,LOGAN,NM,88426,NOT AVAILABLE,(575) 487-2252
16041,350135000364,JAL ELEMENTARY,307 EAST UTAH,JAL,NM,88252,NOT AVAILABLE,(575) 395-2101
19656,350237000788,DESERT SAGE ACADEMY,2504 CAMINO ENTRADA,SANTA FE,NM,87505,NOT AVAILABLE,(505) 467-0310
3240,350252000583,TAOS HIGH,134 CERVANTES,TAOS,NM,87571,NOT AVAILABLE,(575) 758-5202
4488,350006001072,NEW MEXICO INTERNATIONAL SCHOOL,8650 ALAMEDA BLVD. NE BLDG. 2B,ALBUQUERQUE,NM,87122,NOT AVAILABLE,(505) 503-7670
5818,350006001087,WILLIAM W & JOSEPHINE DORN CHARTER COMMUNITY SCHOOL,1119 EDITH BLVD SE,ALBUQUERQUE,NM,87102,NOT AVAILABLE,(505) 243-1434
6862,350001200976,GUADALUPE COUNTY CORRECTIONS,SOUTH HWY 54,SANTA ROSA,NM,88435,NOT AVAILABLE,(575) 472-1001
7388,350159000885,LOGAN MIDDLE,301 NORTH 2ND ST,LOGAN,NM,88426,NOT AVAILABLE,(575) 487-2252
24390,350111000312,RED ROCK ELEMENTARY,1305 RED ROCK DR,GALLUP,NM,87301,NOT AVAILABLE,(505) 721-1051
28742,350081000252,DULCE ELEMENTARY,HAWK DR,DULCE,NM,87528,NOT AVAILABLE,(575) 759-3353
29961,350042000195,TIERRA AMARILLA ELEMENTARY,HWY 513,TIERRA AMARILLA,NM,87575,NOT AVAILABLE,(575) 588-7285
100245,350252000579,ENOS GARCIA ELEMENTARY,305 DON FERNANDO,TAOS,NM,87571,NOT AVAILABLE,(575) 758-5202
102082,350069001023,RED MOUNTAIN MIDDLE,2100 HWY 418 SW,DEMING,NM,88030,NOT AVAILABLE,(575) 546-0668
102177,590006900095,KHA'P'O COMMUNITY SCHOOL,625 KEE STREET,ESPANOLA,NM,87532,NOT AVAILABLE,(505) 753-4406
105790,350030001156,COTTONWOOD ELEMENTARY,1609 W LEA STREET,CARLSBAD,NM,88220,NOT AVAILABLE,(575) 234-3304
94583,350111000861,NAVAJO MIDDLE SCHOOL,1 WALNUT AVE,NAVAJO,NM,87328,NOT AVAILABLE,(505) 721-1051
99286,350225000521,ROSWELL HIGH,500 WEST HOBBS ST,ROSWELL,NM,88203,NOT AVAILABLE,(575) 637-3200
30203,350108030017,BERINO ELEMENTARY,455 SHRODE RD,ANTHONY,NM,88021,NOT AVAILABLE,(575) 882-6203
31747,350147000374,LAKE ARTHUR ELEMENTARY,700 BROADWAY,LAKE ARTHUR,NM,88253,NOT AVAILABLE,(575) 365-2000
31862,350006000852,LOS PUENTES CHARTER,4012 4TH ST. NW,ALBUQUERQUE,NM,87107,NOT AVAILABLE,(505) 342-5959
32595,350237000644,EL DORADO COMMUNITY SCHOOL,2 AVENIDA TORREON,SANTA FE,NM,87508,NOT AVAILABLE,(505) 467-4900
32893,350006001043,HELEN CORDERO PRIMARY,8800 EUCARIZ SW,ALBUQUERQUE,NM,87121,NOT AVAILABLE,(505) 833-5830
38938,350261000593,HOT SPRINGS HIGH,1200 NORTH PERSHING AVE,T OR C,NM,87901,NOT AVAILABLE,(575) 894-8150
12166,350108000659,CHAPARRAL ELEMENTARY,300 LISA DR,CHAPARRAL,NM,88021,NOT AVAILABLE,(575) 882-6203
18371,350006000036,CHAPARRAL ELEMENTARY,6325 MILNE RD NW,ALBUQUERQUE,NM,87120,NOT AVAILABLE,(505) 831-3301
18869,350006000072,KIRTLAND ELEMENTARY,3530 GIBSON BLVD SE,ALBUQUERQUE,NM,87118,NOT AVAILABLE,(505) 255-3131
19413,350111000664,TOHATCHI MIDDLE,MID SCHOOL LANE,TOHATCHI,NM,87325,NOT AVAILABLE,(505) 721-1051
21742,350030000163,CARLSBAD HIGH,3000 WEST CHURCH,CARLSBAD,NM,88220,NOT AVAILABLE,(575) 234-3300
22105,350249000575,SPRINGER HIGH,1401 8TH ST,SPRINGER,NM,87747,NOT AVAILABLE,(575) 483-2482
26960,350006000079,LOS PADILLAS ELEMENTARY,2525 LOS PADILLAS RD SW,ALBUQUERQUE,NM,87105,NOT AVAILABLE,(505) 877-0108
27746,350006000098,POLK MIDDLE,2220 RAYMAC RD SW,ALBUQUERQUE,NM,87105,NOT AVAILABLE,(505) 877-6444
28242,350093000613,VANSTONE ELEMENTARY,809 JOSEPH AVE AND 9TH ST,ESTANCIA,NM,87016,NOT AVAILABLE,(505) 384-2001
54304,350090000271,HERNANDEZ ELEMENTARY,714 DON DIEGO RD,ESPANOLA,NM,87532,NOT AVAILABLE,(505) 753-2254
55861,350108001125,YUCCA HEIGHTS ELEMENTARY,580 ANGELINA BLVD,CHAPPARAL,NM,88081,NOT AVAILABLE,(575) 824-8210
56833,350012101076,SOUTH VALLEY PREP,2551 KARSTEN CT SE,ALBUQUERQUE,NM,87102,NOT AVAILABLE,(505) 222-5642
57685,350017801138,ALTURA PREPARATORY SCHOOL,8650 ALAMEDA BLVD BLDG 2B,ALBUQUERQUE,NM,87122,NOT AVAILABLE,(505) 539-5369
59938,350069000963,DEMING CESAR CHAVEZ,315 EAST 1ST ST,DEMING,NM,88030,NOT AVAILABLE,(575) 544-8404
61957,350114000325,GRADY ELEMENTARY,100 FRANKLIN ST,GRADY,NM,88120,NOT AVAILABLE,(575) 357-2192
62337,350001101108,CAMINO NUEVO YOUTH,4050 EDITH BLVD NE,ALBUQUERQUE,NM,87107,NOT AVAILABLE,(505) 841-2400
65129,350006000058,GRANT MIDDLE,1111 EASTERDAY NE,ALBUQUERQUE,NM,87112,NOT AVAILABLE,(505) 299-2113
65395,350006000099,LOS RANCHOS ELEMENTARY,7609 FOURTH ST NW,ALBUQUERQUE,NM,87107,NOT AVAILABLE,(505) 898-0794
66195,350096000623,CATON MIDDLE,1109 16TH STREET,EUNICE,NM,88231,NOT AVAILABLE,(575) 394-3338
68812,350102000770,FLOYD MIDDLE,1564 NM 267,FLOYD,NM,88118,NOT AVAILABLE,(575) 478-2211
72386,350237000610,EDWARD ORTIZ MIDDLE,4164 SOUTH MEADOWS,SANTA FE,NM,87505,NOT AVAILABLE,(505) 467-2300
74089,350237000887,RAMIREZ THOMAS ELEMENTARY,610 ALTA VISTA,SANTA FE,NM,87505,NOT AVAILABLE,(505) 467-3000
75785,350225000523,SUNSET ELEMENTARY,606 WEST OCONNOR ROAD,ROSWELL,NM,88203,NOT AVAILABLE,(575) 637-3575
78184,350001000650,PUESTA DEL SOL ELEMENTARY,450 SOUTHERN BLVD SE,RIO RANCHO,NM,87124,NOT AVAILABLE,(505) 994-3305
41940,350168000436,BOSQUE FARMS ELEMENTARY,1390 WEST BOSQUE LP,LOS LUNAS,NM,87031,NOT AVAILABLE,(505) 866-8231
47550,350246000789,PARKVIEW ELEMENTARY,107 FRANCISO DE AVAD,SOCORRO,NM,87801,NOT AVAILABLE,(575) 835-1086
267,350014201077,THE GREAT ACADEMY,6001-A SAN MATEO BLVD NE,ALBUQUERQUE,NM,87109,NOT AVAILABLE,(505) 792-0306
6894,350126000348,HOBBS FRESHMAN HIGH,1401 E. SANGER,HOBBS,NM,88240,NOT AVAILABLE,(575) 433-0300
80282,350168000440,LOS LUNAS MIDDLE,220 LUNA AVE,LOS LUNAS,NM,87031,NOT AVAILABLE,(505) 866-8231
81816,350057000223,YUCCA MIDDLE,1500 SYCAMORE,CLOVIS,NM,88101,NOT AVAILABLE,(575) 769-4300
83066,350006000456,CAREER ENRICHMENT,807 MOUNTAIN RD NE,ALBUQUERQUE,NM,87102,NOT AVAILABLE,(505) 247-3658
88622,350006000726,GEORGIA O'KEEFFE ELEMENTARY,11701 SAN VICTORIO NE,ALBUQUERQUE,NM,87111,NOT AVAILABLE,(505) 293-4259
105793,350069001144,EARLY COLLEGE HIGH SCHOOL,2300 E. PINE ST.,DEMING,NM,88030,NOT AVAILABLE,(575) 543-1049
20787,350027000544,CAPITAN MIDDLE,519 SMOKEY BEAR BLVD,CAPITAN,NM,88316,NOT AVAILABLE,(575) 354-2239
22776,350006000061,HAWTHORNE ELEMENTARY,420 GENERAL SOMERVELL ST NE,ALBUQUERQUE,NM,87123,NOT AVAILABLE,(505) 299-4424
25723,350231000529,RUIDOSO HIGH,125 WARRIOR DR,RUIDOSO,NM,88345,NOT AVAILABLE,(575) 258-4910
66699,590009800062,CRYSTAL BOARDING SCHOOL,HIGHWAY 134,NAVAJO,NM,87328,NOT AVAILABLE,(505) 777-2592
66862,350237000759,CESAR CHAVEZ ELEMENTARY,6251 JAGUAR DR,SANTA FE,NM,87507,NOT AVAILABLE,(505) 467-3200
2576,350195000473,MOUNTAINAIR HIGH,901 WEST 3RD ST,MOUNTAINAIR,NM,87036,NOT AVAILABLE,(505) 847-2333
5448,350006000875,LA ACADEMIA DE ESPERANZA,1401 OLD COORS RD SW,ALBUQUERQUE,NM,87121,NOT AVAILABLE,(505) 764-5500
9212,350183000465,MELROSE ELEMENTARY,100 MISSOURI AVE,MELROSE,NM,88124,NOT AVAILABLE,(575) 253-4269
9512,350168000441,PERALTA ELEMENTARY,3645 HWY 47,LOS LUNAS,NM,87031,NOT AVAILABLE,(505) 866-8231
46653,350150000702,HIGHLAND ELEMENTARY,4201 EMERALD ST,LAS CRUCES,NM,88012,NOT AVAILABLE,(575) 527-9636
92290,350006000038,CIBOLA HIGH,1510 ELLISON DR NW,ALBUQUERQUE,NM,87114,NOT AVAILABLE,(505) 897-0110
92613,350081000716,DULCE MIDDLE,113 HAWKS DR,DULCE,NM,87528,NOT AVAILABLE,(575) 759-3225
93986,350150000379,CENTRAL ELEMENTARY,150 NORTH ALAMEDA BLVD,LAS CRUCES,NM,88005,NOT AVAILABLE,(575) 527-9496
94612,350003000006,HOLLOMAN ELEMENTARY,750 ARNOLD,HOLLOMAN AFB,NM,88330,NOT AVAILABLE,(575) 812-6100
96644,350016001096,NEW MEXICO CONNECTIONS ACADEMY,4001 OFFICE CT SUITE 201,SANTA FE,NM,87507,NOT AVAILABLE,(505) 984-1133
99375,350084000255,ELIDA ELEMENTARY,103 NORTH CHURCH,ELIDA,NM,88116,NOT AVAILABLE,(575) 274-6211
53719,350012201071,ABQ SCHOOL OF EXCELLENCE,13201 LOMAS BLVD NE,ALBUQUERQUE,NM,87112,NOT AVAILABLE,(505) 312-7711
54697,350141000800,SAN DIEGO RIVERSIDE,504 MISSION RD,JEMEZ PUEBLO,NM,87024,NOT AVAILABLE,(575) 834-7391
56796,350006000822,PUBLIC ACADEMY FOR PERFORMING ARTS,11800 PRINCESS JEANNE AVE. NE,ALBUQUERQUE,NM,87112,NOT AVAILABLE,(505) 830-3128
56967,350108000655,DESERT TRAIL ELEMENTARY,290 EAST LISA,CHAPARRAL,NM,88021,NOT AVAILABLE,(575) 882-6203
57948,350001200974,LAE COUNTY CORRECTIONS,6900 WEST MILLEN DR,HOBBS,NM,88244,NOT AVAILABLE,(575) 392-4055
58218,350210000417,VALENCIA ELEMENTARY,1415 SOUTH GLOBE,PORTALES,NM,88130,NOT AVAILABLE,(575) 356-7090
83076,350006000037,CHELWOOD ELEMENTARY,12701 CONSTITUTION AV NE,ALBUQUERQUE,NM,87112,NOT AVAILABLE,(505) 296-5655
87969,350252000584,TAOS MIDDLE,235 PASEO DEL CANON,TAOS,NM,87571,NOT AVAILABLE,(575) 758-5202
100658,350162000426,R.V.TRAYLOR ELEMENTARY,500 OWNBY,LORDSBURG,NM,88045,NOT AVAILABLE,(575) 542-3252
105778,350006001081,CORAL COMMUNITY CHARTER,4401 SILVER AVENUE SE,ALBUQUERQUE,NM,87108,NOT AVAILABLE,(505) 292-6725
105796,350189001145,EARLY CHILDHOOD CENTER,2422 E. HIGHWAY 333,MORIARTY,NM,87035,NOT AVAILABLE,(505) 832-4471
10061,350057000793,LOS NINOS,3301 THORNTON,CLOVIS,NM,88101,NOT AVAILABLE,(575) 769-4300
12580,350210001073,LINDSEY-STEINER ELEMENTARY,1000 NORTH AVE M,PORTALES,NM,88130,NOT AVAILABLE,(575) 356-7060
17748,350180000461,MAXWELL HIGH,4TH ST AND PARQUE,MAXWELL,NM,87728,NOT AVAILABLE,(575) 375-2371
31746,350006000109,SIERRA VISTA ELEMENTARY,10220 PASEO DEL NORTE NW,ALBUQUERQUE,NM,87114,NOT AVAILABLE,(505) 898-0272
32984,350012000131,PENASCO ELEMENTARY,12 DUNKIN RD,HOPE,NM,88250,NOT AVAILABLE,(575) 746-3585
35150,350111000315,THOREAU ELEMENTARY,6 4TH AVE,THOREAU,NM,87323,NOT AVAILABLE,(505) 721-1051
37884,350138000409,CORONADO MIDDLE,1903 STATE HIGHWAY 96,GALLINA,NM,87017,NOT AVAILABLE,(575) 638-5419
71887,350099000288,MCCORMICK ELEMENTARY,701 MC CORMICK RD,FARMINGTON,NM,87401,NOT AVAILABLE,(505) 324-9840
72690,350006000021,ALAMEDA ELEMENTARY,412 ALAMEDA BLVD NW,ALBUQUERQUE,NM,87114,NOT AVAILABLE,(505) 898-0070
76405,350006000060,HARRISON MIDDLE,3912 ISLETA BLVD SW,ALBUQUERQUE,NM,87105,NOT AVAILABLE,(505) 877-1279
76751,350090000275,SAN JUAN ELEMENTARY,DAY SCHOOL RD,ESPANOLA,NM,87532,NOT AVAILABLE,(505) 852-4225
76943,350189000818,EDGEWOOD MIDDLE,17 VENUS RD WEST,MORIARTY,NM,87035,NOT AVAILABLE,(505) 835-5835
93107,350240000555,RITA A. MARQUEZ ELEMENTARY,MAIN ST,ANTON CHICO,NM,87711,NOT AVAILABLE,(575) 472-3171
94911,350006000107,CORRALES ELEMENTARY,200 TARGET RD,CORRALES,NM,87048,NOT AVAILABLE,(505) 792-7400
97544,350006000074,LA LUZ ELEMENTARY,225 GRIEGOS RD NW,ALBUQUERQUE,NM,87107,NOT AVAILABLE,(505) 761-8415
77285,350099000290,MESA VERDE ELEMENTARY,3801 COLLEGE BLVD,FARMINGTON,NM,87401,NOT AVAILABLE,(505) 324-9840
78611,350108000719,RIVERSIDE ELEMENTARY,4085 MCNUTT RD,SUNLAND PARK,NM,88063,NOT AVAILABLE,(575) 882-6203
81715,350168000703,ANN PARISH ELEMENTARY,112 MEADOW LAKE,LOS LUNAS,NM,87031,NOT AVAILABLE,(505) 866-8231
83657,350075000249,DEXTER MIDDLE,100 NORTH LINCOLN,DEXTER,NM,88230,NOT AVAILABLE,(575) 734-5420
85726,350006000809,SOUTH VALLEY ACADEMY,3426 BLAKE ROAD SW,ALBUQUERQUE,NM,87105,NOT AVAILABLE,(505) 452-3132
105781,350006001142,TRES VOLCANES COMMUNITY COLLABORATIVE SCHOOL,9601 TIERRA PINTADA NW,ALBUQUERQUE,NM,87120,NOT AVAILABLE,(505) 253-0200
10892,350249000574,FORRESTER ELEMENTARY,311 MIRANDA,SPRINGER,NM,87747,NOT AVAILABLE,(575) 483-2482
18311,350168001029,SUNDANCE ELEMENTARY,3701 SUNDANCE SW,LOS LUNAS,NM,87031,NOT AVAILABLE,(505) 866-8231
32901,350174001044,LOVINGTON FRESHMAN ACADEMY,701 WEST AVE K,LOVINGTON,NM,88260,NOT AVAILABLE,(575) 739-2260
33591,350001201049,NORTHEASTERN NM CORRECTIONAL FACILITY,185 DR MICHAEL JENKINS RD,CLAYTON,NM,88415,NOT AVAILABLE,(575) 374-4005
36257,350126000354,SANGER ELEMENTARY,2020 NORTH ADOBE,HOBBS,NM,88240,NOT AVAILABLE,(575) 433-1800
54159,350006001114,GEORGE I SANCHEZ,4050 118TH ST SW,ALBUQUERQUE,NM,87121,NOT AVAILABLE,(505) 253-0300
54417,350006001075,NEX GEN ACADEMY,5325 MONTGOMERY NE,ALBUQUERQUE,NM,87109,NOT AVAILABLE,(505) 878-6400
55012,590018400154,LAGUNA ELEMENTARY SCHOOL,19 SCHOOLHOUSE ROAD,LAGUNA,NM,87026,NOT AVAILABLE,(505) 552-9200
22095,350024000609,BLOOMFIELD EARLY CHILDHOOD CENTER,310 NORTH LAJARA ST,BLOOMFIELD,NM,87413,NOT AVAILABLE,(505) 634-3883
25203,350006000047,DURANES ELEMENTARY,2436 ZICKERT RD NW,ALBUQUERQUE,NM,87104,NOT AVAILABLE,(505) 764-2017
25944,350090000276,TONY QUINTANA ELEMENTARY,11 SOMBRILLA RD,ESPANOLA,NM,87532,NOT AVAILABLE,(505) 753-2254
29205,350117000330,LAGUNA-ACOMA HIGH,282 CASA BLANCA ROAD EXIT 108,CASA BLANCA,NM,87007,NOT AVAILABLE,(505) 285-2667
64761,350006000027,ARMIJO ELEMENTARY,1440 GATEWOOD RD SW,ALBUQUERQUE,NM,87105,NOT AVAILABLE,(505) 877-2920
65174,350177000452,MAGDALENA HIGH,201 DUGGINS DR,MAGDALENA,NM,87825,NOT AVAILABLE,(575) 854-2241
65175,350018000142,CENTRAL ELEMENTARY,600 W. PICARD AVE,BELEN,NM,87002,NOT AVAILABLE,(505) 966-1200
65592,350111000303,GALLUP HIGH,1055 RICO ST,GALLUP,NM,87301,NOT AVAILABLE,(505) 721-1051
68836,350030000175,SUNSET ELEMENTARY,923 NORTH WALTER ST,CARLSBAD,NM,88220,NOT AVAILABLE,(575) 234-3300
44824,350216000494,RIO COSTILLA SW LEARNING ACADEMY,16 GARCIA RD,COSTILLA,NM,87524,NOT AVAILABLE,(575) 586-0089
45906,350111000768,MIYAMURA HIGH SCHOOL,680 SOUTH BOARDMAN,GALLUP,NM,87301,NOT AVAILABLE,(505) 721-1051
4112,350261000594,T OR C ELEMENTARY,1500 NORTH SILVER,T OR C,NM,87901,NOT AVAILABLE,(575) 894-8150
5381,350108001104,ALTA VISTA EARLY COLLEGE HIGH SCHOOL,5235 HIGHWAY 28,ANTHONY,NM,88021,NOT AVAILABLE,(575) 882-6400
7012,350090000270,EUTIMIO SALAZAR ELEMENTARY,1000 ZUNI LN,ESPANOLA,NM,87532,NOT AVAILABLE,(505) 753-2254
11233,350006000821,MARK ARMIJO ACADEMY,6800 GONZALES RD SW,ALBUQUERQUE,NM,87121,NOT AVAILABLE,(505) 873-7758
11959,350153000863,LVCS EARLY CHILDHOOD,1022 9TH STREET,LAS VEGAS,NM,87701,NOT AVAILABLE,(505) 454-5780
13144,350021000153,SANTO DOMINGO ELEMENTARY,100 HWY 22 WEST,SANTO DOMINGO PUEBLO,NM,87052,NOT AVAILABLE,(505) 867-4441
13184,350225000522,SIERRA MIDDLE,615 SOUTH SYCAMORE AVE,ROSWELL,NM,88203,NOT AVAILABLE,(575) 627-2850
13689,350243000562,JOSE BARRIOS ELEMENTARY,1625 LITTLE WALNUT,SILVER CITY,NM,88061,NOT AVAILABLE,(575) 956-2120
16802,350012501069,THE MASTERS PROGRAM,SFCC LL325 6401 RICHARDS AVE,SANTA FE,NM,87508,NOT AVAILABLE,(505) 428-7320
17215,590005900039,WINGATE ELEMENTARY SCHOOL,12 PAINTED HORSE TRAIL,FT. WINGATE,NM,87316,NOT AVAILABLE,(505) 488-6300
4298,350006000918,NATIVE AMERICAN COMMUNITY ACADEMY,1000 INDIAN SCHOOL RD,ALBUQUERQUE,NM,87104,NOT AVAILABLE,(505) 266-0992
4402,350108001131,CHAPARRAL ON-TRACK PREK CENTER,800 COUNTY LINE ROAD,CHAPPARAL,NM,88081,NOT AVAILABLE,(575) 649-7724
6577,350006001056,INTERNATIONAL SCHOOL AT MESA DEL SOL,2660 EASTMAN CROSSING SE,ALBUQUERQUE,NM,87106,NOT AVAILABLE,(505) 508-3295
6646,350001300980,NM SCHOOL FOR THE BLIND AND VISUALLY IMPAIRED,1900 NORTH WHITE SANDS,ALAMOGORDO,NM,88310,NOT AVAILABLE,(575) 437-3505
6932,350252000951,TAOS CYBER MAGNET,310 CAMINO DE LA PLACITA,TAOS,NM,87571,NOT AVAILABLE,(575) 758-5202
21127,350090000814,CARLOS F. VIGIL MIDDLE,1260 JOHNIE ROYBAL IND. PRK RD,ESPANOLA,NM,87532,NOT AVAILABLE,(505) 753-1348
23264,350132000909,HOUSE JUNIOR HIGH,309 APPLE ST,HOUSE,NM,88121,NOT AVAILABLE,(575) 279-7353
25184,350099000285,HEIGHTS MIDDLE SCHOOL,3700 COLLEGE BLVD,FARMINGTON,NM,87401,NOT AVAILABLE,(505) 324-9840
27035,350126000686,COLLEGE LANE ELEMENTARY,2000 COLLEGE LN,HOBBS,NM,88240,NOT AVAILABLE,(575) 433-2600
27101,350006000095,ONATE ELEMENTARY,12415 BRENTWOOD HILLS NE,ALBUQUERQUE,NM,87112,NOT AVAILABLE,(505) 291-6819
29164,350030000463,CRAFT ELEMENTARY,406 WEST LEA,CARLSBAD,NM,88220,NOT AVAILABLE,(575) 234-3300
41628,350012000672,YESO ELEMENTARY,1812 CENTRE AVE,ARTESIA,NM,88210,NOT AVAILABLE,(575) 746-3585
45930,350006000092,MOUNTAIN VIEW ELEMENTARY,5317 SECOND ST SW,ALBUQUERQUE,NM,87105,NOT AVAILABLE,(505) 877-3800
47591,350150000388,LYNN MIDDLE,950 SOUTH WALNUT ST,LAS CRUCES,NM,88001,NOT AVAILABLE,(575) 527-9445
30204,350225000826,SIDNEY GUTIERREZ MIDDLE,69 E. GAIL HARRIS,ROSWELL,NM,88203,NOT AVAILABLE,(575) 347-9703
30306,350162000423,DUGAN-TARANGO MIDDLE,1352 HARDIN ST,LORDSBURG,NM,88045,NOT AVAILABLE,(575) 542-9806
35610,350011600900,ALMA D'ARTE CHARTER,402 W COURT AVE,LAS CRUCES,NM,88005,NOT AVAILABLE,(575) 541-0145
94948,350258000589,TEXICO HIGH,520 NORTH GRIFFIN,TEXICO,NM,88135,NOT AVAILABLE,(575) 482-3801
96555,350001000779,RIO RANCHO HIGH,301 LOMA COLORADO DR NE,RIO RANCHO,NM,87124,NOT AVAILABLE,(505) 896-5600
99363,350084000256,ELIDA HIGH,101 NORTH CHURCH,ELIDA,NM,88116,NOT AVAILABLE,(575) 274-6211
99535,350006000085,MCCOLLUM ELEMENTARY,10900 SAN JACINTO ST NE,ALBUQUERQUE,NM,87112,NOT AVAILABLE,(505) 298-5009
70653,350240000558,SANTA ROSA MIDDLE,116 CAMINO DE VIDA,SANTA ROSA,NM,88435,NOT AVAILABLE,(575) 472-3171
73511,350006000119,WEST MESA HIGH,6701 FORTUNA RD NW,ALBUQUERQUE,NM,87121,NOT AVAILABLE,(505) 831-6993
75463,350111000546,ROCKY VIEW ELEMENTARY,345 BASILIO ST,GALLUP,NM,87301,NOT AVAILABLE,(505) 721-1051
75701,350243000561,HARRISON SCHMITT ELEMENTARY,4042 HWY 90 SW,SILVER CITY,NM,88061,NOT AVAILABLE,(575) 956-2170
77354,350039000684,NEWCOMB MIDDLE,US 491,NEWCOMB,NM,87455,NOT AVAILABLE,(505) 696-3434
61649,350192000471,MOSQUERO HIGH,43 MCNEIL AVE,MOSQUERO,NM,87733,NOT AVAILABLE,(575) 673-2271
63032,350006000824,SEVEN BAR ELEMENTARY,4501 SEVEN BAR LOOP NW,ALBUQUERQUE,NM,87114,NOT AVAILABLE,(505) 899-2797
64074,350252000844,ANANSI CHARTER SCHOOL,57 NM 230,EL PRADO,NM,87529,NOT AVAILABLE,(575) 758-5202
66450,350186000784,LAZARO LARRY GARCIA MIDDLE,HWY 518,MORA,NM,87732,NOT AVAILABLE,(575) 387-3127
81753,350006000097,PAJARITO ELEMENTARY,2701 DON FELIPE SW,ALBUQUERQUE,NM,87105,NOT AVAILABLE,(505) 877-9718
51030,350006001100,COLLEGE AND CAREER HIGH SCHOOL,525 BUENA VISTA DR SE,ALBUQUERQUE,NM,87106,NOT AVAILABLE,(505) 224-4880
53129,350006000069,JEFFERSON MIDDLE,712 GIRARD NE,ALBUQUERQUE,NM,87106,NOT AVAILABLE,(505) 255-8691
54302,350051000205,KISER ELEMENTARY,224 SPRUCE ST,CLAYTON,NM,88415,NOT AVAILABLE,(575) 374-9611
54694,350135000365,JAL HIGH,100 PROPERTY STREET,JAL,NM,88252,NOT AVAILABLE,(575) 395-2101
57203,350111001137,DEL NORTE ELEMENTARY,700 WEST WILSON,GALLUP,NM,87301,NOT AVAILABLE,(505) 721-1051
58637,590013600035,PUEBLO PINTADO COMMUNITY SCHOOL,58 MILES WEST OF CUBA NM ON HCR 79,CUBA,NM,87013,NOT AVAILABLE,(505) 655-3341
100822,350006000125,ZUNI ELEMENTARY,6300 CLAREMONT AVE NE,ALBUQUERQUE,NM,87110,NOT AVAILABLE,(505) 881-8313
101585,350030000174,JOE STANLEY SMITH ELEMENTARY,505 SOUTH ALTA VISTA,CARLSBAD,NM,88220,NOT AVAILABLE,(575) 234-3300
105788,350030001148,HILLCREST PRESCHOOL,215 NORTH SIXTH ST,CARLSBAD,NM,88220,NOT AVAILABLE,(575) 234-3313
11853,350006000041,COLLET PARK ELEMENTARY,2100 MORRIS ST NE,ALBUQUERQUE,NM,87112,NOT AVAILABLE,(505) 298-3010
16028,350006000035,CARLOS REY ELEMENTARY,1215 CERRILLOS RD SW,ALBUQUERQUE,NM,87121,NOT AVAILABLE,(505) 836-7738
17493,350108000905,SUNRISE ELEMENTARY,1000 COUNTY LINE DR,ANTHONY,NM,88021,NOT AVAILABLE,(575) 882-6203
18170,350117000333,MILAN ELEMENTARY,404 SAND,MILAN,NM,87021,NOT AVAILABLE,(505) 285-2727
81677,350123000343,HATCH VALLEY ELEMENTARY,801 EAST HERRERA,HATCH,NM,87937,NOT AVAILABLE,(575) 267-8270
82985,350126000357,BOOKER T. WASHINGTON ELEMENTARY,1200 EAST HUMBLE,HOBBS,NM,88240,NOT AVAILABLE,(575) 433-2100
88861,350006000057,GOV BENT ELEMENTARY,5700 HENDRIX RD NE,ALBUQUERQUE,NM,87110,NOT AVAILABLE,(505) 881-9797
7696,350090000268,ESPANOLA VALLEY HIGH,1111 EL LLANO RD,ESPANOLA,NM,87532,NOT AVAILABLE,(505) 753-2254
8493,350273000612,WAGON MOUND HIGH,300 PARK AVENUE,WAGON MOUND,NM,87752,NOT AVAILABLE,(575) 666-3001
9517,350135000363,JAL JR HIGH,100 PROPERTY STREET,JAL,NM,88252,NOT AVAILABLE,(575) 395-2101
99616,350014801089,MISSION ACHIEVEMENT AND SUCCESS 1.0,1718 YALE BLVD SE,ALBUQUERQUE,NM,87106,NOT AVAILABLE,(505) 242-3118
102275,350001200982,SOUTHERN NM CORRECTIONS,1983 JOE R SILVA BLVD,LAS CRUCES,NM,88004,NOT AVAILABLE,(575) 523-3200
105779,350006001098,HEALTH LEADERSHIP HIGH SCHOOL,1900 RANDOLPH RD. SE,ALBUQUERQUE,NM,87106,NOT AVAILABLE,(505) 750-4547
105787,350018700811,21ST CENTURY PUBLIC ACADEMY,4300 CUTLER AVE. NE,ALBUQUERQUE,NM,87110,NOT AVAILABLE,(505) 254-0280
50070,350039000712,KIRTLAND ELEMENTARY,30 RD 6446,KIRTLAND,NM,87417,NOT AVAILABLE,(505) 598-5893
55863,350165001122,TOPPER FRESHMAN ACADEMY,3800 CANYON DRIVE,LOS ALAMOS,NM,87544,NOT AVAILABLE,(505) 663-2510
57146,350069001140,MIMBRES VALLEY HIGH SCHOOL,720 BUCKEYE ST.,DEMING,NM,88030,NOT AVAILABLE,(575) 543-1049
34277,350207000723,POJOAQUE INTERMEDIATE,1574 STATE ROAD 502,SANTA FE,NM,87506,NOT AVAILABLE,(505) 455-2282
21213,350030000169,CARLSBAD INTERMEDIATE SCHOOL,800 WEST CHURCH,CARLSBAD,NM,88220,NOT AVAILABLE,(575) 234-3300
24930,350054030005,CLOUDCROFT MIDDLE,810 JAMES CANYON HWY,CLOUDCROFT,NM,88317,NOT AVAILABLE,(575) 601-4416
29441,350237000841,ACADEMY FOR TECHNOLOGY & CLASSICS,74 A VAN NU PO RD,SANTA FE,NM,87508,NOT AVAILABLE,(505) 473-4282
73191,350267000604,TULAROSA ELEMENTARY,404 1ST STREET,TULAROSA,NM,88352,NOT AVAILABLE,(575) 585-8800
76109,350006000894,MONTESSORI OF THE RIO GRANDE,1650 GABALDON DR. N.W.,ALBUQUERQUE,NM,87104,NOT AVAILABLE,(505) 842-5993
78293,350006000024,ALBUQUERQUE HIGH,800 ODELIA RD NE,ALBUQUERQUE,NM,87102,NOT AVAILABLE,(505) 843-6400
60675,350021000150,COCHITI ELEMENTARY,800 QUAIL HILL TRAIL,PENA BLANCA,NM,87041,NOT AVAILABLE,(505) 867-5547
61525,350237001110,SANTA FE ENGAGE,2505 CAMINO ENTRADA,SANTA FE,NM,87505,NOT AVAILABLE,(505) 467-0310
63814,350081000253,DULCE HIGH,113 HAWK DR,DULCE,NM,87528,NOT AVAILABLE,(575) 759-3353
68713,350006000617,CLEVELAND MIDDLE,6910 NATALIE ST NE,ALBUQUERQUE,NM,87110,NOT AVAILABLE,(505) 881-9227
69497,350243000560,CLIFF HIGH,622 STATE HWY 211,CLIFF,NM,88028,NOT AVAILABLE,(575) 535-2051
30201,350006000925,CHRISTINE DUNCAN HERITAGE ACADEMY,1900 ATRISCO DR. NW,ALBUQUERQUE,NM,87120,NOT AVAILABLE,(505) 839-4971
31695,350096000624,METTIE JORDAN ELEMENTARY,1715 AVENUE M,EUNICE,NM,88231,NOT AVAILABLE,(575) 394-2440
32942,350042000194,ESCALANTE MIDDLE/HIGH SCHOOL,STATEROUTE 531 1158,TIERRA AMARILLA,NM,87575,NOT AVAILABLE,(575) 588-7285
34735,350243000563,LA PLATA MIDDLE,3500 NORTH SILVER ST,SILVER CITY,NM,88061,NOT AVAILABLE,(575) 956-2060
38761,350280000676,ZUNI HIGH,71 RTE 301 NORTH,ZUNI,NM,87327,NOT AVAILABLE,(505) 782-5511
39225,350006000059,GRIEGOS ELEMENTARY,4040 SAN ISIDRO NW,ALBUQUERQUE,NM,87107,NOT AVAILABLE,(505) 345-3661
268,350015501084,LA TIERRA MONTESSORI SCHOOL OF THE ARTS AND SCIENCES,659 ROADRUNNER RD,OHKAY OWINGEH,NM,87566,NOT AVAILABLE,(505) 852-0200
2687,350021000152,BERNALILLO ELEMENTARY,301 CALLE DEL CARBON,BERNALILLO,NM,87004,NOT AVAILABLE,(505) 867-3366
4401,350108001129,GADSDEN ADMIN COMPLEX PREK CENTER,4950 MCNUTT ROAD,SUNLAND PARK,NM,88063,NOT AVAILABLE,(575) 882-6740
7321,350057000209,ARTS ACADEMY AT BELLA VISTA,2900 CESAR CHAVEZ DR,CLOVIS,NM,88101,NOT AVAILABLE,(575) 769-4300
9310,350006000112,TAYLOR MIDDLE,8200 GUADALUPE TR NW,LOS RANCHOS DE ALBUQUERQUE,NM,87114,NOT AVAILABLE,(505) 898-3666
9513,350018000144,GIL SANCHEZ ELEMENTARY,376 JARALES RD,BELEN,NM,87002,NOT AVAILABLE,(505) 966-1900
23261,350057000211,CAMEO ELEMENTARY,1500 CAMEO ST,CLOVIS,NM,88101,NOT AVAILABLE,(575) 769-4300
23436,350207000482,PABLO ROYBAL ELEMENTARY,1574 STATE RD 502,SANTA FE,NM,87506,NOT AVAILABLE,(505) 455-2282
24194,350099000291,NORTHEAST ELEMENTARY,1400 EAST 23RD,FARMINGTON,NM,87401,NOT AVAILABLE,(505) 324-9840
13203,350015601082,NEW AMERICA SCHOOL - LAS CRUCES,207 S MAIN ST,LAS CRUCES,NM,88001,NOT AVAILABLE,(575) 527-9085
18571,350162000424,LORDSBURG HIGH,501 WEST FOURTH ST,LORDSBURG,NM,88045,NOT AVAILABLE,(575) 542-3782
73575,350126001067,HEIZER MIDDLE SCHOOL,101 EAST STANOLIND RD,HOBBS,NM,88240,NOT AVAILABLE,(575) 433-1100
78309,350117000665,LAGUNA-ACOMA MIDDLE,282 CASA BLANCA ROAD EXIT 108,CASA BLANCE,NM,87007,NOT AVAILABLE,(505) 285-2667
43874,350001100985,FOOTHILL HIGH SCHOOL,400 EDITH BLVD NE,ALBUQUERQUE,NM,87107,NOT AVAILABLE,(505) 841-2400
45891,350120000340,HAGERMAN HIGH,406 NORTH CAMBRIDGE AVE,HAGERMAN,NM,88232,NOT AVAILABLE,(575) 752-3254
47595,350066000234,CUBA HIGH,50 COUNTY RD 13 BLDG 53,CUBA,NM,87013,NOT AVAILABLE,(575) 289-3211
48483,350039000181,MESA ELEMENTARY,N HWY 491 MESA SCHOOL RD,SHIPROCK,NM,87420,NOT AVAILABLE,(505) 368-4529
48560,590006000160,T'SIYA DAY SCHOOL,1000 BORREGO CANYON RD,ZIA PUEBLO,NM,87053,NOT AVAILABLE,(505) 867-3553
85868,350111000662,RAMAH HIGH,27 LEWIS ST,RAMAH,NM,87321,NOT AVAILABLE,(505) 721-1051
86449,350006000616,HUBERT H HUMPHREY ELEMENTARY,9801 ACADEMY HILLS DR NE,ALBUQUERQUE,NM,87111,NOT AVAILABLE,(505) 821-4981
51346,350006000100,RIO GRANDE HIGH,2300 ARENAL RD SW,ALBUQUERQUE,NM,87105,NOT AVAILABLE,(505) 873-0220
51526,350249000576,WILFERTH ELEMENTARY,311 MIRANDA,SPRINGER,NM,87747,NOT AVAILABLE,(575) 483-2482
53347,350252000790,ARROYO DEL NORTE ELEMENTARY,405 HONDO SECO RD,ARROYO SECO,NM,87514,NOT AVAILABLE,(575) 758-5202
56476,350153000407,MIKE SENA ELEMENTARY,12 COUNTY ROAD A-1,SAPELLO,NM,87745,NOT AVAILABLE,(505) 454-5750
58064,350012601070,THE ASK ACADEMY,4550 SUNDT RD NE,RIO RANCHO,NM,87124,NOT AVAILABLE,(505) 891-0757
91460,350108000202,CHAPARRAL MIDDLE,290 LISA DR,CHAPARRAL,NM,88021,NOT AVAILABLE,(575) 882-6203
95289,350006000049,EISENHOWER MIDDLE,11001 CAMERO RD NE,ALBUQUERQUE,NM,87111,NOT AVAILABLE,(505) 292-2530
97290,350006000067,INEZ ELEMENTARY,1700 PENNSYLVANIA ST NE,ALBUQUERQUE,NM,87110,NOT AVAILABLE,(505) 299-9010
61912,350006001037,ATRISCO HERITAGE ACADEMY HS,10800 DENNIS CHAVEZ BLV SW,ALBUQUERQUE,NM,87121,NOT AVAILABLE,(505) 243-1458
62278,350225000518,MOUNTAIN VIEW MIDDLE,312 EAST MTN VIEW RD,ROSWELL,NM,88203,NOT AVAILABLE,(575) 627-2825
105776,350006001045,NEW AMERICA SCHOOL,1734 ISLETA BLVD SW,ALBUQUERQUE,NM,87105,NOT AVAILABLE,(505) 264-7340
45103,350150000383,FAIRACRES ELEMENTARY,4501 WEST PICACHO AVE,LAS CRUCES,NM,88007,NOT AVAILABLE,(575) 527-9606
48724,350150000455,SIERRA MIDDLE,1700 E SPRUCE AVE,LAS CRUCES,NM,88001,NOT AVAILABLE,(575) 527-9640
49017,350156000408,LUIS E. ARMIJO ELEMENTARY,600 PORTER ST,LAS VEGAS,NM,87701,NOT AVAILABLE,(505) 426-2661
38367,350156000635,UNION ELEMENTARY,421 UNION ST,LAS VEGAS,NM,87701,NOT AVAILABLE,(505) 426-2701
38369,350168000807,CENTURY ALT HIGH,32 SUN VALLEY RD,LOS LUNAS,NM,87301,NOT AVAILABLE,(505) 866-8231
53560,590017700036,T'IIS TS'OZI BI'OLTA',HIGHWAY 371-ROUTE 9,CROWNPOINT,NM,87313,NOT AVAILABLE,(505) 786-6159
56443,590016200093,OHKAY OWINGEH COMMUNITY SCHOOL,307 COMMUNITY SCHOOL RD,OHKAY OWINGEH,NM,87566,NOT AVAILABLE,(505) 852-2154
59183,350237001059,ASPEN COMMUNITY SCHOOL,450 LA MADERA,SANTA FE,NM,87501,NOT AVAILABLE,(505) 467-4500
23587,350120000341,HAGERMAN MIDDLE,410 NORTH CAMBRIDGE AVE,HAGERMAN,NM,88232,NOT AVAILABLE,(575) 752-3254
28142,350150000959,SONOMA ELEMENTARY,4201 NORTHRISE DR,LAS CRUCES,NM,88011,NOT AVAILABLE,(575) 541-7320
29117,350054000206,CLOUDCROFT ELEMENTARY,810 JAMES CANYON HWY,CLOUDCROFT,NM,88317,NOT AVAILABLE,(575) 601-4416
80035,350006000060,HARRISON MIDDLE,3912 ISLETA BLVD SW,ALBUQUERQUE,NM,87105,NOT AVAILABLE,(505) 877-1279
80232,350111001027,CHIEF MANUELITO MIDDLE,1325 SOUTH RICO ST,GALLUP,NM,87301,NOT AVAILABLE,(505) 721-1051
83084,350006000111,TAFT MIDDLE,620 SCHULTE RD NW,ALBUQUERQUE,NM,87107,NOT AVAILABLE,(505) 344-4389
83660,350234000532,SAN JON ELEMENTARY,7TH AND ELM STREETS,SAN JON,NM,88434,NOT AVAILABLE,(575) 576-2466
86802,350006000615,MCKINLEY MIDDLE,4500 COMANCHE RD NE,ALBUQUERQUE,NM,87110,NOT AVAILABLE,(505) 881-9390
87858,350237000724,CAPITAL HIGH,4851 PASEO DEL SOL,SANTA FE,NM,87507,NOT AVAILABLE,(505) 467-1000
87899,350108000904,SANTA TERESA ELEMENTARY,201 COMMERCIANTES,SANTA TERESA,NM,88008,NOT AVAILABLE,(575) 882-6203
88829,350213000492,QUEMADO ELEMENTARY,HWY 60,QUEMADO,NM,87829,NOT AVAILABLE,(575) 773-4700
89301,350090000685,LOS NINOS ELEMENTARY,323 NORTH CORONADO,ESPANOLA,NM,87532,NOT AVAILABLE,(505) 753-2254
60218,350210000489,PORTALES JR HIGH,700 EAST 3RD ST,PORTALES,NM,88130,NOT AVAILABLE,(575) 356-7045
60676,350237000534,ACEQUIA MADRE ELEMENTARY,700 ACEQUIA MADRE ST,SANTA FE,NM,87501,NOT AVAILABLE,(505) 467-4000
62340,350016600901,LA ACADEMIA DOLORES HUERTA,1480 NORTH MAIN,LAS CRUCES,NM,88001,NOT AVAILABLE,(575) 527-5800
62957,350057030016,MESA ELEMENTARY,4801 NORRIS,CLOVIS,NM,88101,NOT AVAILABLE,(575) 769-4300
65524,350150000794,CESAR CHAVEZ ELEMENTARY,5250 N HOLMAN RD,LAS CRUCES,NM,88012,NOT AVAILABLE,(575) 527-6022
94158,350225000515,MILITARY HEIGHTS ELEMENTARY,1900 NORTH MICHIGAN,ROSWELL,NM,88201,NOT AVAILABLE,(575) 637-3425
99599,350057000214,HIGHLAND ELEMENTARY,100 EAST PLAINS ST,CLOVIS,NM,88101,NOT AVAILABLE,(575) 769-4445
72441,350010901030,MEDIA ARTS COLLABORATIVE CHARTER,4401 CENTRAL AVE NE BLDG 2,ALBUQUERQUE,NM,87108,NOT AVAILABLE,(505) 243-1957
101713,350006000077,LAVALAND ELEMENTARY,501 57TH ST NW,ALBUQUERQUE,NM,87105,NOT AVAILABLE,(505) 836-4911
105780,350006001112,TECHNOLOGY LEADERSHIP HIGH SCHOOL,10500 RESEARCH RD SE,ALBUQUERQUE,NM,87123,NOT AVAILABLE,(505) 338-2266
105784,350018401149,RAICES DEL SABER XINACHTLI COMMUNITY,2211 NORTH VALLEY DRIVE,LAS CRUCES,NM,88007,NOT AVAILABLE,(575) 571-2177
117,590012500031,LAKE VALLEY NAVAJO SCHOOL,N HWY 371 CR 7750,LAKE VALLEY-CROWNPOINT,NM,87313,NOT AVAILABLE,(505) 786-5392
1231,350093000717,ESTANCIA MIDDLE,JOSEPH AVE AND 9TH ST,ESTANCIA,NM,87016,NOT AVAILABLE,(505) 384-2001
8750,350024000651,NAABA ANI ELEMENTARY,1201 NORTH FIRST ST,BLOOMFIELD,NM,87413,NOT AVAILABLE,(505) 634-3500
11957,350240000556,SANTA ROSA ELEMENTARY,658 5TH ST,SANTA ROSA,NM,88435,NOT AVAILABLE,(575) 472-3171
15349,350099000787,PIEDRA VISTA HIGH,5700 COLLEGE BLVD,FARMINGTON,NM,87402,NOT AVAILABLE,(505) 324-9840
15653,350003000798,MOUNTAIN VIEW MIDDLE,500 SOUTH WASHINGTON AVENUE,ALAMOGORDO,NM,88310,NOT AVAILABLE,(575) 812-6400
17330,350117000327,BLUEWATER ELEMENTARY,15 WEST CHESS RD,BLUEWATER,NM,87005,NOT AVAILABLE,(505) 285-2694
19674,350108000626,SUNLAND PARK ELEMENTARY,305 ALTO VISTA,SUNLAND PARK,NM,88063,NOT AVAILABLE,(575) 882-6203
3000,350141000373,JEMEZ VALLEY HIGH,8501 HWY 4,JEMEZ PUEBLO,NM,87024,NOT AVAILABLE,(575) 834-7391
3915,350204000480,PENASCO ELEMENTARY,13 SCHOOL RD,PENASCO,NM,87553,NOT AVAILABLE,(575) 587-2230
4489,350006001117,SIEMBRA LEADERSHIP HIGH SCHOOL,524 CENTRAL AVE SW,ALBUQUERQUE,NM,87102,NOT AVAILABLE,(505) 205-0329
6174,590019100037,TO'HAJIILEE DAY SCHOOL,170 WARRIOR LANE,TOHAJIILEE,NM,87026,NOT AVAILABLE,(505) 908-2426
6575,350006001050,CIEN AGUAS INTERNATIONAL,2000 RANDOLPH RD. SE,ALBUQUERQUE,NM,87106,NOT AVAILABLE,(505) 255-0001
7236,350006000048,EAST SAN JOSE ELEMENTARY,415 THAXTON AVE SE,ALBUQUERQUE,NM,87102,NOT AVAILABLE,(505) 764-2005
7695,350111000306,JEFFERSON ELEMENTARY,300 MOLLICA DR,GALLUP,NM,87301,NOT AVAILABLE,(505) 721-1051
69781,350108000628,MESQUITE ELEMENTARY,205 NM HWY 228,MESQUITE,NM,88048,NOT AVAILABLE,(575) 882-6203
14356,350012000129,HERMOSA ELEMENTARY,601 HERMOSA DR,ARTESIA,NM,88210,NOT AVAILABLE,(575) 746-3585
18249,350111000833,EDUCATION DEV CENTER,1000 EAST AZTEC AVE,GALLUP,NM,87301,NOT AVAILABLE,(505) 721-1051
43171,350021000149,BERNALILLO MIDDLE,485 CAMINO DON TOMAS,BERNALILLO,NM,87004,NOT AVAILABLE,(505) 867-3309
48059,350195000915,MOUNTAINAIR JR HIGH,901 WEST 3RD ST,MOUNTAINAIR,NM,87036,NOT AVAILABLE,(505) 847-2333
49072,350201000479,PECOS ELEMENTARY,NM HWY 63,PECOS,NM,87552,NOT AVAILABLE,(505) 757-4700
30205,350048000302,EAGLE NEST MIDDLE,225 LAKE ST,EAGLE NEST,NM,87718,NOT AVAILABLE,(575) 376-2445
38027,350237000535,EL CAMINO REAL ACADEMY COMMUNITY,2500 S. MEADOWS,SANTA FE,NM,87507,NOT AVAILABLE,(505) 467-1300
53721,350001200977,PENITENTIARY OF NM-SANTA FE,4331 STATE HIGHWAY 14,SANTA FE,NM,87504,NOT AVAILABLE,(505) 473-3200
56230,350030001123,OCOTILLO ELEMENTARY,2106 CAPTAIN WILLIAMS LN,CARLSBAD,NM,88220,NOT AVAILABLE,(575) 628-4498
57849,350039000189,TSE'BIT'AI MIDDLE,US HWY 64,SHIPROCK,NM,87420,NOT AVAILABLE,(505) 368-4741
91390,350006000040,COCHITI ELEMENTARY,3100 SAN ISIDRO RD NW,ALBUQUERQUE,NM,87107,NOT AVAILABLE,(505) 345-1432
92971,350006000122,WILSON MIDDLE,1138 CARDENAS DR SE,ALBUQUERQUE,NM,87108,NOT AVAILABLE,(505) 268-3961
94816,350108001032,NORTH VALLEY ELEMENTARY,300 CASCADE AVE,SAN MIGUEL,NM,88058,NOT AVAILABLE,(575) 882-6203
22829,350066000233,CUBA ELEMENTARY,50 COUNTY RD 13 BLDG 51,CUBA,NM,87013,NOT AVAILABLE,(575) 289-3211
28816,590015700145,NENAHNEZAD COMMUNITY SCHOOL,6675 SJ COUNTY ROAD SOUTH,FRUITLAND,NM,87416,NOT AVAILABLE,(505) 960-6922
29180,350255000587,TATUM JR HIGH,320 WEST 3RD STREET,TATUM,NM,88267,NOT AVAILABLE,(575) 398-4455
29446,350006000042,COMANCHE ELEMENTARY,3505 PENNSYLVANIA ST NE,ALBUQUERQUE,NM,87110,NOT AVAILABLE,(505) 884-5275
29952,350090000260,ALCALDE ELEMENTARY,HWY 389 AND COUNTY RD 41,ESPANOLA,NM,87532,NOT AVAILABLE,(505) 852-4253
82824,350180000458,MAXWELL MIDDLE,4TH ST AND PARQUE,MAXWELL,NM,87728,NOT AVAILABLE,(575) 375-2371
89077,350001030011,ENCHANTED HILLS ELEMENTARY,5400 OBREGON RD NE,RIO RANCHO,NM,87144,NOT AVAILABLE,(505) 891-8526
73949,350174000796,NEW HOPE ALTERNATIVE HIGH,601 NORTH 5TH ST,LOVINGTON,NM,88260,NOT AVAILABLE,(575) 739-2415
75703,350024000155,BLANCO ELEMENTARY,7313 US HWY 64,BLOOMFIELD,NM,87413,NOT AVAILABLE,(505) 634-3900
102130,350258000588,TEXICO ELEMENTARY,520 NORTH GRIFFIN,TEXICO,NM,88135,NOT AVAILABLE,(575) 482-3801
33133,350001500971,SEQUOYAH,3405 PAN AMERICAN FWY,ALBUQUERQUE,NM,87107,NOT AVAILABLE,(505) 222-0355
35149,350150000720,ONATE HIGH,5700 MESA GRANDE DR,LAS CRUCES,NM,88011,NOT AVAILABLE,(575) 527-9430
11072,350162000422,CENTRAL ELEMENTARY,1352 HARDIN ST,LORDSBURG,NM,88045,NOT AVAILABLE,(575) 542-9222
15416,350243000564,SILVER HIGH,3200 NORTH SILVER ST,SILVER CITY,NM,88061,NOT AVAILABLE,(575) 956-2158
15622,350267000968,TULAROSA INTERMEDIATE,304 1ST STREET,TULAROSA,NM,88352,NOT AVAILABLE,(575) 585-8800
16045,350126000358,WILL ROGERS ELEMENTARY,300 EAST CLINTON,HOBBS,NM,88240,NOT AVAILABLE,(575) 433-2200
17823,350042000192,CHAMA ELEMENTARY,182 NORTH PINE AVE,CHAMA,NM,87520,NOT AVAILABLE,(575) 588-7285
61050,350252000844,ANANSI CHARTER SCHOOL,57 NM 230,EL PRADO,NM,87529,NOT AVAILABLE,(575) 758-5202
62323,350174000451,YARBRO ELEMENTARY,700 WEST JEFFERSON AVE,LOVINGTON,NM,88260,NOT AVAILABLE,(575) 739-2490
64489,350099000286,HERMOSA MIDDLE SCHOOL,1500 EAST 25TH,FARMINGTON,NM,87401,NOT AVAILABLE,(505) 324-9840
21040,350012401068,TIERRA ADENTRO,1905 MOUNTAIN RD NW,ALBUQUERQUE,NM,87104,NOT AVAILABLE,(505) 967-4720
23265,350159000421,LOGAN HIGH,301 NORTH 2ND ST,LOGAN,NM,88426,NOT AVAILABLE,(575) 487-2252
24018,350114000899,GRADY MIDDLE SCHOOL,100 FRANKLIN ST,GRADY,NM,88120,NOT AVAILABLE,(575) 357-2192
25204,350255000585,TATUM ELEMENTARY,115 WEST 3RD ST,TATUM,NM,88267,NOT AVAILABLE,(575) 398-4455
92575,350171000442,LOVING ELEMENTARY,601 SOUTH SIXTH,LOVING,NM,88256,NOT AVAILABLE,(575) 745-2071
95183,350126000353,MILLS ELEMENTARY,200 WEST COPPER,HOBBS,NM,88240,NOT AVAILABLE,(575) 433-2400
98940,350003000013,SIERRA ELEMENTARY,2211 PUERTO RICO AVE,ALAMOGORDO,NM,88310,NOT AVAILABLE,(575) 812-5800
99622,350015101088,SW AERONAUTICS MATHEMATICS AND SCIENCE ACADEMY,4100 AEROSPACE PKWY BW,ALBUQUERQUE,NM,87121,NOT AVAILABLE,(505) 296-7677
50506,350006000044,DEL NORTE HIGH,5323 MONTGOMERY NE,ALBUQUERQUE,NM,87110,NOT AVAILABLE,(505) 883-7222
57349,350210000489,PORTALES JR HIGH,700 EAST 3RD ST,PORTALES,NM,88130,NOT AVAILABLE,(575) 356-7045
84856,350237000551,SANTA FE HIGH,2100 YUCCA RD,SANTA FE,NM,87505,NOT AVAILABLE,(505) 467-2400
86437,350001000682,LINCOLN MIDDLE,2287 LEMA RD SE,RIO RANCHO,NM,87124,NOT AVAILABLE,(505) 892-1100
88285,350006000725,SUSIE RAYOS MARMON ELEMENTARY,1800 72ND ST NW,ALBUQUERQUE,NM,87120,NOT AVAILABLE,(505) 831-5400
88398,350108000934,VADO ELEMENTARY,330 HOLGUIN RD,VADO,NM,88072,NOT AVAILABLE,(575) 882-6203
71240,350021000154,SANTO DOMINGO MIDDLE,100 HWY 22 WEST,SANTO DOMINGO PUEBLO,NM,87052,NOT AVAILABLE,(505) 867-4441
76012,350117000337,SEBOYETA ELEMENTARY,HGY 53 BIA RD 132,SEBOYETA,NM,87055,NOT AVAILABLE,(505) 285-2760
3110,350246000569,SAN ANTONIO ELEMENTARY,2 4TH ST,SAN ANTONIO,NM,87832,NOT AVAILABLE,(575) 835-1758
4798,350006001117,SIEMBRA LEADERSHIP HIGH SCHOOL,524 CENTRAL AVE SW,ALBUQUERQUE,NM,87102,NOT AVAILABLE,(505) 205-0329
4799,350017701126,SIX DIRECTIONS INDIGENOUS SCHOOL,2055 NM 602,GALLUP,NM,87301,NOT AVAILABLE,(505) 863-1900
5219,350252000817,TAOS MUNICIPAL CHARTER,1303 PASEO DEL CANON EAST,TAOS,NM,87571,NOT AVAILABLE,(575) 751-7222
6661,590019100037,TO'HAJIILEE DAY SCHOOL,170 WARRIOR LANE,TOHAJIILEE,NM,87026,NOT AVAILABLE,(505) 908-2446
42849,350216000494,RIO COSTILLA SW LEARNING ACADEMY,16 GARCIA RD,COSTILLA,NM,87524,NOT AVAILABLE,(575) 586-0089
47887,350039000712,KIRTLAND ELEMENTARY,30 RD 6446,KIRTLAND,NM,87417,NOT AVAILABLE,(505) 598-5893
101086,350108001065,GADSDEN ELEMENTARY,1440 HWY 478,SUNLAND PARK,NM,88063,NOT AVAILABLE,(575) 882-3050
102132,350099000287,LADERA DEL NORTE ELEMENTARY,308 EAST 35TH ST,FARMINGTON,NM,87401,NOT AVAILABLE,(505) 324-9840
102287,350001000750,COLINAS DEL NORTE ELEMENTARY,1001 NIGHT SKY AVE NE,RIO RANCHO,NM,87144,NOT AVAILABLE,(505) 896-3378
80700,350006000054,EUGENE FIELD ELEMENTARY,700 EDITH BLVD SE,ALBUQUERQUE,NM,87102,NOT AVAILABLE,(505) 764-2014
82028,350165000429,CHAMISA ELEMENTARY,301 MEADOW LN,WHITE ROCK,NM,87547,NOT AVAILABLE,(505) 663-2470
85660,350111000316,THOREAU HIGH,4 HAWK CIRCLE,THOREAU,NM,87323,NOT AVAILABLE,(505) 721-1051
87682,350174000450,TAYLOR MIDDLE,700 SOUTH 11TH ST,LOVINGTON,NM,88260,NOT AVAILABLE,(575) 739-2435
89992,350165000433,MOUNTAIN ELEMENTARY,2280 NORTH RD,LOS ALAMOS,NM,87544,NOT AVAILABLE,(505) 663-2325
93523,350150000689,HILLRISE ELEMENTARY,1400 SOUTH CURNUTT ST,LAS CRUCES,NM,88011,NOT AVAILABLE,(575) 527-9666
98802,350039000179,CENTRAL HIGH,550 RD 6100,KIRTLAND,NM,87417,NOT AVAILABLE,(505) 598-5881
99019,350108000625,ANTHONY ELEMENTARY,609 CHURCH ST,ANTHONY,NM,88021,NOT AVAILABLE,(575) 882-6203
99382,350006000062,HAYES MIDDLE,1100 TEXAS ST NE,ALBUQUERQUE,NM,87110,NOT AVAILABLE,(505) 265-7741
105791,350039001102,DREAM DINE,HIGHWAY 64 MILEPOST 23 NW,SHIPROCK,NM,87420,NOT AVAILABLE,(505) 368-2500
55195,350108000656,LOMA LINDA ELEMENTARY,1451 DONALDSON AVE,ANTHONY,NM,88021,NOT AVAILABLE,(575) 882-6203
55581,350210000488,PORTALES HIGH,201 SOUTH KNOXVILLE AVE,PORTALES,NM,88130,NOT AVAILABLE,(575) 356-7015
56229,350030001118,DESERT WILLOW ELEMENTARY,2100 PRIMROSE ST,CARLSBAD,NM,88220,NOT AVAILABLE,(575) 234-3310
56480,350017300950,TIERRA ENCANTADA CHARTER SCHOOL,4601 MISSION BEND,SANTA FE,NM,87507,NOT AVAILABLE,(505) 983-3337
6851,350207000484,POJOAQUE MIDDLE,1574 STATE ROAD 502,SANTA FE,NM,87506,NOT AVAILABLE,(505) 455-2282
7898,350003000007,HOLLOMAN MIDDLE,381 1ST ST,HOLLOMAN AFB,NM,88330,NOT AVAILABLE,(575) 812-6200
8427,350013100810,AMY BIEHL CHARTER HIGH SCHOOL,123 4TH ST SW,ALBUQUERQUE,NM,87102,NOT AVAILABLE,(505) 299-9409
37550,350012000134,ARTESIA ZIA INTERMEDIATE,1100 BULLOCK AVE,ARTESIA,NM,88210,NOT AVAILABLE,(575) 746-3585
38976,350001000739,MOUNTAIN VIEW MIDDLE,4101 MONTREAL LOOP NE,RIO RANCHO,NM,87144,NOT AVAILABLE,(505) 867-0711
61709,350048000699,CIMARRON MIDDLE,132 NORTH COLLISON AVE,CIMARRON,NM,87714,NOT AVAILABLE,(575) 376-2445
65483,350261000595,T OR C MIDDLE,1802 PERSHING ST,T OR C,NM,87901,NOT AVAILABLE,(575) 894-8150
65929,350108000700,DESERT VIEW ELEMENTARY,1105 VALLE VISTA DR,SUNLAND PARK,NM,88063,NOT AVAILABLE,(575) 882-6203
68789,350201000706,PECOS MIDDLE,NM HWY 63,PECOS,NM,87552,NOT AVAILABLE,(505) 757-4700
24967,350006000096,OSUNA ELEMENTARY,4715 MOON ST NE,ALBUQUERQUE,NM,87111,NOT AVAILABLE,(505) 296-4811
28240,350222000503,RESERVE ELEMENTARY,24 MOUNTAINEER RD.,RESERVE,NM,87830,NOT AVAILABLE,(575) 533-6241
28825,350093000791,UPPER ELEMENTARY,624 8TH ST,ESTANCIA,NM,87016,NOT AVAILABLE,(505) 384-2001
29186,350006001099,ECADEMY,5300 CUTLER NE,ALBUQUERQUE,NM,87110,NOT AVAILABLE,(505) 247-4209
16031,350006000073,KIT CARSON ELEMENTARY,1921 BYRON AV SW,ALBUQUERQUE,NM,87105,NOT AVAILABLE,(505) 877-2724
16034,350156000419,WEST LAS VEGAS MIDDLE SCHOOL,1024 SOUTH PACIFIC,LAS VEGAS,NM,87701,NOT AVAILABLE,(505) 426-2541
17839,350027000161,CAPITAN HIGH,519 SMOKEY BEAR BLVD,CAPITAN,NM,88316,NOT AVAILABLE,(575) 354-2239
71557,350000100608,VAUGHN HIGH,101 4TH,VAUGHN,NM,88353,NOT AVAILABLE,(575) 584-2283
71674,350001200979,WESTERN NM CORRECTIONS,1700 EAST OLD HWY 66,GRANTS,NM,87020,NOT AVAILABLE,(505) 287-2941
72479,350001100973,AZTEC YOUTH ACADEMY,10015 ROBERT LARNSON,LAS CRUCES,NM,88001,NOT AVAILABLE,(505) 526-5900
75084,350006000853,DIGITAL ARTS AND TECHNOLOGY ACADEMY,1011 LAMBERTON NE,ALBUQUERQUE,NM,87107,NOT AVAILABLE,(505) 341-0888
75976,350150001064,EARLY COLLEGE HIGH SCHOOL,3400 SOUTH ESPINA ST,LAS CRUCES,NM,88001,NOT AVAILABLE,(575) 527-9540
77841,350156000418,WEST LAS VEGAS HIGH SCHOOL,157 MORENO ST,LAS VEGAS,NM,87701,NOT AVAILABLE,(505) 426-2500
78622,350102000294,FLOYD ELEMENTARY,1564 NM 267,FLOYD,NM,88118,NOT AVAILABLE,(575) 478-2211
79442,350111000797,TOBE TURPEN ELEMENTARY,3301 MANUELITO,GALLUP,NM,87301,NOT AVAILABLE,(505) 721-1051
49025,350261000435,SIERRA ELEMENTARY,1500 NORTH SILVER,T OR C,NM,87901,NOT AVAILABLE,(575) 894-8150
10397,350006000045,DOLORES GONZALES ELEMENTARY,900 ATLANTIC ST SW,ALBUQUERQUE,NM,87102,NOT AVAILABLE,(505) 764-2020
12041,350237000541,E.J. MARTINEZ ELEMENTARY,401 NORTH SAN MATEO,SANTA FE,NM,87505,NOT AVAILABLE,(505) 467-3800
16648,350216000687,QUESTA JR HIGH,57 SAGEBRUSH LN,QUESTA,NM,87556,NOT AVAILABLE,(575) 586-1604
18504,350198000476,OJO CALIENTE ELEMENTARY,HWY 285 JUNCTION 111,OJO CALIENTE,NM,87549,NOT AVAILABLE,(575) 583-2316
19059,350009000618,ANIMAS ELEMENTARY,1 PANTHER DR,ANIMAS,NM,88020,NOT AVAILABLE,(575) 548-2299
1968,350006000080,LOWELL ELEMENTARY,1700 SUNSHINE TERRACE SE,ALBUQUERQUE,NM,87106,NOT AVAILABLE,(505) 764-2011
2367,350246000571,SOCORRO HIGH,1200 MICHIGAN ST,SOCORRO,NM,87801,NOT AVAILABLE,(575) 835-0700
6106,350006001133,COYOTE WILLOW FAMILY SCHOOL,7125 IRVING BLVD NW,ALBUQUERQUE,NM,87114,NOT AVAILABLE,(505) 253-0050
6855,350207001041,SIXTH GRADE ACADEMY,1574 STATE RD 502,POJOAQUE,NM,87506,NOT AVAILABLE,(505) 455-2282
9603,350006000895,MANZANO MESA ELEMENTARY,801 ELIZABETH ST SE,ALBUQUERQUE,NM,87123,NOT AVAILABLE,(505) 292-6707
92648,350216000496,QUESTA HIGH,57 SAGEBRUSH LN,QUESTA,NM,87556,NOT AVAILABLE,(575) 586-1604
92995,350234000533,SAN JON HIGH,7TH AND ELM STREETS,SAN JON,NM,88434,NOT AVAILABLE,(575) 576-2466
97197,350126000667,STONE ELEMENTARY,1015 CALLE SUR,HOBBS,NM,88240,NOT AVAILABLE,(575) 433-2500
82596,350039000773,EVA B STOKELY ELEMENTARY,WEST HWY 64,SHIPROCK,NM,87420,NOT AVAILABLE,(505) 368-5109
83669,350006000123,NEW FUTURES HIGH SCHOOL,5400 CUTLER NE,ALBUQUERQUE,NM,87110,NOT AVAILABLE,(505) 883-5680
85051,350006000118,WASHINGTON MIDDLE,1101 PARK SW,ALBUQUERQUE,NM,87102,NOT AVAILABLE,(505) 764-2000
85552,350111000304,GALLUP MIDDLE,1001 SOUTH GRANDVIEW,GALLUP,NM,87301,NOT AVAILABLE,(505) 721-1051
72891,590017400097,TAOS DAY SCHOOL,200 ROTTEN TREE RD,TAOS,NM,87571,NOT AVAILABLE,(575) 758-3652
79382,350225000523,SUNSET ELEMENTARY,606 WEST OCONNOR ROAD,ROSWELL,NM,88203,NOT AVAILABLE,(575) 637-3575
52595,350063000232,CORONA HIGH,531 FRANKLIN ST,CORONA,NM,88318,NOT AVAILABLE,(575) 849-1911
53004,350099001091,FARMINGTON PRESCHOOL ACADEMY WEST,301 N COURT,FARMINGTON,NM,87401,NOT AVAILABLE,(505) 599-8744
30298,350099000740,ROCINANTE HIGH,3250 EAST 30TH ST,FARMINGTON,NM,87401,NOT AVAILABLE,(505) 324-9840
31751,350195000472,MOUNTAINAIR ELEMENTARY,405 BROADWAY,MOUNTAINAIR,NM,87036,NOT AVAILABLE,(505) 847-2333
21124,350225000506,BERRENDO MIDDLE,800 MARION RICHARDS,ROSWELL,NM,88201,NOT AVAILABLE,(575) 627-2775
22693,350150000932,RIO GRANDE PREPARATORY INSTITUTE,2355 AVENIDA DE MESILLA,MESILLA,NM,88046,NOT AVAILABLE,(575) 527-6058
23175,350150000688,EAST PICACHO ELEMENTARY,4450 NORTH VALLEY DR,LAS CRUCES,NM,88007,NOT AVAILABLE,(575) 527-9516
23668,350039000654,NEWCOMB HIGH,US 491,NEWCOMB,NM,87455,NOT AVAILABLE,(505) 696-3417
25903,350138000992,LINDRITH AREA HERITAGE,1086 HWY 595,LINDRITH,NM,87029,NOT AVAILABLE,(575) 774-6669
29953,350099000280,ANIMAS ELEMENTARY,1612 HUTTON AVE,FARMINGTON,NM,87401,NOT AVAILABLE,(505) 324-9840
44563,350111000308,LINCOLN ELEMENTARY,801 WEST HILL,GALLUP,NM,87301,NOT AVAILABLE,(505) 721-1051
46347,350039000181,MESA ELEMENTARY,N HWY 491 MESA SCHOOL RD,SHIPROCK,NM,87420,NOT AVAILABLE,(505) 368-4529
46747,350015000136,C.V. KOOGLER MIDDLE,455 NORTH LIGHT PLANT RD,AZTEC,NM,87410,NOT AVAILABLE,(575) 334-9474
102148,350120000339,HAGERMAN ELEMENTARY,406 NORTH CAMBRIDGE AVE,HAGERMAN,NM,88232,NOT AVAILABLE,(575) 752-3254
4801,350237001120,EARLY COLLEGE OPPORTUNITIES,2301 W. ZIA RD.,SANTA FE,NM,87505,NOT AVAILABLE,(505) 467-2701
8195,350150000765,CAMINO REAL MIDDLE,2961 ROADRUNNER PKWY,LAS CRUCES,NM,88011,NOT AVAILABLE,(575) 527-6030
8396,350237000553,WOOD-GORMLEY ELEMENTARY,141 EAST BOOTH ST,SANTA FE,NM,87501,NOT AVAILABLE,(505) 467-4800
70975,350006001036,SUNSET VIEW ELEMENTARY,6121 PARADISE BLVD NW,ALBUQUERQUE,NM,87114,NOT AVAILABLE,(505) 792-3254
73092,350001000761,EAGLE RIDGE MIDDLE,800 FRUTA RD,RIO RANCHO,NM,87124,NOT AVAILABLE,(505) 892-6630
79068,350237001061,AMY BIEHL COMMUNITY SCHOOL AT RANCHO VIEJO,310 AVIENDA DEL SUR,SANTA FE,NM,87508,NOT AVAILABLE,(505) 467-2100
85047,350015800883,WALATOWA CHARTER HIGH,147 BEAR HEAD CANYON,JEMEZ PUEBLO,NM,87024,NOT AVAILABLE,(575) 834-0448
88422,350006000120,WHERRY ELEMENTARY,BLDG 25000TH KAFB EAST,ALBUQUERQUE,NM,87116,NOT AVAILABLE,(505) 268-2434
39359,350011201051,SCHOOL OF DREAMS ACADEMY,906 JUAN PEREA RD,LOS LUNAS,NM,87031,NOT AVAILABLE,(505) 866-7632
61313,350016701103,EXPLORE ACADEMY,5100 MASTHEAD ST NE,ALBUQUERQUE,NM,87109,NOT AVAILABLE,(505) 305-5300
64644,350240000557,SANTA ROSA HIGH,717 3RD ST,SANTA ROSA,NM,88435,NOT AVAILABLE,(575) 472-3171
66278,350243000560,CLIFF HIGH,622 STATE HWY 211,CLIFF,NM,88028,NOT AVAILABLE,(575) 535-2051
105771,350001201152,OTERO COUNTY PRISON,10 MCGREGOR RANGE RD,CHAPARRAL,NM,88001,NOT AVAILABLE,(575) 824-4884
105797,350243001141,SILVER SCHOLARS ACADEMY,600 E 32ND STREET,SILVER CITY,NM,88061,NOT AVAILABLE,(575) 956-2140
20136,350231000531,RUIDOSO MIDDLE,123 WARRIOR DR,RUIDOSO,NM,88345,NOT AVAILABLE,(575) 257-4051
24787,350001001039,SANDIA VISTA ELEMENTARY,6800 FRANKLIN RD NE,RIO RANCHO,NM,87144,NOT AVAILABLE,(505) 338-2526
25285,350126000352,JEFFERSON ELEMENTARY,1200 WEST PARK,HOBBS,NM,88240,NOT AVAILABLE,(575) 433-1700
26723,350111030020,STAGECOACH ELEMENTARY,725 FREEDOM RD,GALLUP,NM,87301,NOT AVAILABLE,(505) 721-1051
26871,350006000920,MOUNTAIN MAHOGANY COMMUNITY SCHOOL,5014 4TH STREET NW,ALBUQUERQUE,NM,87107,NOT AVAILABLE,(505) 341-1424
28968,350006000121,WHITTIER ELEMENTARY,1110 QUINCY ST SE,ALBUQUERQUE,NM,87108,NOT AVAILABLE,(505) 255-2008
94133,350126000346,CORONADO ELEMENTARY,2600 NORTH BRAZOS,HOBBS,NM,88240,NOT AVAILABLE,(575) 433-2300
42918,350057000224,ZIA ELEMENTARY,2400 NORRIS ST,CLOVIS,NM,88101,NOT AVAILABLE,(575) 769-4300
45321,350006000647,EDMUND G ROSS ELEMENTARY,6700 PALOMAS NE,ALBUQUERQUE,NM,87109,NOT AVAILABLE,(505) 821-0185
46981,350246000568,MIDWAY ELEMENTARY,9 MIDWAY RD,POLVADERA,NM,87828,NOT AVAILABLE,(575) 835-1098
53404,350123000753,RIO GRANDE ELEMENTARY,940 EAST HERRERA,HATCH,NM,87937,NOT AVAILABLE,(575) 267-8260
53638,350280001124,SHIWI TS'ANA ELEMENTARY,38 ZUNI ROUTE 301 NORTH,ZUNI,NM,87327,NOT AVAILABLE,(505) 782-4441
57841,350011700891,CESAR CHAVEZ COMMUNITY SCHOOL,1325 PALOMAS DR SE,ALBUQUERQUE,NM,87108,NOT AVAILABLE,(505) 877-0558
57986,350001000954,RIO RANCHO CYBER ACADEMY,1330 JACKIE RD SE,RIO RANCHO,NM,87124,NOT AVAILABLE,(505) 892-7222
10650,350225000696,UNIVERSITY HIGH,25 MARTIN STREET,ROSWELL,NM,88203,NOT AVAILABLE,(575) 627-2750
11088,350156000412,TONY SERNA JR. ELEMENTARY,1725 NEW MEXICO AVE,LAS VEGAS,NM,87701,NOT AVAILABLE,(505) 426-2621
12040,350048000857,MORENO VALLEY HIGH,56 CAMINO GRANDE,ANGEL FIRE,NM,87710,NOT AVAILABLE,(575) 377-3100
12210,350225000519,PARKVIEW EARLY LITERACY CENTER,1700 WEST ALAMEDA ST,ROSWELL,NM,88203,NOT AVAILABLE,(575) 637-3525
12802,350183000898,MELROSE JUNIOR,100 MISSOURI AVE,MELROSE,NM,88124,NOT AVAILABLE,(575) 253-4269
15042,350001000865,RIO RANCHO MIDDLE SCHOOL,1600 LOMA COLORADO DR NE,RIO RANCHO,NM,87144,NOT AVAILABLE,(505) 891-5335
19696,350069000240,DEMING INTERMEDIATE,1750 PEAR ST. SW,DEMING,NM,88030,NOT AVAILABLE,(575) 546-6568
40437,350060000229,SAN LORENZO ELEMENTARY,5 GALAZ ST,SAN LORENZO,NM,88041,NOT AVAILABLE,(575) 537-4011
41927,350001100985,FOOTHILL HIGH SCHOOL,400 EDITH BLVD NE,ALBUQUERQUE,NM,87107,NOT AVAILABLE,(505) 841-2400
42003,350264000600,TUCUMCARI MIDDLE,1000 SOUTH 5TH ST,TUCUMCARI,NM,88401,NOT AVAILABLE,(575) 461-3910
46356,350006000083,MARK TWAIN ELEMENTARY,6316 CONSTITUTION AVE NE,ALBUQUERQUE,NM,87110,NOT AVAILABLE,(505) 255-8337
46656,350186000638,MORA HIGH,#10 RANGER DRIVE,MORA,NM,87732,NOT AVAILABLE,(575) 387-3100
53584,590013800025,BREAD SPRINGS DAY SCHOOL,HWY 602 EAST SKEETS ROAD 1750,GALLUP,NM,87305,NOT AVAILABLE,(505) 778-5665
30213,350060000230,SNELL MIDDLE,501 TOM FOY BLVD,BAYARD,NM,88023,NOT AVAILABLE,(575) 537-4011
31753,350168030007,TOME ELEMENTARY,46 CHACON RD,LOS LUNAS,NM,87031,NOT AVAILABLE,(505) 866-8231
33099,350060000226,CENTRAL ELEMENTARY,211 CEDAR ST,SANTA CLARA,NM,88026,NOT AVAILABLE,(575) 537-4011
34677,350192000470,MOSQUERO ELEMENTARY,43 MCNEIL AVE,MOSQUERO,NM,87733,NOT AVAILABLE,(575) 673-2271
36189,350021000727,COCHITI MIDDLE,800 QUAIL HILL TRAIL,PENA BLANCA,NM,87041,NOT AVAILABLE,(505) 867-5547
36213,350267000605,TULAROSA HIGH,1305 8TH STREET,TULAROSA,NM,88352,NOT AVAILABLE,(575) 585-8800
36618,350003000010,NORTH ELEMENTARY,1300 NORTH FLORIDA,ALAMOGORDO,NM,88310,NOT AVAILABLE,(575) 812-5400
3567,350024000157,CENTRAL PRIMARY,310 WEST SYCAMORE,BLOOMFIELD,NM,87413,NOT AVAILABLE,(505) 632-2121
4493,350030001127,PECOS CONNECTIONS ACADEMY,1503 WEST PIERCE STREET,CARLSBAD,NM,88220,NOT AVAILABLE,(575) 236-4005
4802,350030001127,PECOS CONNECTIONS ACADEMY,1503 WEST PIERCE STREET,CARLSBAD,NM,88220,NOT AVAILABLE,(575) 236-4005
5830,350018101134,ALBUQUERQUE COLLEGIATE CHARTER SCHOOL,1720 BRIDGE BLVD SW SUITE #101,ALBUQUERQUE,NM,87105,NOT AVAILABLE,(505) 539-5283
7450,350225000514,MESA MIDDLE,1601 EAST BLAND ST,ROSWELL,NM,88203,NOT AVAILABLE,(575) 627-2800
7694,350225000516,MISSOURI AVE ELEMENTARY,700 W DEMING,ROSWELL,NM,88203,NOT AVAILABLE,(575) 637-3450
22052,350210000485,BROWN EARLY CHILDHOOD CENTER,520 WEST 5TH ST,PORTALES,NM,88130,NOT AVAILABLE,(575) 356-7075
22092,350006000093,NAVAJO ELEMENTARY,2936 HUGHES RD SW,ALBUQUERQUE,NM,87105,NOT AVAILABLE,(505) 873-8512
12076,350183000898,MELROSE JUNIOR,100 MISSOURI AVE,MELROSE,NM,88124,NOT AVAILABLE,(575) 253-4269
14429,350013800938,ALDO LEOPOLD CHARTER,1422 HWY 180 EAST,SILVER CITY,NM,88061,NOT AVAILABLE,(575) 538-2547
14663,350099000281,APACHE ELEMENTARY,700 WEST APACHE,FARMINGTON,NM,87401,NOT AVAILABLE,(505) 324-9840
15041,350132000361,HOUSE ELEMENTARY,309 APPLE ST,HOUSE,NM,88121,NOT AVAILABLE,(575) 279-7353
18852,350001001034,CIELO AZUL ELEMENTARY,3804 SHILOH RD NE,RIO RANCHO,NM,87144,NOT AVAILABLE,(505) 338-2320
91777,590012600148,NORTHWEST HIGH SCHOOL,PINON STREET BDG 1419,SHIPROCK,NM,87420,NOT AVAILABLE,(505) 368-2157
93124,350171000731,LOVING MIDDLE,600 SOUTH SIXTH,LOVING,NM,88256,NOT AVAILABLE,(575) 745-2051
94353,350003000001,ALAMOGORDO HIGH,103 CUBA AVE,ALAMOGORDO,NM,88310,NOT AVAILABLE,(575) 812-6500
95773,350150000385,JORNADA ELEMENTARY,3400 ELKS DR,LAS CRUCES,NM,88005,NOT AVAILABLE,(575) 527-9536
70794,350237000548,KEARNY ELEMENTARY,901 AVENIDA CAMPANAS,SANTA FE,NM,87501,NOT AVAILABLE,(505) 467-1800
71204,590004400033,NA' NEELZHIIN JI'OLTA,FROM US 550HWY 197 MILE MARKER 26 1,TORREON,NM,87013,NOT AVAILABLE,(505) 731-2272
72899,350153000721,SIERRA VISTA ELEMENTARY,475 LEGION DR,LAS VEGAS,NM,87701,NOT AVAILABLE,(505) 454-5740
73624,350111000732,CHEE DODGE ELEMENTARY,641 N HWY 491,YAH TA HEY,NM,87375,NOT AVAILABLE,(505) 721-1051
74079,350006000106,SANDIA HIGH,7801 CANDELARIA NE,ALBUQUERQUE,NM,87110,NOT AVAILABLE,(505) 294-1511
76881,350001200970,ROSWELL CORRECTIONS,578 WEST CHICKASAW RD,HAGERMAN,NM,88232,NOT AVAILABLE,(575) 625-3100
60508,350111000305,INDIAN HILLS ELEMENTARY,3604 CINIZA DR,GALLUP,NM,87301,NOT AVAILABLE,(505) 721-1051
64292,350013500929,MONTESSORI ELEMENTARY SCHOOL,1730 MONTANO RD NW,ALBUQUERQUE,NM,87107,NOT AVAILABLE,(505) 796-0149
66720,350150000376,ALAMEDA ELEMENTARY,1325 N. ALAMEDA BLVD,LAS CRUCES,NM,88005,NOT AVAILABLE,(575) 527-9486
67057,350001000952,MAGGIE CORDOVA ELEMENTARY SCHOOL,1500 VERANDA RD SE,RIO RANCHO,NM,87124,NOT AVAILABLE,(505) 994-0229
81777,350012301066,ABQ SIGN LANGUAGE ACADEMY,620 LOMAS BLVD NW,ALBUQUERQUE,NM,87102,NOT AVAILABLE,(505) 244-7553
83755,350006000113,TOMASITA ELEMENTARY,701 TOMASITA ST NE,ALBUQUERQUE,NM,87123,NOT AVAILABLE,(505) 291-6844
84326,350012000130,ARTESIA PARK JUNIOR HIGH,15TH AND CANNON,ARTESIA,NM,88210,NOT AVAILABLE,(575) 746-3585
88582,350006000683,MARIE M HUGHES ELEMENTARY,5701 MOJAVE NW,ALBUQUERQUE,NM,87120,NOT AVAILABLE,(505) 897-3080
28371,350006000698,LA CUEVA HIGH,7801 WILSHIRE NE,ALBUQUERQUE,NM,87122,NOT AVAILABLE,(505) 823-2327
28935,350010600873,NORTH VALLEY ACADEMY,7939 4TH STREET NW,LOS RANCHOS DE ALBUQUERQUE,NM,87114,NOT AVAILABLE,(505) 998-0501
635,350017000816,MONTE DEL SOL CHARTER,4157 WALKING RAIN RD,SANTA FE,NM,87507,NOT AVAILABLE,(505) 982-5225
6595,350153000402,LOS NINOS ELEMENTARY,474 LEGION DR,LAS VEGAS,NM,87701,NOT AVAILABLE,(505) 454-5720
18183,350090000266,JAMES RODRIGUEZ ELEMENTARY,333 NORTH CORONADO AVE,ESPANOLA,NM,87532,NOT AVAILABLE,(505) 753-2254
19461,350015201085,ESTANCIA VALLEY CLASSICAL ACADEMY,132 IMPALA CT,MORIARTY,NM,87035,NOT AVAILABLE,(505) 832-2223
102227,350168000866,LOS LUNAS FAMILY SCHOOL,111 MONICA ROAD,LOS LUNAS,NM,87031,NOT AVAILABLE,(505) 866-8231
57048,350006001054,CORONADO ELEMENTARY,601 4TH ST SW,ALBUQUERQUE,NM,87102,NOT AVAILABLE,(505) 843-8283
81456,350090000259,ABIQUIU ELEMENTARY,HWY 84/285 213412,ESPANOLA,NM,87532,NOT AVAILABLE,(505) 753-2254
81889,350057000219,PARKVIEW ELEMENTARY,2501 E. 14TH ST,CLOVIS,NM,88101,NOT AVAILABLE,(575) 769-4300
85216,350015000137,MCCOY AVENUE ELEMENTARY,901 NORTH MCCOY AVE,AZTEC,NM,87410,NOT AVAILABLE,(575) 334-9474
90301,350234000835,SAN JON MIDDLE SCHOOL,7TH AND ELM STREETS,SAN JON,NM,88434,NOT AVAILABLE,(575) 576-2466
96754,350108000660,SANTA TERESA MIDDLE,4800 MCNUTT RD,SANTA TERESA,NM,88008,NOT AVAILABLE,(575) 882-6203
98333,350018000143,DENNIS CHAVEZ ELEMENTARY,19670 HWY 314,BELEN,NM,87002,NOT AVAILABLE,(505) 966-1800
43399,350150000393,MESILLA PARK ELEMENTARY,955 WEST UNION AVE,LAS CRUCES,NM,88005,NOT AVAILABLE,(575) 527-9615
45218,350237001107,NINA OTERO COMMUNITY SCHOOL,5901 HERRERA DRIVE,SANTA FE,NM,87507,NOT AVAILABLE,(505) 467-4200
45483,350150000396,BOOKER T. WASHINGTON,755 EAST CHESTNUT AVE,LAS CRUCES,NM,88001,NOT AVAILABLE,(575) 527-9595
47610,350189000467,MORIARTY ELEMENTARY,2015 SCHOOL LOOP,MORIARTY,NM,87035,NOT AVAILABLE,(505) 835-5835
33347,350010700874,HORIZON ACADEMY WEST,3021 TODOS SANTOS NW,ALBUQUERQUE,NM,87120,NOT AVAILABLE,(505) 998-0459
60052,350006000824,SEVEN BAR ELEMENTARY,4501 SEVEN BAR LOOP NW,ALBUQUERQUE,NM,87114,NOT AVAILABLE,(505) 899-2797
65463,350117000328,CUBERO ELEMENTARY,28 BACA RD.,CUBERO,NM,87014,NOT AVAILABLE,(505) 285-2705
74105,350018000867,THE FAMILY SCHOOL,4 EASTSIDE SCHOOL ROAD,BELEN,NM,87002,NOT AVAILABLE,(505) 966-2270
75484,350006000039,PETROGLYPH ELEMENTARY,5100 MARNA LYNN AVE NW,ALBUQUERQUE,NM,87114,NOT AVAILABLE,(505) 898-0923
51807,350006000642,CHAMIZA ELEMENTARY,5401 HOMESTEAD CIR NW,ALBUQUERQUE,NM,87120,NOT AVAILABLE,(505) 897-5174
56232,350280001124,SHIWI TS'ANA ELEMENTARY,38 ZUNI ROUTE 301 NORTH,ZUNI,NM,87327,NOT AVAILABLE,(505) 782-4441
47779,350126000349,HIGHLAND MIDDLE SCHOOL,2500 NORTH JEFFERSON,HOBBS,NM,88240,NOT AVAILABLE,(575) 433-1200
48206,350150000394,UNIVERSITY HILLS ELEMENTARY,2005 SOUTH LOCUST ST,LAS CRUCES,NM,88001,NOT AVAILABLE,(575) 527-9649
115,590008400034,OJO ENCINO DAY SCHOOL,27 MI W OF CUBA ON STAR LAKE RD,CUBA,NM,87013,NOT AVAILABLE,(505) 731-2333
719,350017201116,SANDOVAL ACADEMY OF BILINGUAL EDUCATION,4321 FULCRUM WAY NE SUITE A,RIO RANCHO,NM,87144,NOT AVAILABLE,(505) 771-0555
990,350006000764,DESERT RIDGE MIDDLE,8400 BARSTOW NE,ALBUQUERQUE,NM,87122,NOT AVAILABLE,(505) 857-9282
1663,350280000677,TWIN BUTTES CYBER ACADEMY,10 NORTH SANDY SPRINGS RD,ZUNI,NM,87327,NOT AVAILABLE,(505) 782-5511
2143,350001200987,NORTHWESTERN NM CORRECTIONS,2111 NORTH LOBO CANYON RD,GRANTS,NM,87020,NOT AVAILABLE,(505) 876-8300
7965,350075000247,DEXTER ELEMENTARY,400 WEST 1ST,DEXTER,NM,88230,NOT AVAILABLE,(575) 734-5420
8479,350003000007,HOLLOMAN MIDDLE,381 1ST ST,HOLLOMAN AFB,NM,88330,NOT AVAILABLE,(575) 812-6200
62305,350111000545,GALLUP CENTRAL ALTERNATIVE,325 MARGUERITE ST,GALLUP,NM,87301,NOT AVAILABLE,(505) 721-1051
63665,350174000447,LLANO ELEMENTARY,1000 SOUTH FIRST,LOVINGTON,NM,88260,NOT AVAILABLE,(575) 739-2670
66514,350013400923,ALBUQUERQUE BILINGUAL ACADEMY,7500 LA MORADA NW,ALBUQUERQUE,NM,87120,NOT AVAILABLE,(505) 836-7706
23933,350060000228,HURLEY ELEMENTARY,300 CARASCO AVE,HURLEY,NM,88043,NOT AVAILABLE,(575) 537-4011
93307,350060000227,COBRE HIGH,1300 TOM FOY BLVD,BAYARD,NM,88023,NOT AVAILABLE,(575) 537-4020
96244,350237001106,MANDELA INTERNATIONAL MAGNET (MIMS),1604 AGUA FRIA,SANTA FE,NM,87505,NOT AVAILABLE,(505) 467-1901
70388,350006001018,TIERRA ANTIGUA ELEMENTARY,8121 RAINBOW BLVD NW,ALBUQUERQUE,NM,87114,NOT AVAILABLE,(505) 792-3262
71256,350117000329,GRANTS HIGH,500 MOUNTAIN RD,GRANTS,NM,87020,NOT AVAILABLE,(505) 285-2651
73903,350006000752,DOUBLE EAGLE ELEMENTARY,8901 LOWELL ST NE,ALBUQUERQUE,NM,87122,NOT AVAILABLE,(505) 857-0187
74743,350072000245,DES MOINES ELEMENTARY,500 DES MOINES AVENUE,DES MOINES,NM,88418,NOT AVAILABLE,(575) 278-2611
77941,350129000360,HONDO HIGH,111 DON PABLO LANE,HONDO,NM,88336,NOT AVAILABLE,(575) 653-4411
84404,350105000297,FORT SUMNER HIGH,1001 SUMNER AVE,FORT SUMNER,NM,88119,NOT AVAILABLE,(575) 355-7734
100394,350006000890,GILBERT L SENA CHARTER HS,69 HOTEL CIR NE,ALBUQUERQUE,NM,87123,NOT AVAILABLE,(505) 237-2374
102131,350001000101,RIO RANCHO ELEMENTARY,4601 PEPE ORTIZ RD SE,RIO RANCHO,NM,87124,NOT AVAILABLE,(505) 892-0220
105785,350018501150,ACES TECHNICAL HIGH SCHOOL,300 MENAUL BLVD NW STE A444,ALBUQUERQUE,NM,87107,NOT AVAILABLE,(505) 506-1186
105786,350018600860,MIDDLE COLLEGE HIGH SCHOOL,705 GURLEY AVE,GALLUP,NM,87301,NOT AVAILABLE,(505) 772-9945
105794,350117001153,GCCS EARLY COLLEGE HIGH SCHOOL,1500 N 3RD STREET,GRANTS,NM,87020,NOT AVAILABLE,(505) 287-6655
45239,350264000599,TUCUMCARI HIGH,1001 SOUTH 7TH ST,TUCUMCARI,NM,88401,NOT AVAILABLE,(575) 461-3910
46858,350156000408,LUIS E. ARMIJO ELEMENTARY,600 PORTER ST,LAS VEGAS,NM,87701,NOT AVAILABLE,(505) 426-2661
47592,350150000396,BOOKER T. WASHINGTON,755 EAST CHESTNUT AVE,LAS CRUCES,NM,88001,NOT AVAILABLE,(575) 527-9595
47609,350252000914,CHRYSALIS ALTERNATIVE,134 CERVANTES,TAOS,NM,87571,NOT AVAILABLE,(575) 758-5202
53578,590015000151,TOHAALI' COMMUNITY SCHOOL,HIGHWAY 491 RT 19,NEWCOMB,NM,87455,NOT AVAILABLE,(505) 789-3201
54167,350126001111,MURRAY ELEMENTARY,510 N DAL PASO ST,HOBBS,NM,88240,NOT AVAILABLE,(575) 433-2700
57763,590018800142,BECLABITO DAY SCHOOL,CLLIFORD WARD DRIVE HWY 64 WEST; BIA RD,BECLABITO,NM,87420,NOT AVAILABLE,(928) 656-3555
58293,350006000102,ROOSEVELT MIDDLE,11799 STATE HIGHWAY 14S,TIJERAS,NM,87059,NOT AVAILABLE,(505) 281-3316
59179,350243000565,SIXTH STREET ELEMENTARY,405 WEST 6TH,SILVER CITY,NM,88061,NOT AVAILABLE,(575) 956-2150
33914,350237000538,CARLOS GILBERT ELEMENTARY,300 GRIFFIN ST,SANTA FE,NM,87501,NOT AVAILABLE,(505) 467-4700
25256,350198000474,EL RITO ELEMENTARY,10 ELEMENTARY RD,EL RITO,NM,87530,NOT AVAILABLE,(575) 581-4273
61128,350228000526,ROY ELEMENTARY,5TH ST AND ROOSEVELT ST,ROY,NM,87743,NOT AVAILABLE,(575) 485-2242
66608,350150000395,VALLEY VIEW ELEMENTARY,915 E CALIFORNIA AVE,LAS CRUCES,NM,88001,NOT AVAILABLE,(575) 527-9586
91029,350000100607,VAUGHN ELEMENTARY,101 4TH,VAUGHN,NM,88353,NOT AVAILABLE,(575) 584-2283
92112,350006000081,MADISON MIDDLE,3501 MOON ST NE,ALBUQUERQUE,NM,87111,NOT AVAILABLE,(505) 299-4735
92147,350237000645,R.M. SWEENEY ELEMENTARY,501 AIRPORT RD,SANTA FE,NM,87505,NOT AVAILABLE,(505) 467-1500
93753,350099000289,MCKINLEY ELEMENTARY,1201 NORTH BUTLER AVE,FARMINGTON,NM,87401,NOT AVAILABLE,(505) 324-9840
2856,350207000483,POJOAQUE HIGH,1574 STATE ROAD 502,SANTA FE,NM,87506,NOT AVAILABLE,(505) 455-2282
9133,350177000453,MAGDALENA ELEMENTARY,201 DUGGINS DR,MAGDALENA,NM,87825,NOT AVAILABLE,(575) 854-2241
9885,350156000416,VALLEY MIDDLE,85 NM HWY 484,RIBERA,NM,87560,NOT AVAILABLE,(505) 426-2311
12172,350018000849,LA PROMESA ELEMENTARY,898 HWY 304,BELEN,NM,87002,NOT AVAILABLE,(505) 966-2400
12364,590017900026,CHI CHIL'TAH COMMUNITY SCHOOL,831 COUSINS ROAD,VANDERWAGEN,NM,87326,NOT AVAILABLE,(505) 778-5574
15512,350099000601,MESA VIEW MIDDLE SCHOOL,4451 WILDFLOWER DR,FARMINGTON,NM,87401,NOT AVAILABLE,(505) 324-9840
19477,350001600983,UNM MIMBRES SCHOOL,1001 YALE BLVD NE,ALBUQUERQUE,NM,87106,NOT AVAILABLE,(505) 272-2890
70654,350033000178,CARRIZOZO MIDDLE,800 D AVE,CARRIZOZO,NM,88301,NOT AVAILABLE,(575) 648-2348
72959,350165000427,ASPEN ELEMENTARY,2182 33RD ST,LOS ALAMOS,NM,87544,NOT AVAILABLE,(505) 663-2275
76515,350105000296,FORT SUMNER ELEMENTARY,1001 SUMNER AVE,FORT SUMNER,NM,88119,NOT AVAILABLE,(575) 355-7734
79806,350150000377,VISTA MIDDLE,4465 ELKS DR,LAS CRUCES,NM,88007,NOT AVAILABLE,(575) 527-9465
80703,350111000299,CATHERINE A. MILLER ELEMENTARY,6201 CHALLENGER RD,CHURCH ROCK,NM,87311,NOT AVAILABLE,(505) 721-1051
81714,350093000279,ESTANCIA HIGH,9TH AND JOSEPH AVE,ESTANCIA,NM,87016,NOT AVAILABLE,(505) 384-2001
85291,350048000198,CIMARRON HIGH,165 NORTH COLLISON AVE,CIMARRON,NM,87714,NOT AVAILABLE,(575) 376-2445
85331,350156000411,DON CECILIO MARTINEZ ELEMENTARY,412 SANTA FE ST,LAS VEGAS,NM,87701,NOT AVAILABLE,(505) 426-2861
85680,350057001097,W D GATTIS MIDDLE SCHOOL,5100 N. THORNTON STREET,CLOVIS,NM,88101,NOT AVAILABLE,(575) 769-4305
102065,590004600023,ALAMO NAVAJO COMMUNITY SCHOOL,29 NM-169,ALAMO,NM,87825,NOT AVAILABLE,(575) 854-2635
105773,350003001158,STEPPING STONES PRESCHOOL,805 E 12TH ST BLDG F,ALAMOGORDO,NM,88310,NOT AVAILABLE,(575) 812-5400
81713,350006000964,NORTH STAR ELEMENTARY,9301 VENTURA NE,ALBUQUERQUE,NM,87122,NOT AVAILABLE,(505) 856-6578
83371,350057000217,LOCKWOOD ELEMENTARY,1113 S. OAK ST,CLOVIS,NM,88101,NOT AVAILABLE,(575) 769-4300
86198,350240000324,ANTON CHICO MIDDLE,1753 STATE HWY 119,ANTON CHICO,NM,87711,NOT AVAILABLE,(575) 472-3171
87653,350267000606,TULAROSA MIDDLE,101B OLD MESCALERO RD,TULAROSA,NM,88352,NOT AVAILABLE,(575) 585-8800
89824,350096000622,EUNICE HIGH,1101 19TH STREET,EUNICE,NM,88231,NOT AVAILABLE,(575) 394-2332
89922,350108000632,GADSDEN HIGH,6308 HWY 28,ANTHONY,NM,88021,NOT AVAILABLE,(575) 882-6203
105789,350030001154,EDISON ELEMENTARY,406 N. ALAMEDA STREET,CARLSBAD,NM,88220,NOT AVAILABLE,(575) 628-4498
26006,590003300029,DZILTH-NA-O-DITH-HLE COMMUNITY SCHOOL,35 ROAD 7585 # 5003,BLOOMFIELD,NM,87413,NOT AVAILABLE,(505) 960-0356
26299,350006000064,HODGIN ELEMENTARY,3801 MORNINGSIDE DR NE,ALBUQUERQUE,NM,87110,NOT AVAILABLE,(505) 881-9855
28243,350168000438,RAYMOND GABALDON ELEMENTARY,454 CORONADO RD,LOS LUNAS,NM,87031,NOT AVAILABLE,(505) 866-8231
28869,350006000026,APACHE ELEMENTARY,12800 COPPER ST NE,ALBUQUERQUE,NM,87123,NOT AVAILABLE,(505) 292-7735
77353,350006000115,VALLE VISTA ELEMENTARY,1700 MAE AV SW,ALBUQUERQUE,NM,87105,NOT AVAILABLE,(505) 836-7739
79383,350237000641,PINON ELEMENTARY,2921 CAMINO CABALLOS,SANTA FE,NM,87507,NOT AVAILABLE,(505) 467-1600
63226,350024000158,MESA ALTA JR HIGH,329 NORTH BERGIN LN,BLOOMFIELD,NM,87413,NOT AVAILABLE,(505) 632-8021
64663,350001400972,NM SCHOOL FOR THE DEAF,1060 CERRILLOS RD,SANTA FE,NM,87505,NOT AVAILABLE,(505) 476-6300
69464,350150001090,CENTENNIAL HIGH SCHOOL,1950 S SONOMA RANCH BLVD,LAS CRUCES,NM,88011,NOT AVAILABLE,(575) 527-9330
69609,350150000387,LOMA HEIGHTS ELEMENTARY,1600 EAST MADRID,LAS CRUCES,NM,88001,NOT AVAILABLE,(575) 527-9546
11572,350249000574,FORRESTER ELEMENTARY,311 MIRANDA,SPRINGER,NM,87747,NOT AVAILABLE,(575) 483-2482
15039,350228000527,ROY HIGH,5TH ST AND ROOSEVELT ST,ROY,NM,87743,NOT AVAILABLE,(575) 485-2242
17009,350006000681,DENNIS CHAVEZ ELEMENTARY,7500 BARSTOW NE,ALBUQUERQUE,NM,87109,NOT AVAILABLE,(505) 821-1810
38374,350246000843,COTTONWOOD VALLEY CHARTER,201 NEEL ST,SOCORRO,NM,87801,NOT AVAILABLE,(575) 838-2026
38711,350111000310,NAVAJO PINE HIGH,4 WALNUT ST,NAVAJO,NM,87328,NOT AVAILABLE,(505) 721-1051
45277,350006000033,BELLEHAVEN ELEMENTARY,8701 PRINCESS JEANNE ST NE,ALBUQUERQUE,NM,87112,NOT AVAILABLE,(505) 298-7489
45418,350012000127,ARTESIA HIGH,1006 WEST RICHARDSON,ARTESIA,NM,88210,NOT AVAILABLE,(575) 746-3585
46339,350141000729,JEMEZ VALLEY MIDDLE,8501 HWY 4,JEMEZ PUEBLO,NM,87024,NOT AVAILABLE,(575) 834-7391
46655,350033000176,CARRIZOZO ELEMENTARY,800 D AVE,CARRIZOZO,NM,88301,NOT AVAILABLE,(575) 648-2348
46657,350018000141,BELEN MIDDLE,314 SOUTH 4TH ST,BELEN,NM,87002,NOT AVAILABLE,(505) 966-1600
46911,350201000479,PECOS ELEMENTARY,NM HWY 63,PECOS,NM,87552,NOT AVAILABLE,(505) 757-4700
53319,350108001130,LA MESA ON TRACK PREK CENTER,253 E CHIMURI,LA MESA,NM,88044,NOT AVAILABLE,(575) 233-3475
54165,350017130008,TURQUOISE TRAIL CHARTER SCHOOL,13A SAN MARCOS LOOP,SANTA FE,NM,87508,NOT AVAILABLE,(505) 986-4000
56231,350099001119,SAN JUAN COLLEGE HIGH SCHOOL,4601 COLLEGE BOULEVARD,FARMINGTON,NM,87402,NOT AVAILABLE,(505) 566-3986
56896,350099000293,TIBBETTS MIDDLE SCHOOL,3500 TWIN PEAKS BLVD,FARMINGTON,NM,87401,NOT AVAILABLE,(505) 324-9840
57216,590010800157,PINE HILL SCHOOLS,INDIAN SERVICE RTE 140,PINE HILL,NM,87357,NOT AVAILABLE,(505) 775-3244
704,350016801019,LAS MONTANAS CHARTER,1405 S. SOLANO AVE,LAS CRUCES,NM,88001,NOT AVAILABLE,(575) 636-2100
2905,350174000449,BEN ALEXANDER ELEMENTARY,1400 SOUTH SIXTH,LOVINGTON,NM,88260,NOT AVAILABLE,(575) 739-2580
6173,590015500027,BORREGO PASS,CO RD 19,CROWNPOINT,NM,87313,NOT AVAILABLE,(505) 786-5237
6981,350006000893,ABQ CHARTER ACADEMY,405 DR. MARTIN LUTHER KING JR.,ALBUQUERQUE,NM,87102,NOT AVAILABLE,(505) 242-6640
92183,350006000116,VALLEY HIGH,1505 CANDELARIA RD NW,ALBUQUERQUE,NM,87107,NOT AVAILABLE,(505) 345-9021
93136,350079000251,DORA HIGH,100 SCHOOL ST,DORA,NM,88115,NOT AVAILABLE,(575) 477-2216
97570,350132000362,HOUSE HIGH,309 APPLE ST,HOUSE,NM,88121,NOT AVAILABLE,(575) 279-7353
706,350017000816,MONTE DEL SOL CHARTER,4157 WALKING RAIN RD,SANTA FE,NM,87507,NOT AVAILABLE,(505) 982-5225
4797,350006001072,NEW MEXICO INTERNATIONAL SCHOOL,8650 ALAMEDA BLVD. NE BLDG. 2B,ALBUQUERQUE,NM,87122,NOT AVAILABLE,(505) 503-7670
5656,350231000530,WHITE MOUNTAIN ELEMENTARY,203 WHITE MOUNTAIN DR,RUIDOSO,NM,88345,NOT AVAILABLE,(575) 258-4220
6660,590015500027,BORREGO PASS,CO RD 19,CROWNPOINT,NM,87313,NOT AVAILABLE,(505) 786-5237
42692,350165000431,LOS ALAMOS HIGH,1300 DIAMOND DR,LOS ALAMOS,NM,87544,NOT AVAILABLE,(505) 663-2210
49490,350150000390,MAYFIELD HIGH,1955 NORTH VALLEY DR,LAS CRUCES,NM,88007,NOT AVAILABLE,(575) 527-9415
71660,350165000430,LOS ALAMOS MIDDLE,2101 HAWK DR,LOS ALAMOS,NM,87544,NOT AVAILABLE,(505) 663-2375
71920,350090000277,VELARDE ELEMENTARY,333 NORTH CORONADO AVE,ESPANOLA,NM,87532,NOT AVAILABLE,(505) 753-2254
73211,350225000513,GODDARD HIGH,701 EAST COUNTRY CLUB,ROSWELL,NM,88201,NOT AVAILABLE,(575) 627-4800
51832,350150000380,CONLEE ELEMENTARY,1701 BOSTON DR,LAS CRUCES,NM,88001,NOT AVAILABLE,(575) 527-9656
53559,590008700024,BACA/DLO'AY AZHI COMMUNITY SCHOOL,I-40 EXIT 63 NORTH FRONTAGE RD,PREWITT,NM,87045,NOT AVAILABLE,(505) 972-2769
81365,350001000805,INDEPENDENCE HIGH SCHOOL,421 QUANTUM RD NE,RIO RANCHO,NM,87124,NOT AVAILABLE,(505) 338-4658
81795,350006000103,S. Y. JACKSON ELEMENTARY,4720 CAIRO DR NE,ALBUQUERQUE,NM,87111,NOT AVAILABLE,(505) 296-9536
87320,350168000439,LOS LUNAS HIGH,1776 EMILIO LOPEZ RD,LOS LUNAS,NM,87031,NOT AVAILABLE,(505) 866-8231
12009,350258000590,TEXICO MIDDLE,520 NORTH GRIFFIN,TEXICO,NM,88135,NOT AVAILABLE,(575) 482-3801
13162,350114000326,GRADY HIGH,100 FRANKLIN ST,GRADY,NM,88120,NOT AVAILABLE,(575) 357-2192
13942,350051000204,CLAYTON JUNIOR HIGH,224 SPRUCE ST,CLAYTON,NM,88415,NOT AVAILABLE,(575) 374-9611
19555,350006000854,EL CAMINO REAL ACADEMY,3713 ISLETA BLVD SW,ALBUQUERQUE,NM,87105,NOT AVAILABLE,(505) 314-2212
19921,350216000804,ALTA VISTA ELEMENTARY,4 WILDCAT RD,QUESTA,NM,87556,NOT AVAILABLE,(575) 586-0032
95247,350006000709,CONTINUATION SCHOOL,5100 2ND ST NW,ALBUQUERQUE,NM,87106,NOT AVAILABLE,(505) 468-7284
97534,350168000989,VALENCIA HIGH,301 BONITA VISTA BLVD,LOS LUNAS,NM,87031,NOT AVAILABLE,(505) 866-8231
60653,350006000089,MONTE VISTA ELEMENTARY,3211 MONTE VISTA BLVD NE,ALBUQUERQUE,NM,87106,NOT AVAILABLE,(505) 260-2030
61232,350111000309,NAVAJO ELEMENTARY,123 CEDAR,NAVAJO,NM,87328,NOT AVAILABLE,(505) 721-1051
65054,350060000225,BAYARD ELEMENTARY,100 PARK ST,BAYARD,NM,88023,NOT AVAILABLE,(575) 537-4011
66143,350150000389,MAC ARTHUR ELEMENTARY,655 N 4TH ST,LAS CRUCES,NM,88005,NOT AVAILABLE,(575) 527-9556
66548,350108000628,MESQUITE ELEMENTARY,205 NM HWY 228,MESQUITE,NM,88048,NOT AVAILABLE,(575) 882-6203
68368,350001200979,WESTERN NM CORRECTIONS,1700 EAST OLD HWY 66,GRANTS,NM,87020,NOT AVAILABLE,(505) 287-2941
36607,350174000444,LOVINGTON 6TH GRADE ACADEMY,500 WEST JEFFERSON AVE,LOVINGTON,NM,88260,NOT AVAILABLE,(575) 739-2330
37257,350111000300,CROWNPOINT ELEMENTARY,#1 CODETALKER DR.,CROWNPOINT,NM,87313,NOT AVAILABLE,(505) 721-1051
100823,350117000331,LOS ALAMITOS MIDDLE,1100 MT TAYLOR AVE,GRANTS,NM,87020,NOT AVAILABLE,(505) 285-2683
101260,350099000284,FARMINGTON HIGH,2200 SUNSET AVE,FARMINGTON,NM,87401,NOT AVAILABLE,(505) 324-9840
53552,590009300156,MESCALERO APACHE SCHOOL,249 WHITE MOUNTAIN DRIVE,MESCALERO,NM,88340,NOT AVAILABLE,(575) 464-4431
53553,590015100158,SAN FELIPE PUEBLO ELEMENTARY SCHOOL,711 MAIN PUEBLO RD,SAN FELIPE PUE.,NM,87001,NOT AVAILABLE,(505) 867-3364
53555,590014000153,JEMEZ DAY SCHOOL,243 DAY SCHOOL ROAD,JEMEZ PUEBLO,NM,87024,NOT AVAILABLE,(575) 834-7304
58928,350006000897,VENTANA RANCH ELEMENTARY,6801 VENTANA VILLAGE RD NW,ALBUQUERQUE,NM,87114,NOT AVAILABLE,(505) 890-7375
59274,590016200093,OHKAY OWINGEH COMMUNITY SCHOOL,307 COMMUNITY SCHOOL RD,OHKAY OWINGEH,NM,87566,NOT AVAILABLE,(505) 852-2154
81232,350013000921,ALBUQUERQUE INSTITUTE OF MATH & SCIENCE,933 BRADBURY SE,ALBUQUERQUE,NM,87106,NOT AVAILABLE,(505) 559-4249
84016,350252000584,TAOS MIDDLE,235 PASEO DEL CANON,TAOS,NM,87571,NOT AVAILABLE,(575) 758-5202
85559,350165000428,BARRANCA MESA ELEMENTARY,57 LOMA DEL ESCOLAR,LOS ALAMOS,NM,87544,NOT AVAILABLE,(505) 663-2730
88289,350001200986,CENTRAL NM CORRECTIONS,1525 MORRIS RD,LOS LUNAS,NM,87031,NOT AVAILABLE,(505) 383-3359
74738,350013600927,SOUTHWEST PREPARATORY LEARNING CENTER,10301 CANDELARIA RD NE,ALBUQUERQUE,NM,87112,NOT AVAILABLE,(505) 296-7677
94692,350243000559,CLIFF ELEMENTARY,622 STATE HWY 211,CLIFF,NM,88028,NOT AVAILABLE,(575) 535-2051
63426,350003000008,LA LUZ ELEMENTARY,99 ALAMO,LA LUZ,NM,88337,NOT AVAILABLE,(575) 812-5300
66626,590005600038,TSE'II'AHI' COMMUNITY SCHOOL,NAVAJO ROUTE 9 18 MILES W OF CROWNPOINT,CROWNPOINT,NM,87313,NOT AVAILABLE,(505) 786-5389
67188,350012000132,ROSELAWN ELEMENTARY,600 NORTH ROSELAWN AVE,ARTESIA,NM,88210,NOT AVAILABLE,(575) 746-3585
68347,350030000859,JEFFERSON MONTESSORI,101 SOUTH CANAL ST,CARLSBAD,NM,88220,NOT AVAILABLE,(575) 234-3300
31752,350168000258,LOS LUNAS ELEMENTARY,800 CORONADO RD,LOS LUNAS,NM,87031,NOT AVAILABLE,(505) 866-8231
32363,350237000538,CARLOS GILBERT ELEMENTARY,300 GRIFFIN ST,SANTA FE,NM,87501,NOT AVAILABLE,(505) 467-4700
105772,350001301151,NMSBVI ALBUQUERQUE CAMPUS,801 STEPHEN MOODY ST SE,ALBUQUERQUE,NM,87123,NOT AVAILABLE,(505) 332-6699
20627,350150001105,ARROWHEAD PARK MEDICAL ACADEMY,3600 ARROWHEAD DRIVE,LAS CRUCES,NM,88011,NOT AVAILABLE,(575) 527-9540
20706,350150000382,DONA ANA ELEMENTARY,5551 CAMINO DE FLORES,LAS CRUCES,NM,88001,NOT AVAILABLE,(575) 527-9506
20788,350126000350,HOBBS HIGH,800 NORTH JEFFERSON,HOBBS,NM,88240,NOT AVAILABLE,(575) 433-0200
11881,350237030025,NYE EARLY CHILDHOOD,3160 AGUA FRIA ST.,SANTA FE,NM,87501,NOT AVAILABLE,(505) 467-4600
13199,350006000117,VAN BUREN MIDDLE,700 LOUISIANA SE,ALBUQUERQUE,NM,87108,NOT AVAILABLE,(505) 268-3833
13973,350015601082,NEW AMERICA SCHOOL - LAS CRUCES,207 S MAIN ST,LAS CRUCES,NM,88001,NOT AVAILABLE,(575) 527-9085
18406,350003000002,BUENA VISTA ELEMENTARY,2600 19TH ST,ALAMOGORDO,NM,88310,NOT AVAILABLE,(575) 812-5100
1325,350006000808,EAST MOUNTAIN HIGH SCHOOL,25 LA MADERA ROAD,SANDIA PARK,NM,87047,NOT AVAILABLE,(505) 281-7400
2311,350255000586,TATUM HIGH,307 WEST 3RD STREET,TATUM,NM,88267,NOT AVAILABLE,(575) 398-4455
4276,350006000032,BEL-AIR ELEMENTARY,4725 CANDELARIA RD NE,ALBUQUERQUE,NM,87110,NOT AVAILABLE,(505) 888-4033
4494,350108001132,ANTHONY ON-TRACK PREK CENTER,609 CHURCH ST,ANTHONY,NM,88021,NOT AVAILABLE,(575) 882-1904
5674,350168000762,VALENCIA ELEMENTARY,111 MONICA RD,LOS LUNAS,NM,87031,NOT AVAILABLE,(505) 866-8231
7306,350014101057,J PAUL TAYLOR ACADEMY,402 W. COURT AVE BLDG 2,LAS CRUCES,NM,88005,NOT AVAILABLE,(575) 652-4006
7740,350012701060,TAOS INTEGRATED SCHOOL OF ARTS,118 TOALNE STREET,TAOS,NM,87571,NOT AVAILABLE,(575) 758-7755
7922,350219000499,LONGFELLOW ELEMENTARY,700 EAST 4TH,RATON,NM,87740,NOT AVAILABLE,(575) 445-9261
8927,350012000128,CENTRAL ELEMENTARY,405 SOUTH SIXTH,ARTESIA,NM,88210,NOT AVAILABLE,(575) 746-3585
9514,350018000848,BELEN INFINITY HIGH,221 S 4TH ST,BELEN,NM,87002,NOT AVAILABLE,(505) 966-1500
62056,350225000512,NANCY LOPEZ ELEMENTARY,1208 EAST BLAND ST,ROSWELL,NM,88203,NOT AVAILABLE,(575) 637-3500
64488,350003000004,SUNSET HILLS ELEMENTARY,2410 10TH ST,ALAMOGORDO,NM,88310,NOT AVAILABLE,(575) 812-5200
68349,350006000055,FREEDOM HIGH,5200 CUTLER NE,ALBUQUERQUE,NM,87110,NOT AVAILABLE,(505) 884-6012
101698,350111000318,TOHATCHI HIGH,COUGAR LANE N 491,TOHATCHI,NM,87325,NOT AVAILABLE,(505) 721-1051
72952,350006000071,KENNEDY MIDDLE,721 TOMASITA NE,ALBUQUERQUE,NM,87123,NOT AVAILABLE,(505) 298-6701
73278,350069000239,DEMING HIGH,1300 S. IRON ST.,DEMING,NM,88030,NOT AVAILABLE,(575) 546-2678
75258,350111000907,TSE'YI'GAI HIGH,118 COUNSELOR RD,PUEBLO PINTADO,NM,87013,NOT AVAILABLE,(505) 721-1051
10777,350237000537,ATALAYA ELEMENTARY,721 CAMINO CABRA,SANTA FE,NM,87501,NOT AVAILABLE,(505) 467-4400
11958,350033000177,CARRIZOZO HIGH,800 D AVE,CARRIZOZO,NM,88301,NOT AVAILABLE,(575) 648-2348
14289,590014700140,ATSA' BIYA' A'ZH COMMUNITY SCHOOL,PINON STREET BDG 1415,SHIPROCK,NM,87420,NOT AVAILABLE,(505) 368-2202
14370,350027000160,CAPITAN ELEMENTARY,150 SOUTH FOREST AVE,CAPITAN,NM,88316,NOT AVAILABLE,(575) 354-2239
5247,350006000823,ROBERT F. KENNEDY CHARTER,4300 BLAKE RD SW,ALBUQUERQUE,NM,87121,NOT AVAILABLE,(505) 243-1118
9510,350075000248,DEXTER HIGH,100 NORTH LINCOLN,DEXTER,NM,88230,NOT AVAILABLE,(575) 734-5420
25853,350069000941,BATAAN ELEMENTARY,2200 HWY 418 SW,DEMING,NM,88030,NOT AVAILABLE,(575) 544-0900
26678,350150000384,HERMOSA HEIGHTS ELEMENTARY,1655 EAST AMADOR AVE,LAS CRUCES,NM,88001,NOT AVAILABLE,(575) 527-9530
32957,350013700819,SOUTHWEST SECONDARY LEARNING CENTER,10301 CANDELARIA RD NE,ALBUQUERQUE,NM,87112,NOT AVAILABLE,(505) 296-7677
34003,350039000180,KIRTLAND MIDDLE,538 RD 6100,KIRTLAND,NM,87417,NOT AVAILABLE,(505) 598-6114
38363,350006000812,JIMMY CARTER MIDDLE,8901 BLUEWATER NW,ALBUQUERQUE,NM,87121,NOT AVAILABLE,(505) 833-7540
50041,350006000063,HIGHLAND HIGH,4700 COAL AV SE,ALBUQUERQUE,NM,87108,NOT AVAILABLE,(505) 265-3711
56961,350090000271,HERNANDEZ ELEMENTARY,714 DON DIEGO RD,ESPANOLA,NM,87532,NOT AVAILABLE,(505) 753-2254
57764,590018400154,LAGUNA ELEMENTARY SCHOOL,I40 WEST EXIT 114,LAGUNA,NM,87026,NOT AVAILABLE,(505) 552-9200
80939,590004800061,CH'OOSHGAI COMMUNITY SCHOOL,25 MI N OF GALLUP NM HWY 491,TOHATCHI,NM,87325,NOT AVAILABLE,(505) 733-2700
81597,350006001079,HIGHLAND AUTISM CENTER,220 MONROE SW,ALBUQUERQUE,NM,87108,NOT AVAILABLE,(505) 266-6869
83862,350006000052,ERNIE PYLE MIDDLE,1820 VALDORA DR SW,ALBUQUERQUE,NM,87105,NOT AVAILABLE,(505) 877-3770
84733,350042000193,CHAMA MIDDLE,181 NORTH PINE AVE,CHAMA,NM,87520,NOT AVAILABLE,(575) 588-7285
85325,350006001028,CORRALES INTERNATIONAL,5500 WILSHIRE AVE. NE,ALBUQUERQUE,NM,87113,NOT AVAILABLE,(505) 344-9733
89040,350015800883,WALATOWA CHARTER HIGH,147 BEAR HEAD CANYON,JEMEZ PUEBLO,NM,87024,NOT AVAILABLE,(575) 834-0448
92320,350150000730,SUNRISE ELEMENTARY,5300 N HOLMAN RD,LAS CRUCES,NM,88012,NOT AVAILABLE,(575) 527-9626
94540,350006001047,TONY HILLERMAN MIDDLE SCHOOL,8101 RAINBOW BLVD NW,ALBUQUERQUE,NM,87114,NOT AVAILABLE,(505) 792-0698
40320,350111000881,CROWNPOINT MIDDLE,#1 EAGLE DR,CROWNPOINT,NM,87313,NOT AVAILABLE,(505) 721-1051
46363,350108000629,LA UNION ELEMENTARY,875 MERCANTILE,ANTHONY,NM,88021,NOT AVAILABLE,(575) 882-6203
70748,350225000505,BERRENDO ELEMENTARY,505 WEST PINE LODGE RD,ROSWELL,NM,88201,NOT AVAILABLE,(575) 627-2875
75016,350222000504,RESERVE HIGH,24 MOUNTAINEER RD.,RESERVE,NM,87830,NOT AVAILABLE,(575) 533-6241
75060,350003000012,DESERT STAR ELEMENTARY,400 S WASHINGTON AVE,ALAMOGORDO,NM,88310,NOT AVAILABLE,(575) 812-5750
77547,350001000953,SHINING STARS PRESCHOOL,2100 LIONEL STREET NE,RIO RANCHO,NM,87144,NOT AVAILABLE,(505) 892-7735
62781,350237000543,GONZALES ELEMENTARY,851 WEST ALAMEDA,SANTA FE,NM,87501,NOT AVAILABLE,(505) 467-3100
63144,350006000090,MONTEZUMA ELEMENTARY,3100 INDIAN SCHOOL NE,ALBUQUERQUE,NM,87106,NOT AVAILABLE,(505) 260-2040
63166,350006000110,SOMBRA DEL MONTE ELEMENTARY,9110 SHOSHONE RD NE,ALBUQUERQUE,NM,87111,NOT AVAILABLE,(505) 291-6842
65496,350111000663,THOREAU MIDDLE,8 HAWK CIRCLE,THOREAU,NM,87323,NOT AVAILABLE,(505) 721-1051
43951,350264000600,TUCUMCARI MIDDLE,1000 SOUTH 5TH ST,TUCUMCARI,NM,88401,NOT AVAILABLE,(575) 461-3910
44683,350189000468,MORIARTY HIGH,200 CENTER ST,MORIARTY,NM,87035,NOT AVAILABLE,(505) 835-5835
45173,350150001062,MONTE VISTA ELEMENTARY,4675 PEACHTREE HILLS,LAS CRUCES,NM,88012,NOT AVAILABLE,(575) 527-9490
85232,350108000323,SANTA TERESA HIGH,100 AIRPORT RD,SANTA TERESA,NM,88008,NOT AVAILABLE,(575) 882-6203
85645,350006000051,EMERSON ELEMENTARY,620 GEORGIA ST SE,ALBUQUERQUE,NM,87108,NOT AVAILABLE,(505) 255-9091
86921,350216000495,ALTA VISTA INTERMEDIATE,4 WILDCAT RD,QUESTA,NM,87556,NOT AVAILABLE,(575) 586-0032
87662,350264000602,TUCUMCARI ELEMENTARY,1623 SOUTH 9TH ST,TUCUMCARI,NM,88401,NOT AVAILABLE,(575) 461-3910
88877,350006000825,JAMES MONROE MIDDLE,6100 PARADISE BLVD NW,ALBUQUERQUE,NM,87114,NOT AVAILABLE,(505) 897-0101
12418,350114000326,GRADY HIGH,100 FRANKLIN ST,GRADY,NM,88120,NOT AVAILABLE,(575) 357-2192
14736,350051000204,CLAYTON JUNIOR HIGH,224 SPRUCE ST,CLAYTON,NM,88415,NOT AVAILABLE,(575) 374-9611
51754,350126001111,MURRAY ELEMENTARY,510 N DAL PASO ST,HOBBS,NM,88240,NOT AVAILABLE,(575) 433-1600
52696,350273000611,WAGON MOUND ELEMENTARY,300 PARK AVENUE,WAGON MOUND,NM,87752,NOT AVAILABLE,(575) 666-3001
53562,590016700032,MARIANO LAKE COMMUNITY SCHOOL,NAVAJO ROUTE 49,CROWNPOINT,NM,87313,NOT AVAILABLE,(505) 786-5219
55131,350252001021,VISTA GRANDE HIGH SCHOOL,213 PASEO DEL CANON EAST,TAOS,NM,87571,NOT AVAILABLE,(575) 758-5100
55862,350108001130,LA MESA ON TRACK PREK CENTER,253 E CHIMURI,LA MESA,NM,88044,NOT AVAILABLE,(575) 233-3475
23015,350150000392,MESILLA ELEMENTARY,2363 CALLE DEL SUR,LAS CRUCES,NM,88005,NOT AVAILABLE,(575) 527-9566
24795,350006000078,LONGFELLOW ELEMENTARY,400 EDITH NE,ALBUQUERQUE,NM,87102,NOT AVAILABLE,(505) 764-2024
37048,590007400030,HANAA'DLI COMMUNITY SCHOOL,#700 CR 7150,BLOOMFIELD,NM,87413,NOT AVAILABLE,(505) 960-3411
38775,350210000486,JAMES ELEMENTARY,701 WEST 18TH ST,PORTALES,NM,88130,NOT AVAILABLE,(575) 359-3675
1104,350006000764,DESERT RIDGE MIDDLE,8400 BARSTOW NE,ALBUQUERQUE,NM,87122,NOT AVAILABLE,(505) 857-9282
4803,350108001132,ANTHONY ON-TRACK PREK CENTER,609 CHURCH ST,ANTHONY,NM,88021,NOT AVAILABLE,(575) 882-1904
8896,350039000184,NIZHONI ELEMENTARY,HWY 491,SHIPROCK,NM,87420,NOT AVAILABLE,(505) 368-4565
11952,350006000273,DESERT WILLOW FAMILY SCHOOL,3303 MONROE NE,ALBUQUERQUE,NM,87110,NOT AVAILABLE,(505) 888-1647
12850,350039000183,NEWCOMB ELEMENTARY,US 491,NEWCOMB,NM,87455,NOT AVAILABLE,(505) 696-3415
19360,350219000500,RATON HIGH,1535 TIGER CIRCLE,RATON,NM,87740,NOT AVAILABLE,(575) 445-9261
42770,350006000082,MANZANO HIGH,12200 LOMAS BLVD NE,ALBUQUERQUE,NM,87112,NOT AVAILABLE,(505) 559-2200
48945,350063000231,CORONA ELEMENTARY,531 FRANKLIN ST,CORONA,NM,88318,NOT AVAILABLE,(575) 849-1711
27591,350006000121,WHITTIER ELEMENTARY,1110 QUINCY ST SE,ALBUQUERQUE,NM,87108,NOT AVAILABLE,(505) 255-2008
29954,350204000481,PENASCO HIGH,13 SCHOOL RD,PENASCO,NM,87553,NOT AVAILABLE,(575) 587-2230
71582,350189000760,ROUTE 66 ELEMENTARY,805 BARTON RD,MORIARTY,NM,87035,NOT AVAILABLE,(505) 835-5835
71583,350168000722,KATHERINE GALLEGOS ELEMENTARY,236 DOM PASQUAL RD,LOS LUNAS,NM,87031,NOT AVAILABLE,(505) 866-8231
73266,350011801055,TAOS ACADEMY,110 PASEO DEL CANON W,TAOS,NM,87571,NOT AVAILABLE,(505) 751-3109
76471,350006000017,A. MONTOYA ELEMENTARY,24 PUBLIC SCHOOL RD,TIJERAS,NM,87059,NOT AVAILABLE,(505) 281-0880
79539,350111000321,TWIN LAKES ELEMENTARY,N HWY 491,GALLUP,NM,87301,NOT AVAILABLE,(505) 721-1051
118,590011600144,NAVAJO PREPARATORY SCHOOL,1220 WEST APACHE STREET,FARMINGTON,NM,87401,NOT AVAILABLE,(505) 326-6571
639,350039001115,JUDY NELSON ELEMENTARY,40 RD 6580,KIRTLAND,NM,87417,NOT AVAILABLE,(505) 598-6285
1233,350018000140,BELEN HIGH,1619 WEST DELGADO AVE,BELEN,NM,87002,NOT AVAILABLE,(505) 966-1300
4492,350237001120,EARLY COLLEGE OPPORTUNITIES,2301 W. ZIA RD.,SANTA FE,NM,87505,NOT AVAILABLE,(505) 467-2701
5622,350069000236,BELL ELEMENTARY,1000 EAST MAPLE,DEMING,NM,88030,NOT AVAILABLE,(575) 546-9712
6355,350001200976,GUADALUPE COUNTY CORRECTIONS,SOUTH HWY 54,SANTA ROSA,NM,88435,NOT AVAILABLE,(575) 472-1001
7034,350069000238,COLUMBUS ELEMENTARY,7450 ALTURA RD. SE,COLUMBUS,NM,88029,NOT AVAILABLE,(575) 531-2710
31346,350280000678,ZUNI MIDDLE,17 MID SCHOOL DR,ZUNI,NM,87327,NOT AVAILABLE,(505) 782-5511
32853,350280000678,ZUNI MIDDLE,17 MID SCHOOL DR,ZUNI,NM,87327,NOT AVAILABLE,(505) 782-5511
37261,350156000911,RIO GALLINAS SCHOOL,1300 MINERAL HILL,LAS VEGAS,NM,87701,NOT AVAILABLE,(505) 426-2311
38364,350150000399,ZIA MIDDLE,1300 WEST UNIVERSITY AVE,LAS CRUCES,NM,88005,NOT AVAILABLE,(575) 527-9475
38365,350079000250,DORA ELEMENTARY,100 SCHOOL ST,DORA,NM,88115,NOT AVAILABLE,(575) 477-2216
52113,350009030019,ANIMAS MIDDLE,1 PANTHER DR,ANIMAS,NM,88020,NOT AVAILABLE,(575) 548-2299
52268,350039000772,CAREER PREP ALTERNATIVE,WEST HWY 64,SHIPROCK,NM,87420,NOT AVAILABLE,(505) 368-4980
53551,590013000096,SANTA FE INDIAN SCHOOL,1501 CERRILLOS ROAD,SANTA FE,NM,87505,NOT AVAILABLE,(505) 989-6330
56233,350225001128,EARLY COLLEGE HIGH SCHOOL,52 UNIVERSITY BLVD (ENMU R CAM,ROSWELL,NM,88203,NOT AVAILABLE,(575) 624-7020
57762,590011900040,WINGATE HIGH SCHOOL,1737 SHUSH DRIVE,FORT WINGATE,NM,87316,NOT AVAILABLE,(505) 488-6400
59906,350006001054,CORONADO ELEMENTARY,601 4TH ST SW,ALBUQUERQUE,NM,87102,NOT AVAILABLE,(505) 843-8283
84192,350011901058,NM SCHOOL FOR THE ARTS,500 MONTEZUMA AVENUE,SANTA FE,NM,87501,NOT AVAILABLE,(505) 310-4194
92576,350108000935,CHAPARRAL HIGH,800 COUNTY LINE DR,ANTHONY,NM,88021,NOT AVAILABLE,(575) 882-6203
96791,350006001040,GORDON BERNELL CHARTER,2821 4TH STREET NW,ALBUQUERQUE,NM,87107,NOT AVAILABLE,(505) 468-7707
97196,350006000022,ALAMOSA ELEMENTARY,6500 SUNSET GARDENS RD SW,ALBUQUERQUE,NM,87121,NOT AVAILABLE,(505) 836-0288
100610,350006000782,PAINTED SKY ELEMENTARY,8101 GAVIN DR NW,ALBUQUERQUE,NM,87120,NOT AVAILABLE,(505) 836-7763
105792,350057001155,CMS IACADEMY AT LINCOLN JACKSON,206 ALPHON ST,CLOVIS,NM,88101,NOT AVAILABLE,(575) 769-4300
107186,350030001157,CARLSBAD ENRICHMENT CENTER,700 W STEVENS ST,CARLSBAD,NM,88220,NOT AVAILABLE,(575) 234-3300
20785,350225000525,WASHINGTON AVE ELEMENTARY,408 NORTH WASHINGTON AVE,ROSWELL,NM,88201,NOT AVAILABLE,(575) 637-3625
22305,350024000771,CHARLIE Y. BROWN ALT,924 SOUTH BLOOMFIELD BLVD,BLOOMFIELD,NM,87413,NOT AVAILABLE,(505) 634-3940
26718,350006000056,GARFIELD MIDDLE,3501 SIXTH ST NW,ALBUQUERQUE,NM,87107,NOT AVAILABLE,(505) 344-1647
29243,350150000386,LAS CRUCES HIGH,1750 EL PASEO RD,LAS CRUCES,NM,88001,NOT AVAILABLE,(575) 527-9400
2016,350150001078,MESILLA VALLEY LEADERSHIP ACADEMY,950 SOUTH WALNUT ST,MESILLA PARK,NM,88001,NOT AVAILABLE,(575) 527-6059
3717,350006000029,ATRISCO ELEMENTARY,1201 ATRISCO RD SW,ALBUQUERQUE,NM,87105,NOT AVAILABLE,(505) 877-2772
3718,350102000295,FLOYD HIGH,1564 NM 267,FLOYD,NM,88118,NOT AVAILABLE,(575) 478-2211
4032,350006000918,NATIVE AMERICAN COMM ACADEMY,1000 INDIAN SCHOOL RD,ALBUQUERQUE,NM,87104,NOT AVAILABLE,(505) 266-0992
5272,350186000637,MORA ELEMENTARY,HWY 518 AND RANGER DR,MORA,NM,87732,NOT AVAILABLE,(575) 387-3132
30941,350090000264,CHIMAYO ELEMENTARY,31 COUNTY RD 93,ESPANOLA,NM,87532,NOT AVAILABLE,(505) 753-2254
34279,350189000749,SOUTH MOUNTAIN ELEMENTARY,577 STATE RD 344,MORIARTY,NM,87015,NOT AVAILABLE,(505) 835-5835
37151,350090000265,DIXON ELEMENTARY,220 NEW MEXICO 75,ESPANOLA,NM,87532,NOT AVAILABLE,(505) 753-2254
37361,590007500147,SANOSTEE DAY SCHOOL,NR 34,SANOSTEE,NM,87461,NOT AVAILABLE,(505) 723-2476
37706,350015000801,VISTA NUEVA HIGH,315 SOUTH ASH,AZTEC,NM,87410,NOT AVAILABLE,(575) 334-9474
38366,350066000235,CUBA MIDDLE,50 COUNTY RD 13,CUBA,NM,87013,NOT AVAILABLE,(575) 289-3211
10732,350057000210,JAMES BICKLEY ELEMENTARY,500 WEST 14TH ST,CLOVIS,NM,88101,NOT AVAILABLE,(575) 769-4300
12191,350006000105,SANDIA BASE ELEMENTARY,21001 WYOMING SE KAFB EAST,ALBUQUERQUE,NM,87116,NOT AVAILABLE,(505) 268-4356
12453,350156000415,VALLEY ELEMENTARY,85 NM HWY 484,RIBERA,NM,87560,NOT AVAILABLE,(505) 426-2311
60489,350012000620,GRAND HEIGHTS EARLY CHILDHOOD,2302 WEST GRAND AVE,ARTESIA,NM,88210,NOT AVAILABLE,(575) 746-3585
66257,350006000090,MONTEZUMA ELEMENTARY,3100 INDIAN SCHOOL NE,ALBUQUERQUE,NM,87106,NOT AVAILABLE,(505) 260-2040
67063,350054000207,CLOUDCROFT HIGH,310 JAMES CANYON HWY,CLOUDCROFT,NM,88317,NOT AVAILABLE,(575) 601-4416
69780,350225000520,PECOS ELEMENTARY,600 EAST HOBBS ST,ROSWELL,NM,88203,NOT AVAILABLE,(575) 637-3550
72212,350001201046,SPRINGER CORRECTIONAL FACILITY,201 HWY 468,SPRINGER,NM,87747,NOT AVAILABLE,(575) 483-3100
74543,350006000114,TRUMAN MIDDLE,9400 BENAVIDES RD SW,ALBUQUERQUE,NM,87121,NOT AVAILABLE,(505) 836-3030
42712,350189000468,MORIARTY HIGH,200 CENTER ST,MORIARTY,NM,87035,NOT AVAILABLE,(505) 835-5835
47145,350237000539,CHAPARRAL ELEMENTARY,2451 AVENIDA CHAPARRAL,SANTA FE,NM,87505,NOT AVAILABLE,(505) 467-1400
82132,350021000147,ALGODONES ELEMENTARY,1300 HWY 313,ALGODONES,NM,87001,NOT AVAILABLE,(505) 867-2803
83151,350204000695,PENASCO MIDDLE,13 SCHOOL RD,PENASCO,NM,87553,NOT AVAILABLE,(575) 587-2230
85327,350006001026,THE ALB TALENT DEVELOPMENT CHARTER,1800 ATRISCO RD NW,ALBUQUERQUE,NM,87120,NOT AVAILABLE,(505) 503-2465
86579,350051000200,ALVIS ELEMENTARY,404 ASPEN ST,CLAYTON,NM,88415,NOT AVAILABLE,(575) 374-9611
88642,590005000155,LAGUNA MIDDLE SCHOOL,51 RODEO DRIVE,LAGUNA,NM,87026,NOT AVAILABLE,(505) 552-9091
88940,350057000215,LA CASITA ELEMENTARY,400 DAVIS ST,CLOVIS,NM,88101,NOT AVAILABLE,(575) 769-4300
54696,350001000864,VISTA GRANDE ELEMENTARY,7001 CHAYOTE RD NE,RIO RANCHO,NM,87144,NOT AVAILABLE,(505) 771-2366
57774,350138000371,LYBROOK ELEMENTARY,US 550 HCR 17,CUBA,NM,87013,NOT AVAILABLE,(575) 638-5419
58915,350186000636,HOLMAN ELEMENTARY,#10 RANGER DRIVE,MORA,NM,87732,NOT AVAILABLE,(575) 387-3132
90481,350117000336,SAN RAFAEL ELEMENTARY,27 MESA VIEW ST,SAN RAFAEL,NM,87051,NOT AVAILABLE,(505) 285-2749
97586,350015000785,MOSAIC ACADEMY CHARTER,450 LLANO STREET,AZTEC,NM,87410,NOT AVAILABLE,(575) 334-9474
97997,350006000966,VOLCANO VISTA HIGH,8100 RAINBOW RD NW,ALBUQUERQUE,NM,87114,NOT AVAILABLE,(505) 890-0343
98266,350153000403,7TH AND 8TH GRADE ACADEMY,1236 5TH STREET,LAS VEGAS,NM,87701,NOT AVAILABLE,(505) 454-5710
99684,350150000884,COLUMBIA ELEMENTARY,4555 ELKS DR,LAS CRUCES,NM,88005,NOT AVAILABLE,(575) 527-1561
100078,350014300845,RED RIVER VALLEY CHARTER SCHOOL,500 E HIGH ST,RED RIVER,NM,87558,NOT AVAILABLE,(575) 754-6117
101825,350150000397,WHITE SANDS ELEMENTARY,1 VIKING ST WHITE SANDS MISSIL,LAS CRUCES,NM,88002,NOT AVAILABLE,(575) 674-1241
105775,350006001031,COTTONWOOD CLASSICAL PREP,7801 JEFFERSON ST. NE,ALBUQUERQUE,NM,87109,NOT AVAILABLE,(505) 998-1021
105783,350018301143,SOLARE COLLEGIATE CHARTER SCHOOL,1623 LA VEGA DR SW,ALBUQUERQUE,NM,87105,NOT AVAILABLE,(505) 917-6442
105795,350159001147,UTE LAKE ONLINE LEARNING CENTER,301 NORTH 2ND ST,LOGAN,NM,88426,NOT AVAILABLE,(575) 487-2252
62133,350006000084,MATHESON PARK ELEMENTARY,10809 LEXINGTON AVE NE,ALBUQUERQUE,NM,87112,NOT AVAILABLE,(505) 299-5087
63187,350099000693,ESPERANZA ELEMENTARY,4501 WILDFLOWER DR,FARMINGTON,NM,87401,NOT AVAILABLE,(505) 324-9840
66791,350174000447,LLANO ELEMENTARY,1000 SOUTH FIRST,LOVINGTON,NM,88260,NOT AVAILABLE,(575) 739-2670
12573,350213000491,DATIL ELEMENTARY,7395 HWY 12,DATIL,NM,87821,NOT AVAILABLE,(575) 773-4700
16038,350168000614,VALENCIA MIDDLE SCHOOL,22 MARLINK RD,LOS LUNAS,NM,87031,NOT AVAILABLE,(505) 866-8231
19715,350057000222,CLOVIS HS FRESHMAN ACADEMY,1400 CAMEO,CLOVIS,NM,88101,NOT AVAILABLE,(575) 769-4300
84347,350069000758,MY LITTLE SCHOOL,905 SOUTH ZINC,DEMING,NM,88030,NOT AVAILABLE,(575) 543-1014
85229,350069001035,RUBEN S. TORRES ELEMENTARY,1910 8TH ST NW,DEMING,NM,88030,NOT AVAILABLE,(575) 544-2723
333,350016301094,TAOS INTERNATIONAL SCHOOL,118 ESTE ES ROAD,TAOS,NM,87571,NOT AVAILABLE,(505) 776-2469
2153,350006000080,LOWELL ELEMENTARY,1700 SUNSHINE TERRACE SE,ALBUQUERQUE,NM,87106,NOT AVAILABLE,(505) 764-2011
2906,350201000478,PECOS HIGH,NM HWY 63,PECOS,NM,87552,NOT AVAILABLE,(505) 757-4700
3523,350006000043,LEW WALLACE ELEMENTARY,513 SIXTH ST NW,ALBUQUERQUE,NM,87102,NOT AVAILABLE,(505) 848-9409
5305,350039000182,NASCHITTI ELEMENTARY,US HWY 491,SHEEP SPRINGS,NM,87364,NOT AVAILABLE,(505) 696-3415
5569,350039000187,OJO AMARILLO ELEMENTARY,RD 6500 AND RD 6466,FRUITLAND,NM,87416,NOT AVAILABLE,(505) 960-5271
9772,350138000366,CORONADO HIGH,1903 STATE HIGHWAY 96,GALLINA,NM,87017,NOT AVAILABLE,(575) 638-5419
33923,350237000542,FRANCIS X. NAVA ELEMENTARY,2655 SIRINGO RD,SANTA FE,NM,87505,NOT AVAILABLE,(505) 467-1200
37733,350126000347,EDISON ELEMENTARY,501 EAST GYPSY,HOBBS,NM,88240,NOT AVAILABLE,(575) 433-1600
44569,350237000552,TESUQUE ELEMENTARY,BISHOPS LODGE RD,TESUQUE,NM,87574,NOT AVAILABLE,(505) 467-4100
45918,350243000566,G.W.STOUT ELEMENTARY,2601 NORTH SILVER ST,SILVER CITY,NM,88061,NOT AVAILABLE,(575) 956-2100
47578,350006000050,ELDORADO HIGH,11300 MONTGOMERY BLVD NE,ALBUQUERQUE,NM,87111,NOT AVAILABLE,(505) 296-4871
49804,350021000148,BERNALILLO HIGH,250 ISIDRO SANCHEZ RD,BERNALILLO,NM,87004,NOT AVAILABLE,(505) 867-2388
51852,350006000068,JACKSON MIDDLE,10600 INDIAN SCHOOL RD NE,ALBUQUERQUE,NM,87112,NOT AVAILABLE,(505) 299-7377
52273,350252000580,RANCHOS DE TAOS ELEMENTARY,200 RANCHOS ELEMENTARY RD,RANCHOS DE TAOS,NM,87557,NOT AVAILABLE,(575) 758-5202
53561,590019500159,HAAK'U COMMUNITY ACADEMY (SKY CITY),44 PINSBAARI DRIVE,PUEBLO OF ACOMA,NM,87034,NOT AVAILABLE,(505) 552-6671
59103,350015000138,PARK AVENUE ELEMENTARY,507 SOUTH PARK AVE,AZTEC,NM,87410,NOT AVAILABLE,(575) 334-9474
76752,350003000003,CHAPARRAL MIDDLE,1401 COLLEGE AVE,ALAMOGORDO,NM,88310,NOT AVAILABLE,(575) 812-6300
94626,350111000317,TOHATCHI ELEMENTARY,CHUSKA RD,TOHATCHI,NM,87325,NOT AVAILABLE,(505) 721-1051
97198,350099000282,BLUFFVIEW ELEMENTARY,1204 CAMINO REAL,FARMINGTON,NM,87401,NOT AVAILABLE,(505) 324-9840
100831,350006000028,ARROYO DEL OSO ELEMENTARY,6504 HARPER NE,ALBUQUERQUE,NM,87109,NOT AVAILABLE,(505) 821-9393
105782,350014801146,MISSION ACHIEVEMENT AND SUCCESS 2.0,1255 OLD COORS RD SW,ALBUQUERQUE,NM,87121,NOT AVAILABLE,(505) 242-3118
