OBJECTID,NCESID,NAME,ADDRESS,CITY,STATE,ZIP,ZIP4,TELEPHONE
12194,402658001392,RYAL PUBLIC SCHOOL,110535 S 3960 RD,HENRYETTA,OK,74437,5048,(918) 652-7461
12920,403129001732,EWING HALSELL MS,226 NORTH MILLER,VINITA,OK,74301,4301,(918) 256-2402
16160,401020000441,DRUMRIGHT HS,510 SOUTH SKINNER AVENUE,DRUMRIGHT,OK,74030,4030,(918) 352-2152
17876,403024029787,MACARTHUR ES,2182 SOUTH 73RD EAST AVENUE,TULSA,OK,74129,4129,(918) 746-9140
18430,402451001285,PIONEER-PLEASANT VALE ES,6020 EAST WILLOW ROAD,ENID,OK,73701,3701,(580) 234-9628
18505,403024029789,MCCLURE ES,1770 EAST 61ST STREET,TULSA,OK,74136,4136,(918) 746-8760
19003,401059000483,WILL ROGERS ES,1215 EAST NINTH STREET,EDMOND,OK,73034,3034,(405) 340-2995
76,400079202822,TULSA HONOR ACADEMY CHARTER,209 S LAKEWOOD AVE,TULSA,OK,74112,4112,(918) 833-9420
4277,401722000796,LAVERNE HS,605 W JANE JAYROE BLVD,LAVERNE,OK,73848,3848,(580) 921-3361
4287,403213029707,WEBBERS FALLS HS,200 S STAND WAITE BLVD,WEBBERS FALLS,OK,74470,4470,(918) 464-2334
8106,401926000909,MASON ES,374006 E 1000 ROAD,MASON,OK,74859,4859,(918) 623-2218
9566,402418001276,PITTSBURG HS,200 WEST GRAND,PITTSBURG,OK,74560,4560,(918) 432-5513
9874,403237002728,WESTERN HEIGHTS 9TH GRADE CTR,8201 SOUTHWEST 44TH STREET,OKLAHOMA CITY,OK,73179,3179,(405) 350-3415
43662,400534000189,BRAY-DOYLE ES,1205 SOUTH BROOKS ROAD,MARLOW,OK,73055,3055,(580) 658-5070
43848,400813001958,WALLACE BYRD MS,108 WEST CEDAR,COALGATE,OK,74538,4538,(580) 927-3560
46042,400465000158,BLAIR HS,610 ZINN STREET,BLAIR,OK,73526,3526,(580) 563-2486
65337,401656002724,HERITAGE ELEMENTARY,600 SOUTH NINTH STREET,KINGFISHER,OK,73750,3750,(405) 375-3018
66045,401962000935,MEDFORD HS,301 NORTH MAIN STREET,MEDFORD,OK,73759,3759,(580) 395-2392
66287,403102001719,VELMA-ALMA ES,901 MAIN STREET,VELMA,OK,73491,3491,(580) 203-3702
68802,400615000237,CADDO ES,600 S MCPHERREN,CADDO,OK,74729,4729,(580) 367-2515
101582,400939002681,DALE MS,300 SMITH AVENUE,DALE,OK,74851,4851,(405) 964-2799
101620,402277001139,U. S. GRANT HS,5016 SOUTH PENNSYLVANIA AVENUE,OKLAHOMA CITY,OK,73119,3119,(405) 587-2200
102769,400080202908,NORTH ROCK CREEK INTERMEDIATE,42400 GARRETT'S LAKE ROAD,SHAWNEE,OK,74804,4804,(405) 275-3473
102790,402277002885,CAPITOL HILL MS,2717 S ROBINSON,OKLAHOMA CITY,OK,73109,3109,(405) 587-1800
106038,403024002922,WILL ROGERS COLLEGE MS,3909 EAST FIFTH PLACE,TULSA,OK,74112,4112,(918) 833-9000
21423,402334001238,PADEN HS,315 W 10TH,PADEN,OK,74860,4860,(405) 932-5053
22595,403348001846,RANCHWOOD ES,607 ANNAWOOD DRIVE,YUKON,OK,73099,3099,(405) 354-6616
22804,401870000887,MADILL HS,601 WILDCAT WAY,MADILL,OK,73446,3446,(580) 795-3303
25720,401548000734,INOLA MS,803 E COMMERCIAL STREET,INOLA,OK,74036,4036,(918) 543-2434
28285,401224000576,FRINK-CHAMBERS PUBLIC SCHOOL,485 FRINK RD,MCALESTER,OK,74501,4501,(918) 423-2434
80115,401509000706,HOOKER ES,502 N JEFFERSON,HOOKER,OK,73945,3945,(580) 652-2463
81173,402433001281,PLEASANT GROVE PUBLIC SCHOOL,1927 EAST WALNUT STREET,SHAWNEE,OK,74801,4801,(405) 275-6092
83443,400957000414,DEER CREEK MS,2601 NW 234TH ST,EDMOND,OK,73012,3012,(405) 348-4830
84937,401209000847,FOYIL JHS,1700 EAST 4TH STREET,FOYIL,OK,74031,4031,(918) 342-1782
85627,401827000874,LONE WOLF HS,1001 7TH ST,LONE WOLF,OK,73655,3655,(580) 846-9091
85662,400078200609,GRAHAM HS,116118 HWY 84,WELEETKA,OK,74880,4880,(918) 652-8935
86015,402277001159,MARK TWAIN ES,2451 WEST MAIN STREET,OKLAHOMA CITY,OK,73107,3107,(405) 587-3700
88357,402286029655,OLIVE HS,9352 SOUTH 436TH WEST AVENUE,DRUMRIGHT,OK,74030,4030,(918) 352-9568
30092,402820001494,SPIRO MS,600 WEST BROADWAY STREET,SPIRO,OK,74959,4959,(918) 962-2488
31248,402328002690,STONE CANYON ES,7305 N 177TH E AVE,OWASSO,OK,74055,4055,(918) 274-1634
31933,402961029610,CROSS TIMBERS ES,1111 WEST HIGHLAND STREET,TECUMSEH,OK,74873,4873,(405) 598-3771
34705,402586001373,RINGLING HS,706 UNIT A N 5TH STREET,RINGLING,OK,73456,3456,(580) 662-2386
36647,401467000687,MIDWAY ES,316 SOUTH PINE,COUNCIL HILL,OK,74428,4428,(918) 474-3434
38508,401461000685,HINTON HS,708 N BROADWAY,HINTON,OK,73047,3047,(405) 542-3235
38514,400543000192,BRIGGS PUBLIC SCHOOL,17210 SOUTH 569 ROAD,TAHLEQUAH,OK,74464,4464,(918) 456-4221
39149,402673002005,SALINA MS,909 NORTH SALTWELL,SALINA,OK,74365,4365,(918) 434-5311
90553,403348002723,YUKON MS,801 GARTH BROOKS BOULEVARD,YUKON,OK,73099,3099,(405) 354-5274
91278,400756002342,CHICKASHA MS,1000 S 9TH ST,CHICKASHA,OK,73018,3018,(405) 222-6530
95624,401452000682,HILLDALE LOWER ES,3301 GRANDVIEW PARK BOULEVARD,MUSKOGEE,OK,74403,4403,(918) 683-9167
95634,403024029782,KERR ES,202 SOUTH 117TH EAST AVENUE,TULSA,OK,74128,4128,(918) 746-9580
53904,402892001518,STRAIGHT PUBLIC SCHOOL,RURAL ROUTE 1 # 89,GUYMON,OK,73942,3942,(580) 652-2232
54761,401275000595,GLOVER PUBLIC SCHOOL,701 LAVENDER RD,BROKEN BOW,OK,74728,4728,(580) 420-3232
56539,400558000214,BRUSHY PUBLIC SCHOOL,100968 S 4650 RD,SALLISAW,OK,74955,4955,(918) 775-4458
56873,400078502792,INSIGHT SCHOOL OF OKLAHOMA HS,1156 S DOUGLAS BLVD,MIDWEST CITY,OK,73130,3130,(405) 835-2133
59613,402547001358,CANEY VALLEY MS,696 WYANDOTTE AVE,RAMONA,OK,74061,4061,(918) 536-2705
72789,401368000649,HANNA ES,301 E SECOND ST,HANNA,OK,74845,4845,(918) 657-2527
73268,401809000869,LONE GROVE MS,6362 MERIDIAN RD,LONE GROVE,OK,73443,3443,(580) 657-3131
75499,401218000574,FREEDOM HS,1138 EAGLE PASS,FREEDOM,OK,73842,3842,(580) 621-3272
78107,402277001115,BODINE ES,5301 SOUTH BRYANT AVENUE,OKLAHOMA CITY,OK,73129,3129,(405) 587-2500
78440,401788002206,LITTLE AXE HS,2000 168TH AVENUE NORTHEAST,NORMAN,OK,73026,3026,(405) 329-1612
1000,400717000282,CENTRAL HIGH HS,274801 BRONCHO RD,MARLOW,OK,73055,3055,(580) 658-2929
5110,402904001524,STROTHER HS,36085 EW 1140,SEMINOLE,OK,74868,4868,(405) 382-4014
5739,401489000702,HOLLY CREEK PUBLIC SCHOOL,401 HOLLY CREEK ROAD,BROKEN BOW,OK,74728,4728,(580) 420-6968
6017,400075302851,DOVE SCIENCE ACADEMY TULSA HS,4115 S 100TH E AVE,TULSA,OK,74146,4146,(918) 576-6719
8485,401725002393,CENTRAL MS,1201 NW FORT SILL BLVD,LAWTON,OK,73507,3507,(580) 355-8544
9192,401326000615,GRANDVIEW PUBLIC SCHOOL,# 277062 E 1840 RD,COMANCHE,OK,73529,3529,(580) 439-2467
42927,403024001614,EAST CENTRAL JHS,12121 EAST 21ST STREET,TULSA,OK,74129,4129,(918) 746-9500
46099,401809001120,LONE GROVE PRIMARY ES,54 FIRST STREET,LONE GROVE,OK,73443,3443,(580) 657-3131
48255,401479000694,HOLDENVILLE HS,112 E 9TH ST,HOLDENVILLE,OK,74848,4848,(405) 379-3387
48734,402493001313,PRAGUE HS,1100 BLUE BELL,PRAGUE,OK,74864,4864,(405) 567-2281
49066,402529001301,WESTERN OAKS MS,7200 NORTHWEST 23RD STREET,BETHANY,OK,73008,3008,(405) 789-4434
49966,401065000486,HILLCREST ES,1302 S MILES,EL RENO,OK,73036,3036,(405) 262-2396
61256,400468000159,BLANCHARD ES,1620 NORTH MAIN STREET,BLANCHARD,OK,73010,3010,(405) 485-3394
63208,400906000380,CENTRAL OAK ES,1901 SOUTHEAST 15TH STREET,OKLAHOMA CITY,OK,73129,3129,(405) 677-5211
64820,401659000774,KINGSTON HS,400 NE 3RD,KINGSTON,OK,73439,3439,(580) 564-2384
67140,402757001457,SHAWNEE EC CTR,1831 AIRPORT DRIVE,SHAWNEE,OK,74804,4804,(405) 273-3388
68719,400687002309,HELEN PAUL LEARNING CTR,400 SOUTH CHEROKEE STREET,CATOOSA,OK,74015,4015,(918) 266-8643
68741,402907001528,STROUD HS,1096 E 7TH STREET,STROUD,OK,74079,4079,(918) 968-2542
69070,401416000668,HEAVENER HS,EAST 4TH AND G STREET,HEAVENER,OK,74937,4937,(918) 653-4307
69954,400685001901,OKEMAH MS,204 WEST DATE STREET,OKEMAH,OK,74859,4859,(918) 623-1874
52035,402754001453,SHATTUCK HS,602 SOUTH HICKORY,SHATTUCK,OK,73858,3858,(580) 938-2586
52979,400991000432,DICKSON UPPER ES,4762 STATE HIGHWAY 199,ARDMORE,OK,73401,3401,(580) 223-1443
53855,400774002725,CATALAYAH ES,2700 KING RD,CLAREMORE,OK,74019,4019,(918) 923-4307
54106,400924002825,CUSHING LOWER ES,1601 SOUTH HARMONY ROAD,CUSHING,OK,74023,4023,(918) 225-4697
55491,401986000674,WILL ROGERS MS,504 GOODRICH BOULEVARD,MIAMI,OK,74354,4354,(918) 542-5588
56856,401092002717,PRAIRIE VIEW ES,4700 W WILLOW ROAD,ENID,OK,73703,3703,(580) 366-8000
91589,401929000911,MAUD ES,310 WEST YOUNG STREET,MAUD,OK,74854,4854,(405) 374-2416
93276,402097001033,CHEROKEE ES,2400 ESTELLE ST,MUSKOGEE,OK,74401,4401,(918) 684-3890
94397,401704000790,LANE PUBLIC SCHOOL,601 W MCGEE CREEK RD,LANE,OK,74555,4555,(580) 889-2743
97480,400351000090,BALKO HS,RURAL ROUTE 1 # 37,BALKO,OK,73931,3931,(580) 646-3385
84900,402010029671,MINCO HS,701 SW 3RD STREET,MINCO,OK,73059,3059,(405) 352-4377
85589,400822000342,WARD ES EAST,407 E WARD RD,COLBERT,OK,74733,4733,(580) 296-2198
85953,400501005012,APACHE MS,101 POHLEMAN,APACHE,OK,73006,3006,(580) 588-5227
86101,401263000590,GERONIMO HS,800 WEST MAIN STREET,GERONIMO,OK,73543,3543,(580) 355-3160
87704,403024029769,CARNEGIE ES,4309 EAST 56TH STREET,TULSA,OK,74135,4135,(918) 833-9440
88131,401995000951,CLEVELAND BAILEY ES,3301 SUNVALLEY DRIVE,MIDWEST CITY,OK,73110,3110,(405) 739-1656
101374,400357029727,BARNSDALL HS,200 S 8TH ST,BARNSDALL,OK,74002,4002,(918) 847-2721
102771,400080302907,ACADEMY OF SEMINOLE CHARTER ES,600 E STROTHERS AVE,SEMINOLE,OK,74868,4868,(405) 380-9010
102793,402277002893,SOUTHEAST MS,6700 SOUTH HUDSON,OKLAHOMA CITY,OK,73139,3139,(405) 587-6750
106034,402277002897,WHEELER MS,501 SOUTHEAST 25TH STREET,OKLAHOMA CITY,OK,73129,3129,(405) 587-7000
10412,400077802719,OKLA. VIRTUAL CHARTER ACAD ES,1160 S DOUGLAS BLVD,MIDWEST CITY,OK,73130,3130,(405) 259-9478
10416,402277002304,VAN BUREN ES,2700 SOUTHWEST 40TH STREET,OKLAHOMA CITY,OK,73119,3119,(405) 587-2000
10503,403150001744,WANETTE ES,502 NORTH MARTIN,WANETTE,OK,74878,4878,(405) 383-2222
14546,401537000723,IDABEL HS,901 LINCOLN ROAD,IDABEL,OK,74745,4745,(580) 286-7693
14969,400685001111,OKEMAH HS,704 EAST DATE STREET,OKEMAH,OK,74859,4859,(918) 623-1874
15112,401731000843,LEACH PUBLIC SCHOOL,55979 S 530 RD,ROSE,OK,74364,4364,(918) 868-2277
16283,401059002396,CENTENNIAL ES,4400 NORTH COLTRANE,EDMOND,OK,73034,3034,(405) 340-2275
16845,403237029718,GREENVALE ES,901 GREENVALE ROAD,OKLAHOMA CITY,OK,73127,3127,(405) 350-3470
17810,400075102682,DEBORAH BROWN COMMUNITY SCHOOL,2 SOUTH ELGIN AVENUE,TULSA,OK,74120,4120,(918) 425-1407
18684,402097001999,CREEK ES,200 S COUNTRY CLUB RD,MUSKOGEE,OK,74403,4403,(918) 684-3880
31281,402817001491,SPERRY MS,400 WEST MAIN STREET,SPERRY,OK,74073,4073,(918) 288-7213
31419,401545029746,INDIANOLA HS,900 SOUTH HWY 113,INDIANOLA,OK,74442,4442,(918) 558-0800
32251,403024029794,SALK ES,7625 EAST 58TH STREET,TULSA,OK,74145,4145,(918) 833-9500
32758,402664001395,SOUTH COFFEYVILLE ES,600 E 5TH,SOUTH COFFEYVILLE,OK,74072,4072,(918) 255-6087
33046,401944000927,WILL ROGERS ES,1200 EAST SOUTH STREET,MCALESTER,OK,74501,4501,(918) 423-4542
34278,402706001432,SAYRE HS,800 E HANNAH DR,SAYRE,OK,73662,3662,(580) 928-5576
36237,400975000419,DEPEW HS,725 SIMMS ST,DEPEW,OK,74028,4028,(918) 324-5543
72918,403024029798,WRIGHT ES,1110 EAST 45TH PLACE,TULSA,OK,74105,4105,(918) 746-8920
74354,401632000756,KENWOOD PUBLIC SCHOOL,48625 SOUTH 502 ROAD,SALINA,OK,74365,4365,(918) 434-5799
74914,400076902742,TULSA LEGACY CHARTER SCHL INC,105 EAST 63RD STREET NORTH,TULSA,OK,74126,4126,(918) 794-1442
75591,400402000126,BERRYHILL ES SOUTH,3128 SOUTH 63RD WEST AVENUE,TULSA,OK,74107,4107,(918) 445-6041
76054,400300000051,ANADARKO EAST ES,107 SOUTHEAST FIFTH STREET,ANADARKO,OK,73005,3005,(405) 247-2496
77168,402337002780,PANAMA ES,1101 KENTUCKY AVE,PANAMA,OK,74951,4951,(918) 963-0403
77295,401392000675,HARTSHORNE MS,520 SOUTH FIFTH STREET,HARTSHORNE,OK,74547,4547,(918) 297-2433
78015,403033001689,TURPIN HS,316 S LEE,TURPIN,OK,73950,3950,(580) 778-3333
79030,401092000506,ADAMS ES,2200 EAST RANDOLPH AVENUE,ENID,OK,73701,3701,(580) 366-7600
22441,401092000511,EISENHOWER ES,1301 FOX DRIVE,ENID,OK,73703,3703,(580) 366-8100
23976,402397001272,PIEDMONT HS,1055 EDMOND ROAD NORTHWEST,PIEDMONT,OK,73078,3078,(405) 373-5011
24201,402532001350,QUAPAW ES,305 WEST FIRST STREET,QUAPAW,OK,74363,4363,(918) 674-2236
24940,401890000897,MAPLE PUBLIC SCHOOL,904 SOUTH MAPLE ROAD,CALUMET,OK,73014,3014,(405) 262-5647
26293,400750000300,CHEYENNE HS,910 E BUSTER AVENUE,CHEYENNE,OK,73628,3628,(580) 497-3371
26295,400885000374,DONALD P SLOAT JHS,30080 S HWY 51,COWETA,OK,74429,4429,(918) 486-2127
27181,403117029664,VICI HS,301 NORTH MILLER STREET,VICI,OK,73859,3859,(580) 995-4251
28993,402859001498,STERLING ES,400 S TIGER BLVD,STERLING,OK,73567,3567,(580) 365-4166
29694,401116000529,EUFAULA HS,1 ANDERSON BELL DR,EUFAULA,OK,74432,4432,(918) 689-2556
70664,402784001479,SMITHVILLE HS,339 MAIN ST,SMITHVILLE,OK,74957,4957,(580) 244-3281
70750,403246001800,WEWOKA ES,1000 S SEMINOLE,WEWOKA,OK,74884,4884,(405) 257-2341
71905,400006302343,LAKESIDE SCHOOL,1700 E 1ST ST,GRANITE,OK,73547,NOT AVAILABLE,(580) 480-3711
73394,403012029686,TONKAWA HS,500 EAST NORTH AVENUE,TONKAWA,OK,74653,4653,(580) 628-2566
90033,402724001438,SEILING JR-SR HS (JR),100 N ELM,SEILING,OK,73663,3663,(580) 922-7382
90202,401653000769,KILDARE PUBLIC SCHOOL,1265 CHURCH STREET,PONCA CITY,OK,74604,4604,(580) 362-2811
93046,402190001092,NORWOOD PUBLIC SCHOOL,7966 WEST 790 ROAD,HULBERT,OK,74441,4441,(918) 478-3092
96519,403198002366,WAURIKA MS,600 EAST FLORIDA AVENUE,WAURIKA,OK,73573,3573,(580) 228-2341
99711,401359000639,GUYMON HS,1900 NORTH JAMES,GUYMON,OK,73942,3942,(580) 338-4350
102773,400080402901,ESCHOOL VIRTUAL CHARTER ES,2403 S DIVISION SUITE B,GUTHRIE,OK,73044,3044,(405) 724-4643
80464,403024002663,TRAICE,2740 EAST 41ST STREET NORTH,TULSA,OK,74110,4110,(918) 925-1360
85756,402151001058,NEWCASTLE MS,611 EAST FOX LANE,NEWCASTLE,OK,73065,3065,(405) 387-3139
86126,400276000024,ALLEN ES,111 N RICHMOND AVE,ALLEN,OK,74825,4825,(580) 857-2419
86470,401434000678,HENNESSEY HS,707 EAST OKLAHOMA STREET,HENNESSEY,OK,73742,3742,(405) 853-4394
86706,400885002683,COWETA INTERMEDIATE HS,14699 S 305TH E AVE,COWETA,OK,74429,4429,(918) 486-6103
87277,402178001088,CHISHOLM HS,4018 WEST CARRIER ROAD,ENID,OK,73703,3703,(580) 233-2852
87489,400951000409,DAVIS ES,400 EAST ATLANTA AVENUE,DAVIS,OK,73030,3030,(580) 369-5544
88628,402938001541,CHEROKEE ES,800 E GOINGSNAKE,TAHLEQUAH,OK,74464,4464,(918) 458-4110
50258,401059001360,SANTA FE HS,1901 WEST 15TH STREET,EDMOND,OK,73013,3013,(405) 340-2230
50528,402424002104,PLAINVIEW INTERMEDIATE ES,1140 SOUTH PLAINVIEW ROAD,ARDMORE,OK,73401,3401,(580) 223-6437
51989,403129001729,VINITA HS,801 NORTH ADAIR,VINITA,OK,74301,4301,(918) 256-6777
53240,400079102827,COLLEGE BOUND ACADEMY CHARTER,2525 S 101ST EAST AVENUE,TULSA,OK,74129,4420,(918) 925-1580
54760,401353001661,GROVE LOWER ES,801 WEST 10TH,GROVE,OK,74344,4344,(918) 786-5573
56638,403267001805,WHITEBEAD PUBLIC SCHOOL,16476 NORTH COUNTY ROAD 3200,PAULS VALLEY,OK,73075,3075,(405) 238-3021
59602,402172001086,WILSON ES,800 NORTH PETERS AVENUE,NORMAN,OK,73069,3069,(405) 366-5932
21759,400615029619,CADDO HS,600 S MCPHERREN,CADDO,OK,74729,4729,(580) 367-2208
26292,401956000931,MCLOUD ES,200 S MAIN ST,MCLOUD,OK,74851,4851,(405) 964-3314
26541,401329029682,GRANITE HS,507 WEST 6TH STREET,GRANITE,OK,73547,3547,(580) 535-2104
27333,402280001212,OKMULGEE HS,415 W 3RD ST,OKMULGEE,OK,74447,4447,(918) 758-2075
27558,400075302694,DOVE SCH OF DISCOVERY TULSA,4821 SOUTH 72ND EAST AVENUE,TULSA,OK,74145,4145,(918) 960-3131
60512,403228001787,WELLSTON HS,700 BIRCH,WELLSTON,OK,74881,4881,(405) 356-2533
62043,402520001323,PRYOR MS,7 S HOGAN,PRYOR,OK,74361,4361,(918) 825-2371
62763,403360329846,BINGER-ONEY HS,323 S APACHE,BINGER,OK,73009,3009,(405) 656-2304
62884,403279001811,WILBURTON HS,1201 WEST BLAIR AVENUE,WILBURTON,OK,74578,4578,(918) 465-2882
63207,401044000464,EAGLETOWN ES,25 SCHOOL STREET,EAGLETOWN,OK,74734,4734,(580) 835-2241
63583,400822029618,COLBERT HS,630 COLLIN ST,COLBERT,OK,74733,4733,(580) 296-2590
64409,402103001049,SHARON-MUTUAL ES,201 S 3RD ST,SHARON,OK,73857,3857,(580) 866-3333
65055,401026000444,DUKE ES,300 NORTH CHICKASAW,DUKE,OK,73532,3532,(580) 679-3311
65642,402337001241,PANAMA HS,401 HIGH SCHOOL DRIVE,PANAMA,OK,74951,4951,(918) 963-0409
36054,402529001903,NORTHRIDGE ES,8501 NORTHWEST 82ND STREET,OKLAHOMA CITY,OK,73132,3132,(405) 722-5560
36369,401029000448,EMERSON ES,1200 WEST HICKORY,DUNCAN,OK,73533,3533,(580) 255-7146
38385,402472001303,POND CREEK-HUNTER HS,200 EAST BROADWAY,POND CREEK,OK,73766,3766,(580) 532-4241
10243,401290002294,GORE UPPER ES,1200 NORTH HIGHWAY 10,GORE,OK,74435,4435,(918) 489-5587
11559,403004829730,WOODLAND HS,100 NORTH 6TH STREET,FAIRFAX,OK,74637,4637,(918) 642-3295
12107,401408000663,HAWORTH HS,409 N ELM STREET,HAWORTH,OK,74740,4740,(580) 245-1460
12594,403024001599,WAYMAN TISDALE FINE ARTS ACAD,4132 WEST CAMERON STREET,TULSA,OK,74127,4127,(918) 833-8860
13188,401497000705,HORACE MANN ES,200 SOUTH PETTIT AVENUE,HOMINY,OK,74035,4035,(918) 885-6255
14205,401569000735,JAY ES,403 NORTH MAIN,JAY,OK,74346,4346,(918) 253-4413
14947,402967001559,TENKILLER PUBLIC SCHOOL,26106 EAST 863 ROAD,WELLING,OK,74471,4471,(918) 457-5996
15108,403360129840,ROCK CREEK ES,23072 U S HIGHWAY 70,DURANT,OK,74701,4701,(580) 924-9601
17801,590016300103,RIVERSIDE INDIAN SCHOOL,101 RIVERSIDE DRIVE,ANADARKO,OK,73005,NOT AVAILABLE,(405) 247-6670
18829,402469002367,ROOSEVELT ES,815 EAST HIGHLAND AVENUE,PONCA CITY,OK,74601,4601,(580) 767-8060
42145,400915000386,CRUTCHO PUBLIC SCHOOL,2401 NORTH AIR DEPOT BOULEVARD,OKLAHOMA CITY,OK,73141,1407,(405) 427-3771
48328,400291000047,AMBER-POCASSET MS,401 E MAIN,AMBER,OK,73004,3004,(405) 224-5768
1710,403246002762,WEWOKA MS,800 S OCHEESE,WEWOKA,OK,74884,4884,(405) 257-2347
6514,401065000488,LINCOLN LEARNING CTR,425 MERCY DRIVE,EL RENO,OK,73036,3036,(405) 262-1941
7483,403276001809,WICKLIFFE PUBLIC SCHOOL,11176 EAST 470,SALINA,OK,74365,4365,(918) 434-5558
7833,403198001767,WAURIKA HS,600 EAST FLORIDA AVENUE,WAURIKA,OK,73573,3573,(580) 228-2341
8491,403024029780,UNITY LEARNING ACADEMY,2137 NORTH PITTSBURG AVENUE,TULSA,OK,74115,4115,(918) 746-9340
9303,403024029800,GRISSOM ES,6646 SOUTH 73RD EAST AVENUE,TULSA,OK,74133,4133,(918) 833-9460
9456,401470002237,HOBART ES,115 W IRIS,HOBART,OK,73651,3651,(580) 726-5665
9861,403240001795,WESTVILLE JHS,500 W CHINCAPIN,WESTVILLE,OK,74965,4965,(918) 723-3432
91432,402178002105,CHISHOLM MS,4202 WEST CARRIER ROAD,ENID,OK,73703,3703,(580) 234-0234
91863,401287000598,GOODWELL HS,326 EAST EAGLE BLVD,GOODWELL,OK,73939,3939,(580) 349-2271
92084,403297001817,WISTER ES,201 LOGAN STREET,WISTER,OK,74966,4966,(918) 655-7481
93138,400864000366,CORDELL ES,419 N MASSINGALE,CORDELL,OK,73632,3632,(580) 832-3420
94113,401725000814,RIDGECREST ES,1614 NORTHWEST 47TH STREET,LAWTON,OK,73505,3505,(580) 355-6033
97211,401389001916,CLARA REYNOLDS ES,755 HARRISON STREET,HARRAH,OK,73045,3045,(405) 347-2500
97551,400435000138,BIG PASTURE ES,1502 N 10TH ST,RANDLETT,OK,73562,3562,(580) 281-3460
98330,400501005010,APACHE ES,505 E FORREST,APACHE,OK,73006,3006,(580) 588-5246
98941,400546002083,BRISTOW MS,10 WEATHERWOOD WAY,BRISTOW,OK,74010,4010,(918) 367-3551
99325,402277001125,COOLIDGE ES,5212 SOUTH VILLA AVENUE,OKLAHOMA CITY,OK,73119,3119,(405) 587-2800
99469,402595001378,RIPLEY HS,403 E COOK ST,RIPLEY,OK,74062,4062,(918) 372-4245
99600,403114001725,VIAN HS,301 WEST HUNTER,VIAN,OK,74962,4962,(918) 773-5475
60086,400077702789,EPIC ONE ON ONE CHARTER HS,1900 NW EXPY FLOOR R3,OKLAHOMA CITY,OK,73118,3118,(405) 749-4550
60662,402172002752,RONALD REAGAN ES,1601 24TH AVE SE,NORMAN,OK,73071,3071,(405) 366-5994
60694,401437000680,HENRYETTA HS,1801 TROY AIKMAN DR,HENRYETTA,OK,74437,4437,(918) 652-6571
62733,402985001565,THACKERVILLE HS,18943 US HWY 77,THACKERVILLE,OK,73459,3459,(580) 276-3610
63201,402259029687,OKARCHE JHS,632 WEST OKLAHOMA AVENUE,OKARCHE,OK,73762,3762,(405) 263-7212
64708,402025002215,HIGHLAND WEST JHS,901 NORTH SANTA FE AVENUE,MOORE,OK,73160,3160,(405) 735-4600
66219,402463001289,POCOLA MS,603 EAST PRYOR AVENUE,POCOLA,OK,74902,4902,(918) 436-2091
68862,401383000653,HARMONY PUBLIC SCHOOL,4926 S BENTLEY RD,ATOKA,OK,74525,4664,(580) 889-3687
69536,403102029760,VELMA-ALMA HS,901 MAIN STREET,VELMA,OK,73491,3491,(580) 203-3701
81507,402907001529,STROUD MS,212 W 7TH STREET,STROUD,OK,74079,4079,(918) 968-2200
82073,400501005013,APACHE HS,101 POHLEMAN,APACHE,OK,73006,3006,(580) 588-5206
83723,402025001945,EASTLAKE ES,1301 SOUTHWEST 134TH STREET,OKLAHOMA CITY,OK,73170,3170,(405) 735-4160
87185,401389000654,RUSSELL BABB ES,20901 NORTHEAST TENTH STREET,HARRAH,OK,73045,3045,(405) 347-2200
87231,400600000228,BUTNER HS,HWY 56 AND YAHOLA,CROMWELL,OK,74837,4837,(405) 944-5526
87378,400957002696,GROVE VALLEY ES,3500 NORTHWEST 192ND STREET,EDMOND,OK,73012,3012,(405) 359-3195
87917,401059000482,SUNSET ES,400 WEST EIGHTH STREET,EDMOND,OK,73003,3003,(405) 340-2990
88367,402136001054,NEW LIMA ES,116 GROSS STREET,WEWOKA,OK,74884,4884,(405) 257-3948
50464,403111002758,VERDIGRIS UPPER ES,8204 E 540 RD,CLAREMORE,OK,74019,4019,(918) 266-6333
52076,402277001928,EMERSON ALTERNATIVE ED. (HS),715 NORTH WALKER AVENUE,OKLAHOMA CITY,OK,73102,3102,(405) 587-7900
52962,403003029764,TIPTON HS,1000 SOUTH BROADWAY,TIPTON,OK,73570,3570,(580) 667-5268
54115,402775002812,SKIATOOK ES,1051 SOUTH CHOCTAW,SKIATOOK,OK,74070,4070,(918) 396-5737
55399,400633000247,CAMERON HS,26661 W 5TH ST,CAMERON,OK,74932,4932,(918) 654-3225
55440,400483000165,BLUEJACKET HS,276 NE THIRD,BLUEJACKET,OK,74333,4333,(918) 784-2133
56278,400079502830,CARLTON LANDING ACADEMY ES,10 BOULEVARD UNIT A,CARLTON LANDING,OK,74432,3676,(918) 452-3572
56874,400078502799,INSIGHT SCHOOL OF OKLAHOMA MS,1156 S DOUGLAS BLVD,MIDWEST CITY,OK,73130,3130,(405) 835-2133
57134,400540002844,BRIDGE CREEK EARLY CHILDHOOD,2209 E SOONER ROAD,BLANCHARD,OK,73010,3010,(405) 387-3681
57902,400696029625,CEMENT HS,201 S MAIN,CEMENT,OK,73017,3017,(405) 489-3218
58629,401035000460,ROBERT E LEE EARLY CHILDHOOD,824 WEST LOUISIANA STREET,DURANT,OK,74701,4701,(580) 924-3628
59101,403024002280,JOHN HOPE FRANKLIN ES,5550 N MARTIN LUTHER KING BLVD,TULSA,OK,74126,4126,(918) 746-9600
59586,403060001700,BOEVERS ES,3433 S 133RD EAST AVENUE,TULSA,OK,74134,4134,(918) 357-4329
46532,402628001382,ROFF ES,100 N BROADWAY,ROFF,OK,74865,4865,(580) 456-7251
49178,400606029749,HOMER ES,1400 NORTH MONTE VISTA,ADA,OK,74820,4820,(580) 559-0200
49752,402706002268,SAYRE MS,600 E HANNAH DR,SAYRE,OK,73662,3662,(580) 928-5578
70143,400366029703,BATTIEST HS,5685 U A BATTIEST PICKENS RD,BROKEN BOW,OK,74728,4728,(580) 241-5550
70832,403024029776,GRIMES ES,3213 EAST 56TH STREET,TULSA,OK,74105,4105,(918) 746-8720
70886,401092000513,ENID HS,611 WEST WABASH AVENUE,ENID,OK,73701,3701,(580) 366-8300
77447,402097000599,7TH AND 8TH GRADE ACADEMY,300 VIRGIL MATTHEWS DR,MUSKOGEE,OK,74403,4403,(918) 684-3775
77472,402451001284,PIONEER-PLEASANT VALE HS,6520 EAST WOOD ROAD,WAUKOMIS,OK,73773,3773,(580) 758-3282
77615,403060001703,CLARK ES,3656 S 103RD EAST AVENUE,TULSA,OK,74146,4146,(918) 357-4332
79040,403360201597,FORT COBB-BROXTON MS,430 N 7TH ST,FORT COBB,OK,73038,3038,(405) 643-2820
79146,401857000881,LUKFATA PUBLIC SCHOOL,1685 OLD BROKEN BOW HWY,BROKEN BOW,OK,74728,4728,(580) 584-6834
32743,402961001555,TECUMSEH HS,901 NORTH THIRTEENTH STREET,TECUMSEH,OK,74873,4873,(405) 598-2113
33070,402277001145,HERONVILLE ES,1240 SOUTHWEST 29TH STREET,OKLAHOMA CITY,OK,73109,3109,(405) 587-6000
38110,402277001144,HAYES ES,6900 SOUTH BYERS AVENUE,OKLAHOMA CITY,OK,73149,3149,(405) 587-5800
39891,403012001576,TONKAWA ES,501 NORTH PUBLIC,TONKAWA,OK,74653,4653,(580) 628-2592
10194,402046001014,MOSS HS,8087 EAST 134 ROAD,HOLDENVILLE,OK,74848,4848,(405) 379-7251
10426,402763001468,WARD ES,336 WEST LST STREET,SHIDLER,OK,74652,4652,(918) 793-2051
12804,401725000829,SULLIVAN VILLAGE ES,3802 SOUTHEAST ELMHURST LANE,LAWTON,OK,73501,3501,(580) 355-0800
15024,402868029740,STILLWATER MS,2200 SOUTH SANGRE ROAD,STILLWATER,OK,74074,4074,(405) 533-6430
15552,400741000296,CHEROKEE ES,700 S NEBRASKA,CHEROKEE,OK,73728,3728,(580) 596-3277
16300,401470000692,HOBART MS,410 N JEFFERSON STREET,HOBART,OK,73651,3651,(580) 726-5615
17827,400780000327,CRAIN ES,300 WEST PINE ST,CLAYTON,OK,74536,4536,(918) 569-4158
18690,402940001547,TALIHINA HS,600 1ST STREET,TALIHINA,OK,74571,4571,(918) 567-2259
1275,403360229844,FORT COBB-BROXTON HS,514 W TOWAKONIE AVE,FORT COBB,OK,73038,3038,(405) 643-2820
4487,402910001530,STUART ES,8837 FOURTH STREET,STUART,OK,74570,4570,(918) 546-2627
4848,401074002836,ELK CITY ES,2801 GENERAL RONALD BUCKLEY AV,ELK CITY,OK,73644,3644,(580) 225-7722
5910,403042002839,TUTTLE EARLY CHILDHOOD CENTER,400 E OAK,TUTTLE,OK,73089,3089,(405) 381-2373
8048,402469001296,PONCA CITY HS,927 NORTH FIFTH,PONCA CITY,OK,74601,4601,(580) 767-9500
8484,402938001544,TAHLEQUAH HS,591 PENDLETON STREET,TAHLEQUAH,OK,74464,4464,(918) 458-4150
9166,403060029810,MCAULIFFE ES,6515 SOUTH GARNETT ROAD,BROKEN ARROW,OK,74012,4012,(918) 357-4336
9321,400363029824,CENTRAL MS,815 SE DELAWARE,BARTLESVILLE,OK,74006,4006,(918) 336-9302
9716,400846000353,COMANCHE ES,1030 ASH AVENUE,COMANCHE,OK,73529,3529,(580) 439-2911
20233,401185000552,FOREST GROVE PUBLIC SCHOOL,1941 FORST GROVE RD,GARVIN,OK,74736,4736,(580) 286-3961
26290,401356000630,COTTERAL ES,2001 WEST NOBLE AVENUE,GUTHRIE,OK,73044,3044,(405) 282-5928
26783,401092002805,CARVER EARLY CHILDHOOD CTR,815 SOUTH 5TH STREET,ENID,OK,73701,3701,(580) 366-8600
29064,401086002746,ELMORE CITY JHS,100 NORTH MUSE AVENUE,ELMORE CITY,OK,73433,3433,(580) 788-2566
29711,403024001644,MARK TWAIN ES,541 SOUTH 43RD WEST AVENUE,TULSA,OK,74127,4127,(918) 833-8820
106037,403024002921,MEMORIAL MS,7502 E 57TH ST,TULSA,OK,74145,4145,(918) 833-9520
107250,402397002909,PIEDMONT EARLY CHILDHOOD CTR,11020 W MEMORIAL RD,YUKON,OK,73099,3099,(405) 373-5190
90806,402097001038,IRVING ES,1100 N J ST,MUSKOGEE,OK,74403,4403,(918) 684-3840
91209,400078302308,ASTEC CHARTER MS,2401 NW 23RD STREET STE 39A,OKLAHOMA CITY,OK,73107,3107,(405) 947-6273
91336,400423001417,BETHEL MS,36000 CLEARPOND ROAD,SHAWNEE,OK,74801,4801,(405) 273-5944
91440,402961001554,TECUMSEH EARLY CHILDHOOD CTR,1406 N 6TH STREET,TECUMSEH,OK,74873,4873,(405) 598-2967
91576,402088001027,MULDROW HS,801 WEST SHAWNTEL SMITH BLVD,MULDROW,OK,74948,4948,(918) 427-3274
94024,403006001573,TISHOMINGO HS,1300 EAST MAIN STREET,TISHOMINGO,OK,73460,3460,(580) 371-9190
95328,400591000220,BURLINGTON ES,401 MAIN STREET,BURLINGTON,OK,73722,3722,(580) 431-2222
95329,401461000684,HINTON ES,513 NORTH MARION,HINTON,OK,73047,3047,(405) 542-3295
98875,402775001475,SKIATOOK HS,1000 WEST FOURTH STREET,SKIATOOK,OK,74070,4070,(918) 396-1790
99418,403024001666,ROBERTSON ES,2721 WEST 50TH STREET,TULSA,OK,74107,4107,(918) 746-8900
31855,401656001996,GILMOUR ES,1400 SOUTH OAK STREET,KINGFISHER,OK,73750,3750,(405) 375-4080
31960,401017000439,DRUMMOND HS,SOUTH HWY 132,DRUMMOND,OK,73735,3735,(580) 493-2271
32133,400885029814,MISSION INTERMEDIATE GRD CTR,30123 E 147TH SOUTH,COWETA,OK,74429,4429,(918) 486-2186
36980,400549002695,COUNTRY LANE INTERMEDIATE ES,251 EAST OMAHA STREET,BROKEN ARROW,OK,74012,4012,(918) 449-5600
39186,402580001370,REYDON ES,205 4TH AVE,REYDON,OK,73660,3660,(580) 655-4376
11128,402241001099,OAKS-MISSION ES,357 WEST MAIN,OAKS,OK,74359,4359,(918) 868-2455
11417,403060001525,UNION 8TH GRADE CTR,6501 SOUTH GARNETT ROAD,BROKEN ARROW,OK,74012,4012,(918) 357-4325
13605,403204029830,WAYNOKA HS,2134 LINCOLN STREET,WAYNOKA,OK,73860,3860,(580) 824-4341
14312,400957002384,ROSE UNION ES,5100 NORTHWEST 220TH STREET,EDMOND,OK,73025,3025,(405) 359-3188
14676,402172002118,NORMAN NORTH HS,1809 STUBBEMAN AVENUE,NORMAN,OK,73069,3069,(405) 366-5954
15398,401071001980,ELGIN MS,712 J ST,ELGIN,OK,73538,3538,(580) 492-3655
15706,402193001095,NOWATA MS,707 WEST OSAGE AVENUE,NOWATA,OK,74048,4048,(918) 273-1346
16104,403045001697,TWIN HILLS PUBLIC SCHOOL,7225 TWIN HILLS ROAD,OKMULGEE,OK,74447,4447,(918) 733-2531
16105,403324002361,WYANDOTTE MS,5 SOUTH 1ST STREET,WYANDOTTE,OK,74370,4370,(918) 678-2222
16856,402277001175,PRAIRIE QUEEN ES,6609 SOUTH BLACKWELDER AVENUE,OKLAHOMA CITY,OK,73159,3159,(405) 587-7750
17139,401128000537,CHAMBERLAIN MS,1000 EAST ELM STREET,FAIRVIEW,OK,73737,3737,(580) 227-2555
19672,403060002099,CEDAR RIDGE ES,9817 SOUTH MINGO ROAD,TULSA,OK,74133,4133,(918) 357-4331
20058,403060001883,PETERS ES,2900 WEST COLLEGE STREET,BROKEN ARROW,OK,74012,4012,(918) 357-4338
23899,401572001919,JENKS WEST ES,900 N ADAM,JENKS,OK,74037,4037,(918) 299-4411
26342,402523002344,PURCELL INTERMEDIATE SCHOOL,711 NORTH NINTH AVENUE,PURCELL,OK,73080,3080,(405) 442-0099
26668,401758000853,LEXINGTON ES,420 NORTHEAST FOURTH STREET,LEXINGTON,OK,73051,3051,(405) 527-7236
26899,401884000894,MANNFORD HS,220 EVANS AVENUE,MANNFORD,OK,74044,4044,(918) 865-3841
51011,400549002770,ONETA RIDGE MS,6800 EAST QUINCY PLACE,BROKEN ARROW,OK,74014,4014,(918) 259-4360
53917,401986000944,ROCKDALE ES,2116 ROCKDALE BOULEVARD,MIAMI,OK,74354,4354,(918) 542-6697
54909,400549002773,PARK LANE EARLY CHILDHOOD CTR,7700 SOUTH SHELBY LANE,BROKEN ARROW,OK,74014,4014,(918) 806-8665
56210,400077702741,EPIC ONE ON ONE CHARTER ES,4101 NW 122ND STREET SUITE B,OKLAHOMA CITY,OK,73120,3120,(405) 749-4550
58664,401239000582,GANS HS,204 N STACY,GANS,OK,74936,4936,(918) 775-2236
60275,400549002801,OAK CREST ES,405 E RICHMOND ST,BROKEN ARROW,OK,74012,4012,(918) 259-4450
62880,402025001899,APPLE CREEK ES,1101 SOUTHEAST 14TH STREET,MOORE,OK,73160,3160,(405) 735-4100
63908,401020002709,VIRGIL COOPER MS,510 SOUTH SKINNER AVENUE,DRUMRIGHT,OK,74030,4030,(918) 352-2318
64767,402187001091,GREASY PUBLIC SCHOOL,92009 SOUTH 4676 ROAD,BUNCH,OK,74931,4931,(918) 696-7768
66397,402661001393,RYAN ES,1201 E WASHINGTON,RYAN,OK,73565,3565,(580) 757-2296
66731,400301000056,ANDERSON PUBLIC SCHOOL,2195 ANDERSON ROAD,SAND SPRINGS,OK,74063,4063,(918) 245-0289
66820,403348001849,YUKON HS,1777 SOUTH YUKON PARKWAY,YUKON,OK,73099,3099,(405) 354-6692
67255,403117001727,VICI ES,301 NORTH MILLER STREET,VICI,OK,73859,3859,(580) 995-4252
69157,400957000412,DEER CREEK ES,4704 NORTH WEST 164TH STREET,EDMOND,OK,73013,3013,(405) 348-9100
69728,400300000053,SUNSET ES,508 SOUTHWEST SEVENTH STREET,ANADARKO,OK,73005,3005,(405) 247-2503
72605,400078200462,DUSTIN ES,203 WISDOM,DUSTIN,OK,74839,4839,(918) 652-8935
72928,402025000997,KINGSGATE ES,1400 KINGSGATE ROAD,OKLAHOMA CITY,OK,73159,3159,(405) 735-4410
73486,403348001886,PARKLAND ES,2201 SOUTH CORNWELL DRIVE,YUKON,OK,73099,3099,(405) 354-7786
73518,400237000002,ACHILLE HS,101 N 5TH AVE,ACHILLE,OK,74720,4720,(580) 283-3260
74324,400285000035,ALTUS PRIMARY SCHOOL,1200 GLENDA,ALTUS,OK,73521,3521,(580) 481-2185
76269,402880001515,STONEWALL HS,600 SOUTH HIGHSCHOOL,STONEWALL,OK,74871,4871,(580) 265-4242
76775,400318029635,WILL ROGERS ES,1441 N WASHINGTON,ARDMORE,OK,73401,3401,(580) 223-2482
42946,401074000495,ELK CITY HS,1221 N PIONEER RD,ELK CITY,OK,73644,3644,(580) 225-0105
43853,403264001804,WHITE ROCK PUBLIC SCHOOL,334998 EAST 1010 ROAD,MCLOUD,OK,74851,4851,(405) 964-3428
45307,400402000127,BERRYHILL HS,3128 SOUTH 63RD WEST AVENUE,TULSA,OK,74107,4107,(918) 445-6035
46153,400606029750,FRANCIS ES,18461 CR 1480,ADA,OK,74820,4820,(580) 559-0270
46511,400078602804,OKLAHOMA CONNECTIONS ACAD HS,2425 NOWATA PL,BARTLESVILLE,OK,74006,4006,(918) 977-3285
48233,401143000542,FARGO ES,513 S MAIN,FARGO,OK,73840,3840,(580) 698-2298
85,400079202822,TULSA HONOR ACADEMY CHARTER,209 S LAKEWOOD AVE,TULSA,OK,74112,4112,(918) 833-9420
1453,402938002727,HERITAGE ES,333 SOUTHRIDGE RD,TAHLEQUAH,OK,74464,4464,(918) 458-4180
4800,402679001399,EASTSIDE ES,1206 EAST CREEK AVENUE,SALLISAW,OK,74955,9304,(918) 775-9491
6794,403060002672,THOMAS JEFFERSON ES,8418 SOUTH 107TH EAST AVENUE,TULSA,OK,74133,4133,(918) 357-4321
6929,400924002291,CUSHING PRE-KINDERGARTEN SCHL,1919 SOUTH KINGS HIGHWAY,CUSHING,OK,74023,4023,(918) 225-4683
7035,401065000488,LINCOLN LEARNING CTR,425 MERCY DRIVE,EL RENO,OK,73036,3036,(405) 262-1941
7776,400450002097,BIXBY MS,9401 EAST 161ST STREET,BIXBY,OK,74008,4008,(918) 366-2201
8045,402025002363,WAYLAND BONDS ES,14025 SOUTH MAY AVENUE,OKLAHOMA CITY,OK,73170,3170,(405) 735-4500
8353,401272000594,GLENPOOL HS,140 W 141ST,GLENPOOL,OK,74033,4033,(918) 322-9500
8948,403201001769,WAYNE ES,212 SOUTH SEIFRIED STREET,WAYNE,OK,73095,3095,(405) 449-3305
9653,400738002310,CHELSEA MS,801 W 6TH,CHELSEA,OK,74016,4016,(918) 789-2521
80867,401941000915,MCCURTAIN ES,HWY 26 & COLE STREET,MCCURTAIN,OK,74944,4944,(918) 945-7236
83938,403048001698,TYRONE ES,6TH AND BEATRICE,TYRONE,OK,73951,3951,(580) 854-6298
86201,401650000768,KIEFER HS,4600 WEST 151ST STREET SOUTH,KIEFER,OK,74041,4041,(918) 321-3533
88820,402358000145,INDIAN CAMP ES,2005 EAST BOUNDARY AVENUE,PAWHUSKA,OK,74056,4056,(918) 287-1265
100747,402547001359,CANEY VALLEY ES,401 WEST MAIN,OCHELATA,OK,74051,4051,(918) 535-2205
100975,400612000235,CACHE ES,310 SW H AVE,CACHE,OK,73527,3527,(580) 429-8536
101294,403309001819,WOODALL PUBLIC SCHOOL,14090 WEST 835 ROAD,TAHLEQUAH,OK,74464,4464,(918) 456-1581
21735,401353000627,GROVE MS,517 W 10TH ST,GROVE,OK,74344,4344,(918) 786-3003
21947,402868029741,STILLWATER JHS,1900 NORTH SKYLINE STREET,STILLWATER,OK,74075,4075,(405) 533-6420
24008,401360000643,GYPSY PUBLIC SCHOOL,30899 SOUTH 417TH WEST AVENUE,DEPEW,OK,74028,4028,(918) 324-5365
25047,400762001957,L. W. WESTFALL ES,13239 NORTHEAST 10TH STREET,CHOCTAW,OK,73020,3020,(405) 390-6990
26286,402469001300,WOODLANDS ES,2005 EAST WOODLAND ROAD,PONCA CITY,OK,74604,4604,(580) 767-8025
26289,402793002085,JOHN D MOELLER ES,HIGHWAY 183,MT. PARK,OK,73559,3559,(580) 569-2010
26998,402868029734,HIGHLAND PARK ES,400 SOUTH DRURY,STILLWATER,OK,74074,4074,(405) 533-6350
28619,400696000276,CEMENT ES,201 S MAIN,CEMENT,OK,73017,3017,(405) 489-3217
28972,403024001583,BOOKER T. WASHINGTON HS,1514 EAST ZION STREET,TULSA,OK,74106,4106,(918) 925-1000
62030,403024001672,SPRINGDALE ES,2510 EAST PINE STREET,TULSA,OK,74110,4110,(918) 746-9380
62730,402055001019,MOUNDS HS,1603 RUSSELL AVE,MOUNDS,OK,74047,4047,(918) 827-6100
64855,403024002249,KENDALL-WHITTIER ES,2601 EAST 5TH PLACE,TULSA,OK,74104,4104,(918) 833-9900
66555,400549002095,OLIVER MS,3100 W NEW ORLEANS,BROKEN ARROW,OK,74011,4011,(918) 259-4590
66863,400381000120,BEGGS MS,1201 WEST NINTH STREET,BEGGS,OK,74421,4421,(918) 267-4916
67119,401944000917,EDMOND DOYLE ES,520 EAST SMITH,MCALESTER,OK,74501,4501,(918) 423-0588
67146,401986000943,NICHOLS UPPER ES,504 14TH NW,MIAMI,OK,74354,4354,(918) 542-3309
67737,400624000241,CALUMET ES,110 N FREEHOME,CALUMET,OK,73014,3014,(405) 893-2222
68202,401870000886,MADILL ES,701 WEST TISHOMINGO,MADILL,OK,73446,3446,(580) 795-3303
69563,402163001063,KATHERINE I DAILY ES,300 SOUTH FIFTH STREET,NOBLE,OK,73068,3068,(405) 872-3406
69889,401416000670,HEAVENER ES,EAST 4TH AND G STREET,HEAVENER,OK,74937,4937,(918) 653-4313
69907,400942000404,DARLINGTON PUBLIC SCHOOL,4408 NORTH HIGHWAY 81,EL RENO,OK,73036,3036,(405) 262-0137
4990,403177001757,WATONGA ES,900 N LEACH,WATONGA,OK,73772,3772,(580) 623-5248
5308,403024002664,TULSA MET HS,6201 EAST VIRGIN STREET,TULSA,OK,74115,4115,(918) 746-9300
7405,400001501641,THOMAS-FAY-CUSTER UNIFIED JHS,920 NORTH MAIN,THOMAS,OK,73669,3669,(580) 661-3522
7516,401542000729,INDIAHOMA ES,307 CHEBAHTAH,INDIAHOMA,OK,73552,3552,(580) 246-3333
8354,400450002097,BIXBY MS,9401 EAST 161ST STREET,BIXBY,OK,74008,4008,(918) 366-2201
8736,403348002102,LAKEVIEW INTERMEDIATE SCHOOL,872 SOUTH YUKON PARKWAY,YUKON,OK,73099,3099,(405) 265-1342
44295,400336002110,ATOKA ES,1680 S GREAT HOUSE DR,ATOKA,OK,74525,4525,(580) 889-3553
44400,402592001375,RINGWOOD ES,101 W 5TH,RINGWOOD,OK,73768,3768,(580) 883-2203
48114,401071000493,ELGIN ES,610 J ST,ELGIN,OK,73538,3538,(580) 492-3680
48229,400991000430,DICKSON HS,4762 STATE HIGHWAY 199,ARDMORE,OK,73401,3401,(580) 226-0633
48280,403237002244,WESTERN HEIGHTS MS,8435 SOUTHWEST 44TH STREET,OKLAHOMA CITY,OK,73179,3179,(405) 350-3455
49059,401035000456,DURANT HS,950 GERLACH DRIVE,DURANT,OK,74701,4701,(580) 924-4424
91239,401809000871,LONE GROVE HS,6218 MERIDIAN RD,LONE GROVE,OK,73443,3443,(580) 657-3131
92016,401059000482,SUNSET ES,400 WEST EIGHTH STREET,EDMOND,OK,73003,3003,(405) 340-2990
92519,401485000701,HOLLIS MS,415 N MAIN STREET,HOLLIS,OK,73550,3550,(580) 706-6400
93061,402172029643,TRUMAN ES,600 PARKSIDE ROAD,NORMAN,OK,73072,3072,(405) 366-5980
94147,402799001486,SOUTH ROCK CREEK PUBLIC SCHOOL,17800 SOUTH ROCK CREEK ROAD,SHAWNEE,OK,74801,4801,(405) 273-6072
95777,400549002803,ARROW SPRINGS EARLY CHILDHOOD,101 W TWIN OAKS ST,BROKEN ARROW,OK,74011,4011,(918) 259-4380
50196,402424001277,PLAINVIEW PRIMARY ES,1140 SOUTH PLAINVIEW ROAD,ARDMORE,OK,73401,3401,(580) 223-5757
50197,402691002223,SAPULPA JHS,7 SOUTH MISSION STREET,SAPULPA,OK,74066,4066,(918) 224-6710
52824,400822000344,WARD ES WEST,630 COLLIN ST,COLBERT,OK,74733,4733,(580) 296-2626
54507,401395000572,HASKELL MS,900 NORTH OHIO,HASKELL,OK,74436,4436,(918) 482-5221
55350,402097001032,MUSKOGEE HS,3200 EAST SHAWNEE RD,MUSKOGEE,OK,74403,4403,(918) 684-3750
59780,400001401566,WILL ROGERS ES,102 N HWY 44,BURNS FLAT,OK,73624,3624,(580) 562-4851
83255,400894000375,COYLE ES,700 S COTTINGHAM,COYLE,OK,73027,3027,(405) 466-2242
83678,401672000782,KREBS PUBLIC SCHOOL,20 SOUTHWEST FIFTH STREET,KREBS,OK,74554,4554,(918) 426-4700
83812,400411029722,CHILDREN'S CTR,6721 NORTHWEST 42ND STREET,BETHANY,OK,73008,3008,(405) 499-4611
85608,402328001234,BARNES ES,7809 E 76TH ST N,OWASSO,OK,74055,4055,(918) 272-1153
85954,400501005013,APACHE HS,101 POHLEMAN,APACHE,OK,73006,3006,(580) 588-5206
86627,402706001431,SAYRE ES,400 E HANNAH DR,SAYRE,OK,73662,3662,(580) 928-2013
88260,401176000551,FLOWER MOUND PUBLIC SCHOOL,2805 SE FLOWER MOUND RD,LAWTON,OK,73501,3501,(580) 353-4088
89653,402025001004,WEST JHS,9400 SOUTH PENNSYLVANIA AVENUE,OKLAHOMA CITY,OK,73159,3159,(405) 735-4620
101334,402982001563,TEXHOMA HS,418 ELM STREET,TEXHOMA,OK,73949,3949,(580) 423-7433
101460,402328029813,OWASSO 8TH GRADE CTR,13901 E 86TH ST N,OWASSO,OK,74055,4055,(918) 272-6274
102762,400007602916,OKLAHOMA SCHL FOR THE BLIND MS,3300 GIBSON STREET,MUSKOGEE,OK,74403,4403,(918) 781-8200
102764,400078002874,KIPP TULSA UNIVERSITY PREP,541 S 43RD STREET W AVE,TULSA,OK,74127,4127,(918) 746-9641
106027,400079902903,DOVE SCIENCE ACADEMY SOUTH OKC,7202 S 1-35 SERVICE RD,OKLAHOMA CITY,OK,73149,3149,(405) 212-2221
12463,401434001917,HENNESSEY UPPER ES,120 NORTH MITCHELL AVENUE,HENNESSEY,OK,73742,3742,(405) 853-4303
17258,400735001859,CHECOTAH MS,320 WEST JEFFERSON,CHECOTAH,OK,74426,4426,(918) 473-5912
18921,402691002406,JEFFERSON HEIGHTS ES,1521 SOUTH WICKHAM ROAD,SAPULPA,OK,74066,4066,(918) 224-2028
30826,402340001243,PANOLA HS,5558 NE 104TH RD,PANOLA,OK,74559,4559,(918) 465-3813
36629,400516000181,BOWRING PUBLIC SCHOOL,87 COUNTY ROAD 3304,PAWHUSKA,OK,74056,4056,(918) 336-6892
38160,402355001247,JACKSON ES,1015 SOUTH WALNUT,PAULS VALLEY,OK,73075,3075,(405) 238-2312
38358,401725000826,PIONEER PARK ES,3005 NORTHEAST ANGUS PLACE,LAWTON,OK,73507,3507,(580) 355-5844
71399,400951000410,DAVIS HS,400 EAST ATLANTA AVENUE,DAVIS,OK,73030,3030,(580) 369-5541
72788,403042001693,TUTTLE ES,206 W SECOND,TUTTLE,OK,73089,3089,(405) 381-2486
74763,400267000019,ALEX ES,209 SOUTH 2ND STREET,ALEX,OK,73002,3002,(405) 785-2217
78303,402688001904,SAND SPRINGS EC CTR,1701 EAST PARK ROAD,SAND SPRINGS,OK,74063,4063,(918) 246-1570
92935,401092000510,DEWITT WALLER MS,2604 WEST RANDOLPH AVENUE,ENID,OK,73703,3703,(580) 366-7900
93137,401785017850,LINDSAY MS,805 WEST CREEK,LINDSAY,OK,73052,3052,(405) 756-3133
94114,400285000030,ALTUS HS,400 NORTH PARK AVENUE,ALTUS,OK,73521,3521,(580) 481-2167
94172,400435000139,BIG PASTURE HS,1502 N 10TH ST,RANDLETT,OK,73562,3562,(580) 281-3276
96480,402277001135,EUGENE FIELD ES,1515 NORTH KLEIN AVENUE,OKLAHOMA CITY,OK,73106,3106,(405) 587-5700
99619,402880001514,STONEWALL ES,600 SOUTH HIGHSCHOOL,STONEWALL,OK,74871,4871,(580) 265-4243
72969,400540029677,BRIDGE CREEK HS,2209 EAST SOONER ROAD,BLANCHARD,OK,73010,3010,(405) 387-3981
73269,400813000341,EMERSON ES,111 FOX AVE,COALGATE,OK,74538,4538,(580) 927-2351
73922,403024029785,COUNCIL OAK ES,1920 SOUTH CINCINNATI AVENUE,TULSA,OK,74119,4119,(918) 833-9400
74188,401995000968,SOLDIER CREEK ES,9021 SE 15TH STREET,MIDWEST CITY,OK,73130,3130,(405) 739-1676
75405,402328001907,LARKIN BAILEY ES,10221 E 96TH ST N,OWASSO,OK,74055,4055,(918) 272-5399
76758,401092000523,TAFT ES,1002 SEQUOYAH DRIVE,ENID,OK,73703,3703,(580) 366-7450
77416,401389000656,HARRAH MS,1480 N DOBBS,HARRAH,OK,73045,3045,(405) 347-2700
78094,402235001098,OAKDALE PUBLIC SCHOOL,5701 E HEFNER ROAD,EDMOND,OK,73013,3013,(405) 771-3373
79031,402046001013,MOSS ES,8087 EAST 134 ROAD,HOLDENVILLE,OK,74848,4848,(405) 379-7251
83401,402730001439,WILSON ES,1400 N HARDING,SEMINOLE,OK,74818,4818,(405) 382-1431
83417,401863000883,LUTHER HS,18001 LUTHER RD,LUTHER,OK,73054,3054,(405) 277-3263
83731,402034002657,MORRISON MS,2ND STREET & C AVENUE,MORRISON,OK,73061,3061,(580) 724-3307
84231,400504002369,BOSWELL MS,604 7TH ST,BOSWELL,OK,74727,4727,(580) 566-2735
85655,400285000037,ALTUS ES,1830 SUNSET,ALTUS,OK,73521,3521,(580) 481-2180
86545,402529001332,ARBOR GROVE ES,4711 NORTH TULSA,OKLAHOMA CITY,OK,73112,3112,(405) 789-4985
88840,402820001492,SPIRO ES,600 WEST BROADWAY STREET,SPIRO,OK,74959,4959,(918) 962-2413
101219,401059002766,FRONTIER ES,4901 EXPLORER DR,EDMOND,OK,73003,3003,(405) 340-2211
101329,400003302300,KEYS HS,26622 SOUTH 520 ROAD,PARK HILL,OK,74451,4451,(918) 458-1835
101496,400549029806,SPRING CREEK ES,6801 SOUTH THIRD STREET,BROKEN ARROW,OK,74011,4011,(918) 259-4480
102766,400080102877,LE MONDE INTERNATIONAL SCHL,1123 E MAIN ST,NORMAN,OK,73071,3071,(405) 701-2125
106033,402100002881,MUSTANG CENTRAL MS,11820 SW 44TH STREET,YUKON,OK,73099,3099,(405) 256-5275
11286,402265029616,OKEENE JR-SR HS (SR),301 NORTH MAIN,OKEENE,OK,73763,3763,(580) 822-3219
15802,401059002402,WEST FIELD ES,17601 NORTH PENNSYLVANIA,EDMOND,OK,73012,3012,(405) 340-2285
18302,403024029779,HOOVER ES,2327 SOUTH DARLINGTON AVENUE,TULSA,OK,74114,4114,(918) 746-9120
18416,403318029835,HIGHLAND PARK ES,2730 WEBSTER,WOODWARD,OK,73802,3802,(580) 256-2500
19055,403024029788,MARSHALL ES,1142 EAST 56TH STREET,TULSA,OK,74105,4105,(918) 746-8740
19106,400272000022,ALINE-CLEO ES,124 WEST ILLINOIS,CLEO SPRINGS,OK,73729,3729,(580) 438-2330
30422,401221000575,FRIEND PUBLIC SCHOOL,1307 COUNTY ROAD 1350,CHICKASHA,OK,73018,3018,(405) 224-3822
30424,400243000003,ADA HS,1400 STADIUM DRIVE,ADA,OK,74820,4820,(580) 310-7220
31063,401944000918,EMERSON ES,301 EAST VAN BUREN,MCALESTER,OK,74501,4501,(918) 423-6465
31433,401395029705,HASKELL HS,900 NORTH OHIO,HASKELL,OK,74436,4436,(918) 482-5221
34743,401059000479,ORVIS RISNER ES,2801 SOUTH RANKIN STREET,EDMOND,OK,73013,3013,(405) 340-2984
37995,402610001380,ROBIN HILL PUBLIC SCHOOL,4801 EAST FRANKLIN ROAD,NORMAN,OK,73026,3026,(405) 321-4186
39519,403024002733,WILL ROGERS COLLEGE JHS,3909 EAST 5TH PLACE,TULSA,OK,74112,4112,(918) 833-9000
39662,401521002768,HUGO ES,1100 DAVID ROEBUCK LANE,HUGO,OK,74743,4743,(580) 326-8373
52294,402172001127,ROOSEVELT ES,4250 WEST TECUMSEH ROAD,NORMAN,OK,73072,3072,(405) 447-6581
52546,402469002668,GARFIELD ES,600 SOUTH 8TH STREET,PONCA CITY,OK,74601,4601,(580) 767-8030
54223,400078502792,INSIGHT SCHOOL OF OKLAHOMA HS,1156 S DOUGLAS BLVD,MIDWEST CITY,OK,73130,3130,(405) 835-2133
57174,400079802840,DAVIDSON ES,500 SOUTH MAIN,DAVIDSON,OK,73530,3530,(580) 568-2423
58204,402529001330,APOLLO ES,1901 NORTH PENIEL AVENUE,BETHANY,OK,73008,3008,(405) 787-6636
21172,401758000854,LEXINGTON HS,801 EAST BROADWAY,LEXINGTON,OK,73051,3051,(405) 527-7236
21782,401584000746,JONES ES,13145 MONTANA STREET,JONES,OK,73049,3049,(405) 399-9118
21924,401125000535,FAIRLAND HS,202 WEST WASHINGTON AVENUE,FAIRLAND,OK,74343,4343,(918) 676-3246
22552,402277001193,SOUTHERN HILLS ES,7800 SOUTH KENTUCKY AVENUE,OKLAHOMA CITY,OK,73159,3159,(405) 587-2900
22749,400639000248,CANADIAN ES,1 BELT STREET,CANADIAN,OK,74425,4425,(918) 339-7253
24298,400909000384,CROWDER ES,400 BOND STREET,CROWDER,OK,74430,4430,(918) 334-3203
28292,400363029818,HOOVER ES,512 SOUTHEAST MADISON,BARTLESVILLE,OK,74006,4006,(918) 333-9337
60542,402397001273,PIEDMONT MS,823 SECOND STREET NORTHWEST,PIEDMONT,OK,73078,3078,(405) 373-1315
61457,400324000077,ARNETT ES,108 W HASKELL,ARNETT,OK,73832,3832,(580) 885-7285
62095,402373001258,PEGGS PUBLIC SCHOOL,10821 WEST HICKORY AVE,PEGGS,OK,74452,4452,(918) 598-3412
63503,400549000205,SEQUOYAH MS,2701 SOUTH ELM PLACE,BROKEN ARROW,OK,74012,4012,(918) 259-4370
64537,402484001307,PORUM HS,410 N 4TH ST,PORUM,OK,74455,4455,(918) 484-5122
68246,403024002332,OWEN ES,1132 NORTH VANDALIA AVENUE,TULSA,OK,74115,4115,(918) 746-9230
68717,401638000761,KETCHUM HS,5TH AND SEXTON AVE,KETCHUM,OK,74349,4349,(918) 782-4481
69346,401737000844,LEEDEY ES,505 E SIXTH,LEEDEY,OK,73654,3654,(580) 488-3377
43201,403222001180,WELEETKA JHS,302 E 6TH ST,WELEETKA,OK,74880,4880,(405) 786-2203
43560,401065000485,ETTA DALE JHS,601 S CHOCTAW,EL RENO,OK,73036,3036,(405) 262-3253
43851,402763029726,SHIDLER HS,312 WEST 1ST STREET,SHIDLER,OK,74652,4652,(918) 793-2461
45374,402151001056,NEWCASTLE ES,418 NORTHWEST 10TH STREET,NEWCASTLE,OK,73065,3065,(405) 387-6474
47213,401329000616,GRANITE ES,507 WEST 6TH STREET,GRANITE,OK,73547,3547,(580) 535-2104
47226,402982001562,TEXHOMA ES,418 ELM STREET,TEXHOMA,OK,73949,3949,(580) 423-7371
47379,403024002738,PROJECT ACCEPT TRAICE ES,1202 WEST EASTON STREET,TULSA,OK,74127,4127,(918) 833-8960
48281,400381000119,BEGGS HS,1201 WEST NINTH STREET,BEGGS,OK,74421,4421,(918) 267-3625
48282,400606029750,FRANCIS ES,18461 CR 1480,ADA,OK,74820,4820,(580) 559-0270
49216,400255000016,AGRA HS,516 LINCOLN,AGRA,OK,74824,4824,(918) 375-2261
49582,401995000959,EPPERLY HEIGHTS ES,3805 DEL ROAD,DEL CITY,OK,73115,3115,(405) 671-8650
49859,402694001426,SASAKWA ES,106 NORTH OLIVE,SASAKWA,OK,74867,4867,(405) 941-3250
1598,400801000330,CLEORA PUBLIC SCHOOL,451358 EAST 295 ROAD,AFTON,OK,74331,8113,(918) 256-6401
7875,402277001207,WILLOW BROOK ES,8105 NORTHEAST 10TH STREET,OKLAHOMA CITY,OK,73110,3110,(405) 587-7500
9276,400495000170,BOKOSHE ES,30201 CHICKASAW STREET,BOKOSHE,OK,74930,4930,(918) 969-2491
11292,402025000992,FAIRVIEW ES,2431 SOUTHWEST 89TH STREET,OKLAHOMA CITY,OK,73159,3159,(405) 735-4170
11838,401359000641,NORTHEAST ES,220 MEDICAL DRIVE,GUYMON,OK,73942,3942,(580) 338-4380
13227,400633000246,CAMERON ES,15931 CHURCH ST,CAMERON,OK,74932,4932,(918) 654-3225
13969,401728000841,LEFLORE HS,43172 SOUTH BOOTH AVENUE,LEFLORE,OK,74942,4942,(918) 753-2345
13993,401467000688,MIDWAY HS,316 SOUTH PINE,COUNCIL HILL,OK,74428,4428,(918) 474-3434
15555,400900000379,CRESCENT MS,106 NORTH MAGNOLA,CRESCENT,OK,73028,3028,(405) 969-2227
17237,401497000704,HOMINY MS,200 SOUTH PETTIT AVENUE,HOMINY,OK,74035,4035,(918) 885-6253
17905,401116002345,EUFAULA ES,1705 W JM BAILEY HWY,EUFAULA,OK,74432,4432,(918) 689-2682
19762,402940001546,TALIHINA ES,600 1ST STREET,TALIHINA,OK,74571,4571,(918) 567-2259
2120,402277001895,SOUTHEAST HS,5401 SOUTH SHIELDS BOULEVARD,OKLAHOMA CITY,OK,73129,3129,(405) 587-9600
2133,402988629691,MOUNTAIN VIEW-GOTEBO HS,124 S 1ST ST,MOUNTAIN VIEW,OK,73062,3062,(580) 347-2211
3693,401461000096,HINTON MS,124 W PARK,HINTON,OK,73047,3047,(405) 542-3235
7564,401944000922,MCALESTER HS,1 BUFFALO DRIVE,MCALESTER,OK,74501,4501,(918) 423-4776
8710,401599002269,KANSAS MS,499 W BOUNDARY,KANSAS,OK,74347,4347,(918) 868-5308
21783,402280001214,OKMULGEE PRIMARY ES,1003 N OKMULGEE ST,OKMULGEE,OK,74447,4447,(918) 758-2030
22789,400001301028,TIMBERLAKE ES,221 E MAGNOLIA,JET,OK,73749,3749,(580) 626-4411
22816,400001501630,THOMAS ES,920 NORTH MAIN,THOMAS,OK,73669,3669,(580) 661-3521
23219,402679001403,SALLISAW MS,2101 WEST RUTH STREET,SALLISAW,OK,74955,9304,(918) 775-3015
23900,400837000349,COLLINSVILLE HS,2400 WEST BROADWAY STREET,COLLINSVILLE,OK,74021,4021,(918) 371-3382
24420,402679001403,SALLISAW MS,2101 WEST RUTH STREET,SALLISAW,OK,74955,9304,(918) 775-3015
25031,402277001872,NICHOLS HILLS ES,1301 WEST WILSHIRE BOULEVARD,NICHOLS HILLS,OK,73116,3116,(405) 587-2583
25689,401320029765,GRANDFIELD HS,811 WEST 3RD STREET,GRANDFIELD,OK,73546,3546,(580) 479-3140
27463,400885000372,CENTRAL ES,303 NORTH BROADWAY,COWETA,OK,74429,4429,(918) 486-2130
28926,400363029826,BARTLESVILLE HS,1700 HILLCREST DRIVE,BARTLESVILLE,OK,74003,4003,(918) 336-3311
29416,401086029670,ELMORE CITY-PERNELL HS,100 NORTH MUSE AVENUE,ELMORE CITY,OK,73433,3433,(580) 788-2565
29484,401026000445,DUKE HS,300 NORTH CHICKASAW,DUKE,OK,73532,3532,(580) 679-3311
42163,402757001462,SEQUOYAH ES,1401 EAST INDEPENDENCE STREET,SHAWNEE,OK,74801,4801,(405) 273-1878
43312,403213001779,WEBBERS FALLS ES,200 S STAND WAITE BLVD,WEBBERS FALLS,OK,74470,4470,(918) 464-2383
45948,403318029834,WOODWARD EC CTR,3801 34TH STREET,WOODWARD,OK,73802,3802,(580) 256-2561
45994,401995000965,PARKVIEW ES,5701 MACKELMAN DRIVE,OKLAHOMA CITY,OK,73135,3135,(405) 671-8670
46681,402385001266,PERRY HS,900 FIR STREET,PERRY,OK,73077,3077,(580) 336-4415
48238,400756000301,CHICKASHA HS,101 JOHN P COWEN,CHICKASHA,OK,73018,3018,(405) 222-6550
35994,400312029657,ARAPAHO-BUTLER HS,214 N 12TH STREET,ARAPAHO,OK,73620,3620,(580) 323-3261
36245,403135001736,WILLIAM R. TEAGUE ES,700 NORTH STORY AVENUE,WAGONER,OK,74467,4467,(918) 485-2212
39781,400767002398,CHOUTEAU-MAZIE EC CTR,521 NORTH MCCRACKEN,CHOUTEAU,OK,74337,4337,(918) 476-6551
91173,402943001550,TALOGA HS,500 WEST RUBLE,TALOGA,OK,73667,3667,(580) 328-5586
92046,403237001789,COUNCIL GROVE ES,7721 MELROSE LANE,OKLAHOMA CITY,OK,73127,3127,(405) 350-3465
93069,401671000780,KONAWA HS,701 WEST SOUTH STREET,KONAWA,OK,74849,4849,(580) 925-3221
95018,402100002767,MUSTANG HORIZON IES,430 W FORSTER ROAD,MUSTANG,OK,73064,3064,(405) 256-6282
96457,402216001097,OAK GROVE PUBLIC SCHOOL,8409 EAST NINTH STREET,CUSHING,OK,74023,4023,(918) 352-2889
97905,402916001166,SULPHUR INTERMEDIATE ES,1021 WEST NINTH STREET,SULPHUR,OK,73086,3086,(580) 622-6161
99354,401944002381,JEFFERSON EC CTR,501 SOUTH C STREET,MCALESTER,OK,74501,4501,(918) 423-5963
73952,401092000521,MCKINLEY ES,1701 WEST BROADWAY AVENUE,ENID,OK,73703,3703,(580) 366-7400
77898,400651000255,CANUTE ES,216 EAST WALK STREET,CANUTE,OK,73626,3626,(580) 472-3295
78564,401962000934,MEDFORD ES,301 NORTH MAIN STREET,MEDFORD,OK,73759,3759,(580) 395-2392
60754,403024029792,PEARY ES,10818 EAST 17TH STREET,TULSA,OK,74128,4128,(918) 925-1520
65356,400879000370,COVINGTON-DOUGLAS ES,400 E MAINE,COVINGTON,OK,73730,3730,(580) 864-7482
80486,402304001228,OOLOGAH-TALALA HS,10700 SOUTH HWY 169,OOLOGAH,OK,74053,4053,(918) 443-6211
80509,402025001123,BROADMOORE ES,3401 SOUTH BROADWAY STREET,MOORE,OK,73160,3160,(405) 735-4120
81535,402277001154,ADELAIDE LEE ES,424 SOUTHWEST 29TH STREET,OKLAHOMA CITY,OK,73109,3109,(405) 587-3400
83793,401635000757,KEOTA ES,110 NORTHEAST 6TH STREET,KEOTA,OK,74941,4941,(918) 966-3141
83892,401725000835,LEARNING TREE ACADEMY,1908 NORTHWEST 38TH STREET,LAWTON,OK,73505,3505,(580) 355-6197
84444,402688002382,CLYDE BOYD MS,305 WEST 35TH STREET,SAND SPRINGS,OK,74063,4063,(918) 246-1535
89651,400576029684,BUFFALO HS,605 SE 2ND,BUFFALO,OK,73834,3834,(580) 735-2448
51683,402745001450,SHADY POINT PUBLIC SCHOOL,22838 WHEELUS,SHADY POINT,OK,74956,4956,(918) 963-2595
53013,402343001244,PAOLI ES,108 DULIN STREET,PAOLI,OK,73074,3074,(405) 484-7231
56960,400804000331,CLEVELAND PRIMARY ES,300 NORTH GILBERT AVE,CLEVELAND,OK,74020,4020,(918) 358-2210
57810,401896000898,MARBLE CITY PUBLIC SCHOOL,95266 S 4610 RD,MARBLE CITY,OK,74945,4945,(918) 775-2135
58702,402328002253,OWASSO 6TH GRADE CTR,8101 N 129TH E AVE,OWASSO,OK,74055,4055,(918) 274-3020
102770,400080302873,ACADEMY OF SEMINOLE CHARTER HS,600 E STROTHERS AVE,SEMINOLE,OK,74868,4868,(405) 380-9010
10232,401128000538,CORNELSEN ES,1200 EAST ELM STREET,FAIRVIEW,OK,73737,3737,(580) 227-2561
10708,402961001556,TECUMSEH MS,315 WEST PARK STREET,TECUMSEH,OK,74873,4873,(405) 598-3744
11516,401269000592,GLENCOE HS,201 EAST LONE CHIMNEY,GLENCOE,OK,74032,4032,(580) 669-2261
11902,402688002383,CENTRAL 9TH GRADE CTR,14 WEST 4TH STREET,SAND SPRINGS,OK,74063,4063,(918) 246-1440
14007,401374000652,HARDESTY HS,5TH AND CRAWFORD,HARDESTY,OK,73944,3944,(580) 888-4258
16810,401569002680,JAY UPPER ES,410 EAST MONROE,JAY,OK,74346,4346,(918) 253-3535
16955,400837002685,COLLINSVILLE EC CTR,12936 NORTH 129TH EAST AVENUE,COLLINSVILLE,OK,74021,4021,(918) 371-6870
17398,402691002726,HOLMES PARK ES,1231 E DEWEY AVE,SAPULPA,OK,74066,4066,(918) 227-6800
18431,401599029662,KANSAS HS,700 N WOOD AVE,KANSAS,OK,74347,4347,(918) 868-3308
19415,403060002317,MARSHALL T. MOORE ES,800 NORTH BUTTERNUT PLACE,BROKEN ARROW,OK,74012,4012,(918) 357-4337
19519,403024029789,MCCLURE ES,1770 EAST 61ST STREET,TULSA,OK,74136,4136,(918) 746-8760
19592,400651000256,CANUTE HS,216 EAST WALK STREET,CANUTE,OK,73626,3626,(580) 472-3295
83763,402964001557,TEMPLE ES,400 W MISSISSIPPI,TEMPLE,OK,73568,3568,(580) 342-6839
84869,402691001882,SAPULPA MS,1304 EAST CLEVELAND,SAPULPA,OK,74066,4066,(918) 224-8441
84890,402655001391,RUSH SPRINGS MS,601 WEST BLAKLEY,RUSH SPRINGS,OK,73082,3082,(580) 476-3447
84905,400576000215,BUFFALO ES,605 SE 2ND,BUFFALO,OK,73834,3834,(580) 735-2448
85960,402529001240,HEFNER MS,8400 NORTH MACARTHUR BOULEVARD,OKLAHOMA CITY,OK,73132,3132,(405) 721-2411
87990,400363029823,WOODROW WILSON ES,245 NORTHEAST SPRUCE,BARTLESVILLE,OK,74006,4006,(918) 335-1177
88359,402754001452,SHATTUCK ES,817 EAST 3RD STREET,SHATTUCK,OK,73858,3858,(580) 938-2222
88846,403024029771,DOLORES HUERTA ES,10620 EAST 27TH STREET,TULSA,OK,74129,4129,(918) 925-1460
89741,400822000343,COLBERT MS,630 COLLIN ST,COLBERT,OK,74733,4733,(580) 296-2590
884,401353000625,GROVE UPPER ES,801 W 7TH,GROVE,OK,74344,4344,(918) 786-2297
4360,401584000744,JONES HS,304 DR LEE SIMMONS,JONES,OK,73049,3049,(405) 399-9122
5546,400077802784,OKLA. VIRTUAL CHARTER ACAD MS,1160 S DOUGLAS BLVD,MIDWEST CITY,OK,73130,3130,(405) 259-9478
5776,400079902858,DOVE SCIENCE ACADEMY HS,7124 S I-35 SERVICE RD,OKLAHOMA CITY,OK,73149,3149,(405) 636-8250
6215,400079902858,DOVE SCIENCE ACADEMY HS,7124 S 1-35 SERVICE RD,OKLAHOMA CITY,OK,73149,3149,(405) 636-8250
7549,401200000560,FORT SUPPLY ES,401 CUSTER AVE,FORT SUPPLY,OK,73841,3841,(580) 766-2611
8053,403288001813,WILSON ES,8867 CHESTNUT ROAD,HENRYETTA,OK,74437,4437,(918) 652-3375
41653,400767002398,CHOUTEAU-MAZIE EC CTR,521 NORTH MCCRACKEN,CHOUTEAU,OK,74337,4337,(918) 476-6551
43787,402358001251,PAWHUSKA ES,1700 LYNN AVENUE,PAWHUSKA,OK,74056,4056,(918) 287-1265
46680,400767000316,CHOUTEAU ES,521 NORTH MCCRACKEN,CHOUTEAU,OK,74337,4337,(918) 476-8337
47653,401995000957,DEL CITY HS,1900 S SUNNYLANE ROAD,DEL CITY,OK,73115,3115,(405) 677-5777
49633,400285002365,ALTUS INTERMEDIATE SCHOOL,1221 NORTH HOWSE STREET,ALTUS,OK,73521,3521,(580) 481-2155
97398,401908000905,MARLOW HS,510 WEST MAIN STREET,MARLOW,OK,73055,3055,(580) 658-2718
101333,401434000676,HENNESSEY LOWER ES,130 NORTH MITCHELL AVENUE,HENNESSEY,OK,73742,3742,(405) 853-4305
54108,401059010484,CROSS TIMBERS ES,4800 NORTH KELLY AVENUE,EDMOND,OK,73025,3025,(405) 340-2200
54348,400079902856,DOVE SCIENCE ACADEMY MS,919 NW 23RD ST,OKLAHOMA CITY,OK,73106,3106,(405) 524-9762
54729,401944000925,WILLIAM GAY EC CTR,600 WEST MADISON,MCALESTER,OK,74501,4501,(918) 423-6229
55490,402487001682,POTEAU UPPER ES,100 MOCKINGBIRD LANE,POTEAU,OK,74953,4953,(918) 647-7760
55663,402172002117,ALCOTT MS,1919 WEST BOYD STREET,NORMAN,OK,73069,3069,(405) 366-5845
56279,400079602832,SANTA FE SOUTH HILLS ES,301 SE 38TH ST,OKLAHOMA CITY,OK,73129,3129,(405) 606-3916
58658,400552000208,BENNETT ES,108 WEST FIFTH STREET,BROKEN BOW,OK,74728,4728,(580) 584-6440
59036,400077702741,EPIC ONE ON ONE CHARTER ES,1900 NW EXPY FLOOR R3,OKLAHOMA CITY,OK,73118,3118,(405) 749-4550
59617,403240029611,WESTVILLE HS,500 W CHINCAPIN,WESTVILLE,OK,74965,4965,(918) 723-5644
30553,401287000597,GOODWELL ES,326 EAST EAGLE BLVD,GOODWELL,OK,73939,3939,(580) 349-2271
31956,402100002666,MUSTANG CENTENNIAL ES,700 S CZECH HALL ROAD,MUSTANG,OK,73064,3064,(405) 256-6466
32304,400774000322,CLAREMORE HS,201 STUART ROOSA,CLAREMORE,OK,74017,4017,(918) 923-4211
34186,400495029693,BOKOSHE HS,30201 CHICKASAW STREET,BOKOSHE,OK,74930,4930,(918) 969-2491
34332,401218000573,FREEDOM ES,1138 EAGLE PASS,FREEDOM,OK,73842,3842,(580) 621-3271
34699,402793001481,SNYDER ES,"901 ""C"" STREET",SNYDER,OK,73566,3566,(580) 569-2691
36351,400741002745,CHEROKEE MS,412 E 5TH STREET,CHEROKEE,OK,73728,3728,(580) 596-3391
36826,400957002775,SPRING CREEK ES,15400 NORTH ROCKWELL,OKLAHOMA CITY,OK,73013,3013,(405) 340-0530
39198,401092000522,MONROE ES,400 WEST COTTONWOOD AVENUE,ENID,OK,73701,3701,(580) 366-7500
39534,401035000459,NORTHWEST HEIGHTS ES,1715 W UNIVERSITY BOULEVARD,DURANT,OK,74701,4701,(580) 924-5595
21439,401593000749,JUSTUS-TIAWAH PUBLIC SCHOOL,14902 EAST SCHOOL ROAD,CLAREMORE,OK,74019,4019,(918) 341-3626
22609,401128000539,FAIRVIEW HS,316 NORTH EIGHTH STREET,FAIRVIEW,OK,73737,3737,(580) 227-4446
29433,402508001316,PRETTY WATER PUBLIC SCHOOL,15223 WEST 81ST STREET,SAPULPA,OK,74066,4066,(918) 224-4952
72469,403099029758,VARNUM HS,11929 NS 3550,SEMINOLE,OK,74868,4868,(405) 382-1408
72575,402424001279,PLAINVIEW MS,1140 SOUTH PLAINVIEW ROAD,ARDMORE,OK,73401,3401,(580) 223-6502
75424,402277001163,MONROE ES,4810 NORTH LINN AVENUE,OKLAHOMA CITY,OK,73112,3112,(405) 587-5600
76618,402520001324,ROOSEVELT ES,401 N ELLIOTT,PRYOR,OK,74361,4361,(918) 825-3523
77573,403024001017,MAYO DEMONSTRATION ES,1127 SOUTH COLUMBIA,TULSA,OK,74104,4104,(918) 925-1500
77683,401650000767,KIEFER ES,4600 WEST 151ST STREET,KIEFER,OK,74041,4041,(918) 321-5444
78128,401473000693,HODGEN PUBLIC SCHOOL,20520 SCHOOL HOUSE RD,HODGEN,OK,74939,4939,(918) 653-4476
61854,402025002214,BRINK JHS,11420 SOUTH WESTERN AVENUE,OKLAHOMA CITY,OK,73170,3170,(405) 735-4540
62315,401059001946,JOHN ROSS ES,1901 THOMAS DRIVE,EDMOND,OK,73003,3003,(405) 340-2970
63209,401671002360,KONAWA MS,701 WEST SOUTH STREET,KONAWA,OK,74849,4849,(580) 925-3221
63632,400669000261,CARNEY ES,204 SOUTH CARNEY STREET,CARNEY,OK,74832,4832,(405) 865-2344
64386,402322001232,OSAGE HILLS PUBLIC SCHOOL,225 COUNTRY ROAD 2706,BARTLESVILLE,OK,74003,4003,(918) 336-6804
64733,402691001419,LIBERTY ES,631 NORTH BROWN,SAPULPA,OK,74066,4066,(918) 224-1492
65505,401065002103,LESLIE F ROBLYER LEARNING CTR,427 SW 27TH,EL RENO,OK,73036,3036,(405) 262-2700
67094,402172001085,WHITTIER MS,2000 WEST BROOKS STREET,NORMAN,OK,73069,3069,(405) 366-5956
67215,402160001061,NINNEKAH ES,810 E DELL STREET,NINNEKAH,OK,73067,3067,(405) 222-0420
68707,400738000293,CHELSEA HS,801 W 6TH,CHELSEA,OK,74016,4016,(918) 789-2533
69529,400306000058,BRANTLY ES,304 NE A ST,ANTLERS,OK,74523,4523,(580) 298-3108
30073,403024001649,MCLAIN HS FOR SCIENCE AND TECH,4929 NORTH PEORIA AVENUE,TULSA,OK,74126,4126,(918) 833-8500
31084,402742001448,SHADY GROVE PUBLIC SCHOOL,11042 WEST SHADY GROVE ROAD,HULBERT,OK,74441,4441,(918) 772-2511
34648,400549029804,LEISURE PARK ES,4300 SOUTH JUNIPER PLACE,BROKEN ARROW,OK,74011,4011,(918) 259-4420
35275,401035002112,DURANT INTERMEDIATE ES,1314 WACO STREET,DURANT,OK,74701,4701,(580) 924-1397
36500,402043001012,MOSELEY PUBLIC SCHOOL,7904 NORTH MOSELEY ROAD,COLCORD,OK,74338,4338,(918) 505-1000
38597,401809000870,LONE GROVE INTERMEDIATE SCHOOL,16877 US HIGHWAY 77,LONE GROVE,OK,73443,3443,(580) 657-3131
642,400078902813,OYA CHARTER TECUMSEH 9TH-12TH,700 S 9TH ST,TECUMSEH,OK,74873,4873,(405) 598-4143
2974,402520001322,PRYOR HS,1100 S E 9TH,PRYOR,OK,74361,4361,(918) 825-2340
3134,401485000700,HOLLIS HS,415 N MAIN SREET,HOLLIS,OK,73550,3550,(580) 706-6400
3381,402817001490,SPERRY HS,400 WEST MAIN STREET,SPERRY,OK,74073,4073,(918) 288-7213
5666,403024002281,THOREAU DEMONSTRATION ACADEMY,7370 EAST 71ST STREET,TULSA,OK,74133,4133,(918) 833-9700
6599,400079602848,SANTA FE SOUTH EARLY CHILDHOOD,2222 SW 44TH ST,OKLAHOMA CITY,OK,73119,3119,(405) 600-1986
9558,402964029651,TEMPLE HS,206 SCHOOL RD,TEMPLE,OK,73568,3568,(580) 342-6221
9869,401725000833,WASHINGTON ES,805 NORTHWEST COLUMBIA AVENUE,LAWTON,OK,73507,3507,(580) 353-6299
20205,403330001835,WYNNEWOOD MS,601 E CHEROKEE ST,WYNNEWOOD,OK,73098,3098,(405) 665-4105
20948,400007602349,OKLAHOMA SCHL FOR THE BLIND ES,3300 GIBSON STREET,MUSKOGEE,OK,74403,4403,(918) 781-8200
21422,402559001366,RED OAK HS,404 NORTH MAIN,RED OAK,OK,74563,4563,(918) 754-2283
21954,402469002288,PONCA CITY EAST MS,612 EAST GRAND,PONCA CITY,OK,74601,4601,(580) 767-8010
22814,403321001829,WRIGHT CITY ES,207 W 6TH ST,WRIGHT CITY,OK,74766,4766,(580) 981-2248
23835,401362000645,HAILEYVILLE HS,3RD & RILEY STREET,HAILEYVILLE,OK,74546,4546,(918) 297-2626
24970,402688001932,ANGUS VALLEY ES,412 WEST 55TH STREET,SAND SPRINGS,OK,74063,4063,(918) 246-1520
26520,400255000015,AGRA ES,112 SOUTH MAIN,AGRA,OK,74824,4824,(918) 375-2261
27856,400255000015,AGRA ES,112 SOUTH MAIN,AGRA,OK,74824,4824,(918) 375-2261
29585,402259001105,OKARCHE HS,632 WEST OKLAHOMA AVENUE,OKARCHE,OK,73762,3762,(405) 263-7212
11085,402328029812,PAMELA HODSON ES,14500 E 86TH ST N,OWASSO,OK,74055,4055,(918) 272-8160
13226,402865001502,STIGLER ES,309 NORTHWEST 'E' STREET,STIGLER,OK,74462,4462,(918) 967-8835
13298,400285000033,RIVERS ES,3000 NORTH VETERANS DRIVE,ALTUS,OK,73521,3521,(580) 481-2183
73246,400549001460,COUNTRY LANE PRIMARY ES,301 EAST OMAHA STREET,BROKEN ARROW,OK,74012,4012,(918) 259-4400
75702,403165029708,WARNER HS,1012 5TH AVE,WARNER,OK,74469,4469,(918) 463-5172
77425,401350000624,GROVE PUBLIC SCHOOL,2800 NORTH BRYAN AVENUE,SHAWNEE,OK,74804,4804,(405) 275-7435
78956,403004829729,WOODLAND UPPER ES,100 NORTH 6TH STREET,FAIRFAX,OK,74637,4637,(918) 738-4286
43180,402943001549,TALOGA ES,500 WEST RUBLE,TALOGA,OK,73667,3667,(580) 328-5586
45348,403318029838,WOODWARD HS,2406 13TH STREET,WOODWARD,OK,73802,3802,(580) 256-5329
47364,403354001852,ZANEIS PUBLIC SCHOOL,30515 US HIGHWAY 70,WILSON,OK,73463,3463,(580) 668-2955
47708,402307001230,OPTIMA PUBLIC SCHOOL,107 E 5TH,OPTIMA,OK,73945,3945,(580) 338-6712
48294,402547001357,CANEY VALLEY HS,696 WYANDOTTE AVE,RAMONA,OK,74061,4061,(918) 536-3425
48986,402529001339,LAKE PARK ES,8221 NORTHWEST 30TH STREET,BETHANY,OK,73008,3008,(405) 789-7068
80457,402172001082,NORMAN HS,911 WEST MAIN STREET,NORMAN,OK,73069,3069,(405) 366-5812
87184,401389001862,VIRGINIA SMITH ES,20227 NORTHEAST TENTH STREET,HARRAH,OK,73045,3045,(405) 347-2400
87434,400612000107,CACHE INTERMEDIATE ES,304 SW H AVE,CACHE,OK,73527,3527,(580) 429-8536
89180,400546000196,COLLINS ES,811 NORTH ASH,BRISTOW,OK,74010,4010,(918) 367-5551
89825,401728000840,LEFLORE ES,43172 SOUTH BOOTH AVENUE,LEFLORE,OK,74942,4942,(918) 753-2345
50458,402025002070,WESTMOORE HS,12613 SOUTH WESTERN AVENUE,OKLAHOMA CITY,OK,73170,3170,(405) 735-4800
51929,403279001810,WILBURTON ES,301 WEST CADDO,WILBURTON,OK,74578,4578,(918) 465-2245
52700,400780000328,CLAYTON HS,304 N 1ST ST,CLAYTON,OK,74536,4536,(918) 569-4156
54102,400681002816,CASHION MS,101 NORTH EUCLID,CASHION,OK,73016,3016,(405) 433-2614
54317,402277001119,CAPITOL HILL HS,500 SW 36TH STREET,OKLAHOMA CITY,OK,73109,3109,(405) 587-9000
55425,402277001143,HAWTHORNE ES,2300 NORTHWEST 15TH STREET,OKLAHOMA CITY,OK,73107,3107,(405) 587-5900
58181,401659001948,KINGSTON MS,400 NE 3RD,KINGSTON,OK,73439,3439,(580) 564-2996
58431,400549000200,CENTENNIAL MS,225 EAST OMAHA STREET,BROKEN ARROW,OK,74012,4012,(918) 259-4340
90456,401848000880,LOWREY PUBLIC SCHOOL,21132 EAST 640 ROAD,TAHLEQUAH,OK,74464,4464,(918) 456-4053
95156,403024001675,DANIEL WEBSTER HS,1919 WEST 40TH STREET,TULSA,OK,74107,4107,(918) 746-8000
97884,400582000217,BUFFALO VALLEY ES,4384 SOUTHEAST HIGHWAY 63,TALIHINA,OK,74571,4571,(918) 522-4426
97908,402355001870,PAULS VALLEY HS,601 NORTH STREET,PAULS VALLEY,OK,73075,3075,(405) 238-6497
97909,402380002379,PERKINS-TRYON MS,390 W KENWORTHY,PERKINS,OK,74059,4059,(405) 547-5715
62344,402100002786,PRAIRIE VIEW ES,9201 SW 59TH STREET,OKLAHOMA CITY,OK,73179,3179,(405) 256-6989
63007,402097001044,WHITTIER ES,1705 CINCINNATI,MUSKOGEE,OK,74403,4403,(918) 684-3800
69137,402517001318,PRUE ES,104 BROADWAY,PRUE,OK,74060,4060,(918) 242-3385
69304,402532001351,QUAPAW HS,305 WEST FIRST STREET,QUAPAW,OK,74363,4363,(918) 674-2474
100357,401092002700,EMERSON MS,700 WEST ELM AVENUE,ENID,OK,73701,3701,(580) 366-7250
101227,401938029669,MAYSVILLE HS,600 FIRST STREET,MAYSVILLE,OK,73057,3057,(405) 867-4410
102149,403360001853,ZION PUBLIC SCHOOL,470658 E 850 ROAD,STILWELL,OK,74960,4960,(918) 696-7866
102781,400549002923,ROSEWOOD ES,4300 E GARY ST,BROKEN ARROW,OK,74014,5910,(918) 259-5700
106026,400078302917,ASTEC CHARTER ES,2600 GENERAL PERSHING BLVD,OKLAHOMA CITY,OK,73107,3107,(405) 947-6272
106032,402100002871,RIVERWOOD ES,11800 SW 44TH STREET,MUSTANG,OK,73064,3064,(405) 256-5200
106040,403348002914,REDSTONE INTERMEDIATE SCHOOL,11501 W BRITTON RD,OKLAHOMA CITY,OK,73099,3099,(405) 265-4431
107253,403024002870,GREENWOOD LEADERSHIP ACADEMY,1789 W SEMINOLE ST,TULSA,OK,74127,4127,(918) 833-8760
41613,402277001877,CLASSEN MS OF ADVANCED STUDIES,1901 NORTH ELLISON AVENUE,OKLAHOMA CITY,OK,73106,3106,(405) 587-5400
43140,401197001995,FORT GIBSON EARLY LRNING CTR,500 SOUTH ROSS AVENUE,FORT GIBSON,OK,74434,4434,(918) 478-4841
43290,403222001784,WELEETKA HS,302 E 6TH ST,WELEETKA,OK,74880,4880,(405) 786-2203
43715,403024002352,HENRY ZARROW INTERNATIONAL SCH,3613 SOUTH HUDSON AVENUE,TULSA,OK,74135,4135,(918) 746-9180
43815,401725000801,CARRIAGE HILLS ES,215 SOUTHEAST WARWICK WAY,LAWTON,OK,73501,3501,(580) 248-6161
43826,400483002082,BLUEJACKET MS,276 NE THIRD,BLUEJACKET,OK,74333,4333,(918) 784-2133
46341,401572002251,JENKS WEST INTERMEDIATE ES,909 W ADAM,JENKS,OK,74037,4037,(918) 299-4415
46584,400291029680,AMBER-POCASSET HS,401 EAST MAIN STREET,AMBER,OK,73004,3004,(405) 224-5768
47514,400450000148,BIXBY HS,601 SOUTH RIVERVIEW,BIXBY,OK,74008,4008,(918) 366-2234
48245,402553001364,RAVIA PUBLIC SCHOOL,305 NORTH MILL STREET,RAVIA,OK,73455,3455,(580) 371-9163
49858,402529001342,PUTNAM CITY HS,5300 NORTHWEST 50TH STREET,OKLAHOMA CITY,OK,73122,3122,(405) 789-4350
35978,402172002000,LAKEVIEW ES,3310 108TH AVENUE NORTHEAST,NORMAN,OK,73071,3071,(405) 366-5899
38778,400001501659,THOMAS-FAY-CUSTER UNIFIED HS,920 NORTH MAIN,THOMAS,OK,73669,3669,(580) 661-3522
55179,400591000221,BURLINGTON HS,401 MAIN STREET,BURLINGTON,OK,73722,3722,(580) 431-2222
58273,400321002798,ARKOMA JHS,100 BLOCKER AVE,ARKOMA,OK,74901,4901,(918) 875-3351
59037,400549002796,BROKEN ARROW FRESHMAN ACADEMY,301 W NEW ORLEANS,BROKEN ARROW,OK,74011,4011,(918) 259-4330
20209,400552000211,RECTOR JOHNSON MS,108 WEST FIFTH STREET,BROKEN BOW,OK,74728,4728,(580) 584-9603
24071,402938001542,GREENWOOD ES,400 E ROSS,TAHLEQUAH,OK,74464,4464,(918) 458-4120
26674,403036001690,TUSHKA ES,2661 W BOGGY DEPOT ROAD,ATOKA,OK,74525,6842,(580) 889-7355
83843,401359002108,NORTH PARK ES,1400 NORTH CRUMLEY,GUYMON,OK,73942,3942,(580) 338-4390
84342,403060002400,ROSA PARKS ES,13702 EAST 46 PLACE SOUTH,TULSA,OK,74134,4134,(918) 357-2757
85728,400393000123,BENNINGTON ES,729 NORTH PERRY STREET,BENNINGTON,OK,74723,4723,(580) 847-2310
88259,403348001848,SURREY HILLS ES,10700 HASTINGS AVENUE,YUKON,OK,73099,3099,(405) 373-1973
67095,400909000385,CROWDER HS,400 BOND STREET,CROWDER,OK,74430,4430,(918) 334-3203
67199,402529001871,PUTNAM CITY NORTH HS,11800 NORTH ROCKWELL AVENUE,OKLAHOMA CITY,OK,73162,3162,(405) 722-4220
67692,403243001796,WETUMKA ES,416 SOUTH TIGER STREET,WETUMKA,OK,74883,4883,(405) 452-3245
68161,401059000472,CLEGERN ES,601 SOUTH JACKSON STREET,EDMOND,OK,73034,3034,(405) 340-2955
68754,400288000041,ALVA MS,800 FLYNN STREET,ALVA,OK,73717,3717,(580) 327-0608
69729,402688001412,LIMESTONE ES,4201 SOUTH WALNUT CREEK DRIVE,SAND SPRINGS,OK,74063,4063,(918) 246-1560
92192,401389000655,HARRAH HS,20370 ELM STREET,HARRAH,OK,73045,3045,(405) 347-2100
93177,400435000138,BIG PASTURE ES,1502 N 10TH ST,RANDLETT,OK,73562,3562,(580) 281-3460
93388,402025002707,OAKRIDGE ES,3201 SOUTH SANTA FE,MOORE,OK,73160,3160,(405) 735-4530
95330,402025002395,SOUTHMOORE HS,2901 SOUTH SANTA FE,MOORE,OK,73170,3170,(405) 735-4900
97287,400351000089,BALKO ES,RURAL ROUTE 1 # 37,BALKO,OK,73931,3931,(580) 646-3385
97553,401617000154,KELLYVILLE MS,14959 MAPLE DRIVE,KELLYVILLE,OK,74039,4039,(918) 247-6133
98286,400762000313,NICOMA PARK INTERMEDIATE ES,1318 HICKMAN AVENUE,CHOCTAW,OK,73020,3020,(405) 390-6390
75968,403019701304,PORTER CONSOLIDATED ES,125 SOUTH MAIN,PORTER,OK,74454,4454,(918) 483-5231
76779,400549029802,HIGHLAND PARK ES,7200 EAST QUINCY PLACE,BROKEN ARROW,OK,74014,4014,(918) 505-5930
77857,401074000496,ELK CITY MS,400 N BOONE,ELK CITY,OK,73644,3644,(580) 225-5043
78172,400007502347,OKLAHOMA SCHOOL FOR THE DEAF,1100 EAST OKLAHOMA AVENUE,SULPHUR,OK,73086,3086,(580) 622-4900
100761,401059029716,SUMMIT MS,1703 NORTHWEST 150TH STREET,EDMOND,OK,73013,3013,(405) 340-2920
101552,403006001574,TISHOMINGO MS,308 E NEIL ARMSTRONG,TISHOMINGO,OK,73460,3460,(580) 371-9190
102779,400450002925,WEST ELEMENTARY,14901 S HARVARD AVE,BIXBY,OK,74008,4008,(918) 366-1762
86,400079302818,COLLEGIATE HALL CHARTER SCHOOL,1110 E 45TH PL,TULSA,OK,74105,4105,(918) 925-1620
1770,400801000330,CLEORA PUBLIC SCHOOL,451358 EAST 295 ROAD,AFTON,OK,74331,8113,(918) 256-6401
4111,402880002389,MCLISH MS,20650 COUNTY ROAD 3590,STONEWALL,OK,74871,4871,(580) 232-1020
4529,403024001608,THOMAS EDISON PREPARATORY HS,2906 EAST 41ST STREET,TULSA,OK,74105,4105,(918) 746-8500
4774,402904001524,STROTHER HS,36085 EW 1140,SEMINOLE,OK,74868,4868,(405) 382-4014
4992,401725001975,PAT HENRY ES,1401 NORTHWEST BESSIE AVENUE,LAWTON,OK,73507,3507,(580) 355-2617
5978,400080002863,EPIC BLENDED CHARTER OKC ES,1900 NW EXPY FLOOR R3,OKLAHOMA CITY,OK,73118,3118,(405) 749-4550
7515,401725000805,CROSBY PARK ES,1602 NW HORTON BLVD,LAWTON,OK,73505,3505,(580) 353-7107
8641,400003202283,HYDRO-EAKLY ES,407 EAST SEVENTH STREET,HYDRO,OK,73048,3048,(405) 663-2246
9858,403150001744,WANETTE ES,502 NORTH MARTIN,WANETTE,OK,74878,4878,(405) 383-2222
10778,402757001458,HORACE MANN ES,412 NORTH DRAPER STREET,SHAWNEE,OK,74801,4801,(405) 273-1806
13625,403024029799,DISNEY ES,11702 EAST 25TH STREET,TULSA,OK,74129,4129,(918) 925-1480
16896,401956000933,MCLOUD JHS,1100 SEIKEL,MCLOUD,OK,74851,4851,(405) 964-3314
18990,402871001513,STILWELL MS,12 NORTH SEVENTH STREET,STILWELL,OK,74960,4960,(918) 696-2685
3205,400549002781,CREEKWOOD EARLY CHILDHOOD CTR,1351 E ALBANY ST,BROKEN ARROW,OK,74012,4012,(918) 505-5280
6169,400079902857,DOVE SCIENCE ACADEMY ES,4901 N LINCOLN BLVD,OKLAHOMA CITY,OK,73105,3105,(405) 605-5566
8527,403024029783,KEY ES,5702 SOUTH IRVINGTON AVENUE,TULSA,OK,74135,4135,(918) 833-9480
9017,402904001523,STROTHER ES,36085 EW 1140,SEMINOLE,OK,74868,4868,(405) 382-4014
9775,403240001794,WESTVILLE ES,500 W CHINCAPIN,WESTVILLE,OK,74965,4965,(918) 723-4355
61766,401659000774,KINGSTON HS,400 NE 3RD,KINGSTON,OK,73439,3439,(580) 564-2384
62268,403228001786,WELLSTON ES,500 HAYES DRIVE,WELLSTON,OK,74881,4881,(405) 356-2256
63079,403195001763,WAUKOMIS ES,209 WEST LOCUST,WAUKOMIS,OK,73773,3773,(580) 758-3264
63500,403324029731,WYANDOTTE HS,5 SOUTH 1ST STREET,WYANDOTTE,OK,74370,4370,(918) 678-2222
66948,402868029736,SKYLINE ES,1402 EAST SUNRISE,STILLWATER,OK,74075,4075,(405) 533-6390
67109,400300000050,ANADARKO HS,1400 WARRIOR DRIVE,ANADARKO,OK,73005,3005,(405) 247-2486
67256,403087029700,VALLIANT HS,604 EAST LUCAS STREET,VALLIANT,OK,74764,4764,(580) 933-7292
69435,402985001564,THACKERVILLE ES,18943 US HWY 77,THACKERVILLE,OK,73459,3459,(580) 276-9655
69740,402733001443,MCMURRAY ES,708 E WASHINGTON,SENTINEL,OK,73664,3664,(580) 393-4997
69825,400363001962,RICHARD KANE ES,801 EAST 13TH STREET,BARTLESVILLE,OK,74003,4003,(918) 337-3711
12114,402580001371,REYDON HS,205 4TH AVE,REYDON,OK,73660,3660,(580) 655-4375
15160,400549029849,WOLF CREEK ES,3000 WEST NEW ORLEANS STREET,BROKEN ARROW,OK,74011,4011,(918) 259-4510
15776,403024029774,ELIOT ES,1442 EAST 36TH STREET,TULSA,OK,74105,4105,(918) 746-8700
16063,402793001482,SNYDER HS,515 9TH STREET,SNYDER,OK,73566,3566,(580) 569-2730
16251,403036029613,TUSHKA HS,2661 W BOGGY DEPOT ROAD,ATOKA,OK,74525,6842,(580) 889-7355
18314,402523001327,PURCELL ES,809 NORTH NINTH AVENUE,PURCELL,OK,73080,3080,(405) 442-0099
19629,402154001059,NEWKIRK ES,701 WEST SOUTH STREET,NEWKIRK,OK,74647,4647,(580) 362-2279
44161,401206000562,FOX ES,100 CREEK AVE,FOX,OK,73435,3435,(580) 366-0301
48394,402529001331,CENTRAL ES,5721 NORTHWEST 39TH STREET,WARR ACRES,OK,73122,3122,(405) 789-5696
30761,403024029794,SALK ES,7625 EAST 58TH STREET,TULSA,OK,74145,4145,(918) 833-9500
30808,400648000254,CANTON HS,HIGHWAY 58 SOUTH,CANTON,OK,73724,3724,(580) 886-2256
30820,403027001683,TUPELO ES,200 SOUTH 7TH,TUPELO,OK,74572,4572,(580) 845-2802
38411,402871001512,STILWELL HS,1801 WEST LOCUST STREET,STILWELL,OK,74960,4960,(918) 696-7276
39354,402916002703,SULPHUR MS,1021 WEST NINTH STREET,SULPHUR,OK,73086,3086,(580) 622-4010
39644,400774000325,WESTSIDE ES,2600 HOLLY ROAD,CLAREMORE,OK,74017,4017,(918) 923-4201
55662,400001401582,BURNS FLAT-DILL CITY HS,306 SOUTH HWY 44,BURNS FLAT,OK,73624,3624,(580) 562-4846
57531,402277001178,RANCHO VILLAGE ES,1401 JOHNSTON DRIVE,OKLAHOMA CITY,OK,73119,3119,(405) 587-9700
91439,400627000244,CALVIN HS,229 THIRD STREET,CALVIN,OK,74531,4531,(405) 645-2411
93074,400363029825,MADISON MS,500 SE MADISON BLVD,BARTLESVILLE,OK,74006,4006,(918) 333-4444
93157,400321000075,SINGLETON ES,620 COOK ST,ARKOMA,OK,74901,4901,(918) 875-3835
95012,400549002362,LIBERTY ES,4300 SOUTH 209TH EAST AVENUE,BROKEN ARROW,OK,74014,4014,(918) 259-4470
98059,401572000739,JENKS HS,205 EAST B STREET,JENKS,OK,74037,4037,(918) 299-4411
99486,403019701305,PORTER CONSOLIDATED HS,125 SOUTH MAIN,PORTER,OK,74454,4454,(918) 483-7011
20242,403171001755,WASHINGTON HS,101 EAST KERBY,WASHINGTON,OK,73093,3093,(405) 288-2354
20829,402868029741,STILLWATER JHS,1900 NORTH SKYLINE STREET,STILLWATER,OK,74075,4075,(405) 533-6420
23040,400981000425,DEWEY ES,ONE BULLDOGGER ROAD,DEWEY,OK,74029,4029,(918) 534-3800
24303,403336001838,YALE ES,800 NORTH C STREET,YALE,OK,74085,4085,(918) 387-2428
26284,402898001519,STRATFORD ES,241 NORTH OAK STREET,STRATFORD,OK,74872,4872,(580) 759-2382
26285,401941000916,MCCURTAIN HS,HWY 26 & COLE STREET,MCCURTAIN,OK,74944,4944,(918) 945-7237
28298,403228029696,WELLSTON MS,700 BIRCH,WELLSTON,OK,74881,4881,(405) 356-2533
28569,400552029704,DIERKS ES,108 WEST FIFTH STREET,BROKEN BOW,OK,74728,4728,(580) 584-2765
81662,402865001503,STIGLER HS,309 NORTHWEST 'E' STREET,STIGLER,OK,74462,4462,(918) 967-8834
82128,401995002660,JARMAN MS,5 W MACARTHUR DRIVE,MIDWEST CITY,OK,73110,3110,(405) 739-1771
82271,403060001704,UNION HS,6636 SOUTH MINGO ROAD,TULSA,OK,74133,4133,(918) 357-4323
82487,403297001818,WISTER HS,201 LOGAN STREET,WISTER,OK,74966,4966,(918) 655-7276
83159,402451029667,PIONEER-PLEASANT VALE JHS,6520 EAST WOOD ROAD,WAUKOMIS,OK,73773,3773,(580) 758-3282
83247,401197000558,FORT GIBSON HS,500 SOUTH ROSS AVENUE,FORT GIBSON,OK,74434,4434,(918) 478-2452
87413,400423000133,BETHEL HS,36000 CLEARPOND ROAD,SHAWNEE,OK,74801,4801,(405) 273-3633
88189,400243000725,ADA JHS,223 WEST 18TH STREET,ADA,OK,74820,4820,(580) 310-7260
73908,403270001806,WHITEFIELD PUBLIC SCHOOL,107 SOUTH REDDING,WHITEFIELD,OK,74472,4472,(918) 967-8572
73963,403024001636,LEWIS AND CLARK ES,737 SOUTH GARNETT ROAD,TULSA,OK,74128,4128,(918) 746-9540
77506,400513000180,BOWLEGS HS,100 BISON DR,BOWLEGS,OK,74830,4830,(405) 398-4321
79012,402034001011,MORRISON HS,2ND STREET & C AVENUE,MORRISON,OK,73061,3061,(580) 724-3307
79871,403099001717,VARNUM ES,11929 NS 3550,SEMINOLE,OK,74868,4868,(405) 382-0812
100508,400078102305,INDEPENDENCE CHARTER MS,3232 NW 65TH STREET,OKLAHOMA CITY,OK,73116,3116,(405) 767-3000
102772,400080402899,ESCHOOL VIRTUAL CHARTER HS,2403 S DIVISION SUITE B,GUTHRIE,OK,73044,3044,(405) 724-4643
107246,402277002910,PUTNAM HEIGHTS ACADEMY MS,1601 NORTHWEST 36TH STREET,OKLAHOMA CITY,OK,73118,3118,(405) 587-2700
31728,401200000561,FORT SUPPLY HS,401 CUSTER AVE,FORT SUPPLY,OK,73841,3841,(580) 766-2611
31850,402931001539,SWEETWATER HS,11107 NORTH HIGHWAY 30,SWEETWATER,OK,73666,3666,(580) 534-2272
32085,402064002092,MOYERS HS,100 COBB RIDGE ROAD,MOYERS,OK,74557,4557,(580) 298-6951
38966,403004829728,WOODLAND ES,100 NORTH 6TH STREET,FAIRFAX,OK,74637,4637,(918) 642-3295
13122,403207029848,WEATHERFORD MS,509 NORTH CUSTER STREET,WEATHERFORD,OK,73096,3096,(580) 772-2270
17147,401050000469,EARLSBORO ES,100 EAST MAIN,EARLSBORO,OK,74840,4840,(405) 997-5312
17963,400627000243,CALVIN ES,229 THIRD STREET,CALVIN,OK,74531,4531,(405) 645-2411
18012,401059000483,WILL ROGERS ES,1215 EAST NINTH STREET,EDMOND,OK,73034,3034,(405) 340-2995
18825,403024000989,EISENHOWER INTERNATIONAL ES,3111 EAST 56 STREET,TULSA,OK,74105,4105,(918) 746-9100
66435,400987000426,DIBBLE ES,22092 OLD TOWN 1ST,BLANCHARD,OK,73010,3010,(405) 344-6868
67074,401116002346,EUFAULA MS,1711 W JM BAILEY HWY,EUFAULA,OK,74432,4432,(918) 689-2711
69498,401887000896,MANNSVILLE PUBLIC SCHOOL,509 EAST SCHOOL STREET,MANNSVILLE,OK,73447,3447,(580) 371-2892
21789,400285000039,ALTUS EARLY CHILDHOOD CENTER,1100 N FORREST,ALTUS,OK,73521,3521,(580) 481-2151
22756,403024029784,LANIER ES,1727 SOUTH HARVARD AVENUE,TULSA,OK,74112,4112,(918) 833-9380
24412,402277001152,KAISER ES,3101 LYON BOULEVARD,OKLAHOMA CITY,OK,73112,3112,(405) 587-3600
27476,400549002777,ASPEN CREEK ES,2800 WEST FLORENCE,BROKEN ARROW,OK,74011,4011,(918) 259-4410
27911,402337001987,PANAMA MS,801 NORTH MISSOURI,PANAMA,OK,74951,4951,(918) 963-0406
27954,402628001383,ROFF HS,100 N BROADWAY,ROFF,OK,74865,4865,(580) 456-7252
28995,401995002661,DEL CREST MS,4731 JUDY DRIVE,DEL CITY,OK,73115,3115,(405) 671-8615
29046,402025001000,PLAZA TOWERS ES,852 SOUTHWEST 11TH STREET,MOORE,OK,73160,3160,(405) 735-4430
91362,401059000478,NORTHERN HILLS ES,901 EAST WAYNE STREET,EDMOND,OK,73034,3034,(405) 340-2975
94134,401092000515,GLENWOOD ES,824 NORTH OAKWOOD ROAD,ENID,OK,73703,3703,(580) 366-7800
94208,402529001343,PUTNAM CITY WEST HS,8500 NORTHWEST 23RD STREET,OKLAHOMA CITY,OK,73127,3127,(405) 787-1140
95282,400939001994,DALE HS,300 SMITH AVENUE,DALE,OK,74851,4851,(405) 964-5555
95467,403024029767,TULSA MET JHS,6201 EAST VIRGIN STREET,TULSA,OK,74115,4115,(918) 746-9300
96247,400078602800,OKLAHOMA CONNECTIONS ACAD MS,2425 NOWATA PL,BARTLESVILLE,OK,74006,4006,(918) 977-3285
96279,401209000564,FOYIL ES,1700 EAST 4TH STREET,FOYIL,OK,74031,4031,(918) 342-3310
97257,403219001781,WELCH ES,707 S CURTIS ST,WELCH,OK,74369,4369,(918) 788-3129
97910,400924000387,CUSHING HS,1700 EAST WALNUT STREET,CUSHING,OK,74023,4023,(918) 225-6622
99768,403165001750,WARNER ES,1012 5TH AVE,WARNER,OK,74469,4469,(918) 463-2950
99792,402730001441,SEMINOLE MS,618 MIKE SNYDER AVE,SEMINOLE,OK,74818,4818,(405) 382-5065
52457,400243000008,WILLARD ES,817 EAST NINTH STREET,ADA,OK,74820,4820,(580) 310-7250
54105,400837002824,HERALD ES,12918 NORTH 129TH E AVE,COLLINSVILLE,OK,74021,4021,(918) 371-4173
54888,400357000093,BARNSDALL JHS,200 S 8TH ST,BARNSDALL,OK,74002,4002,(918) 847-2721
80821,403129001733,VINITA ES,101 S SMITH,VINITA,OK,74301,4301,(918) 256-5350
87245,402277001866,CLEVELAND ES,2725 NORTHWEST 23RD STREET,OKLAHOMA CITY,OK,73107,3107,(405) 587-8200
88250,402277001168,NORTHWEST CLASSEN HS,2801 NORTHWEST 27TH STREET,OKLAHOMA CITY,OK,73107,3107,(405) 587-6300
88274,400771000508,CIMARRON ES,3RD & MAIN,LAHOMA,OK,73754,3754,(580) 796-2205
88608,402757001459,JEFFERSON ES,800 NORTH LOUISA STREET,SHAWNEE,OK,74801,4801,(405) 273-1846
70741,401362000644,HAILEYVILLE ES,3RD & RILEY STREET,HAILEYVILLE,OK,74546,4546,(918) 297-2626
71251,402277002407,JOHN MARSHALL HS,12201 NORTH PORTLAND AVENUE,OKLAHOMA CITY,OK,73120,3120,(405) 587-7200
72344,401125000534,FAIRLAND ES,202 WEST WASHINGTON AVENUE,FAIRLAND,OK,74343,4343,(918) 676-3224
75982,400279000027,ALLEN-BOWDEN PUBLIC SCHOOL,7049 FRANKOMA ROAD,TULSA,OK,74131,4131,(918) 224-4440
76422,402586001372,RINGLING ES,706 UNIT C N 5TH STREET,RINGLING,OK,73456,3456,(580) 662-2388
78127,402100001048,MUSTANG VALLEY ES,3001 S MORGAN ROAD,OKLAHOMA CITY,OK,73179,3179,(405) 324-2541
7699,403087001712,VALLIANT MS,604 EAST LUCAS STREET,VALLIANT,OK,74764,4764,(580) 933-4253
9619,400001301101,TIMBERLAKE HS,601 N MAIN,HELENA,OK,73741,3741,(580) 852-3281
42989,400978000420,DEWAR ES,204 EAST 5TH STREET,DEWAR,OK,74431,4431,(918) 652-2184
45025,402694001427,SASAKWA HS,106 NORTH OLIVE,SASAKWA,OK,74867,4867,(405) 941-3250
46668,403339001840,YARBROUGH ES,8 MI S ON HWY 95,GOODWELL,OK,73939,3939,(580) 545-3327
48947,401950000928,MCCORD PUBLIC SCHOOL,977 SOUTH MCCORD ROAD,PONCA CITY,OK,74604,4604,(580) 765-8806
49632,403294001815,WILSON ES,1860 HEWITT ROAD,WILSON,OK,73463,3463,(580) 668-2306
102776,400080502898,SOVEREIGN COMMUNITY SCHL HS,12600 N KELLEY AVENUE,OKLAHOMA CITY,OK,73131,3131,(405) 639-9416
102792,402277002891,MARY GOLDA ROSS MS,2601 SOUTH VILLA,OKLAHOMA CITY,OK,73108,3108,(405) 587-8700
107251,402487002915,7TH AND 8TH GRADE ACADEMIC CTR,100 MOCKINGBIRD LANE,POTEAU,OK,74953,4953,(918) 647-7743
80706,402172001073,IRVING MS,125 VICKSBURG AVENUE,NORMAN,OK,73071,3071,(405) 366-5941
83994,402541001353,QUINTON ES,710 N J STREET,QUINTON,OK,74561,4561,(918) 469-3313
84166,402265000054,OKEENE JR-SR HS (JR),301 NORTH MAIN,OKEENE,OK,73763,3763,(580) 822-3219
84798,402025000998,MOORE HS,300 NORTH EASTERN AVENUE,MOORE,OK,73160,3160,(405) 735-4700
85621,400987029698,DIBBLE HS,22092 OLD TOWN 1ST,BLANCHARD,OK,73010,3010,(405) 344-6380
86425,402010000983,MINCO ES,304 SW 7TH STREET,MINCO,OK,73059,3059,(405) 352-4204
88207,402730029757,SEMINOLE HS,2703 HWY 9 WEST,SEMINOLE,OK,74818,4818,(405) 382-1415
88280,402154002071,NEWKIRK HS,625 WEST SOUTH STREET,NEWKIRK,OK,74647,4647,(580) 362-6241
92094,400363029823,WOODROW WILSON ES,245 NORTHEAST SPRUCE,BARTLESVILLE,OK,74006,4006,(918) 335-1177
95121,403273001807,WHITESBORO ES,35069 ST HWY 63,WHITESBORO,OK,74577,4577,(918) 567-3016
96245,400078002744,KIPP TULSA ACAD. COLLEGE PREP.,1661 E VIRGIN STREET,TULSA,OK,74106,4106,(918) 794-8652
96246,400078602793,OKLAHOMA CONNECTIONS ACAD ES,2425 NOWATA PL,BARTLESVILLE,OK,74006,4006,(918) 977-3285
101632,401512000708,HOWE ES,21444 E N RAILROAD STREET,HOWE,OK,74940,4940,(918) 658-3508
102783,401059002913,REDBUD ES (OPEN 2021-22),3800 N DOUGLAS BLVD,EDMOND,OK,73013,NOT AVAILABLE,(405) 340-2828
106039,403195002902,WAUKOMIS MS,209 W LOCUST,WAUKOMIS,OK,73773,3773,(580) 758-3264
107252,402764002884,SILO EARLY CHILDHOOD CENTER,122 WEST BOURNE STREET,DURANT,OK,74701,4701,(580) 924-7001
50405,401263000589,GERONIMO ES,225 IOWA ST,GERONIMO,OK,73543,3543,(580) 353-0882
50781,400450002748,CENTRAL INTERMEDIATE SCHOOL,9401 E 161ST ST,BIXBY,OK,74008,4008,(918) 366-2248
52428,403024029772,COOPER ES,1808 SOUTH 123RD EAST AVENUE,TULSA,OK,74128,4128,(918) 746-9480
55531,402724029665,SEILING JR-SR HS (SR),100 N ELM,SEILING,OK,73663,3663,(580) 922-7382
57701,400077402860,TULSA SCHL ARTS SCIENCES MS,1202 W EASTON,TULSA,OK,74127,4127,(405) 828-7727
2110,401044000465,EAGLETOWN HS,25 SCHOOL STREET,EAGLETOWN,OK,74734,4734,(580) 835-2242
6940,402118001889,NAVAJO JHS,15695 SOUTH COUNTY ROAD 210,ALTUS,OK,73521,3521,(580) 482-7742
8018,401059000477,IDA FREEMAN ES,501 WEST HURD STREET,EDMOND,OK,73003,3003,(405) 340-2965
8052,402277001885,CLASSEN HS OF ADVANCED STUDIES,1901 NORTH ELLISON AVENUE,OKLAHOMA CITY,OK,73106,3106,(405) 587-5400
8122,401599002269,KANSAS MS,499 W BOUNDARY,KANSAS,OK,74347,4347,(918) 868-5308
9313,400618000240,CALERA HS,209 N THIRD ST,CALERA,OK,74730,4730,(580) 434-5158
9497,402328001236,OWASSO 7TH GRADE CTR,1400 N MAIN,OWASSO,OK,74055,4055,(918) 272-1183
9568,403024029777,HAWTHORNE ES,1105 EAST 33RD STREET NORTH,TULSA,OK,74106,4106,(918) 925-1340
9886,403111001723,VERDIGRIS ES,8207 E 540 RD,CLAREMORE,OK,74019,4019,(918) 266-6333
36014,400885002337,SOUTHSIDE ES,15289 S HWY 72,COWETA,OK,74429,4429,(918) 279-0480
38492,400321029694,ARKOMA HS,100 BLOCKER STREET,ARKOMA,OK,74901,4901,(918) 875-3353
39565,400663002676,CARNEGIE MS,330 WEST WILDCAT DRIVE,CARNEGIE,OK,73015,3015,(580) 654-1766
60854,401647000766,KEYSTONE PUBLIC SCHOOL,23810 WEST HIGHWAY 51,SAND SPRINGS,OK,74063,5135,(918) 363-8298
61837,402193001094,NOWATA HS,707 WEST OSAGE AVENUE,NOWATA,OK,74048,4048,(918) 273-2221
62815,402517001319,PRUE HS,104 BROADWAY,PRUE,OK,74060,4060,(918) 242-3351
62942,402008000981,MILLWOOD ES,6710 N MARTIN LUTHER KING AVE,OKLAHOMA CITY,OK,73111,3111,(405) 475-1004
63210,401089000504,EMPIRE ES,276803 E 1760 ROAD,DUNCAN,OK,73533,3533,(580) 255-4150
66591,403330001833,CENTRAL ES,301 E CHICKASAW,WYNNEWOOD,OK,73098,3098,(405) 665-4371
67148,400252000013,AFTON ES,410 S MAIN,AFTON,OK,74331,4331,(918) 257-8304
67861,401737000845,LEEDEY HS,505 E SIXTH,LEEDEY,OK,73654,3654,(580) 488-3377
69143,402031001009,MORRIS MS,307 SOUTH 6TH STREET,MORRIS,OK,74445,4445,(918) 733-9072
20569,400381000118,BEGGS ES,1201 WEST NINTH STREET,BEGGS,OK,74421,4421,(918) 267-3631
20826,400363029821,RANCH HEIGHTS ES,5100 DAVID LANE,BARTLESVILLE,OK,74005,4005,(918) 333-3810
21088,402277001208,WILSON ES,501 NORTHWEST 21ST STREET,OKLAHOMA CITY,OK,73103,3103,(405) 587-7100
21191,400077702797,EPIC ONE ON ONE CHARTER MS,1900 NW EXPY FLOOR R3,OKLAHOMA CITY,OK,73118,3118,(405) 749-4550
22499,401839000876,LOOKEBA-SICKLES ES,307 WEST SICKLES AVE,LOOKEBA,OK,73053,3053,(405) 457-6300
26407,400618000239,CALERA ES,111 N THIRD ST,CALERA,OK,74730,4730,(580) 434-5603
26566,403030001686,TURNER ES,22069 STATE HWY 32,BURNEYVILLE,OK,73430,3430,(580) 276-2707
27182,401995002655,MIDWEST CITY MS,7400 E RENO,MIDWEST CITY,OK,73110,3110,(405) 739-1786
11365,400987002409,DIBBLE MS,22092 OLD TOWN 1ST,BLANCHARD,OK,73010,3010,(405) 344-6380
12129,401356002410,CENTRAL ES,321 EAST NOBLE AVENUE,GUTHRIE,OK,73044,3044,(405) 282-0352
12634,400354000091,BANNER PUBLIC SCHOOL,2455 NORTH BANNER ROAD,EL RENO,OK,73036,3036,(405) 262-0598
14180,400288000044,LONGFELLOW ES,19 BARNES AVENUE,ALVA,OK,73717,3717,(580) 327-3327
14732,402136001055,NEW LIMA HS,116 GROSS STREET,WEWOKA,OK,74884,4884,(405) 257-6431
14860,400807000338,WASHINGTON ES,601 NORTH 13TH STREET,CLINTON,OK,73601,3601,(580) 323-0311
15662,403024001586,BELL ES,6304 EAST ADMIRAL BOULEVARD,TULSA,OK,74115,4115,(918) 833-8600
15866,400906000382,CROOKED OAK MS,1901 SOUTHEAST 15TH STREET,OKLAHOMA CITY,OK,73129,3129,(405) 677-5133
17014,400288000042,ALVA HS,501 14TH STREET,ALVA,OK,73717,3717,(580) 327-3682
17140,400774000324,ROOSA ES,2001 NORTH SIOUX AVENUE,CLAREMORE,OK,74017,4017,(918) 923-4206
18434,402151001057,NEWCASTLE HS,101 NORTH MAIN STREET,NEWCASTLE,OK,73065,3065,(405) 387-4304
72465,401839000877,LOOKEBA-SICKLES HS,10108 CR 1150,LOOKEBA,OK,73053,3053,(405) 457-6621
75098,403029001685,TURKEY FORD PUBLIC SCHOOL,23900 SOUTH 670 ROAD,WYANDOTTE,OK,74370,4370,(918) 786-4902
75635,400468002368,BLANCHARD INTERMEDIATE ES,310 NORTH TYLER AVENUE,BLANCHARD,OK,73010,3010,(405) 485-3391
42151,400741000297,CHEROKEE HS,412 E 5TH STREET,CHEROKEE,OK,73728,3728,(580) 596-3391
43219,402493001311,PRAGUE ES,1100 BLUE BELL,PRAGUE,OK,74864,4864,(405) 567-2281
44296,401995000967,RIDGECREST ES,137 W RIDGEWOOD DRIVE,MIDWEST CITY,OK,73110,3110,(405) 739-1671
45312,402025000996,KELLEY ES,1900 NORTH JANEWAY AVENUE,MOORE,OK,73160,3160,(405) 735-4400
45325,403348001845,MYERS ES,1200 SOUTH FIRST STREET,YUKON,OK,73099,3099,(405) 354-5252
49060,402487001308,POTEAU PRIMARY ES,100 MOCKINGBIRD LANE,POTEAU,OK,74953,4953,(918) 647-7780
11099,400450002334,BIXBY NORTH ES,7101 EAST 121ST STREET,BIXBY,OK,74008,4008,(918) 366-2690
12743,402397002391,STONE RIDGE ES,10000 WEST MEMORIAL ROAD,YUKON,OK,73099,3099,(405) 373-4227
12832,403147001742,WALTERS ES,418 SOUTH BROADWAY STREET,WALTERS,OK,73572,3572,(580) 875-3144
103,590003400104,SEQUOYAH HIGH SCHOOL,17091 S MUSKOGEE AVE,TAHLEQUAH,OK,74464,NOT AVAILABLE,(918) 453-5400
651,402025002821,SOUTHRIDGE JHS,14141 S PENNSYLVANIA,OKLAHOMA CITY,OK,73170,3170,(405) 735-4680
1705,400606029752,BYNG HS,214 STOKES DRIVE,ADA,OK,74820,4820,(580) 310-6733
2697,402415001274,PIONEER PUBLIC SCHOOL,3686 STATE HIGHWAY 92,CHICKASHA,OK,73018,3018,(405) 224-2700
3720,402469002124,PONCA CITY WEST MS,1401 WEST GRAND AVENUE,PONCA CITY,OK,74601,4601,(580) 767-8020
5738,402952001551,TANNEHILL PUBLIC SCHOOL,9283 TANNEHILL ROAD,MCALESTER,OK,74501,4501,(918) 423-6393
8050,400767000318,CHOUTEAU-MAZIE MS,521 NORTH MCCRACKEN,CHOUTEAU,OK,74337,4337,(918) 476-5912
90345,403024001653,NATHAN HALE HS,6960 EAST 21ST STREET,TULSA,OK,74129,4129,(918) 925-1200
94566,401479002673,THOMAS IES,1000 S OLIPHANT,HOLDENVILLE,OK,74848,4848,(405) 379-6661
95395,403246001801,WEWOKA HS,1121 S OKFUSKEE,WEWOKA,OK,74884,4884,(405) 257-5473
98212,400693000275,CAVE SPRINGS HS,89660 S 4637 RD,BUNCH,OK,74931,4931,(918) 776-2050
80469,403330001834,WYNNEWOOD HS,702 E ROBERT S KERR BLVD,WYNNEWOOD,OK,73098,3098,(405) 665-2045
83168,400330000082,ASHER ES,201 SOUTH DIVISION,ASHER,OK,74826,4826,(405) 784-2331
83733,402688001407,GARFIELD ES,701 NORTH ROOSEVELT,SAND SPRINGS,OK,74063,4063,(918) 246-1462
84534,400465000157,BLAIR ES,610 ZINN STREET,BLAIR,OK,73526,3526,(580) 563-2235
88957,403027001684,TUPELO HS,200 SOUTH 7TH,TUPELO,OK,74572,4572,(580) 845-2381
72795,403237029717,JOHN GLENN ES,6501 SOUTH LAND AVENUE,OKLAHOMA CITY,OK,73159,3159,(405) 350-3480
50692,402343001244,PAOLI ES,108 DULIN STREET,PAOLI,OK,73074,3074,(405) 484-7231
58290,402262001106,OKAY ES,8611 N 49TH STREET EAST,OKAY,OK,74446,4446,(918) 682-7961
30235,401662000306,KINTA HS,205 NORTH MAIN STREET,KINTA,OK,74552,4552,(918) 768-3338
30420,401065000489,ROSE WITCHER ES,901 S WILLIAMS,EL RENO,OK,73036,3036,(405) 262-5592
30421,403108029679,VERDEN HS,196 SOUTH LOCUST,VERDEN,OK,73092,3092,(405) 453-7805
30548,400486000167,BOISE CITY HS,700 S E 1ST ST,BOISE CITY,OK,73933,3933,(580) 544-3111
30550,402172001068,ADAMS ES,817 DENISON DRIVE,NORMAN,OK,73069,3069,(405) 366-5972
31736,403186001762,WATTS HS,616 EAST 6TH STREET,WATTS,OK,74964,4964,(918) 422-5132
32143,401866000885,MACOMB HS,36591 STATE HIGHWAY 59B,MACOMB,OK,74852,4852,(405) 598-5420
34185,402625001381,ROCKY MOUNTAIN PUBLIC SCHOOL,463355 E 835 RD,STILWELL,OK,74960,4960,(918) 696-7509
61122,401702000788,DEER CREEK-LAMONT ES,1643 MAIN STREET,DEER CREEK,OK,74636,4636,(580) 267-3241
63189,403024001676,WHITMAN ES,3924 NORTH LANSING AVENUE,TULSA,OK,74106,4106,(918) 925-1380
66969,402277001161,M.L. KING JR. ES,1201 NORTHEAST 48TH STREET,OKLAHOMA CITY,OK,73111,3111,(405) 587-4000
66990,401800000867,LOCUST GROVE HS,421 N BROADWAY,LOCUST GROVE,OK,74352,4352,(918) 479-5247
67132,402529001348,WESTERN OAKS ES,7210 NORTHWEST 23RD STREET,BETHANY,OK,73008,3008,(405) 789-1711
69185,403273001808,WHITESBORO HS,35069 ST HWY 63,WHITESBORO,OK,74577,4577,(918) 567-2624
23204,401929000912,MAUD HS,300 EAST YOUNG STREET,MAUD,OK,74854,4854,(405) 374-2416
25070,401485000699,HOLLIS ES,310 N 6TH STREET,HOLLIS,OK,73550,3550,(580) 706-6400
42165,400002029709,FRONTIER HS,17750 VALLEY RD,RED ROCK,OK,74651,4651,(580) 723-4360
44123,402004000979,MILL CREEK ES,602 SOUTH CHICKASAW AVENUE,MILL CREEK,OK,74856,4856,(580) 384-5505
45200,403111002278,VERDIGRIS HS,26505 S 4110 RD,CLAREMORE,OK,74019,4019,(918) 266-2336
49580,402025001606,CENTRAL JHS,400 NORTH BROADWAY STREET,MOORE,OK,73160,3160,(405) 735-4560
49753,401635000758,KEOTA HS,110 NORTHEAST 6TH STREET,KEOTA,OK,74941,4941,(918) 966-3950
101509,402355001248,LEE ES,301 WEST BERT,PAULS VALLEY,OK,73075,3075,(405) 238-7336
106030,401956002882,MCLOUD INTERMEDIATE SCHOOL,529 W PARK,MCLOUD,OK,74851,4851,(405) 964-3314
106035,402277002906,ROGERS ES,4000 SPENCER ROAD,OKLAHOMA CITY,OK,73084,3084,(405) 587-4100
641,400078902806,OYA CHARTER MANITOU 6TH-8TH,300 S BROADWAY,MANITOU,OK,73555,3555,(580) 397-3511
1290,403360129841,ROCK CREEK HS,200 EAST STEAKLEY STREET,BOKCHITO,OK,74726,4726,(580) 295-3761
2364,403024029796,SEQUOYAH ES,724 N BIRMINGHAM,TULSA,OK,74110,4110,(918) 746-9360
5528,402529001195,COOPER MS,8001 RIVER BEND BOULEVARD,OKLAHOMA CITY,OK,73132,3132,(405) 720-9887
8325,401725000798,ADAMS ES,3501 NORTHWEST FERRIS AVENUE,LAWTON,OK,73505,3505,(580) 353-7983
9529,402025029847,SOONER ES,5420 SOUTHEAST 89TH STREET,OKLAHOMA CITY,OK,73135,3135,(405) 735-4470
73404,403318001820,CEDAR HEIGHTS ES,2121 CEDAR,WOODWARD,OK,73802,3802,(580) 256-6521
74111,400369000114,BEARDEN PUBLIC SCHOOL,372006 HWY 48,OKEMAH,OK,74859,4859,(918) 623-0156
76421,403348029627,SKYVIEW ES,650 SOUTH YUKON PARKWAY,YUKON,OK,73099,3099,(405) 354-4852
76443,401638002359,KETCHUM MS,343 E EALUM,KETCHUM,OK,74349,4349,(918) 782-3242
78423,402295001224,LOMEGA HS,18319 N 2700 RD,OMEGA,OK,73764,3764,(405) 729-4281
79913,403177001758,WATONGA HS,1200 EAGLE LANE,WATONGA,OK,73772,3772,(580) 623-7362
80869,402025001122,EARLYWINE ES,12800 SOUTH MAY AVENUE,OKLAHOMA CITY,OK,73170,3170,(405) 735-4150
86089,401995000960,HIGHLAND PARK ES,5301 S DIMPLE AVENUE,OKLAHOMA CITY,OK,73135,3135,(405) 671-8660
87230,402529001345,TULAKES ES,6600 GALAXIE DRIVE,OKLAHOMA CITY,OK,73132,3132,(405) 721-4360
87322,401509029763,HOOKER HS,301 N BROADWAY,HOOKER,OK,73945,3945,(580) 652-2516
88355,401158000546,FELT HS,101 SOUTH LINCOLN,FELT,OK,73937,3937,(580) 426-2220
88550,402064002091,MOYERS ES,100 COBB RIDGE ROAD,MOYERS,OK,74557,4557,(580) 298-5547
89064,402025001900,RED OAK ES,11224 S PENN AVENUE,OKLAHOMA CITY,OK,73170,3170,(405) 735-4440
89099,402586001374,RINGLING JHS,706 UNIT A N 5TH STREET,RINGLING,OK,73456,3456,(580) 662-2386
89682,401413000666,HEALDTON HS,2763 TEXAS STREET,HEALDTON,OK,73438,3438,(580) 229-0540
32066,400468000160,BLANCHARD HS,1440 N COUNTY LINE RD,BLANCHARD,OK,73010,3010,(405) 485-3392
35569,402529001335,HARVEST HILLS ES,8201 NORTHWEST 104TH STREET,OKLAHOMA CITY,OK,73162,3162,(405) 721-2013
36236,402100001605,MUSTANG CREEK ES,10821 SW 15TH STREET,YUKON,OK,73099,3099,(405) 324-4567
38517,402472001302,POND CREEK-HUNTER ES,200 EAST BROADWAY,POND CREEK,OK,73766,3766,(580) 532-4240
38552,401395000660,MARY WHITE ES,408 WEST FRANKLIN,HASKELL,OK,74436,4436,(918) 482-1402
39167,402277001183,ROOSEVELT MS,3233 SOUTHWEST 44TH STREET,OKLAHOMA CITY,OK,73119,3119,(405) 587-8300
62814,400930029624,CYRIL HS,326 W WINDLE AVE,CYRIL,OK,73029,3029,(580) 464-2272
66943,402484001306,PORUM ES,410 N 4TH ST,PORUM,OK,74455,4455,(918) 484-5123
68962,400007602350,OKLAHOMA SCHL FOR THE BLIND HS,3300 GIBSON STREET,MUSKOGEE,OK,74403,4403,(918) 781-8200
100672,403195002902,WAUKOMIS MS,209 W LOCUST,WAUKOMIS,OK,73773,3773,(580) 758-3264
23281,402532001352,QUAPAW MS,305 WEST FIRST STREET,QUAPAW,OK,74363,4363,(918) 674-2496
23305,401356000632,FOGARTY ES,902 NORTH WENTZ STREET,GUTHRIE,OK,73044,3044,(405) 282-5932
23378,401392000657,HARTSHORNE ES,821 ARAPAHOE STREET,HARTSHORNE,OK,74547,4547,(918) 297-2345
25061,401362000645,HAILEYVILLE HS,3RD & RILEY STREET,HAILEYVILLE,OK,74546,4546,(918) 297-2626
26530,403321029701,WRIGHT CITY JHS,701 SCHOOL ST,WRIGHT CITY,OK,74766,4766,(580) 981-2558
26587,401725000836,WHITTIER ES,1115 NORTHWEST LAIRD AVENUE,LAWTON,OK,73507,3507,(580) 355-5238
27131,402031001007,MORRIS ES,306 SOUTH 5TH STREET,MORRIS,OK,74445,4445,(918) 733-9072
28379,402835001496,SPRINGER HS,16624 US HWY 77,SPRINGER,OK,73458,3458,(580) 653-2471
28945,400693000274,CAVE SPRINGS ES,89660 S 4637 RD,BUNCH,OK,74931,4931,(918) 776-2050
29602,401338000622,GREENVILLE PUBLIC SCHOOL,4671 WOLFPAC RD,MARIETTA,OK,73448,9684,(580) 276-2968
29626,400357000092,BARNSDALL ES,401 S 10TH ST,BARNSDALL,OK,74002,4002,(918) 847-2731
91350,402679001401,SALLISAW HS,2301 WEST RUTH STREET,SALLISAW,OK,74955,9304,(918) 775-7761
92015,403243001797,WETUMKA HS,416 SOUTH TIGER STREET,WETUMKA,OK,74883,4883,(405) 452-3291
92052,403024001677,HALE JHS,2177 SOUTH 67TH EAST AVENUE,TULSA,OK,74129,4129,(918) 746-9260
97082,401524000717,HULBERT ES,316 RIDER LANE,HULBERT,OK,74441,4441,(918) 772-2501
97397,402172029644,WASHINGTON ES,600 48TH STREET SOUTHEAST,NORMAN,OK,73026,3026,(405) 366-5984
99705,403138001738,WAINWRIGHT PUBLIC SCHOOL,115 E WALNUT,WAINWRIGHT,OK,74468,4468,(918) 474-3484
43043,402694001427,SASAKWA HS,106 NORTH OLIVE,SASAKWA,OK,74867,4867,(405) 941-3250
47225,400246000011,BERNITA HUGHES ES,101 SOUTH HARLEY HUGHES AVE,ADAIR,OK,74330,4330,(918) 785-2438
51008,402472002764,POND CREEK-HUNTER MS,200 EAST BROADWAY,POND CREEK,OK,73766,3766,(580) 532-4262
53861,400384002750,BELFONTE BELL ES (ADAIR CNTY),RT 5 # 4470,STILWELL,OK,74960,4960,(918) 696-7181
56666,400002102290,OKLAHOMA UNION MS,RURAL ROUTE 1 # 377-7,SOUTH COFFEYVILLE,OK,74072,4072,(918) 255-6550
57219,401572002859,NORTHWEST ES,7625 S ELWOOD,TULSA,OK,74132,4132,(918) 299-4411
57314,400080002867,EPIC BLENDED CHARTER OKC MS,1900 NW EXPY FLOOR R3,OKLAHOMA CITY,OK,73118,3118,(405) 749-4550
59797,401089029761,EMPIRE HS,276803 E 1760 ROAD,DUNCAN,OK,73533,3533,(580) 255-7515
10168,400807000339,CLINTON MS,1001 ORIENT STREET,CLINTON,OK,73601,3601,(580) 323-4228
10372,400837000350,COLLINSVILLE MS,1415 WEST CENTER STREET,COLLINSVILLE,OK,74021,4021,(918) 371-2541
13545,400762000312,INDIAN MERIDIAN ES,1865 SOUTH INDIAN MERIDIAN,CHOCTAW,OK,73020,3020,(405) 390-8585
17152,402775002297,SKIATOOK INTERMEDIATE ES,2200 WEST OAK STREET,SKIATOOK,OK,74070,4070,(918) 396-5745
19054,400939000402,DALE ES,300 SMITH AVENUE,DALE,OK,74851,4851,(405) 964-5514
19771,400879000371,COVINGTON-DOUGLAS HS,400 E MAINE,COVINGTON,OK,73730,3730,(580) 864-7482
40472,401758002678,LEXINGTON MS,420 NORTHEAST FOURTH STREET,LEXINGTON,OK,73051,3051,(405) 527-7236
41364,403222001784,WELEETKA HS,302 E 6TH ST,WELEETKA,OK,74880,4880,(405) 786-2203
43200,401065000484,EL RENO HS,407 SOUTH CHOCTAW,EL RENO,OK,73036,3036,(405) 262-3254
46123,403030001687,TURNER HS,22069 STATE HWY 32,BURNEYVILLE,OK,73430,3430,(580) 276-3873
47150,400767000317,CHOUTEAU-MAZIE HS,521 NORTH MCCRACKEN,CHOUTEAU,OK,74337,4337,(918) 476-5912
48230,402025000993,HIGHLAND EAST JHS,1200 SOUTHEAST FOURTH STREET,MOORE,OK,73160,3160,(405) 735-4580
48806,400981001910,DEWEY MS,ONE BULLDOGGER ROAD,DEWEY,OK,74029,4029,(918) 534-0111
48987,401029000454,WILL ROGERS PRE-K CTR,1413 NORTH 13TH,DUNCAN,OK,73533,3533,(580) 255-9012
49215,402163001066,PIONEER ES,611 ASH STREET,NOBLE,OK,73068,3068,(405) 872-3472
49498,402343001245,PAOLI HS,410 STEWART STREET WEST,PAOLI,OK,73074,3074,(405) 484-7336
52683,402898002677,STRATFORD MS,200 EAST BAYLESS,STRATFORD,OK,74872,4872,(580) 759-3615
54104,400837002809,COLLINSVILLE UPPER ES,12800 NORTH 129TH E AVE,COLLINSVILLE,OK,74021,4021,(918) 371-2202
54592,401863000882,LUTHER ES,900 SOUTH DOGWOOD,LUTHER,OK,73054,3054,(405) 277-3545
57190,400080002866,EPIC BLENDED CHARTER OKC HS,1900 NW EXPY FLOOR R3,OKLAHOMA CITY,OK,73118,3118,(405) 749-4550
57229,400079602842,SANTA FE SOUTH SPERO ES,4712 S SANTA FE AVE,OKLAHOMA CITY,OK,73109,3109,(405) 600-7038
58751,401584000745,JONES MS,16011 EAST WILSHIRE BOULEVARD,JONES,OK,73049,3049,(405) 399-9114
58839,402601001379,RIVERSIDE PUBLIC SCHOOL,4800 EAST FOREMAN STREET,EL RENO,OK,73036,3036,(405) 262-2907
58925,400486000166,BOISE CITY ES,402 S E 4TH ST,BOISE CITY,OK,73933,3933,(580) 544-3161
33842,402100002358,MUSTANG EDUCATION CTR,400 CLEAR SPRINGS ROAD,MUSTANG,OK,73064,3064,(405) 376-7322
34232,401242029666,GARBER HS,108 EAST GARBER ROAD,GARBER,OK,73738,3738,(580) 863-2231
35963,402328001233,ATOR ES,1500 N ASH,OWASSO,OK,74055,4055,(918) 272-2204
36459,402286001217,OLIVE ES,9352 SOUTH 436TH WEST AVENUE,DRUMRIGHT,OK,74030,4030,(918) 352-9569
36525,402505001314,PRESTON ES,10165 PRINGEY AVENUE,PRESTON,OK,74456,4456,(918) 756-3638
37779,401617000754,KELLYVILLE HS,14959 MAPLE DRIVE,KELLYVILLE,OK,74039,4039,(918) 247-6133
39059,402739001446,SEQUOYAH HS,16401 SOUTH 4180 ROAD,CLAREMORE,OK,74017,4017,(918) 341-0642
2619,400612029646,CACHE MS,302 SW H AVE,CACHE,OK,73527,3527,(580) 429-8489
2932,400252000014,AFTON HS,410 S MAIN,AFTON,OK,74331,4331,(918) 257-8305
3823,402277002722,CESAR CHAVEZ ES,600 SOUTHEAST GRAND BOULEVARD,OKLAHOMA CITY,OK,73129,3129,(405) 587-9800
6975,401542000729,INDIAHOMA ES,307 CHEBAHTAH,INDIAHOMA,OK,73552,3552,(580) 246-3333
7891,402160001673,NINNEKAH MS,908 E DELL STREET,NINNEKAH,OK,73067,3067,(405) 224-4299
8001,401866000884,MACOMB ES,36591 STATE HIGHWAY 59B,MACOMB,OK,74852,4852,(405) 598-2716
8699,401998000977,MILBURN HS,200 NORTH 8TH STREET,MILBURN,OK,73450,3450,(580) 443-5522
20830,402868029739,RICHMOND ES,201 WEST RICHMOND ROAD,STILLWATER,OK,74075,4075,(405) 533-6400
22707,400930000397,CYRIL ES,101 S 4TH STREET,CYRIL,OK,73029,3029,(580) 464-2437
26782,400978002785,DEWAR MS,204 EAST 5TH STREET,DEWAR,OK,74431,4431,(918) 652-9625
27475,400549002763,ASPEN CREEK EC CENTER,2700 WEST FLORENCE,BROKEN ARROW,OK,74011,4011,(918) 505-5290
12480,403060001461,UNION 6TH-7TH GRADE CTR,10100 EAST 61ST STREET,TULSA,OK,74133,4133,(918) 357-4326
12648,401863001949,LUTHER MS,320 SE 2ND STREET,LUTHER,OK,73054,3054,(405) 277-3264
18074,400849000360,COMMERCE MS,500 COMMERCE ST,COMMERCE,OK,74339,2401,(918) 675-4101
18464,400771000540,CIMARRON HS,3RD & MAIN,LAHOMA,OK,73754,3754,(580) 796-2204
19100,402172001075,JEFFERSON ES,250 NORTH COCKREL AVENUE,NORMAN,OK,73071,3071,(405) 366-5889
92260,401986000948,WILSON ES,308 G STREET NORTHWEST,MIAMI,OK,74354,4354,(918) 542-8419
94427,401359000637,CENTRAL JHS,801 NORTH BEAVER,GUYMON,OK,73942,3942,(580) 338-4360
95141,400318029632,LINCOLN ES,615 STANLEY SW,ARDMORE,OK,73401,3401,(580) 223-2477
95186,401665029744,KIOWA HS,406 E 8TH STREET,KIOWA,OK,74553,4553,(918) 432-5641
96421,402028029839,MOORELAND HS,304 NW 4TH,MOORELAND,OK,73852,3852,(580) 994-5426
97851,403147029649,WALTERS MS,418 SOUTH BROADWAY STREET,WALTERS,OK,73572,3572,(580) 875-3214
99417,401512000709,HOWE HS,21444 E N RAILROAD STREET,HOWE,OK,74940,4940,(918) 658-3368
99526,402385001265,PERRY ES,1303 NORTH 15TH STREET,PERRY,OK,73077,3077,(580) 336-2577
73361,403318029832,HORACE MANN ES,1610 2ND STREET,WOODWARD,OK,73802,3802,(580) 256-2660
73488,402277001189,SPENCER ES,8900 NORTHEAST 50TH STREET,SPENCER,OK,73084,3084,(405) 587-8600
74356,401572000740,JENKS MS,3019 E 101ST ST,JENKS,OK,74037,4037,(918) 299-4411
77812,403060001526,UNION HS FRESHMAN ACADEMY,7616 SOUTH GARNETT ROAD,BROKEN ARROW,OK,74012,4012,(918) 357-4324
78764,402730001440,NORTHWOOD ES,1001 CARSON,SEMINOLE,OK,74818,4818,(405) 382-5800
79394,400642000250,CANEY ES,372 N COBB AVE,CANEY,OK,74533,4533,(580) 889-6966
79415,401776000858,LIBERTY ES,2727 EAST 201ST STREET SOUTH,MOUNDS,OK,74047,4047,(918) 366-8311
62342,401995002791,MIDWEST CITY ES,2211 S MIDWEST BLVD,MIDWEST CITY,OK,73110,3110,(405) 582-7017
62756,401413000667,HEALDTON ES,3881 HOSPITAL RD,HEALDTON,OK,73438,3438,(580) 229-1201
63570,401320000612,GRANDFIELD ES,416 SOUTH MAIN,GRANDFIELD,OK,73546,3546,(580) 479-3288
66708,400612002757,CACHE 5TH AND 6TH GRADE MS,420 SW H AVE,CACHE,OK,73527,3527,(580) 429-0222
68724,403060001702,GROVE ES,10202 EAST 62ND STREET,TULSA,OK,74133,4133,(918) 357-4334
69195,402361001254,PAWNEE ES,602 FOREST STREET,PAWNEE,OK,74058,4058,(918) 762-3618
81295,401569000736,JAY HS,386 EAST MONROE,JAY,OK,74346,4346,(918) 253-4466
84977,401938000913,MAYSVILLE ES,9 WILLIAMS,MAYSVILLE,OK,73057,3057,(405) 867-5550
86986,400762001893,JAMES GRIFFITH INTERMEDIATE ES,1861 SOUTH INDIAN MERIDIAN,CHOCTAW,OK,73020,3020,(405) 390-2153
87683,403201001770,WAYNE HS,212 SOUTH SEIFRIED STREET,WAYNE,OK,73095,3095,(405) 449-3317
88891,401725000809,EISENHOWER HS,5202 WEST GORE BOULEVARD,LAWTON,OK,73505,3505,(580) 355-9144
89623,401209000565,FOYIL HS,1700 EAST 4TH STREET,FOYIL,OK,74031,4031,(918) 342-1782
89736,403135001909,CENTRAL INTERMEDIATE ES,204 NORTH CASAVER AVENUE,WAGONER,OK,74467,4467,(918) 485-9543
101336,401408000664,HAWORTH MS,605 N ELM STREET,HAWORTH,OK,74740,4740,(580) 245-1460
101540,401140000541,FANSHAWE PUBLIC SCHOOL,HWY 270,FANSHAWE,OK,74935,4935,(918) 659-2341
102768,400080202878,NORTH ROCK CREEK MS,42400 GARRETT'S LAKE ROAD,SHAWNEE,OK,74804,4804,(405) 214-9477
102791,402277002889,PUTNAM HEIGHTS ACADEMY HS,1601 NORTHWEST 36TH STREET,OKLAHOMA CITY,OK,73118,3118,(405) 587-2700
22496,401230000577,FORT TOWSON ES,205 NORTHWEST 3RD,FORT TOWSON,OK,74735,4735,(580) 873-2780
23107,403336001838,YALE ES,800 NORTH C STREET,YALE,OK,74085,4085,(918) 387-2428
23112,402655001389,RUSH SPRINGS ES,601 WEST BLAKLEY,RUSH SPRINGS,OK,73082,3082,(580) 476-3172
26302,402277001872,NICHOLS HILLS ES,1301 WEST WILSHIRE BOULEVARD,NICHOLS HILLS,OK,73116,3116,(405) 587-2583
29198,401029000452,PLATO ES,1011 W PLATO ROAD,DUNCAN,OK,73533,3533,(580) 255-6167
644,400693002823,CAVE SPRINGS MS,89660 S 4637 RD,BUNCH,OK,74931,4931,(918) 776-2050
5731,402529001346,WILEY POST ES,6920 WEST BRITTON ROAD,OKLAHOMA CITY,OK,73132,3132,(405) 721-8123
10417,401359000636,CARRIER ES,103 N PERKINS,GUYMON,OK,73942,3942,(580) 338-0420
10987,402487001310,POTEAU HS,100 MOCKINGBIRD LANE,POTEAU,OK,74953,4953,(918) 647-7716
11831,402757001466,WILL ROGERS ES,2600 NORTH UNION STREET,SHAWNEE,OK,74801,4801,(405) 273-1519
12128,402025000999,NORTHMOOR ES,211 NORTHEAST 19TH,MOORE,OK,73160,3160,(405) 735-4420
13113,400762000314,NICOMA PARK ES,1200 NORTH HICKMAN AVENUE,CHOCTAW,OK,73020,3020,(405) 390-6380
15109,400003302299,KEYS ES,19061 EAST 840 ROAD,PARK HILL,OK,74451,4451,(918) 456-4501
17370,400685002711,OKEMAH NOBLE CTR,204 WEST DATE STREET,OKEMAH,OK,74859,4859,(918) 623-1874
17446,402775001474,MARRS ES,1100 SOUTH OSAGE STREET,SKIATOOK,OK,74070,4070,(918) 396-2295
17731,400681000267,CASHION ES,101 NORTH EUCLID,CASHION,OK,73016,3016,(405) 433-2614
19646,400957002243,PRAIRIE VALE ES,22522 N PENN AVE,EDMOND,OK,73025,3025,(405) 359-3170
19759,401308000607,GRACEMONT HS,417 EAST MCCALL,GRACEMONT,OK,73042,3042,(405) 966-2233
100959,401725002364,MACARTHUR MS,510 NORTHEAST 45TH STREET,LAWTON,OK,73507,3507,(580) 353-5111
101816,403135001737,WAGONER HS,300 BULLDOG CIRCLE,WAGONER,OK,74467,4467,(918) 485-5553
102775,400080502886,SOVEREIGN COMMUNITY SCHL MS,12600 N KELLEY AVENUE,OKLAHOMA CITY,OK,73131,3131,(405) 639-9416
102782,400957002918,4TH AND 5TH GRADE CENTER,4653 N W 206TH STREET,EDMOND,OK,73012,3012,(405) 531-9328
102788,402008002888,MILLWOOD ARTS ACADEMY MS,6710 N MARTIN LUTHER KING AVE,OKLAHOMA CITY,OK,73111,3111,(405) 478-0360
106025,400076602900,KIPP OKC COLLEGE PREP,8400 N ROBINSON AVE,OKLAHOMA CITY,OK,73114,3114,(405) 849-9700
107247,402277002912,MOON MS,1901 NORTH ELLISOIN,OKLAHOMA CITY,OK,73106,3106,(405) 587-9500
107248,402328002895,LUCILLE ELLINGWOOD MORROW ES,12301 N 132ND E AVE,COLLINSVILLE,OK,74021,4021,(918) 928-4050
50517,402091001029,MULHALL-ORLANDO ES,215 SOUTH LEWIS,MULHALL,OK,73063,3063,(405) 649-2000
51965,401521002670,HUGO MS,300 NORTH E STREET,HUGO,OK,74743,4743,(580) 326-3365
52329,402295001223,LOMEGA ES,409 MAIN ST,LOYAL,OK,73756,3756,(405) 729-4251
55174,401479000696,ETHEL REED ES,615 S BROADWAY,HOLDENVILLE,OK,74848,4848,(405) 379-6618
55594,402328002003,HAYWARD SMITH ES,12223 E 91ST ST N,OWASSO,OK,74055,4055,(918) 272-5162
56488,402763002689,SHIDLER MS,312 WEST 1ST STREET,SHIDLER,OK,74652,4652,(918) 793-2461
58400,402328002003,HAYWARD SMITH ES,12223 E 91ST ST N,OWASSO,OK,74055,4055,(918) 272-5162
81832,401092000509,COOLIDGE ES,1515 EAST ASH AVENUE,ENID,OK,73701,3701,(580) 366-7550
81914,400825000345,COLCORD ES,400 SOUTH SPENCER,COLCORD,OK,74338,4338,(918) 326-4117
84318,401878000890,MANGUM HS,301 NORTH OKLAHOMA AVENUE,MANGUM,OK,73554,3554,(580) 782-3343
85949,400681000268,CASHION HS,101 NORTH EUCLID,CASHION,OK,73016,3016,(405) 433-2575
86344,401908000904,MARLOW ES,408 TERRY BROWN AVE,MARLOW,OK,73055,3055,(580) 658-3216
87918,401884002716,MANNFORD EC CTR,211 HINTON AVENUE,MANNFORD,OK,74044,4044,(918) 865-4062
90457,402172001077,LINCOLN ES,915 CLASSEN BOULEVARD,NORMAN,OK,73071,3071,(405) 366-5904
90958,403207029659,WEATHERFORD WEST ES,811 WEST HUBER AVENUE,WEATHERFORD,OK,73096,3096,(580) 772-5888
91463,401617002340,KELLYVILLE UPPER ES,144 S ELM,KELLYVILLE,OK,74039,4039,(918) 247-6133
92383,400450002772,EAST ES,11901 E 131ST ST,BROKEN ARROW,OK,74011,4011,(918) 366-1711
94235,400549029807,CHILDERS MS,301 EAST TUCSON STREET,BROKEN ARROW,OK,74011,4011,(918) 259-4350
94376,400807000336,NANCE ES,300 SOUTH 11TH STREET,CLINTON,OK,73601,3601,(580) 323-0260
95155,401269000591,GLENCOE ES,201 EAST LONE CHIMNEY,GLENCOE,OK,74032,4032,(580) 669-2254
98361,400078302399,ASTEC CHARTER HS,2401 NW 23RD STREET STE 39A,OKLAHOMA CITY,OK,73107,3107,(405) 947-6274
99215,402901001521,STRINGTOWN ES,304 HIGHLAND ST,STRINGTOWN,OK,74569,4569,(580) 346-7423
42947,403114001724,VIAN ES,301 WEST HUNTER,VIAN,OK,74962,4962,(918) 773-5311
43623,402004000980,MILL CREEK HS,602 SOUTH CHICKASAW AVENUE,MILL CREEK,OK,74856,4856,(580) 384-5514
47474,401995000972,TOWNSEND ES,4000 EPPERLY DRIVE,DEL CITY,OK,73115,3115,(405) 671-8680
48242,402976002008,TERRAL PUBLIC SCHOOL,340 APACHE AVE,TERRAL,OK,73569,3569,(580) 437-2244
49020,402025001867,SANTA FE ES,501 NORTH SANTA FE AVENUE,MOORE,OK,73160,3160,(405) 735-4450
49062,400767000319,MAZIE ES,521 NORTH MCCRACKEN,CHOUTEAU,OK,74337,4337,(918) 476-5389
31727,401572002314,JENKS EAST INTERMEDIATE ES,3933 E 92ST ST,TULSA,OK,74137,4137,(918) 299-4411
31852,400873000369,COTTONWOOD PUBLIC SCHOOL,1 LUBBIS ST,COALGATE,OK,74538,4538,(580) 927-3907
31863,402256001103,OILTON HS,309 E PETERSON,OILTON,OK,74052,4052,(918) 862-0389
34935,402277001146,HILLCREST ES,6421 SOUTH MILLER BOULEVARD,OKLAHOMA CITY,OK,73159,3159,(405) 587-3800
35568,402529001890,DENNIS ES,11800 JAMES L DENNIS DRIVE,OKLAHOMA CITY,OK,73162,3162,(405) 722-6510
37797,401308000606,GRACEMONT ES,439 EAST GRACEMONT STREET,GRACEMONT,OK,73042,3042,(405) 966-2551
65226,400447000146,BISHOP PUBLIC SCHOOL,2204 SOUTHWEST BISHOP ROAD,LAWTON,OK,73505,3505,(580) 353-4870
65567,400288000041,ALVA MS,800 FLYNN STREET,ALVA,OK,73717,3717,(580) 327-0608
66168,400717002756,CENTRAL HIGH JHS,274801 BRONCHO RD,MARLOW,OK,73055,3055,(580) 658-2929
66428,402277001114,ARTHUR ES,5100 SOUTH INDEPENDENCE AVENUE,OKLAHOMA CITY,OK,73119,3119,(405) 587-7600
66949,403318029852,WOODWARD MS SOUTH CAMPUS,914 OAK,WOODWARD,OK,73802,3802,(580) 256-7901
67712,403024001650,MEMORIAL HS,5840 SOUTH HUDSON AVENUE,TULSA,OK,74135,4135,(918) 833-9600
70612,402961001552,BARNARD ES,315 EAST LOCUST STREET,TECUMSEH,OK,74873,4873,(405) 598-3169
76852,403102001455,VELMA-ALMA MS,901 MAIN STREET,VELMA,OK,73491,3491,(580) 203-3701
76897,400738001913,ART GOAD ES,117 ASH ST,CHELSEA,OK,74016,4016,(918) 789-2503
76961,401170000549,FLETCHER ES,202 W COLE,FLETCHER,OK,73541,3541,(580) 549-6020
79180,402469002004,UNION ES,2617 NORTH UNION,PONCA CITY,OK,74601,4601,(580) 767-8035
79395,402172001076,KENNEDY ES,621 SUNRISE STREET,NORMAN,OK,73071,3071,(405) 366-5894
79889,400468002240,BLANCHARD MS,610 NE 7TH STREET,BLANCHARD,OK,73010,3010,(405) 485-3393
10358,400945000406,DAVENPORT HS,417 BROADWAY,DAVENPORT,OK,74026,4026,(918) 377-2278
10664,402100029628,MUSTANG TRAILS ES,12025 SW 15TH STREET,YUKON,OK,73099,3099,(405) 324-0016
12501,403024002656,JONES ES,1515 SOUTH 71ST EAST AVENUE,TULSA,OK,74112,4112,(918) 746-9040
13763,402172002714,DIMENSIONS ACADEMY,809 N FINDLAY,NORMAN,OK,73071,3071,(405) 366-0545
16106,401944002388,PARKER INTERMEDIATE CTR,1310 NORTH 6TH STREET,MCALESTER,OK,74501,4501,(918) 423-4647
16301,403024029854,ACADEMY CENTRAL ES,1789 WEST SEMINOLE STREET,TULSA,OK,74127,4127,(918) 833-8760
17260,402277001177,QUAIL CREEK ES,11700 THORNRIDGE ROAD,OKLAHOMA CITY,OK,73120,3120,(405) 587-6500
19622,401408000662,HAWORTH ES,605 N ELM STREET,HAWORTH,OK,74740,4740,(580) 245-1460
19817,402025001955,BRYANT ES,9400 SOUTH BRYANT AVENUE,OKLAHOMA CITY,OK,73160,3160,(405) 735-4130
52832,402091001029,MULHALL-ORLANDO ES,215 SOUTH LEWIS,MULHALL,OK,73063,3063,(405) 649-2000
53324,402418001275,PITTSBURG ES,200 WEST GRAND,PITTSBURG,OK,74560,4560,(918) 432-5513
57338,400080002865,EPIC BLENDED CHARTER TULSA MS,1900 NW EXPY FLOOR R3,OKLAHOMA CITY,OK,73118,3118,(405) 749-4550
44690,402055001018,MOUNDS ES,1603 RUSSELL AVE,MOUNDS,OK,74047,4047,(918) 827-6100
45023,403219001782,WELCH MS,707 S CURTIS ST,WELCH,OK,74369,4369,(918) 788-3129
47737,400861002199,COPAN HS,527 HORNET LANE,COPAN,OK,74022,4022,(918) 532-4344
48805,400276000025,ALLEN HS,109 N DENVER,ALLEN,OK,74825,4825,(580) 857-2416
643,400078902815,OYA CHARTER TECUMSEH 6TH-8TH,700 S 9TH ST,TECUMSEH,OK,74873,4873,(405) 598-4143
2923,403147001743,WALTERS HS,418 SOUTH BROADWAY STREET,WALTERS,OK,73572,3572,(580) 875-3257
4292,402370001257,PECKHAM PUBLIC SCHOOL,7175 WEST SCHOOL STREET,NEWKIRK,OK,74647,4647,(580) 362-2633
6161,400079702845,OLUSTEE-ELDORADO ES,606 E 6TH,OLUSTEE,OK,73560,3560,(580) 648-2243
7480,402118001889,NAVAJO JHS,15695 SOUTH COUNTY ROAD 210,ALTUS,OK,73521,3521,(580) 482-7742
60289,402277001112,ADAMS ES,3416 SOUTHWEST 37TH STREET,OKLAHOMA CITY,OK,73119,3119,(405) 587-1600
61190,400321002798,ARKOMA MS,100 BLOCKER AVE,ARKOMA,OK,74901,4901,(918) 875-3351
62213,402505001315,PRESTON HS,11100 WILL SAMPSON RD,OKMULGEE,OK,74447,4447,(918) 756-3388
62343,402025002794,SOUTH LAKE ES,12627 S PORTLAND,OKLAHOMA CITY,OK,73170,3170,(405) 735-4660
62440,401092002686,LONGFELLOW MS,900 EAST BROADWAY AVENUE,ENID,OK,73701,3701,(580) 366-8200
20026,401542000730,INDIAHOMA HS,307 CHEBAHTAH,INDIAHOMA,OK,73552,3552,(580) 246-3333
20792,401206000563,FOX HS,100 CREEK AVE,FOX,OK,73435,3435,(580) 366-0301
21263,402820001493,SPIRO HS,600 WEST BROADWAY STREET,SPIRO,OK,74959,4959,(918) 962-2493
22208,401392000657,HARTSHORNE ES,821 ARAPAHOE STREET,HARTSHORNE,OK,74547,4547,(918) 297-2345
23304,401356000633,GUTHRIE HS,200 NORTH CROOKS DRIVE,GUTHRIE,OK,73044,3044,(405) 282-5906
26291,403324001831,WYANDOTTE ES,7 SOUTH 1ST STREET,WYANDOTTE,OK,74370,4370,(918) 678-2299
33059,401410000665,HAYWOOD PUBLIC SCHOOL,11461 WEST STATE HWY 31,MCALESTER,OK,74501,4501,(918) 423-6265
38144,400300002101,ANADARKO MS,900 WEST COLLEGE STREET,ANADARKO,OK,73005,3005,(405) 247-6671
38513,402931001538,SWEETWATER ES,11107 NORTH HIGHWAY 30,SWEETWATER,OK,73666,3666,(580) 534-2272
90465,400729000283,CHANDLER HS,901 SOUTH CHS STREET,CHANDLER,OK,74834,4834,(405) 258-1269
91914,401989000949,MIDDLEBERG PUBLIC SCHOOL,2130 COUNTY ROAD 1317,BLANCHARD,OK,73010,3010,(405) 485-3612
92175,401017000438,DRUMMOND ES,SOUTH HWY 132,DRUMMOND,OK,73735,3735,(580) 493-2271
93700,403279002675,WILBURTON MS,1075 WEST BLAIR AVENUE,WILBURTON,OK,74578,4578,(918) 465-2281
94115,402709001434,SCHULTER ES,23507 FLAX AVE,SCHULTER,OK,74460,4460,(918) 652-8200
94245,400528000185,BRAGGS ES,300 MADDEN AVE,BRAGGS,OK,74423,4423,(918) 487-5265
70841,400546000193,BRISTOW HS,808 N ASH,BRISTOW,OK,74010,4010,(918) 367-2241
72825,401998000976,MILBURN ES,200 NORTH 8TH STREET,MILBURN,OK,73450,3450,(580) 443-5322
73276,403150001745,WANETTE HS,502 NORTH MARTIN,WANETTE,OK,74878,4878,(405) 383-2254
74016,402631001384,ROLAND ES,300 RANGER BOULEVARD,ROLAND,OK,74954,4954,(918) 427-4601
75412,400513000179,BOWLEGS ES,100 BISON DR,BOWLEGS,OK,74830,4830,(405) 398-4322
76101,402328002336,NORTHEAST ES,13650 E 103RD ST N,OWASSO,OK,74055,4055,(918) 272-2615
76429,402277001179,RIDGEVIEW ES,10010 RIDGEVIEW DRIVE,OKLAHOMA CITY,OK,73120,3120,(405) 587-6800
79152,402550001361,RATTAN ES,420 WEST MAIN,RATTAN,OK,74562,4562,(580) 587-2715
79764,401995002659,CARL ALBERT MS,2515 S POST ROAD,OKLAHOMA CITY,OK,73130,3130,(405) 739-1761
83725,402938002401,TAHLEQUAH MS,871 PENDLETON,TAHLEQUAH,OK,74464,4464,(918) 458-4140
42170,401719000792,LATTA ES,13925 COUNTY ROAD 1560,ADA,OK,74820,4820,(580) 332-7669
45024,401995000952,CARL ALBERT HS,2009 S POST ROAD,OKLAHOMA CITY,OK,73130,3130,(405) 739-1726
45412,403024029797,SKELLY ES,2940 SOUTH 90TH EAST AVENUE,TULSA,OK,74129,4129,(918) 925-1540
47290,403108001721,VERDEN ES,196 SOUTH LOCUST,VERDEN,OK,73092,3092,(405) 453-6021
52216,403171002087,WASHINGTON MS,101 EAST KERBY,WASHINGTON,OK,73093,3093,(405) 288-2428
52483,401800002323,LOCUST GROVE UPPER ES,720 N HWY 82,LOCUST GROVE,OK,74352,4352,(918) 479-5234
54450,400540002844,BRIDGE CREEK EARLY CHILDHOOD,2209 E SOONER ROAD,BLANCHARD,OK,73010,3010,(405) 387-3681
56281,402985002833,THACKERVILLE MS,18943 US HWY 77,THACKERVILLE,OK,73459,3459,(580) 276-3610
31681,403048001699,TYRONE HS,6TH AND BEATRICE,TYRONE,OK,73951,3951,(580) 854-6298
38525,401986000946,WASHINGTON ES,1930 B STREET NORTHEAST,MIAMI,OK,74354,4354,(918) 542-3394
20452,400930002776,CYRIL JHS,326 W WINDLE AVE,CYRIL,OK,73029,3029,(580) 464-2272
23318,401575000741,JENNINGS PUBLIC SCHOOL,475 NORTH OAK STREET,JENNINGS,OK,74038,4038,(918) 757-2536
23373,402907001773,PARKVIEW ES,119 W 10TH,STROUD,OK,74079,4079,(918) 968-4711
28449,400756000305,GRAND AVENUE ES,415 GRAND AVE,CHICKASHA,OK,73018,3018,(405) 222-6524
60557,400504029640,BOSWELL HS,604 7TH ST,BOSWELL,OK,74727,4727,(580) 566-2735
62390,402550001362,RATTAN HS,420 WEST MAIN,RATTAN,OK,74562,4562,(580) 587-2715
64804,400384000121,BELFONTE PUBLIC SCHOOL,475751 STATE HIGHWAY 101,MULDROW,OK,74948,4948,(918) 427-3522
64867,403195001764,WAUKOMIS HS,1818 WEST WOOD RD,WAUKOMIS,OK,73773,3773,(580) 758-3245
67213,402010001668,MINCO MS,810 SW SAGER RD,MINCO,OK,73059,3059,(405) 352-4377
69739,402334001237,PADEN ES,315 W 10TH,PADEN,OK,74860,4860,(405) 932-5053
93398,401659000773,KINGSTON ES,NE 4TH & MAIN,KINGSTON,OK,73439,3439,(580) 564-2993
96444,401650002371,RONGEY MS,4600 WEST 151ST STREET,KIEFER,OK,74041,4041,(918) 321-3421
98190,401995000966,PLEASANT HILL EC CTR,4346 NE 36TH STREET,OKLAHOMA CITY,OK,73121,3121,(405) 427-6551
98508,402631001385,ROLAND HS,300 RANGER BOULEVARD,ROLAND,OK,74954,4954,(918) 427-4601
99432,402901001522,STRINGTOWN HS,103 TIGER DRIVE,STRINGTOWN,OK,74569,4569,(580) 346-7741
4849,401059002835,HEARTLAND MS,4900 EXPLORER DR,EDMOND,OK,73003,3003,(405) 340-2972
4850,402469002834,WASHINGTON PRE KG CENTER,1615 N 7TH,PONCA CITY,OK,74601,4601,(580) 767-8080
5665,402172001081,MONROE ES,1601 MCGEE DRIVE,NORMAN,OK,73072,3072,(405) 366-5927
7174,401884000893,MANNFORD LOWER ES,219 EVANS AVENUE,MANNFORD,OK,74044,4044,(918) 865-4334
8409,403024001594,CARVER MS,624 EAST OKLAHOMA PLACE,TULSA,OK,74106,4106,(918) 925-1420
9180,403336029743,YALE HS,315 EAST CHICAGO AVENUE,YALE,OK,74085,4085,(918) 387-2434
9532,401365000647,HAMMON HS,802 SHOCKEY ST,HAMMON,OK,73650,3650,(580) 473-2737
12350,402304001227,OOLOGAH-TALALA LOWER ES,10700 SOUTH HWY 169,OOLOGAH,OK,74053,4053,(918) 443-6141
12712,400549000197,ARROWHEAD ES,915 WEST NORMAN AVENUE,BROKEN ARROW,OK,74012,4012,(918) 259-4390
12846,400285000036,ALTUS JHS,1600 SOUTH PARK LANE,ALTUS,OK,73521,3521,(580) 481-2173
13544,402463001287,POCOLA ES,1000 EAST PRYOR AVENUE,POCOLA,OK,74902,4902,(918) 436-2561
13697,400762002698,CHOCTAW MS,14667 NORTHEAST THIRD STREET,CHOCTAW,OK,73020,3020,(405) 390-2207
13980,400436000141,BILLINGS HS,311 NORTH CENTRAL,BILLINGS,OK,74630,4630,(580) 725-3271
14372,402487001309,PANSY KIDD MS,100 MOCKINGBIRD LANE,POTEAU,OK,74953,4953,(918) 647-7741
16078,403333001837,WYNONA HS,108 W 3RD,WYNONA,OK,74084,4084,(918) 846-2467
16099,400663000258,CARNEGIE ES,200 WEST 4TH ST,CARNEGIE,OK,73015,3015,(580) 654-1945
17011,401537000724,IDABEL MS,100 NORTHEAST AVENUE D,IDABEL,OK,74745,4745,(580) 286-6558
17920,400318029637,ARDMORE HS,701 VETERANS BLVD,ARDMORE,OK,73401,3401,(580) 226-7680
19004,403096001714,VANOSS ES,4665 COUNTY ROAD 1555,ADA,OK,74820,4820,(580) 759-2251
71449,400336000084,ATOKA HS,1758 S GREAT HOUSE DR,ATOKA,OK,74525,4525,(580) 889-3361
74184,401725002404,TOMLINSON MS,702 NORTHWEST HOMESTEAD DRIVE,LAWTON,OK,73505,3505,(580) 585-6416
74667,403198001766,WAURIKA ES,600 EDUCATIONAL AVENUE,WAURIKA,OK,73573,3573,(580) 228-3531
75672,401257029617,GEARY HS,300 S BLAINE,GEARY,OK,73040,3040,(405) 884-2362
76403,400246000010,ADAIR MS,101 SOUTH HARLEY HUGHES AVE,ADAIR,OK,74330,4330,(918) 785-2425
78631,400849000359,COMMERCE HS,420 DOUG FURNAS BLVD,COMMERCE,OK,74339,3122,(918) 675-4343
79884,402523001328,PURCELL HS,2020 NORTH GREEN AVENUE,PURCELL,OK,73080,3080,(405) 442-0099
80810,403135001735,ELLINGTON ES,601 SOUTHEAST SIXTH STREET,WAGONER,OK,74467,4467,(918) 485-3692
83050,400300000055,MISSION ES,1200 SOUTH MISSION STREET,ANADARKO,OK,73005,3005,(405) 247-6607
84831,402358000145,INDIAN CAMP ES,2005 EAST BOUNDARY AVENUE,PAWHUSKA,OK,74056,4056,(918) 287-1265
85801,402397001271,PIEDMONT ES,1011 PIEDMONT ROAD NORTH,PIEDMONT,OK,73078,3078,(405) 373-2353
86709,403024002739,MONROE DEMONSTRATION MS,2010 EAST 48TH STREET NORTH,TULSA,OK,74130,4130,(918) 833-8900
100273,400463000151,BLACKWELL HS,303 EAST COOLIDGE AVENUE,BLACKWELL,OK,74631,4631,(580) 363-3553
101301,402097001039,PERSHING ES,301 N 54TH ST,MUSKOGEE,OK,74401,4401,(918) 684-3830
101335,402940001548,TALIHINA JHS,600 1ST STREET,TALIHINA,OK,74571,4571,(918) 567-2259
101619,401524000717,HULBERT ES,316 RIDER LANE,HULBERT,OK,74441,4441,(918) 772-2501
101633,400288000045,WASHINGTON ES,701 BARNES AVENUE,ALVA,OK,73717,3717,(580) 327-3518
102777,400080602919,OKLA INFO AND TECH SCHL MS,9212 N KELLEY AVE SUITE 100,OKLAHOMA CITY,OK,73131,3131,(405) 605-0201
102786,401776002927,LIBERTY JHS,2727 E 201ST STREET SO,MOUNDS,OK,74047,4047,(918) 366-8784
102789,402100002880,MEADOW BROOK INTERMEDIATE ES,12500 SW 15TH STREET,YUKON,OK,73099,3099,(405) 256-5250
106028,400080202875,NORTH ROCK CREEK HS,42400 GARRETT'S LAKE RD,SHAWNEE,OK,74804,4804,(405) 214-9477
106029,401272002892,GLENPOOL INTERMEDIATE SCHOOL,140 W 141ST,GLENPOOL,OK,74033,4033,(918) 322-9500
81752,400987029698,DIBBLE HS,22092 OLD TOWN 1ST,BLANCHARD,OK,73010,3010,(405) 344-6380
86162,400900000378,CRESCENT ES,106 NORTH MAGNOLA,CRESCENT,OK,73028,3028,(405) 969-2227
86594,401827000873,LONE WOLF ES,1001 7TH ST,LONE WOLF,OK,73655,3655,(580) 846-9091
88984,402938001543,SEQUOYAH ES,425 SOUTH COLLEGE,TAHLEQUAH,OK,74464,4464,(918) 458-4130
88997,401725000821,LINCOLN ES,601 SOUTHWEST PARK AVENUE,LAWTON,OK,73501,3501,(580) 355-4799
89586,400243000006,HAYES ES,500 SOUTH MISSISSIPPI AVENUE,ADA,OK,74820,4820,(580) 310-7294
101576,401170029648,FLETCHER HS,101 W HORNADAY,FLETCHER,OK,73541,3541,(580) 549-6015
102125,400243000005,ADA EC CTR,603 WEST 33RD STREET,ADA,OK,74820,4820,(580) 310-7283
102288,403339029762,YARBROUGH HS,8 MI S ON HWY 95,GOODWELL,OK,73939,3939,(580) 545-3327
102765,400079202887,TULSA HONOR ACADEMY HS,1421 S SHERIDAN RD,TULSA,OK,74112,4112,(918) 438-7204
107249,402358002883,PAWHUSKA MS,615 EAST 15TH STREET,PAWHUSKA,OK,74056,4056,(918) 287-1265
20553,403024002731,CENTRAL JHS,3101 WEST EDISON STREET,TULSA,OK,74127,4127,(918) 833-8400
21326,401185000552,FOREST GROVE PUBLIC SCHOOL,1941 FORST GROVE RD,GARVIN,OK,74736,4736,(580) 286-3961
22242,400991002667,DICKSON MS,4762 STATE HIGHWAY 199,ARDMORE,OK,73401,3401,(580) 223-2700
22643,400363029822,WAYSIDE ES,3000 WAYSIDE DRIVE,BARTLESVILLE,OK,74006,4006,(918) 333-8000
23307,402664001860,SOUTH COFFEYVILLE HS,600 E 5TH,SOUTH COFFEYVILLE,OK,74072,4072,(918) 255-6087
25153,402796001485,SOPER HS,901 ST LOUIS ST,SOPER,OK,74759,4759,(580) 345-2211
26110,401125002721,FAIRLAND MS,202 WEST WASHINGTON AVENUE,FAIRLAND,OK,74343,4343,(918) 676-3246
27395,400007502348,OKLAHOMA SCHOOL FOR THE DEAF,1100 EAST OKLAHOMA AVENUE,SULPHUR,OK,73086,3086,(580) 622-4900
29166,402784001855,SMITHVILLE MS,339 MAIN ST,SMITHVILLE,OK,74957,4957,(580) 244-7212
70634,402688001405,CHARLES PAGE HS,500 NORTH ADAMS ROAD,SAND SPRINGS,OK,74063,4063,(918) 246-1470
70744,401725000808,EISENHOWER ES,315 SOUTHWEST 52ND STREET,LAWTON,OK,73505,3505,(580) 355-4599
72610,400861000362,COPAN ES,527 HORNET LANE,COPAN,OK,74022,4022,(918) 532-4344
72784,402358001252,PAWHUSKA HS,621 EAST 15TH STREET,PAWHUSKA,OK,74056,4056,(918) 287-1266
74614,402764001471,SILO MS,122 WEST BOURNE STREET,DURANT,OK,74701,4701,(580) 924-7000
76313,400534000190,BRAY-DOYLE HS,1205 SOUTH BROOKS ROAD,MARLOW,OK,73055,3055,(580) 658-5071
76817,402118001052,NAVAJO ES,15695 SOUTH COUNTY ROAD 210,ALTUS,OK,73521,3521,(580) 482-7742
60613,401725001865,HUGH BISH ES,5611 NW ALAN A DALE LN,LAWTON,OK,73505,3505,(580) 248-2244
61724,401029000455,WOODROW WILSON ES,700 EAST CHESTNUT,DUNCAN,OK,73533,3533,(580) 255-8107
62719,402529001344,ROLLINGWOOD ES,6301 NORTH ANN ARBOR AVENUE,OKLAHOMA CITY,OK,73122,3122,(405) 721-3644
63415,401059000474,MEMORIAL HS,1000 EAST 15TH STREET,EDMOND,OK,73013,3013,(405) 340-2850
64061,402529001871,PUTNAM CITY NORTH HS,11800 NORTH ROCKWELL AVENUE,OKLAHOMA CITY,OK,73162,3162,(405) 722-4220
69071,401537000721,CENTRAL ES,206 SOUTHEAST F AVENUE,IDABEL,OK,74745,4745,(580) 286-5346
10988,400885001915,NORTHWEST ES,26954 E 131ST SOUTH,COWETA,OK,74429,4429,(918) 486-6559
15560,400258000017,ALBION PUBLIC SCHOOL,206 S TEXAS AVE 35000 HWY 271,ALBION,OK,74521,4521,(918) 563-4331
17164,401437001896,HENRYETTA MS,1801 TROY AIKMAN DR,HENRYETTA,OK,74437,4437,(918) 652-6578
17725,400735000571,CHECOTAH INTERMEDIATE ES,1401 SW 2ND,CHECOTAH,OK,74426,4426,(918) 473-2384
19453,400714000279,CENTRAL ES,108089 SOUTH 4670 ROAD,SALLISAW,OK,74955,4955,(918) 775-2216
31942,402592001376,RINGWOOD HS,101 W 5TH,RINGWOOD,OK,73768,3768,(580) 883-2201
36013,400318000069,CHARLES EVANS ES,1906 HARRIS,ARDMORE,OK,73401,3401,(580) 223-2472
36624,402100001045,MUSTANG ES,400 S MUSTANG ROAD,MUSTANG,OK,73064,3064,(405) 376-2491
38205,402529001338,KIRKLAND EARLY CHILDHOOD CTR,6020 NORTH INDEPENDENCE AVENUE,OKLAHOMA CITY,OK,73112,3112,(405) 842-1491
42161,402898029668,STRATFORD HS,431 NORTH OAK STREET,STRATFORD,OK,74872,4872,(580) 759-2381
42891,401870000888,MADILL MS,601 WEST MCARTHUR STREET,MADILL,OK,73446,3446,(580) 795-3303
45271,400393000124,BENNINGTON HS,729 NORTH PERRY STREET,BENNINGTON,OK,74723,4723,(580) 847-2310
46518,401230002790,FORT TOWSON JHS,205 NORTHWEST 3RD,FORT TOWSON,OK,74735,4735,(580) 873-2325
48768,403096029748,VANOSS HS,4665 COUNTY ROAD 1555,ADA,OK,74820,4820,(580) 759-2503
49061,402091001030,MULHALL-ORLANDO HS,100 EAST MAIN,ORLANDO,OK,73073,3073,(580) 455-2212
52219,400978029725,DEWAR HS,204 EAST 5TH STREET,DEWAR,OK,74431,4431,(918) 652-9625
54103,400837002807,WILSON 6TH GRADE CENTER,402 N 17TH,COLLINSVILLE,OK,74021,4021,(918) 371-3144
54486,400079802840,DAVIDSON ES,500 SOUTH MAIN,DAVIDSON,OK,73530,3530,(580) 568-2423
54615,400774000321,CLAREMONT ES,318 EAST SEVENTH STREET,CLAREMORE,OK,74017,4017,(918) 923-4202
55286,402172002710,DIMENSIONS ACADEMY,809 N FINDLAY,NORMAN,OK,73071,3071,(405) 579-1880
58188,401995000970,STEED ES,2118 FLANNERY DRIVE,MIDWEST CITY,OK,73110,3110,(405) 739-1686
1016,402871001511,STILWELL ES,10 SOUTH SIXTH STREET,STILWELL,OK,74960,4960,(918) 696-7656
1155,401143000543,FARGO HS,513 S MAIN,FARGO,OK,73840,3840,(580) 698-2298
2571,403024029796,SEQUOYAH ES,724 N BIRMINGHAM,TULSA,OK,74110,4110,(918) 746-9360
2585,400981000423,DEWEY HS,ONE BULLDOGGER ROAD,DEWEY,OK,74029,4029,(918) 534-0933
4847,400079602838,SANTA FE SOUTH HS,6921 PLAZA MAYOR BLVD,OKLAHOMA CITY,OK,73149,3149,(405) 631-6100
5801,400549002849,TIMBER RIDGE ES,3500 E KENOSHA ST,BROKEN ARROW,OK,74014,4014,(918) 505-5260
9455,401785000863,LINDSAY HS,302 SW 8TH,LINDSAY,OK,73052,3052,(405) 756-3132
9620,400366000112,BATTIEST ES,5685 U A BATTIEST PICKENS RD,BROKEN BOW,OK,74728,4728,(580) 241-5499
9694,401092000514,GARFIELD ES,400 N 7TH STREET,ENID,OK,73701,3701,(580) 366-7700
90502,402304001229,OOLOGAH-TALALA MS,10700 SOUTH HWY 169,OOLOGAH,OK,74053,4053,(918) 443-6161
90995,402025001001,SKY RANCH ES,9501 SOUTH WESTERN AVENUE,OKLAHOMA CITY,OK,73139,3139,(405) 735-4460
91274,402835001495,SPRINGER ES,16624 US HWY 77,SPRINGER,OK,73458,3458,(580) 653-2471
94173,402916001533,SULPHUR ES,1021 WEST NINTH STREET,SULPHUR,OK,73086,3086,(580) 622-3326
95125,400528000186,BRAGGS HS,300 MADDEN AVE,BRAGGS,OK,74423,4423,(918) 487-5265
97508,403060029809,ANDERSEN ES,1200 SOUTH WILLOW STREET,BROKEN ARROW,OK,74012,4012,(918) 357-4328
99072,400077502307,HUPFELD ACAD./WESTERN VILLAGE,1508 NW 106TH,OKLAHOMA CITY,OK,73114,3114,(405) 751-1774
99868,402661001394,RYAN HS,1201 E WASHINGTON,RYAN,OK,73565,3565,(580) 757-2296
2929,401899000900,MARIETTA HS,408 INDIAN WAY,MARIETTA,OK,73448,3448,(580) 276-3204
3345,400885002697,HERITAGE INTERMEDIATE GRD CTR,15286 S 297TH EAST,COWETA,OK,74429,4429,(918) 486-8590
4541,402469002834,WASHINGTON PRE KG CENTER,1615 N 7TH,PONCA CITY,OK,74601,4601,(580) 767-8080
5721,401056000470,PEAVINE PUBLIC SCHOOL,77943 HWY 59 N,STILWELL,OK,74960,4960,(918) 696-7818
6777,401437000679,HENRYETTA ES,1801 TROY AIKMAN DR,HENRYETTA,OK,74437,4437,(918) 652-6587
7097,400756002374,BILL WALLACE EC CTR,2301 S 16TH ST,CHICKASHA,OK,73018,3018,(405) 222-6544
7576,402868029735,SANGRE RIDGE ES,2500 SOUTH SANGRE ROAD,STILLWATER,OK,74074,4074,(405) 533-6360
8711,400804000332,CLEVELAND HS,323 NORTH GILBERT AVE,CLEVELAND,OK,74020,4020,(918) 358-2210
9503,402025001868,WINDING CREEK ES,1401 NORTHEAST 12TH STREET,MOORE,OK,73160,3160,(405) 735-4510
41835,401197000557,FORT GIBSON INTERMEDIATE ES,500 SOUTH ROSS AVENUE,FORT GIBSON,OK,74434,4434,(918) 478-2465
41966,403336001839,YALE MS,315 EAST CHICAGO,YALE,OK,74085,4085,(918) 387-2434
42152,401035000457,DURANT MS,802 WEST WALNUT STREET,DURANT,OK,74701,4701,(580) 924-1321
43946,402277001192,STAR SPENCER HS,3001 NORTH SPENCER ROAD,SPENCER,OK,73084,3084,(405) 587-8800
44022,401986000945,ROOSEVELT ES,129 G STREET NORTHEAST,MIAMI,OK,74354,4354,(918) 542-5576
44093,401263002732,GERONIMO MS,800 WEST MAIN STREET,GERONIMO,OK,73543,3543,(580) 355-3160
45272,402673002075,SALINA HS,910 NORTH SALTWELL,SALINA,OK,74365,4365,(918) 434-5347
45799,402655001390,RUSH SPRINGS HS,601 WEST BLAKLEY,RUSH SPRINGS,OK,73082,3082,(580) 476-3596
45931,403024001607,EAST CENTRAL HS,12150 EAST 11TH STREET,TULSA,OK,74128,4128,(918) 746-9700
48269,400002100848,OKLAHOMA UNION ES,RURAL ROUTE 1 # 377-7,SOUTH COFFEYVILLE,OK,74072,4072,(918) 255-6550
48272,402008002068,MILLWOOD HS,6718 N MARTIN LUTHER KING AVE,OKLAHOMA CITY,OK,73111,3111,(405) 478-0504
48926,402172001071,CLEVELAND ES,500 NORTH SHERRY AVENUE,NORMAN,OK,73069,3069,(405) 366-5875
49457,402859001499,STERLING HS,400 S TIGER BLVD,STERLING,OK,73567,3567,(580) 365-4303
49458,402328001235,OWASSO HS,12901 E 86TH ST N,OWASSO,OK,74055,4055,(918) 272-5334
49824,403024002730,DUAL LANGUAGE ACADEMY,2703 N YORKTOWN PL,TULSA,OK,74110,4110,(918) 925-1400
70747,402355002123,JEFFERSON EARLY LRNING CTR,500 EAST GARVIN,PAULS VALLEY,OK,73075,3075,(405) 238-6413
73249,400003202357,HYDRO-EAKLY MS,407 EAST SEVENTH STREET,HYDRO,OK,73048,3048,(405) 663-2246
74325,400846002279,COMANCHE MS,1030 ASH AVENUE,COMANCHE,OK,73529,3529,(580) 439-2922
78178,403024029791,MITCHELL ES,733 NORTH 73RD EAST AVENUE,TULSA,OK,74115,4115,(918) 833-8740
79118,402733001444,BLANCHE THOMAS HS,708 E WASHINGTON,SENTINEL,OK,73664,3664,(580) 393-2112
55580,400345000088,AVANT PUBLIC SCHOOL,1ST CHEROKEE AVE,AVANT,OK,74001,4001,(918) 263-2135
57123,403318002841,WOODWARD MS NORTH CAMPUS,913 MAPLE,WOODWARD,OK,73802,3802,(580) 256-5357
57305,400079702843,OLUSTEE-ELDORADO HS,606 E 6TH,OLUSTEE,OK,73560,3560,(580) 648-2243
57702,400077402862,TULSA SCHL ARTS SCIENCES HS,1202 W EASTON,TULSA,OK,74127,4127,(405) 828-7727
58079,400924000388,CUSHING MS,521 SOUTH HARMONY ROAD,CUSHING,OK,74023,4023,(918) 225-1311
80919,402757001463,SHAWNEE HS,1001 NORTH KENNEDY STREET,SHAWNEE,OK,74801,4801,(405) 275-3084
83069,402796001484,SOPER ES,911 ST LOUIS ST,SOPER,OK,74759,4759,(580) 345-2211
85684,402172001079,MADISON ES,500 JAMES DRIVE,NORMAN,OK,73072,3072,(405) 366-5910
86367,402385002701,PERRY JHS,901 ELM STREET,PERRY,OK,73077,3077,(580) 336-2265
86504,403024001609,EDISON PREPARATORY MS,2906 EAST 41ST STREET,TULSA,OK,74105,4105,(918) 746-8500
87773,402025001002,SOUTHGATE-RIPPETOE ES,500 NORTH NORMAN AVENUE,MOORE,OK,73160,3160,(405) 735-4480
89310,402088001026,MULDROW ES,101 SOUTH MAIN,MULDROW,OK,74948,4948,(918) 427-3316
12609,401569000737,JAY MS,470 EAST MONROE,JAY,OK,74346,4346,(918) 253-8510
13127,402100001969,MUSTANG NORTH MS,10901 SW 15TH STREET,YUKON,OK,73099,3099,(405) 324-2236
15500,403042029678,TUTTLE INTERMEDIATE ES,402 E OAK,TUTTLE,OK,73089,3089,(405) 381-2368
15558,402529001184,JAMES L. CAPPS MS,4020 NORTH GROVE AVENUE,WARR ACRES,OK,73122,3122,(405) 787-3660
15559,402529001347,WINDSOR HILLS ES,2909 NORTH ANN ARBOR AVENUE,OKLAHOMA CITY,OK,73127,3127,(405) 942-8673
16124,400272000023,ALINE-CLEO HS,301 EAST ASH,ALINE,OK,73716,3716,(580) 463-2255
18740,400906000381,CROOKED OAK HS,1901 SOUTHEAST 15TH STREET,OKLAHOMA CITY,OK,73129,3129,(405) 677-3452
18998,400975000418,DEPEW ES,500 7TH ST,DEPEW,OK,74028,4028,(918) 324-5368
19752,400363029821,RANCH HEIGHTS ES,5100 DAVID LANE,BARTLESVILLE,OK,74005,4005,(918) 333-3810
90744,403024029770,CELIA CLINTON ES,1740 NORTH HARVARD AVENUE,TULSA,OK,74115,4115,(918) 746-9320
91449,401356000634,GUTHRIE JHS,705 EAST OKLAHOMA AVENUE,GUTHRIE,OK,73044,3044,(405) 282-5936
92208,403024029790,MCKINLEY ES,6703 EAST KING STREET,TULSA,OK,74115,4115,(918) 833-8720
93065,401968000938,MEEKER HS,214 E CARL HUBBELL BLVD,MEEKER,OK,74855,4855,(405) 788-4540
93223,402025000988,CENTRAL ES,123 NORTHWEST SECOND STREET,MOORE,OK,73160,3160,(405) 735-4140
93382,401995000956,DEL CITY ES,2400 EPPERLY DRIVE,DEL CITY,OK,73115,3115,(405) 671-8640
95331,400813002063,COALGATE HS,111 WEST CEDAR,COALGATE,OK,74538,4538,(580) 927-2592
96777,402817002316,SPERRY ES,400 WEST MAIN STREET,SPERRY,OK,74073,4073,(918) 288-7213
97294,401059000471,CHISHOLM ES,2300 SOUTHEAST 33RD STREET,EDMOND,OK,73013,3013,(405) 340-2950
98912,403003001570,TIPTON ES,1000 SOUTH BROADWAY,TIPTON,OK,73570,3570,(580) 667-5268
99357,400003202286,HYDRO-EAKLY HS,407 EAST SEVENTH STREET,HYDRO,OK,73048,3048,(405) 663-2246
99460,400549002362,LIBERTY ES,4300 SOUTH 209TH EAST AVENUE,BROKEN ARROW,OK,74014,4014,(918) 259-4470
63956,401059001979,NORTH HS,215 WEST DANFORTH ROAD,EDMOND,OK,73003,3003,(405) 340-2875
20088,403204001771,WAYNOKA ES,2134 LINCOLN STREET,WAYNOKA,OK,73860,3860,(580) 824-4341
21279,400246000009,ADAIR HS,101 SOUTH HARLEY HUGHES AVE,ADAIR,OK,74330,4330,(918) 785-2424
21554,400930002776,CYRIL JHS,326 W WINDLE AVE,CYRIL,OK,73029,3029,(580) 464-2272
21779,401158000547,FELT ES,101 SOUTH LINCOLN,FELT,OK,73937,3937,(580) 426-2220
21948,402868029739,RICHMOND ES,201 WEST RICHMOND ROAD,STILLWATER,OK,74075,4075,(405) 533-6400
23310,401365000646,HAMMON ES,802 SHOCKEY ST,HAMMON,OK,73650,3650,(580) 473-2289
23621,403348001851,INDEPENDENCE INTERMEDIATE SCHL,500 EAST VANDAMENT AVENUE,YUKON,OK,73099,3099,(405) 265-1352
24969,402280001211,DUNBAR INTERMEDIATE ES,1421 E MARTIN LUTHER KING DR,OKMULGEE,OK,74447,4447,(918) 758-2050
26335,400450002665,NORTH INTERMEDIATE SCHOOL,6941 EAST 121ST STREET SOUTH,BIXBY,OK,74008,4008,(918) 366-2669
28286,400306000057,ANTLERS HS,805 BEARCAT DRIVE,ANTLERS,OK,74523,4523,(580) 298-2141
28916,402265001108,OKEENE ES,318 N 6TH,OKEENE,OK,73763,3763,(580) 822-3425
28994,403159001748,WAPANUCKA ES,502 S CHOCTAW,WAPANUCKA,OK,73461,3461,(580) 937-4288
32461,402380001260,PERKINS-TRYON HS,1003 E HWY 33,PERKINS,OK,74059,4059,(405) 547-5724
33340,402319001231,OSAGE PUBLIC SCHOOL,7960 WEST 490,PRYOR,OK,74361,4521,(918) 825-2550
33803,403024001622,HAMILTON ES,2316 NORTH NORWOOD PLACE,TULSA,OK,74115,4115,(918) 746-9440
34625,403207029660,BURCHAM ES,1401 NORTH LARK STREET,WEATHERFORD,OK,73096,3096,(580) 774-0812
37927,402172001074,JACKSON ES,520 WYLIE ROAD,NORMAN,OK,73069,3069,(405) 366-5884
100645,401197000559,FORT GIBSON MS,500 SOUTH ROSS AVENUE,FORT GIBSON,OK,74434,4434,(918) 478-2471
101642,403201029699,WAYNE MS,212 SOUTH SEIFRIED STREET,WAYNE,OK,73095,3095,(405) 449-7047
50051,400324000078,ARNETT HS,102 E HASKELL,ARNETT,OK,73832,3832,(580) 885-7285
54630,400080002865,EPIC BLENDED CHARTER TULSA MS,4101 NW 122ND ST SUITE B,OKLAHOMA CITY,OK,73120,3120,(405) 749-4550
54817,402295001223,LOMEGA ES,409 MAIN ST,LOYAL,OK,73756,3756,(405) 729-4251
45067,400831000348,COLEMAN HS,451 W MAIN STREET,COLEMAN,OK,73432,3432,(580) 937-4418
45798,403042001695,TUTTLE HS,300 N CIMARRON,TUTTLE,OK,73089,3089,(405) 381-2396
47777,401884000895,MANNFORD MS,104 GREEN VALLEY ROAD,MANNFORD,OK,74044,4044,(918) 865-4680
81536,401290001982,GORE ES,504 NORTH WINN,GORE,OK,74435,4435,(918) 489-5638
84864,402151002751,NEWCASTLE EARLY CHILDHOOD CTR,251 N E 2ND STREET,NEWCASTLE,OK,73065,3065,(405) 387-6200
86660,401497002783,HOMINY EARLY CHILDHOOD CENTER,200 SOUTH PETTIT AVENUE,HOMINY,OK,74035,4035,(918) 885-6813
87432,400267029673,ALEX HS,209 SOUTH 2ND STREET,ALEX,OK,73002,3002,(405) 785-2264
72247,402700001429,SAVANNA HS,9567 SOUTH US HWY 69,SAVANNA,OK,74565,4565,(918) 548-3777
73040,590020000201,JONES ACADEMY,909 JONES ACADEMY RD,HARTSHORNE,OK,74547,NOT AVAILABLE,(888) 767-2518
73953,402784001478,SMITHVILLE ES,339 MAIN ST,SMITHVILLE,OK,74957,4957,(580) 244-7212
73985,401059000638,RUSSELL DOUGHERTY ES,19 NORTH BOULEVARD,EDMOND,OK,73003,3003,(405) 340-2985
74869,401788002206,LITTLE AXE HS,2000 168TH AVENUE NORTHEAST,NORMAN,OK,73026,3026,(405) 329-1612
75508,400774002197,WILL ROGERS JHS,1915 NORTH FLORENCE,CLAREMORE,OK,74017,4017,(918) 923-4205
76041,401662000775,KINTA ES,205 NORTH MAIN STREET,KINTA,OK,74552,4552,(918) 768-3338
77417,400411000131,EARL HARRIS ES,4311 N ASBURY,BETHANY,OK,73008,3008,(405) 789-6673
77548,401878000889,EDISON ES,201 WEST MADISON STREET,MANGUM,OK,73554,3554,(580) 782-2703
92075,402868029737,WESTWOOD ES,502 KINGS HIGHWAY,STILLWATER,OK,74074,4074,(405) 533-6370
92149,401980000941,MERRITT HS,19693 EAST 1130 ROAD,ELK CITY,OK,73644,3644,(580) 225-5460
95281,401452001898,HILLDALE HS,300 EAST SMITH FERRY ROAD,MUSKOGEE,OK,74403,4403,(918) 683-3253
95291,400402000128,BERRYHILL MS,3128 SOUTH 63RD WEST AVENUE,TULSA,OK,74107,4107,(918) 445-6039
96445,400312000063,ARAPAHO-BUTLER ES,214 N 12TH STREET,ARAPAHO,OK,73620,3620,(580) 323-7264
96456,402172001080,MCKINLEY ES,728 SOUTH FLOOD AVENUE,NORMAN,OK,73069,3069,(405) 366-5914
97550,401641000764,KEYES HS,THIRD & MCKNAB,KEYES,OK,73947,3947,(580) 546-7231
99338,403360329845,BINGER-ONEY ES,323 S APACHE,BINGER,OK,73009,3009,(405) 656-2304
61009,400732000287,CHATTANOOGA HS,507 4TH STREET,CHATTANOOGA,OK,73528,3528,(580) 597-3347
62238,400549000207,VANDEVER ES,2200 SOUTH LIONS AVENUE,BROKEN ARROW,OK,74012,4012,(918) 259-4490
63619,401800000868,LOCUST GROVE MS,700 N HWY 82,LOCUST GROVE,OK,74352,4352,(918) 479-5244
65281,402916001534,SULPHUR HS,1021 WEST NINTH STREET,SULPHUR,OK,73086,3086,(580) 622-3174
66403,400885000373,COWETA HS,14607 S 305TH E AVE,COWETA,OK,74429,4429,(918) 486-4474
69173,402100001046,MUSTANG HS,801 S SNYDER DRIVE,MUSTANG,OK,73064,3064,(405) 376-2404
31391,400237000001,ACHILLE ES,201 N 5TH AVE,ACHILLE,OK,74720,4720,(580) 283-3002
34487,402520001321,LINCOLN ES,1635 S ELLIOTT,PRYOR,OK,74361,4361,(918) 825-0653
34891,403186001761,WATTS ES,616 EAST 6TH STREET,WATTS,OK,74964,4964,(918) 422-5131
101155,402424001278,PLAINVIEW HS,1140 SOUTH PLAINVIEW ROAD,ARDMORE,OK,73401,3401,(580) 223-5877
20694,401995000950,BARNES ES,10551 SE 59TH STREET,OKLAHOMA CITY,OK,73150,3150,(405) 739-1651
23311,400714000280,CENTRAL HS,108089 SOUTH 4670 ROAD,SALLISAW,OK,74955,4955,(918) 775-5525
24941,400685001110,OAKES ES,101 N 16TH STREET,OKEMAH,OK,74859,4859,(918) 623-1874
29189,402469001294,LIBERTY ES,505 WEST LIBERTY,PONCA CITY,OK,74601,4601,(580) 767-8040
12097,401104029615,ERICK HS,404 SOUTH OAK,ERICK,OK,73645,3645,(580) 526-3351
14389,402673001397,SALINA ES,907 NORTH SALTWELL,SALINA,OK,74365,4365,(918) 434-5300
14830,403171001754,WASHINGTON ES,101 EAST KERBY,WASHINGTON,OK,73093,3093,(405) 288-2353
16100,401524029639,HULBERT JR-SR HS (SR),316 RIDER LANE,HULBERT,OK,74441,4441,(918) 772-2501
16311,401986000942,MIAMI HS,2000 EAST CENTRAL AVENUE,MIAMI,OK,74354,4354,(918) 542-4421
17889,400735000290,CHECOTAH HS,491 W PAUL CARR DRIVE,CHECOTAH,OK,74426,4426,(918) 473-2239
19158,400900029697,CRESCENT HS,106 NORTH MAGNOLA,CRESCENT,OK,73028,3028,(405) 969-2545
1140,403360229844,FORT COBB-BROXTON HS,514 W TOWAKONIE AVE,FORT COBB,OK,73038,3038,(405) 643-2820
1616,402938002727,HERITAGE ES,333 SOUTHRIDGE RD,TAHLEQUAH,OK,74464,4464,(918) 458-4180
4206,402380002378,PERKINS-TRYON INTERMEDIATE ES,1114 E KIRK,PERKINS,OK,74059,4059,(405) 547-5713
6598,403024002854,CLINTON WEST ES,2224 W 41ST ST,TULSA,OK,74107,4107,(918) 746-8860
7892,400864000365,CORDELL JHS,606 E THIRD ST,CORDELL,OK,73632,3632,(580) 832-3420
7952,402541029745,QUINTON HS,210 N J STREET,QUINTON,OK,74561,4561,(918) 469-3309
8326,402988602106,MOUNTAIN VIEW-GOTEBO ES,124 S 1ST ST,MOUNTAIN VIEW,OK,73062,3062,(580) 347-2214
9047,401359000635,ACADEMY ES,712 NORTH ACADEMY,GUYMON,OK,73942,3942,(580) 338-4370
9329,401029000449,HORACE MANN ES,1201 WHISENANT STREET,DUNCAN,OK,73533,3533,(580) 255-6530
60541,401920000908,MARYETTA PUBLIC SCHOOL,470819 E 810 RD,STILWELL,OK,74960,9452,(918) 696-2285
62764,400957000413,DEER CREEK HS,6101 NORTHWEST 206TH STREET,EDMOND,OK,73012,3012,(405) 348-5720
63513,401572001878,JENKS EAST ES,8925 S HARVARD,JENKS,OK,74037,4037,(918) 299-4411
64076,400612029647,CACHE HS,102 SW H AVE,CACHE,OK,73527,3527,(580) 429-3214
65230,403024001679,WILL ROGERS COLLEGE HS,3909 EAST FIFTH PLACE,TULSA,OK,74112,4112,(918) 833-9000
67813,401290002202,GORE HS,1200 NORTH HIGHWAY 10,GORE,OK,74435,4435,(918) 489-5587
67824,403012002236,TONKAWA MS,500 EAST NORTH AVENUE,TONKAWA,OK,74653,4653,(580) 628-2566
68245,401368000650,HANNA HS,301 E SECOND ST,HANNA,OK,74845,4845,(918) 657-2527
102780,400450002926,WEST INTERMEDIATE,14901 S HARVARD AVE,BIXBY,OK,74008,4008,(918) 366-1763
70146,400237000002,ACHILLE HS,101 N 5TH AVE,ACHILLE,OK,74720,4720,(580) 283-3260
71247,400639000249,CANADIAN HS,1 BELT STREET,CANADIAN,OK,74425,4425,(918) 339-2705
73487,402277002325,EMERSON ALTERNATIVE ED. (ES),715 NORTH WALKER AVENUE,OKLAHOMA CITY,OK,73102,3102,(405) 587-7900
74097,400951000411,DAVIS MS,400 EAST ATLANTA AVENUE,DAVIS,OK,73030,3030,(580) 369-5565
75919,402739001445,SEQUOYAH ES,16441 SOUTH 4180 ROAD,CLAREMORE,OK,74017,4017,(918) 341-6111
78170,401968000939,MEEKER MS,214 E CARL HUBBELL BLVD,MEEKER,OK,74855,4855,(405) 788-4540
78348,401545000731,INDIANOLA ES,900 SOUTH HWY 113,INDIANOLA,OK,74442,4442,(918) 558-0800
79187,401035000461,WASHINGTON IRVING ES,812 WEST LOCUST STREET,DURANT,OK,74701,4701,(580) 924-3805
79634,402730001439,WILSON ES,1400 N HARDING,SEMINOLE,OK,74818,4818,(405) 382-1431
12553,401359000641,NORTHEAST ES,220 MEDICAL DRIVE,GUYMON,OK,73942,3942,(580) 338-4380
12667,401353000626,GROVE HS,300 FORD ROAD,GROVE,OK,74344,4344,(918) 786-3003
13588,403348001844,CENTRAL ES,300 SOUTH NINTH STREET,YUKON,OK,73099,3099,(405) 354-2501
15427,402277001130,DOUGLASS HS,900 N MARTIN LUTHER KING AVE,OKLAHOMA CITY,OK,73117,3117,(405) 587-4200
15564,402262001107,OKAY HS,8611 N 49TH STREET EAST,OKAY,OK,74446,4446,(918) 682-0371
16184,402631001386,ROLAND MS,300 RANGER BLVD,ROLAND,OK,74954,4954,(918) 427-4601
19060,402523002239,PURCELL JHS,2010 NORTH GREEN AVENUE,PURCELL,OK,73080,3080,(405) 442-0099
19936,402469001290,E. M. TROUT ES,2109 EAST PROSPECT,PONCA CITY,OK,74604,4604,(580) 767-8070
937,400375000115,BEAVER ES,807 AVE G,BEAVER,OK,73932,3932,(580) 625-3444
1454,400717000281,CENTRAL HIGH ES,274801 BRONCHO RD,MARLOW,OK,73055,3055,(580) 658-2970
3722,400375000116,BEAVER HS,807 AVE G,BEAVER,OK,73932,3932,(580) 625-3444
6165,400080002869,EPIC BLENDED CHARTER TULSA HS,1900 NW EXPY FLOOR R3,OKLAHOMA CITY,OK,73118,3118,(405) 749-4550
7229,400687000270,CATOOSA HS,2000 SOUTH CHEROKEE STREET,CATOOSA,OK,74015,4015,(918) 266-8619
7433,402178001089,CHISHOLM ES,300 REDWOOD,ENID,OK,73701,3701,(580) 237-5645
20064,400306000762,OBUCH MS,304 NE B ST,ANTLERS,OK,74523,4523,(580) 298-3308
21149,401059001864,ANGIE DEBO ES,16060 NORTH MAY AVENUE,EDMOND,OK,73013,3013,(405) 340-2270
21468,400318029631,JEFFERSON ES,333 CARTER STREET SE,ARDMORE,OK,73401,3401,(580) 223-2474
26997,401005000436,DOVER ES,201 N TAYLOR,DOVER,OK,73734,3734,(405) 828-4205
30547,402100001869,MUSTANG LAKEHOMA ES,224 S CLEAR SPRINGS ROAD,MUSTANG,OK,73064,3064,(405) 376-2409
30582,400504000177,BOSWELL ES,604 7TH ST,BOSWELL,OK,74727,4727,(580) 566-2735
30788,400363029819,JANE PHILLIPS ES,1500 SOUTH ROGERS AVENUE,BARTLESVILLE,OK,74003,4003,(918) 336-9479
31854,403006001572,TISHOMINGO ES,508 N NESHOBA,TISHOMINGO,OK,73460,3460,(580) 371-9190
31990,402679001400,LIBERTY ES,136 SOUTH DOGWOOD STREET,SALLISAW,OK,74955,9304,(918) 775-4741
34644,402025001966,BRIARWOOD ES,14901 SOUTH HUDSON AVENUE,OKLAHOMA CITY,OK,73170,3170,(405) 735-4110
36638,400729002375,CHANDLER JHS,901 SOUTH CHS STREET,CHANDLER,OK,74834,4834,(405) 258-0183
57233,400255002852,AGRA JHS,516 LINCOLN,AGRA,OK,74824,4824,(918) 375-2261
59686,403087001710,VALLIANT ES,604 EAST LUCAS STREET,VALLIANT,OK,74764,4764,(580) 933-7248
82482,402277002275,BELLE ISLE MS,5904 NORTH VILLA AVENUE,OKLAHOMA CITY,OK,73112,3112,(405) 587-6600
82998,400463000152,BLACKWELL MS,1041 SOUTH FIRST STREET,BLACKWELL,OK,74631,4631,(580) 363-2100
84511,401521002774,HUGO INTERMEDIATE,505 N 8TH STREET,HUGO,OK,74743,4743,(580) 326-0106
85647,400423000132,BETHEL ES,36000 CLEARPOND ROAD,SHAWNEE,OK,74801,4801,(405) 273-7632
86112,402397002712,NORTHWOOD ES,14100 NORTHWOOD DRIVE,PIEDMONT,OK,73078,3078,(405) 373-5151
86213,402529001337,HILLDALE ES,4801 NORTHWEST 16TH STREET,OKLAHOMA CITY,OK,73127,3127,(405) 942-8600
90922,400600000227,BUTNER ES,HWY 56 AND YAHOLA,CROMWELL,OK,74837,4837,(405) 944-5526
91154,403219029652,WELCH HS,707 S CURTIS ST,WELCH,OK,74369,4369,(918) 788-3129
93376,400831000347,COLEMAN ES,451 W MAIN STREET,COLEMAN,OK,73432,3432,(580) 937-4418
93603,401092000518,HOOVER ES,2800 WEST MAINE AVENUE,ENID,OK,73703,3703,(580) 366-7350
95383,401020000440,BRADLEY ES,508 SOUTH SKINNER AVENUE,DRUMRIGHT,OK,74030,4030,(918) 352-9519
95384,401242000583,GARBER ES,108 EAST GARBER ROAD,GARBER,OK,73738,3738,(580) 863-2232
96458,400864000364,CORDELL HS,606 EAST THIRD ST,CORDELL,OK,73632,3632,(580) 832-3420
96490,402469001295,LINCOLN ES,1501 WEST GRAND AVENUE,PONCA CITY,OK,74601,4601,(580) 767-8050
41334,403024001591,MEMORIAL JHS,7502 EAST 57TH STREET,TULSA,OK,74145,4145,(918) 833-9520
41702,403042001696,TUTTLE MS,604 S CIMARRON ROAD,TUTTLE,OK,73089,3089,(405) 381-2062
42673,403222029714,SPENCE MEMORIAL ES,302 E 6TH ST,WELEETKA,OK,74880,4880,(405) 786-2346
42860,401980000940,MERRITT ES,19693 EAST 1130 ROAD,ELK CITY,OK,73644,3644,(580) 225-5460
46862,401995000954,COUNTRY ESTATES ES,1609 FELIX PLACE,OKLAHOMA CITY,OK,73110,3110,(405) 739-1661
47231,400078200608,GRAHAM ES,116118 HWY 84,WELEETKA,OK,74880,4880,(918) 652-8935
48252,403030001687,TURNER HS,22069 STATE HWY 32,BURNEYVILLE,OK,73430,3430,(580) 276-3873
70755,400669000262,CARNEY HS,204 SOUTH CARNEY STREET,CARNEY,OK,74832,4832,(405) 865-2344
71458,401089002718,EMPIRE MS,276803 E 1760 ROAD,DUNCAN,OK,73533,3533,(580) 255-7515
72783,401824000872,LONE STAR PUBLIC SCHOOL,2945 S HICKORY,SAPULPA,OK,74066,4066,(918) 224-0201
72818,403111002277,VERDIGRIS JHS,26505 S 4110 RD,CLAREMORE,OK,74019,4019,(918) 266-6343
73931,402097001968,SADLER ARTS ACADEMY,800 ALTAMONT,MUSKOGEE,OK,74401,4401,(918) 684-3820
74186,401086000502,ELMORE CITY-PERNELL ES,100 NORTH MUSE AVENUE,ELMORE CITY,OK,73433,3433,(580) 788-2869
74580,400807000337,SOUTHWEST ES,1903 OPAL STREET,CLINTON,OK,73601,3601,(580) 323-1290
76266,402163002370,CURTIS INGE MS,1201 NORTH EIGHTH STREET,NOBLE,OK,73068,3068,(405) 872-3495
77773,401548000733,INOLA ES,450 NW B STREET,INOLA,OK,74036,4036,(918) 543-2271
77842,402529001334,CORONADO HEIGHTS ES,5911 NORTH SAPULPA AVENUE,OKLAHOMA CITY,OK,73112,3112,(405) 942-8593
78203,402739002706,SEQUOYAH MS,16403 SOUTH 4180 ROAD,CLAREMORE,OK,74017,4017,(918) 343-5105
78226,400549002771,CREEKWOOD ES,1301 EAST ALBANY STREET,BROKEN ARROW,OK,74012,4012,(918) 259-4500
78322,401215000569,FREDERICK HS,312 N 15TH,FREDERICK,OK,73542,3542,(580) 335-5521
90832,401944000924,PUTERBAUGH MS,1100 EAST SOUTH STREET,MCALESTER,OK,74501,4501,(918) 423-5445
92150,401059001965,CHARLES HASKELL ES,1701 NORTHWEST 150TH STREET,EDMOND,OK,73013,3013,(405) 340-2945
93850,402910001531,STUART HS,8837 FOURTH STREET,STUART,OK,74570,4570,(918) 546-2474
95443,401968000937,MEEKER ES,400 SOUTH CULVER STREET,MEEKER,OK,74855,4855,(405) 788-4540
95654,401188000553,FORGAN ES,504 WEST MAIN,FORGAN,OK,73938,3938,(580) 487-3366
97883,401323000614,GRAND VIEW PUBLIC SCHOOL,15481 NORTH JARVIS ROAD,TAHLEQUAH,OK,74464,4464,(918) 456-5131
99405,401617000753,KELLYVILLE ES,144 S ELM,KELLYVILLE,OK,74039,4039,(918) 247-6133
60417,401005000437,DOVER HS,201 NORTH TAYLOR,DOVER,OK,73734,3734,(405) 828-4204
61980,403237029721,WESTERN HEIGHTS HS,8201 SOUTHWEST 44TH STREET,OKLAHOMA CITY,OK,73179,3179,(405) 350-3435
62341,400549002795,BROKEN ARROW HS,1901 E ALBANY,BROKEN ARROW,OK,74012,4012,(918) 259-4310
62680,402028001005,MOORELAND ES,323 NORTH ELM,MOORELAND,OK,73852,3852,(580) 994-5520
62837,401638000760,KETCHUM ES,400 NORTH BOSTON,KETCHUM,OK,74349,4349,(918) 782-9543
63421,402277001196,TAFT MS,2901 NORTHWEST 23RD STREET,OKLAHOMA CITY,OK,73107,3107,(405) 587-8000
63620,401956000932,MCLOUD HS,1100 SEIKEL,MCLOUD,OK,74851,4851,(405) 964-3314
64077,402160001061,NINNEKAH ES,810 E DELL STREET,NINNEKAH,OK,73067,3067,(405) 222-0420
64901,401725000822,MACARTHUR HS,4402 EAST GORE BOULEVARD,LAWTON,OK,73501,3501,(580) 355-5230
66350,401725000803,CLEVELAND ES,1202 SOUTHWEST 27TH STREET,LAWTON,OK,73505,3505,(580) 353-8861
68753,401230000578,FORT TOWSON HS,205 NORTHWEST 3RD,FORT TOWSON,OK,74735,4735,(580) 873-2325
69860,402764001472,SILO ES,122 WEST BOURNE STREET,DURANT,OK,74701,4701,(580) 924-7001
41371,401071000494,ELGIN HS,520 K STREET,ELGIN,OK,73538,3538,(580) 492-3670
41881,401725000839,WOODLAND HILLS ES,405 NORTHWEST WOODLAND DRIVE,LAWTON,OK,73505,3505,(580) 536-7991
43816,401884002301,MANNFORD UPPER ES,102 GREEN VALLEY ROAD,MANNFORD,OK,74044,4044,(918) 865-3092
46679,402559001365,RED OAK ES,404 NORTH MAIN,RED OAK,OK,74563,4563,(918) 754-2426
46946,402160029672,SENIOR HS,810 S WALNUT,NINNEKAH,OK,73067,3067,(405) 224-4299
47132,402709001435,SCHULTER HS,23507 FLAX AVE,SCHULTER,OK,74460,4460,(918) 652-8200
48680,402628001382,ROFF ES,100 N BROADWAY,ROFF,OK,74865,4865,(580) 456-7251
48955,403024001613,EUGENE FIELD ES,2249 SOUTH PHOENIX AVENUE,TULSA,OK,74107,4107,(918) 746-8840
48972,400642029614,CANEY HS,372 N COBB AVE,CANEY,OK,74533,4533,(580) 889-6607
81457,402775001476,NEWMAN MS,2000 WEST OAK STREET,SKIATOOK,OK,74070,4070,(918) 396-2307
81784,403348001847,SHEDECK ES,2100 SOUTH HOLLY AVENUE,YUKON,OK,73099,3099,(405) 354-6601
82223,400077202769,SANKOFA MIDDLE SCHOOL,111 EAST FIRST STREET,TULSA,OK,74120,4120,(918) 340-5120
84178,400936000401,DAHLONEGAH PUBLIC SCHOOL,468739 EAST 878 ROAD,STILWELL,OK,74960,4960,(918) 696-7807
85843,401059000475,CIMARRON MS,3701 SOUTH BRYANT AVENUE,EDMOND,OK,73013,3013,(405) 340-2935
85986,401656001879,KINGFISHER MS,601 SOUTH 13TH STREET,KINGFISHER,OK,73750,3750,(405) 375-6607
88845,401599000750,KANSAS ES,275 W MAIN,KANSAS,OK,74347,4347,(918) 868-2427
10520,400546000195,EDISON ES,111 W 9TH AVE,BRISTOW,OK,74010,4010,(918) 367-5521
13237,401800000866,LOCUST GROVE EARLY LRNING CTR,695 E JOE KOELSCH,LOCUST GROVE,OK,74352,4352,(918) 479-5233
16310,400291000046,AMBER-POCASSET ES,511 WASHINGTON,AMBER,OK,73079,3079,(405) 224-5768
17118,401656000771,KINGFISHER HS,1500 SOUTH 13TH STREET,KINGFISHER,OK,73750,3750,(405) 375-4191
17494,401413001863,HEALDTON MS,3933 HOSPITAL RD,HEALDTON,OK,73438,3438,(580) 229-0303
19441,401599029662,KANSAS HS,700 N WOOD AVE,KANSAS,OK,74347,4347,(918) 868-3308
19623,402700001428,SAVANNA ES,9567 SOUTH US HWY 69,SAVANNA,OK,74565,4565,(918) 548-3777
51917,400606029751,BYNG JHS,214 STOKES DRIVE,ADA,OK,74820,4820,(580) 310-6744
53057,401995001408,SCHWARTZ ES,12001 SE 104TH STREET,OKLAHOMA CITY,OK,73165,3165,(405) 794-4703
54101,400078902808,OYA CHARTER MANITOU 9TH-12TH,300 S BROADWAY,MANITOU,OK,73555,3555,(580) 397-3511
54114,401725002828,FREEDOM ES,5720 GERONIMO ROAD,LAWTON,OK,73503,3503,(580) 713-0060
22965,400582029692,BUFFALO VALLEY HS,4384 SOUTHEAST HIGHWAY 63,TALIHINA,OK,74571,4571,(918) 522-4426
23317,401059000481,SEQUOYAH MS,1125 EAST DANFORTH ROAD,EDMOND,OK,73034,3034,(405) 340-2900
23479,402277001116,BRITTON ES,1215 NORTHWEST 95TH STREET,OKLAHOMA CITY,OK,73114,3114,(405) 587-6100
24746,401359002669,PRAIRIE ES,1501 E HWY 3,GUYMON,OK,73942,3942,(580) 338-0420
25195,402097001042,TONY GOETZ ES,2412 HASKELL BLVD,MUSKOGEE,OK,74403,4403,(918) 684-3810
38013,401452000683,HILLDALE MS,400 EAST SMITH FERRY ROAD,MUSKOGEE,OK,74403,4403,(918) 683-0763
646,400924002810,CUSHING UPPER ES,316 NORTH STEELE,CUSHING,OK,74023,4023,(918) 225-4497
648,401059002819,HERITAGE ES,400 E SORGHUM MILL RD,EDMOND,OK,73034,3034,(405) 340-2800
2058,402529001341,OVERHOLSER ES,7900 NORTHWEST 36TH STREET,BETHANY,OK,73008,3008,(405) 789-7913
5162,402118001053,NAVAJO HS,15695 SOUTH COUNTY ROAD 210,ALTUS,OK,73521,3521,(580) 482-7742
5400,402868029742,STILLWATER HS,1224 NORTH HUSBAND,STILLWATER,OK,74075,4075,(405) 533-6450
6086,400080002864,EPIC BLENDED CHARTER TULSA ES,1900 NW EXPY FLOOR R3,OKLAHOMA CITY,OK,73118,3118,(405) 749-4550
7616,402361001255,PAWNEE HS,615 DENVER STREET,PAWNEE,OK,74058,4058,(918) 762-3676
7876,400450000147,CENTRAL ES,201 SOUTH MAIN STREET,BIXBY,OK,74008,4008,(918) 366-2282
9776,400648000253,CANTON ES,HIGHWAY 58 SOUTH,CANTON,OK,73724,3724,(580) 886-2251
101701,403207001776,WEATHERFORD HS,1500 NORTH WASHINGTON STREET,WEATHERFORD,OK,73096,3096,(580) 772-3385
102774,400080402904,ESCHOOL VIRTUAL CHARTER MS,2403 S DIVISION SUITE B,GUTHRIE,OK,73044,3044,(405) 724-4643
102784,401272002896,GLENPOOL LOWER ES,140 W 141ST,GLENPOOL,OK,74033,4033,(918) 322-9500
102787,401956002911,MCLOUD EARLY CHILDHOOD CENTER,535 W PARK,MCLOUD,OK,74851,4851,(405) 964-3314
102794,402277002894,STAR SPENCER MS,3001 NORTH SPENCER ROAD,OKLAHOMA CITY,OK,73084,3084,(405) 587-8800
61688,401584000745,JONES MS,16011 EAST WILSHIRE BOULEVARD,JONES,OK,73049,3049,(405) 399-9114
62765,402550001363,RATTAN JHS,420 WEST MAIN,RATTAN,OK,74562,4562,(580) 587-2715
62766,401089029761,EMPIRE HS,276803 E 1760 ROAD,DUNCAN,OK,73533,3533,(580) 255-7515
65282,400002129712,OKLAHOMA UNION HS,RURAL ROUTE 1 # 377-7,SOUTH COFFEYVILLE,OK,74072,4072,(918) 255-6550
66291,401356000631,GUTHRIE UPPER ES,702 NORTH CROOKS DRIVE,GUTHRIE,OK,73044,3044,(405) 282-5924
66869,402764001470,SILO HS,122 WEST BOURNE STREET,DURANT,OK,74701,4701,(580) 924-7000
67398,402784001479,SMITHVILLE HS,339 MAIN ST,SMITHVILLE,OK,74957,4957,(580) 244-3281
68278,401272001981,GLENPOOL MS,140 W 141ST,GLENPOOL,OK,74033,4033,(918) 322-9500
69826,403330001833,CENTRAL ES,301 E CHICKASAW,WYNNEWOOD,OK,73098,3098,(405) 665-4371
10053,402380001259,PERKINS-TRYON ES,1008 E KIRK,PERKINS,OK,74059,4059,(405) 547-5741
10452,402100001047,MUSTANG MS,1145 S HEIGHTS DRIVE,MUSTANG,OK,73064,3064,(405) 376-2448
11048,403177001759,WATONGA MS,1200 EAGLE LANE,WATONGA,OK,73772,3772,(580) 623-7361
14840,402025029642,FISHER ES,11800 SOUTHWOOD DRIVE,OKLAHOMA CITY,OK,73170,3170,(405) 735-4180
15542,402277001186,SHIDLER ES,1415 SOUTH BYERS AVENUE,OKLAHOMA CITY,OK,73129,3129,(405) 587-4600
15563,400549001876,LYNN WOOD ES,1600 WEST QUINCY AVENUE,BROKEN ARROW,OK,74012,4012,(918) 259-4430
16318,402283001216,OKTAHA HS,531 E PRAIRIE,OKTAHA,OK,74450,4450,(918) 687-3672
18400,401572029850,SOUTHEAST ES,10222 S YALE,TULSA,OK,74137,4137,(918) 299-4411
18760,402691001422,SAPULPA HS,3 SOUTH MISSION STREET,SAPULPA,OK,74066,4066,(918) 224-6560
42167,401059001326,CENTRAL MS,500 EAST NINTH STREET,EDMOND,OK,73034,3034,(405) 340-2890
43868,401908000906,MARLOW MS,201 S 9TH STREET,MARLOW,OK,73055,3055,(580) 658-2619
45600,403237002729,BRIDGESTONE ES,1700 S COUNCIL,OKLAHOMA CITY,OK,73128,3128,(405) 350-3420
45910,402256001102,J. F. KENNEDY ES,306 E PETERSON,OILTON,OK,74052,4052,(918) 862-0389
20093,403060001911,DARNABY ES,7625 EAST 87TH STREET,TULSA,OK,74133,4133,(918) 357-4333
20835,401308000607,GRACEMONT HS,417 EAST MCCALL,GRACEMONT,OK,73042,3042,(405) 966-2233
23354,403135001536,WAGONER MS,500 BULLDOG CIRCLE,WAGONER,OK,74467,4467,(918) 485-9541
23897,400663000259,CARNEGIE HS,408 WEST WILDCAT DRIVE,CARNEGIE,OK,73015,3015,(580) 654-1266
26294,401590000748,JUSTICE PUBLIC SCHOOL,36507 EW 1310,WEWOKA,OK,74884,4884,(405) 257-2962
26700,400729001709,PARK ROAD ES,1601 WEST PARK ROAD,CHANDLER,OK,74834,4834,(405) 258-1828
26780,400078702787,JOHN W REX CHARTER ELEMENTARY,500 WEST SHERIDAN,OKLAHOMA CITY,OK,73102,5001,(405) 587-8100
26847,400606000230,BYNG ES,214 STOKES DRIVE,ADA,OK,74820,4820,(580) 310-6723
27694,403060029851,JARMAN ES,9015 EAST 79TH STREET,TULSA,OK,74133,4133,(918) 357-4335
70432,400552000209,BROKEN BOW HS,108 WEST FIFTH STREET,BROKEN BOW,OK,74728,4728,(580) 584-3365
72888,403033001688,TURPIN ES,316 S LEE,TURPIN,OK,73950,3950,(580) 778-3331
73187,400363001962,RICHARD KANE ES,801 EAST 13TH STREET,BARTLESVILLE,OK,74003,4003,(918) 337-3711
73336,402868029738,WILL ROGERS ES,1211 NORTH WASHINGTON,STILLWATER,OK,74075,4075,(405) 533-6380
73464,402691002341,FREEDOM ES,9171 FREEDOM ROAD,SAPULPA,OK,74066,4066,(918) 227-7838
2148,400288000043,LINCOLN ES,1540 DAVIS STREET,ALVA,OK,73717,3717,(580) 327-3008
2265,401776000859,LIBERTY HS,2727 EAST 201ST STREET SOUTH,MOUNDS,OK,74047,4047,(918) 366-8784
2359,401788000103,LITTLE AXE MS,2000 168TH AVENUE NORTHEAST,NORMAN,OK,73026,3026,(405) 329-2156
3094,403294001816,WILSON HS,1860 HEWITT ROAD,WILSON,OK,73463,3463,(580) 668-2306
4051,402112001051,NASHOBA PUBLIC SCHOOL,439670 STATE HWY 144,NASHOBA,OK,74558,4558,(918) 755-4343
4796,402910001530,STUART ES,8837 FOURTH STREET,STUART,OK,74570,4570,(918) 546-2627
8560,403024029775,EMERSON ES,909 NORTH BOSTON AVENUE,TULSA,OK,74106,4106,(918) 925-1320
9413,401926000910,MASON HS,374006 E 1000 ROAD,MASON,OK,74859,4859,(918) 623-0107
30423,400411029723,BETHANY MS,4312 N MUELLER,BETHANY,OK,73008,3008,(405) 787-3240
31680,402277001136,FILLMORE ES,5200 SOUTH BLACKWELDER AVENUE,OKLAHOMA CITY,OK,73119,3119,(405) 587-4800
34493,400687000811,WELLS MS,2000 SOUTH CHEROKEE STREET,CATOOSA,OK,74015,4015,(918) 266-8623
35742,401725002679,EISENHOWER MS,5702 WEST GORE BOULEVARD,LAWTON,OK,73505,3505,(580) 353-1040
36495,402463001288,POCOLA HS,603 EAST PRYOR AVENUE,POCOLA,OK,74902,4902,(918) 436-2042
37736,401899000901,MARIETTA MS,408 INDIAN WAY,MARIETTA,OK,73448,3448,(580) 276-9444
38381,400762000310,CHOCTAW HS,14300 NORTHEAST 10TH STREET,CHOCTAW,OK,73020,3020,(405) 390-8899
39510,400804000335,CLEVELAND INTERMEDIATE ES,705 NORTH SWAN DRIVE,CLEVELAND,OK,74020,4020,(918) 358-2210
50050,401788000864,LITTLE AXE ES,2000 168TH AVENUE NORTHEAST,NORMAN,OK,73026,3026,(405) 447-0913
53038,402103001050,SHARON-MUTUAL HS,210 S MAPLE ST,MUTUAL,OK,73853,3853,(580) 989-3231
55392,400849000358,ALEXANDER ES,601 6TH ST,COMMERCE,OK,74339,1700,(918) 675-4336
56280,400079602837,SANTA FE SOUTH PENN ES,5325 S PENNSYLVANIA AVE,OKLAHOMA CITY,OK,73119,3119,(405) 681-7480
56622,402862001501,STIDHAM PUBLIC SCHOOL,113074 S 4110,EUFAULA,OK,74432,4432,(918) 689-5241
57015,400079902856,DOVE SCIENCE ACADEMY MS,919 NW 23RD,OKLAHOMA CITY,OK,73106,3106,(405) 524-9762
57361,400540002846,BRIDGE CREEK IES,2209 EAST SOONER ROAD,BLANCHARD,OK,73010,3010,(405) 387-5824
84929,402163001064,NOBLE HS,4601 EAST ETOWAH ROAD,NOBLE,OK,73068,3068,(405) 872-3441
85956,402865001504,STIGLER MS,309 NORTHWEST 'E' STREET,STIGLER,OK,74462,4462,(918) 967-2521
86376,402154001986,NEWKIRK MS,711 SOUTH ACADEMY,NEWKIRK,OK,74647,4647,(580) 362-2516
87224,401188000554,FORGAN HS,504 WEST MAIN,FORGAN,OK,73938,3938,(580) 487-3366
88333,400729029695,EAST SIDE ES,401 SOUTH IOWA,CHANDLER,OK,74834,4834,(405) 258-1872
89939,401725000814,RIDGECREST ES,1614 NORTHWEST 47TH STREET,LAWTON,OK,73505,3505,(580) 355-6033
91273,400411000130,BETHANY HS,4500 N MUELLER,BETHANY,OK,73008,3008,(405) 789-6370
92298,402493001312,PRAGUE MS,1100 BLUE BELL,PRAGUE,OK,74864,4864,(405) 567-2281
93063,402259001104,OKARCHE ES,221 N 4TH,OKARCHE,OK,73762,3762,(405) 263-4447
97527,402277002326,EMERSON ALTERNATIVE ED. (MS),715 NORTH WALKER AVENUE,OKLAHOMA CITY,OK,73102,3102,(405) 587-7900
102763,400075302890,DOVE SCIENCE ACADEMY TULSA,280 S MEMORIAL DR,TULSA,OK,74112,4112,(918) 834-3936
102767,400080202876,NORTH ROCK CREEK ES,42400 GARRETT'S LAKE ROAD,SHAWNEE,OK,74804,4804,(405) 275-3473
102778,400450002924,EAST INTERMEDIATE,11901 E 131ST ST,BROKEN ARROW,OK,74011,4011,(918) 366-1759
102785,401356002879,CHARTER OAK ES,4900 EAST CHARTER OAK,GUTHRIE,OK,73044,3044,(405) 282-5964
21249,402088001967,MULDROW MS,700 WEST SHAWNTEL SMITH BLVD,MULDROW,OK,74948,4948,(918) 427-5421
21298,403330001835,WYNNEWOOD MS,601 E CHEROKEE ST,WYNNEWOOD,OK,73098,3098,(405) 665-4105
22243,400894000376,COYLE HS,700 S COTTINGHAM,COYLE,OK,73027,3027,(405) 466-2242
22652,402595001377,RIPLEY ES,403 E COOK ST,RIPLEY,OK,74062,4062,(918) 372-4570
23438,401359000640,HOMER LONG ES,1500 N BEAVER,GUYMON,OK,73942,3942,(580) 338-4380
24365,400735000289,MARSHALL ES,205 OWENS AVE,CHECOTAH,OK,74426,4426,(918) 473-5832
26929,402283001215,OKTAHA ES,531 E PRAIRIE,OKTAHA,OK,74450,4450,(918) 682-5665
27602,401785000862,LINDSAY ES,402 SW 8TH,LINDSAY,OK,73052,3052,(405) 756-3134
28798,401719000794,LATTA MS,13925 COUNTY ROAD 1560,ADA,OK,74820,4820,(580) 332-8180
29448,403321029702,WRIGHT CITY HS,701 SCHOOL ST,WRIGHT CITY,OK,74766,4766,(580) 981-2558
29689,402172002702,TRUMAN PRIMARY SCHOOL,601 MEADOW RIDGE ROAD,NORMAN,OK,73072,3072,(405) 366-5949
647,401059010485,WASHINGTON IRVING ES,18101 NORTH WESTERN AVENUE,EDMOND,OK,73012,3012,(405) 340-2210
650,402025002817,TIMBER CREEK ES,3501 S SUNNYLANE,MOORE,OK,73160,3160,(405) 735-4670
1537,400606029752,BYNG HS,214 STOKES DRIVE,ADA,OK,74820,4820,(580) 310-6733
1717,403024001596,CENTRAL HS,3101 WEST EDISON STREET,TULSA,OK,74127,4127,(918) 833-8400
4844,400079602829,SANTA FE SOUTH MS,6921 PLAZA MAYOR BLVD,OKLAHOMA CITY,OK,73149,3149,(405) 635-1053
5599,400075302851,DOVE SCIENCE ACADEMY TULSA HS,280 S MEMORIAL DR,TULSA,OK,74112,4112,(918) 576-6719
6693,400687000270,CATOOSA HS,2000 SOUTH CHEROKEE STREET,CATOOSA,OK,74015,4015,(918) 266-8619
7323,400945000405,DAVENPORT ES,417 BROADWAY,DAVENPORT,OK,74026,4026,(918) 377-2279
7352,402277001202,WEBSTER MS,6708 SOUTH SANTA FE AVENUE,OKLAHOMA CITY,OK,73139,3139,(405) 587-3900
8013,402397002759,PIEDMONT INTERMEDIATE ES,977 WASHINGTON AVENUE,PIEDMONT,OK,73078,3078,(405) 373-5155
8138,400540001674,BRIDGE CREEK MS,2209 EAST SOONER ROAD,BLANCHARD,OK,73010,3010,(405) 387-9681
30596,401257000587,GEARY ES,221 S GALENA,GEARY,OK,73040,3040,(405) 884-2442
31653,400549000203,RHOADES ES,320 EAST MIDWAY STREET,BROKEN ARROW,OK,74012,4012,(918) 259-4440
33850,402328001881,MILLS ES,8200 N 124TH E AVE,OWASSO,OK,74055,4055,(918) 272-2288
37986,401725000807,EDISON ES,5801 NORTHWEST COLUMBIA AVENUE,LAWTON,OK,73505,3505,(580) 536-4223
11702,400957002749,DEER CREEK INTERMEDIATE SCHOOL,21175 NORTH MACARTHUR,EDMOND,OK,73012,3012,(405) 348-4830
14014,402277001117,BUCHANAN ES,4126 NORTHWEST 18TH STREET,OKLAHOMA CITY,OK,73107,3107,(405) 587-4700
15773,400762002691,NICOMA PARK MS,1321 HICKMAN AVENUE,CHOCTAW,OK,73020,3020,(405) 390-6960
18166,401497000703,HOMINY HS,200 SOUTH PETTIT AVENUE,HOMINY,OK,74035,4035,(918) 885-2141
60098,402277001167,NORTHEAST MS,3100 NORTH KELLEY AVENUE,OKLAHOMA CITY,OK,73111,3111,(405) 587-3300
60638,401104000525,ERICK ES,205 SOUTH CEDAR,ERICK,OK,73645,3645,(580) 526-3203
60800,400696029625,CEMENT HS,201 S MAIN,CEMENT,OK,73017,3017,(405) 489-3218
61103,401995000970,STEED ES,2118 FLANNERY DRIVE,MIDWEST CITY,OK,73110,3110,(405) 739-1686
61465,403237029719,WINDS WEST ES,8300 SOUTHWEST 37TH STREET,OKLAHOMA CITY,OK,73179,3179,(405) 350-3475
61503,400756002373,LINCOLN ES,103 DAKOTA,CHICKASHA,OK,73018,3018,(405) 222-6522
61743,400002025620,FRONTIER ES,17750 VALLEY RD,RED ROCK,OK,74651,4651,(580) 723-4360
62418,402277001181,ROCKWOOD ES,3101 SOUTHWEST 24TH STREET,OKLAHOMA CITY,OK,73108,3108,(405) 587-1500
62767,400846000354,COMANCHE HS,1030 ASH AVENUE,COMANCHE,OK,73529,3529,(580) 439-2933
63177,401356000631,GUTHRIE UPPER ES,702 NORTH CROOKS DRIVE,GUTHRIE,OK,73044,3044,(405) 282-5924
63408,401719000793,LATTA HS,13925 COUNTY ROAD 1560,ADA,OK,74820,4820,(580) 332-3300
63445,401537000566,IDABEL PRIMARY SOUTH ES,1212 EAST TYLER DRIVE,IDABEL,OK,74745,4745,(580) 286-4400
64541,400972000417,DENISON PUBLIC SCHOOL,3001 EAST WASHINGTON,IDABEL,OK,74745,4745,(580) 286-3319
66395,401702000789,DEER CREEK-LAMONT HS,1192 HARRISON AVENUE,LAMONT,OK,74643,4643,(580) 388-4333
68847,402019000987,MONROE PUBLIC SCHOOL,3679 BOYD STREET,MONROE,OK,74947,4947,(918) 658-3516
69675,400483000164,BLUEJACKET ES,276 NE THIRD,BLUEJACKET,OK,74333,4333,(918) 784-2266
70846,401392000658,HARTSHORNE HS,520 SOUTH FIFTH STREET,HARTSHORNE,OK,74547,4547,(918) 297-2536
72320,400075502720,CHEROKEE IMMERSION CHARTER SCH,16951 W CHEROKEE ST,TAHLEQUAH,OK,74465,4465,(918) 207-4900
75062,401725000799,ALMOR WEST ES,6902 SOUTHWEST DELTA AVENUE,LAWTON,OK,73505,3505,(580) 536-6006
76416,403333001836,WYNONA ES,108 W 3RD,WYNONA,OK,74084,4084,(918) 846-2467
77296,401374000651,HARDESTY ES,5TH AND CRAWFORD,HARDESTY,OK,73944,3944,(580) 888-4258
77614,402688001413,PRATT ES,301WEST 35TH STREET,SAND SPRINGS,OK,74063,4063,(918) 246-1550
79963,402757000728,SHAWNEE MS,4300 NORTH UNION STREET,SHAWNEE,OK,74804,4804,(405) 273-0403
41367,402520001320,JEFFERSON ES,400 S E 6TH,PRYOR,OK,74361,4361,(918) 825-1374
43367,402151001056,NEWCASTLE ES,418 NORTHWEST 10TH STREET,NEWCASTLE,OK,73065,3065,(405) 387-6474
44595,401092000517,HAYES ES,2102 BEVERLY DRIVE,ENID,OK,73703,3703,(580) 366-7650
45231,401215000570,FREDERICK MS,300 E GRAND,FREDERICK,OK,73542,3542,(580) 335-2014
48228,401809001120,LONE GROVE PRIMARY ES,54 FIRST STREET,LONE GROVE,OK,73443,3443,(580) 657-3131
49456,400732000286,CHATTANOOGA ES,403 3RD STREET,CHATTANOOGA,OK,73528,3528,(580) 597-6638
49581,402724001437,SEILING ES,100 N ELM,SEILING,OK,73663,3663,(580) 922-7381
49682,400991000429,DICKSON ES,4762 STATE HIGHWAY 199,ARDMORE,OK,73401,3401,(580) 223-9509
49727,401239000581,GANS ES,204 N STACY,GANS,OK,74936,4936,(918) 775-2236
49920,401995001922,TINKER ES,4500 TINKER ROAD,OKLAHOMA CITY,OK,73135,3135,(405) 739-1630
82105,401995002671,DEL CITY MS,2300 LINDA LANE,DEL CITY,OK,73115,3115,(405) 671-8625
84194,402529001951,WILL ROGERS ES,8201 NORTHWEST 122ND STREET,OKLAHOMA CITY,OK,73142,3142,(405) 722-9797
84882,402163001923,JOHN K HUBBARD ES,1104 MAGUIRE ROAD,NOBLE,OK,73068,3068,(405) 872-9201
85883,401524000101,HULBERT MS,316 RIDER LANE,HULBERT,OK,74441,4441,(918) 772-2501
87424,401272000593,GLENPOOL ES,140 W 141ST,GLENPOOL,OK,74033,4033,(918) 322-9500
88084,403024002736,TRAICE MS,2740 EAST 41ST STREET NORTH,TULSA,OK,74110,4110,(918) 925-1360
52775,403207001774,WEATHERFORD EAST ES,720 N DANIEL STREET,WEATHERFORD,OK,73096,3096,(580) 772-3533
52825,401641000763,KEYES ES,THIRD & MCKNAB,KEYES,OK,73947,3947,(580) 546-7231
52844,402193001093,NOWATA ES,707 WEST OSAGE AVENUE,NOWATA,OK,74048,4048,(918) 273-0771
54774,401470000691,HOBART HS,400 N JEFFERSON STREET,HOBART,OK,73651,3651,(580) 726-5611
55406,400624029629,CALUMET HS,110 N FREEHOME,CALUMET,OK,73014,3014,(405) 893-2222
59241,401671000779,KONAWA ES,701 WEST SOUTH STREET,KONAWA,OK,74849,4849,(580) 925-3118
90831,401725000819,LAWTON HS,601 NW FORT SILL BLVD,LAWTON,OK,73507,3507,(580) 355-5170
91410,401059002303,CHEYENNE MS,1271 WEST COVELL ROAD,EDMOND,OK,73003,3003,(405) 330-7380
95298,401029000451,MARK TWAIN ES,2204 WEST OAK AVENUE,DUNCAN,OK,73533,3533,(580) 255-1324
96537,400436000140,BILLINGS ES,311 NORTH CENTRAL,BILLINGS,OK,74630,4630,(580) 725-3271
99459,400687029754,CHEROKEE ES,600 SOUTH CHEROKEE STREET,CATOOSA,OK,74015,4015,(918) 266-8630
101340,403024001581,ANDERSON ES,1921 EAST 29TH STREET NORTH,TULSA,OK,74110,4110,(918) 925-1300
106031,402097002905,6TH GRADE ACADEMY,800 BACONE ST,MUSKOGEE,OK,74403,4403,(918) 684-3860
106036,403024002920,CENTRAL MS,3101 WEST EDISON STREET,TULSA,OK,74127,4127,(918) 833-8400
62771,403024029786,LINDBERGH ES,931 SOUTH 89TH EAST AVENUE,TULSA,OK,74112,4112,(918) 833-8700
62892,401548029755,INOLA HS,801 E COMMERICAL STREET,INOLA,OK,74036,4036,(918) 543-2404
63116,401170000550,FLETCHER JHS,101 W HORNADAY,FLETCHER,OK,73541,3541,(580) 549-3031
10233,402031001008,MORRIS HS,307 SOUTH 6TH STREET,MORRIS,OK,74445,4445,(918) 733-9072
12167,403261001802,WHITE OAK PUBLIC SCHOOL,27455 SOUTH 4340 ROAD,VINITA,OK,74301,4301,(918) 256-4484
13187,401899000899,MARIETTA ES,408 INDIAN WAY,MARIETTA,OK,73448,3448,(580) 276-9444
13256,403063001706,UNION CITY ES,105 W DIVISION,UNION CITY,OK,73090,3090,(405) 483-5327
14204,400825029663,COLCORD HS,163 SOUTH COLCORD,COLCORD,OK,74338,4338,(918) 326-4107
14946,403360229842,FORT COBB-BROXTON LOWER ES,407 N 6TH,FORT COBB,OK,73038,3038,(405) 643-2334
15562,402136001055,NEW LIMA HS,116 GROSS STREET,WEWOKA,OK,74884,4884,(405) 257-6431
15760,401050000468,EARLSBORO HS,100 EAST MAIN,EARLSBORO,OK,74840,4840,(405) 997-5252
16405,401257000588,GEARY MS,311 S BLAINE,GEARY,OK,73040,3040,(405) 884-2289
16415,402529001250,MAYFIELD MS,1600 NORTH PURDUE AVENUE,OKLAHOMA CITY,OK,73127,3127,(405) 947-8693
17120,401665000777,KIOWA ES,406 E 8TH STREET,KIOWA,OK,74553,4553,(918) 432-5822
17154,402025002705,HERITAGE TRAILS ES,1801 SOUTH BRYANT AVENUE,MOORE,OK,73160,3160,(405) 735-4520
17520,401521000713,HUGO HS,704 NORTH 2ND STREET,HUGO,OK,74743,4743,(580) 326-9648
18415,403114001726,VIAN MS,301 WEST HUNTER,VIAN,OK,74962,4962,(918) 773-8631
80918,401995000963,MIDWEST CITY HS,213 E ELM STREET,MIDWEST CITY,OK,73110,3110,(405) 739-1741
81093,403024029778,PATRICK HENRY ES,3820 EAST 41ST STREET,TULSA,OK,74135,4135,(918) 746-9160
81583,400804000333,CLEVELAND MS,322 NORTH GILBERT AVE,CLEVELAND,OK,74020,4020,(918) 358-2210
82224,400077302385,HARDING FINE ARTS ACADEMY,3333 N SHARTEL AVE,OKLAHOMA CITY,OK,73118,3118,(405) 702-4322
85705,403063001707,UNION CITY HS,105 W DIVISION,UNION CITY,OK,73090,3090,(405) 483-5326
85962,400750000299,CHEYENNE ES,910 E BUSTER AVENUE,CHEYENNE,OK,73628,3628,(580) 497-2486
88293,402277001190,ESPERANZA ES,3517 SOUTH LINN AVENUE,OKLAHOMA CITY,OK,73119,3119,(405) 587-6900
88862,403159001749,WAPANUCKA HS,502 S CHOCTAW,WAPANUCKA,OK,73461,3461,(580) 937-4288
645,400807010335,CLINTON HS,2130 GARY BLVD,CLINTON,OK,73601,3601,(580) 323-1230
1049,400375000115,BEAVER ES,807 AVE G,BEAVER,OK,73932,3932,(580) 625-3444
4106,401674000785,KREMLIN-HILLSDALE HS,705 FIFTH,KREMLIN,OK,73753,3753,(580) 288-8699
4845,400079602831,SANTA FE S PATHWAYS MID COLLEG,OCCC 7777 S MAY AVE,OKLAHOMA CITY,OK,73159,3159,(405) 682-7840
5545,400077802788,OKLA. VIRTUAL CHARTER ACAD HS,1160 S DOUGLAS BLVD,MIDWEST CITY,OK,73130,3130,(405) 259-9478
8483,402172001072,EISENHOWER ES,1415 FAIRLAWN DRIVE,NORMAN,OK,73071,3071,(405) 366-5879
8906,401365000647,HAMMON HS,802 SHOCKEY ST,HAMMON,OK,73650,3650,(580) 473-2737
30597,402277001150,JEFFERSON MS,6800 SOUTH BLACKWELDER AVENUE,OKLAHOMA CITY,OK,73159,3159,(405) 587-1300
31528,401944000927,WILL ROGERS ES,1200 EAST SOUTH STREET,MCALESTER,OK,74501,4501,(918) 423-4542
32340,400463002687,BLACKWELL ES,2105 WEST FERGUSON AVENUE,BLACKWELL,OK,74631,4631,(580) 363-0118
33104,402361002090,PAWNEE MS,605 DENVER STREET,PAWNEE,OK,74058,4058,(918) 762-3055
34750,401215000567,FREDERICK ES,520 E MIMULUS,FREDERICK,OK,73542,3542,(580) 335-3513
38641,402025000995,HOUCHIN ES,3200 WEBSTER STREET,MOORE,OK,73160,3160,(405) 735-4190
40260,402100002782,CANYON RIDGE IES,3600 S SARA ROAD,OKLAHOMA CITY,OK,73099,3099,(405) 256-6955
46677,402340001242,PANOLA ES,5558 NE 104TH RD,WILBURTON,OK,74578,4578,(918) 465-0011
46699,402016000986,MOFFETT PUBLIC SCHOOL,701 BELT AVE,MOFFETT,OK,74946,4946,(918) 875-3668
47823,400243000007,WASHINGTON ES,600 SOUTH OAK AVENUE,ADA,OK,74820,4820,(580) 310-7303
48384,402172001078,LONGFELLOW MS,215 NORTH PONCA AVENUE,NORMAN,OK,73071,3071,(405) 366-5948
57223,403060002850,ELLEN OCHOA ES,12000 E 31 ST,TULSA,OK,74146,4146,(918) 357-4330
58909,402529029715,RALPH DOWNS ES,7501 WEST HEFNER ROAD,OKLAHOMA CITY,OK,73162,3162,(405) 721-4431
76300,403111002277,VERDIGRIS JHS,26505 S 4110 RD,CLAREMORE,OK,74019,4019,(918) 266-6343
76790,401770000857,LIBERTY PUBLIC SCHOOL,476490 E 1060 ROAD,MULDROW,OK,74948,4948,(918) 427-3808
77169,400486002779,BOISE CITY JHS,700 S E 1ST ST,BOISE CITY,OK,73933,3933,(580) 544-3111
78174,403288001814,WILSON HS,8867 CHESTNUT ROAD,HENRYETTA,OK,74437,4437,(918) 652-3384
78340,402688001404,NORTHWOODS FINE ARTS ACADEMY,1691 EAST OLD NORTH ROAD,SAND SPRINGS,OK,74063,4063,(918) 246-1455
79094,403024029768,BURROUGHS ES,1924 N MARTIN LUTHER KING BLVD,TULSA,OK,74106,4106,(918) 833-8780
79197,401074000498,ELK CITY IES,800 N PIONEER RD,ELK CITY,OK,73644,3644,(580) 225-2687
20176,402241001100,OAKS-MISSION HS,357 WEST MAIN,OAKS,OK,74359,4359,(918) 868-2499
21181,402277002245,THELMA R. PARKS ES,1501 NORTHEAST 30TH STREET,OKLAHOMA CITY,OK,73111,3111,(405) 587-4400
23312,401029000921,DUNCAN MS,601 CHISHOLM TRAIL PARKWAY,DUNCAN,OK,73533,3533,(580) 470-8106
26239,401674000784,KREMLIN-HILLSDALE ES,605 FIFTH,KREMLIN,OK,73753,3753,(580) 874-2283
26724,403024001601,DANIEL WEBSTER MS,2224 WEST 41ST STREET,TULSA,OK,74107,4107,(918) 746-8640
27148,403039001692,TUSKAHOMA PUBLIC SCHOOL,165269 N 4356 RD,TUSKAHOMA,OK,74574,4574,(918) 569-7737
27478,401722000795,LAVERNE ES,615 W JANE JAYROE BLVD,LAVERNE,OK,73848,3848,(580) 921-5025
28287,401029000446,DUNCAN HS,515 NORTH 19TH,DUNCAN,OK,73533,3533,(580) 255-0700
28978,402097002302,MUSKOGEE EC CTR,901 EMPORIA,MUSKOGEE,OK,74401,4401,(918) 684-3770
90986,400762000309,CHOCTAW ES,14663 NORTHEAST THIRD STREET,CHOCTAW,OK,73020,3020,(405) 390-2225
94181,402355002372,PAULS VALLEY JHS,109 WEST GUY,PAULS VALLEY,OK,73075,3075,(405) 238-1239
95173,402304002351,OOLOGAH-TALALA UPPER ES,10700 SOUTH HWY 169,OOLOGAH,OK,74053,4053,(918) 443-6041
95641,400318029636,ARDMORE MS,511 VETERANS BLVD,ARDMORE,OK,73401,3401,(580) 223-2475
96592,401986000948,WILSON ES,308 G STREET NORTHWEST,MIAMI,OK,74354,4354,(918) 542-8419
98260,402910001531,STUART HS,8837 FOURTH STREET,STUART,OK,74570,4570,(918) 546-2474
99345,402034001010,MORRISON ES,1225 W HIGHWAY 64,MORRISON,OK,73061,3061,(580) 724-3620
100253,400330000083,ASHER HS,201 SOUTH DIVISION,ASHER,OK,74826,4826,(405) 784-2331
100507,400078402376,HARDING CHARTER PREPARATORY HS,1301 NE 101ST STREET,OKLAHOMA CITY,OK,73131,3131,(405) 606-8742
101338,402277002394,JOHN MARSHALL MS,12201 NORTH PORTLAND AVENUE,OKLAHOMA CITY,OK,73120,3120,(405) 587-7200
101815,401878002321,MANGUM MS,401 NORTH OKLAHOMA AVENUE,MANGUM,OK,73554,3554,(580) 782-5912
