OBJECTID,NCESID,NAME,ADDRESS,CITY,STATE,ZIP,ZIP4,TELEPHONE
14603,720003000490,RAFAELINA E. LEBRON FLORES,URB SAN MARTIN CALLE PRICIPAL FINAL,PATILLAS,PR,723,NOT AVAILABLE,(787) 839-3419
15053,720003000314,ESCUELA DE BELLAS ARTES (ESPECIALIZADA),CARR 662 SECT LOS LLANOS BO SANTANA,ARECIBO,PR,614,NOT AVAILABLE,(787) 881-2882
18538,720003000621,JORGE ROSARIO DEL VALLE,CARR 181 KM 12 BO ESPINO,SAN LORENZO,PR,754,NOT AVAILABLE,(787) 736-5830
44399,720003001850,LLANOS DEL SUR,CALLE 3 PARC LLANOS DEL SUR BO COTO LAUREL,PONCE,PR,780,NOT AVAILABLE,(787) 848-1105
46897,720003000157,SU CERTENEJAS II,CARR 172 KM 8 HM 1 BO BAYAMON SECTOR CERTENEJAS I,CAYEY,PR,739,NOT AVAILABLE,(787) 739-6195
47070,720003000749,SU CONCHITA IGUARTUA DE SUAREZ (SU ADAMS),CARR 2 KM 1022 BO. CAIMITAL ALTO,AGUADILLA,PR,603,NOT AVAILABLE,(787) 891-9170
49878,720003000472,SU PEDRO RIVERA MOLINA,CARR 183 KM 16.3 VALENCIANO ABAJO,JUNCOS,PR,777,NOT AVAILABLE,(787) 736-4148
61341,720003000233,HAYDEE CABALLERO,URB VILLA DEL REY CALLE 12 A 4TA SECC,CAGUAS,PR,727,NOT AVAILABLE,(787) 744-4575
65499,720003000530,DR PEDRO ALBIZU CAMPOS,CARR 188 HM 3 BO SAN ISIDRO,CANOVANAS,PR,745,NOT AVAILABLE,(787) 876-4610
67453,720003000253,DR. JUAN JOSE OSUNA,CARR 1 KM 38 HM 5 BO. TURABO SECTOR VILLA ESPERA,CAGUAS,PR,725,NOT AVAILABLE,(787) 747-8629
101165,720003000930,SU EUGENIO NAZARIO SOTO,CARR 702 KM 2 HM 3 BO CUYON,COAMO,PR,769,NOT AVAILABLE,(787) 825-5759
22994,720003001637,GABRIELA MISTRAL,CARR 135 KM 65.6,LARES,PR,669,NOT AVAILABLE,(787) 829-1198
24393,720003000410,ILEANA DE GRACIA (SUPERIOR NUEVA),CARR 2 KM 31 HM 8 SECT BAJURAS,VEGA ALTA,PR,692,NOT AVAILABLE,(787) 270-3355
25557,720003001214,JOSE HORACIO CORA,CARR 753 KM 2 HM 2.2 BDA MARIN,ARROYO,PR,714,NOT AVAILABLE,(787) 839-4030
80948,720003000440,MEDIANIA ALTA ELEMENTAL,CARR 187 KM 5 HM 6 BO MEDIANIA ALTA,LOIZA,PR,772,NOT AVAILABLE,(787) 876-1200
82092,720003000045,SU JOSE R. BARRERAS,CARR 159 KM 5 HM 6,MOROVIS,PR,687,NOT AVAILABLE,(787) 862-2814
86522,720003001233,JOSE NEVAREZ LOPEZ,CALLE 33 NUEVA BO SAN JOSE,TOA BAJA,PR,951,NOT AVAILABLE,(787) 870-5246
89632,720003002051,INES MARIA MENDOZA,URB VILLAS DE CASTRO CALLE 10 ESQ 11,CAGUAS,PR,727,NOT AVAILABLE,(787) 744-6447
38102,720003000814,SU CARMEN VIGNALS ROSARIO,CARR 101 KM 18 HM 5 BO BOQUERON,CABO ROJO,PR,623,NOT AVAILABLE,(787) 851-1047
94682,720003000475,CARMEN PILAR SANTOS,CALLE PROGRESO #50 BDA PATAGONIA,HUMACAO,PR,791,NOT AVAILABLE,(787) 852-2065
97028,720003000055,FRANCISCO GARCIA BOYRIE,URB. COSTA AZUL CALLE 9,GUAYAMA,PR,785,NOT AVAILABLE,(787) 864-3879
98973,720003000230,JUSTINA VAZQUEZ MENDOZA,URB MARIOLGA CALLE SAN ANTONIO ESQ SAN JOSE,CAGUAS,PR,725,NOT AVAILABLE,(787) 743-6069
50619,720003001833,JOSE SANTOS QUINONEZ,CALLE 21 JARDINES PALMAREJO BO SAN ISIDRO,CANOVANAS,PR,745,NOT AVAILABLE,(787) 876-4493
53186,720003001863,ELPIDIO H. RIVERA,URB. RIO CRISTAL CALLE ROBERTO COLE 510,MAYAGUEZ,PR,682,NOT AVAILABLE,(787) 833-5560
54241,720003000690,AURORA MENDEZ CHARNECO,CALLE PEDRO ALBISUS CAMPOS,SAN SEBASTIAN,PR,685,NOT AVAILABLE,(787) 896-1072
55258,720003001341,SAN AGUSTIN,CALLE 6 EXT. SAN AGUSTIN,SAN JUAN,PR,924,NOT AVAILABLE,(787) 765-6946
57501,720003000426,CENTRO DE ADIESTRAMIENTO Y BELLAS ARTES,EDIF 608 BASE RAMEY,AGUADILLA,PR,604,NOT AVAILABLE,(787) 890-2008
75988,720003000033,JAIME A. COLLAZO DEL RIO,CARR 159 KM O HM 7 AVE COROZAL BO PUEBLO,MOROVIS,PR,687,NOT AVAILABLE,(787) 862-2300
78100,720003001451,SU DEMETRIO RIVERA,CARR 802 BO PALMARITO,COROZAL,PR,783,NOT AVAILABLE,(787) 859-4111
78695,720003001930,JUAN MORELL CAMPOS (MUSICA ),CALLE LOLITA TIZOL #20,PONCE,PR,731,NOT AVAILABLE,(787) 842-3974
79933,720003001277,LUIS RODRIGUEZ CABRERO,CALLE CORONA RES LUIS LLORENS TORRES,SAN JUAN,PR,921,NOT AVAILABLE,(787) 727-6095
2266,720003001589,MEDARDO CARAZO,CALLLE CRUZ FINAL # 50,TRUJILLO ALTO,PR,977,NOT AVAILABLE,(787) 760-6575
9748,720003000172,BENIGNO CARRION,CALLE LUIS BARRERAS FINAL,CAYEY,PR,736,NOT AVAILABLE,(787) 738-3087
42196,720003001006,JOSE PADIN,CARR 1 KM 83 HM 0 HACIA ALBERGUE OLIMPICO,SALINAS,PR,751,NOT AVAILABLE,(787) 824-7955
45039,720003000564,SABINO RIVERA BERRIOS,CARR 723 KM 7.4 BARRIO PULGUILLA,COAMO,PR,769,NOT AVAILABLE,(787) 857-4595
47363,720003001011,MANUEL MARTIN MONSERRATE,CALLE BALDORIOTY DE CASTRO #6,SANTA ISABEL,PR,757,NOT AVAILABLE,(787) 845-3160
48279,720003000585,SU JUAN CANCIO ORTIZ DE LA RENTA,CARR 101 KM 7 HM 6 BO PALMAREJO,LAJAS,PR,667,NOT AVAILABLE,(787) 899-2930
61412,720003002019,INES MARIA MENDOZA DE MUNOZ MARIN,CALLE BARBOSA NORTE URB ANA MARIA,CABO ROJO,PR,623,NOT AVAILABLE,(787) 254-2288
61913,720003000522,ADALBERTO SANCHEZ MORALES (ELEM. BO. ANCONES),BO ANCONES,ARROYO,PR,714,NOT AVAILABLE,(787) 271-2973
62431,720003000279,GERARDO SELLES SOLA,AVE JOSE MERCADO URB EL VERDE,CAGUAS,PR,725,NOT AVAILABLE,(787) 743-3276
63138,720003002017,ERNESTINA MENDEZ,CARR.111KM.17HM 5 BO. BAHONAMEY,SAN SEBASTIAN,PR,685,NOT AVAILABLE,(787) 896-1745
66807,720003000419,AVELINO PENA REYES,CALLE DR VIDAL #3,HUMACAO,PR,792,NOT AVAILABLE,(787) 285-6542
50325,720003001265,ERNESTO RAMOS ANTONINI,AVE BORINQUEN BO OBRERO,SAN JUAN,PR,924,NOT AVAILABLE,(787) 726-4480
57854,720003000359,DR. MAXIMO DONOSO SANCHEZ,CARR 510 KM 2 HM 4 BO LA PLENA,JUANA DIAZ,PR,795,NOT AVAILABLE,(787) 260-4694
81596,720003000547,MARIA M SIMMONS DE RIVERA,CARR 993 KM 2,VIEQUES,PR,765,NOT AVAILABLE,(787) 741-0895
83102,720003000276,CONCEPCION MENDEZ CANO,URB TURABO GARDENS CALLE 25 2DA SECC,CAGUAS,PR,725,NOT AVAILABLE,(787) 744-1735
86133,720003001878,GILBERTO CONCEPCION DE GRACIA,AVE SANCHEZ OSORIO VF,CAROLINA,PR,984,NOT AVAILABLE,(787) 768-2216
88797,720003001410,RICARDO ARROYO LARACUENTE,CALLE PEDRO J CARRIONL #10,DORADO,PR,646,NOT AVAILABLE,(787) 796-1222
101868,720003001554,PABLO CASALS,URB BAYAMON GARDENS CALLE D,BAYAMON,PR,956,NOT AVAILABLE,(787) 797-1215
11522,720003001273,DR. FRANCISCO HERNANDEZ Y GAETAN,CALLE LABRA PDA 18,SAN JUAN,PR,901,NOT AVAILABLE,(787) 722-4676
17473,720003001639,TEODOMIRO TABOAS,CALLE VENDIG ESQ GEORGETTI,MANATI,PR,674,NOT AVAILABLE,(787) 854-2255
38293,720003000781,ESCUELA ESPECIALIZADA BILINGUE ALCIDES FIGUEROA,CALLE MARIA MONAGAS,ANASCO,PR,610,NOT AVAILABLE,(787) 826-2195
75456,720003001875,MARIA TERESA PINEIRO,CALLE LOS MARQUEZ FINAL BO SABANA,TOA BAJA,PR,949,NOT AVAILABLE,(787) 784-4140
23904,720003001219,DELIA DAVILA DE CABAN,CALLE LAGO LAS CURIAS FINAL 5TA SECCION LEVITTOWN,TOA BAJA,PR,949,NOT AVAILABLE,(787) 261-1340
74636,720003000242,INSTITUTO LOAIZA CORDERO,CALLE FERIA FINAL #1312,SAN JUAN,PR,910,NOT AVAILABLE,(787) 724-0893
76251,720003002064,ASUNCION RODRIGUEZ DE SALA,CARR 127 BO QUEBRADA,GUAYANILLA,PR,656,NOT AVAILABLE,(787) 835-0401
78323,720003001855,LEONIDES MORALES RODRIGUEZ,CALLE SANTA ROSA #20,LAJAS,PR,667,NOT AVAILABLE,(787) 899-3010
79975,720003000637,CERRO GORDO MEDINA,CARR 420 INT 495 KM 2.0,MOCA,PR,676,NOT AVAILABLE,(787) 877-5850
90935,720003001384,SANTIAGO IGLESIAS PANTIN,CALLE JOSE A TORRES CINTRON URB SANTIAGO IGLESIAS,SAN JUAN,PR,971,NOT AVAILABLE,(787) 783-1645
92726,720003001762,LUIS MUNOZ RIVERA,124 CALLE DR CUETO,UTUADO,PR,641,NOT AVAILABLE,(787) 894-2666
94592,720003000354,FELIX SANCHEZ CRUZ,CALLE 7 NORTE URB RIO GRANDE ESTATES,RIO GRANDE,PR,745,NOT AVAILABLE,(787) 888-7699
94921,720003000693,OLGA MAS RAMIREZ,CARR 348 KM.5.HM.2 BO. MALEZAS,MAYAGUEZ,PR,680,NOT AVAILABLE,(787) 833-8283
82158,720003000645,RAUL YBARRA,AVE LUCHETTI CARR 120,MARICAO,PR,606,NOT AVAILABLE,(787) 838-3011
89787,720003001499,MARIA E. BAS DE VAZQUEZ,CARR 831 URB LOMAS VERDES,BAYAMON,PR,956,NOT AVAILABLE,(787) 786-5586
54240,720003000706,FRANCISCO LOPEZ CRUZ,CARR #164 KM 3 HM 1,NARANJITO,PR,719,NOT AVAILABLE,(787) 869-3230
54986,720003000343,ADRIANNE SERRANO,CARR ESTATAL 201 KM 5 HM 4 BARRIO PUERTO REAL,VIEQUES,PR,765,9712,(787) 741-8692
56897,720003000908,LUIS A. FERRE AGUAYO,CALLE 3 ESQ 5 Y 6,YAUCO,PR,698,NOT AVAILABLE,(787) 856-1003
57141,720003001437,MANUEL BOU GALI,CARR 891 KM 13 HM 2,COROZAL,PR,783,NOT AVAILABLE,(787) 859-4656
22559,720003000302,JESUS T. PINERO,CARR 795 KM 0 HM 2 BO. LA BARRA,CAGUAS,PR,725,NOT AVAILABLE,(787) 747-1992
23292,720003001909,INTERMEDIA BO QUEBRADILLAS,CARR 152 KM 7.5 BO QUEBRADILLAS,BARRANQUITAS,PR,794,NOT AVAILABLE,(787) 857-7795
25295,720003001892,IRMA DELIZ DE MUNOZ,AVE JUAN HERNANDEZ ORTIZ,ISABELA,PR,662,NOT AVAILABLE,(787) 872-4070
26583,720003001798,SAN VICENTE,URB SAN VICENTE 82 CALLE 10,VEGA BAJA,PR,693,NOT AVAILABLE,(787) 858-3587
66619,720003000071,HATO VIEJO CUMBRE,CARR 632 KM 2 BO HATO VIEJO,CIALES,PR,638,NOT AVAILABLE,(787) 871-3616
30532,720003001834,NORMA I. TORRES COLON,CARR 150 KM 5 HACIA COAMO,VILLALBA,PR,766,NOT AVAILABLE,(787) 847-2110
34062,720003000507,DOMINGO PIETRI RUIZ,16 CALLE RODULFO GONZALEZ,ADJUNTAS,PR,601,NOT AVAILABLE,(787) 829-3510
35737,720003001509,HERMINIA RIVERA FERNANDEZ (GUARAGUAO CARRETERA),CARR 174 KM 10 HM 9 BO GUARAGUAO,BAYAMON,PR,956,NOT AVAILABLE,(787) 787-9774
39616,720003000479,ANA ROQUE DE DUPREY,CALLE DR VIDAL CARR #3; AL LADO DE SANTOS TEXACO,HUMACAO,PR,791,NOT AVAILABLE,(787) 852-1115
13976,720003001891,SUPERIOR URBANA,CARR 156 KM 52.5 BO CAGUITAS,AGUAS BUENAS,PR,703,NOT AVAILABLE,(787) 739-4230
16268,720003000174,EMERITA LEON ELEMENTAL,URB VILLA VERDE 118 CALLE LUIS MORALES,CAYEY,PR,736,NOT AVAILABLE,(787) 738-2410
17018,720003001185,DALILA TORRES,CALLE LUIS MUNOZ RIVERA SECTOR SITIO,GUAYANILLA,PR,656,NOT AVAILABLE,(787) 835-2030
17456,720003001169,JOSEFINA LEON ZAYAS,CARR 144 RAMAL 141,JAYUYA,PR,664,NOT AVAILABLE,(787) 828-5700
18053,720003000330,SU MANUEL ORTIZ,CARR 902 KM 5 HM 8 BO JACANAS ABAJO,YABUCOA,PR,767,NOT AVAILABLE,(787) 893-5770
19954,720003000559,JOSE R. GAZTAMBIDE,CALLE SAN ISIDRO FINAL,SABANA GRANDE,PR,637,NOT AVAILABLE,(787) 873-3120
40270,720003001526,DR. JOSE ANTONIO DAVILA,CARR 167 KM 5 SALIDA BAYAMON A COMERIO,BAYAMON,PR,956,NOT AVAILABLE,(787) 785-2292
40458,720003002029,EDUARDO GARCIA CARRILLO,CARR 186 KM 7 HM 5 BO CAMPO RICO,CANOVANAS,PR,745,NOT AVAILABLE,(787) 886-2200
43111,720003000480,BRAULIO AYALA PEREZ (MAMBICHE BLANCO),CARR 924 RAMAL 938 BO MAMBICHE BLANCO,HUMACAO,PR,791,NOT AVAILABLE,(787) 852-6452
43716,720003001511,JOSE M. TORRES,CARR 167 RAMAL 812 KM 3 HM 1 BO DAJAOS,BAYAMON,PR,956,NOT AVAILABLE,(787) 730-0090
47769,720003000046,OSCAR RODRIGUEZ RIVERA (BARAHONA),CARR 33 KM 4 HM O BO BARAHONA,MOROVIS,PR,687,NOT AVAILABLE,(787) 862-2010
5775,720003000582,DON LUIS MUNOZ MARIN (ELEMENTAL URBANA NUEVA),CARR 779,CEIBA,PR,742,NOT AVAILABLE,(787) 787-2565
5778,720003000779,ANTONIO GONZALEZ SUAREZ (ESPECIALIZADA),CARR. 402 KM 6 BO DAGUEY,ANASCO,PR,610,NOT AVAILABLE,(787) 826-3625
7766,720003001847,LA CARMEN,CARR 105 KM 21.2,MARICAO,PR,606,NOT AVAILABLE,(787) 838-3025
92513,720003000722,ANTONIO GEIGEL PAREDES,CARR 112 KM.3.5 BO. MORA,ISABELA,PR,662,NOT AVAILABLE,(787) 872-1942
97381,720003000741,HOMERO RIVERA SOLA,CARR 459 SECTOR ESTEVES BO. CORRALES,AGUADILLA,PR,603,NOT AVAILABLE,(787) 891-8064
60089,720003001995,MERCEDES ROSADO,CARR 152 CALLE GEORGETTY,NARANJITO,PR,719,NOT AVAILABLE,(787) 869-3130
61118,720003001843,JUAN CUEVAS ABOY,CALLE EDUARDO CUEVAS URB VILLA GRILLASCA,PONCE,PR,731,NOT AVAILABLE,(787) 843-3895
63437,720003001986,ANTONIO BADILLO HERNANDEZ,CARR. 459 KM. 7.04 BO. MONTANA,AGUADILLA,PR,605,NOT AVAILABLE,(787) 890-3350
65507,720003001170,MIGUEL A SASTRE OLIVER,CARR 527 KM 2 HM 1 BO VEGUITA SEC GRIPINAS,JAYUYA,PR,664,NOT AVAILABLE,(787) 828-2008
86017,720003001223,DR PEDRO ALBIZU CAMPOS,AVE BOULEVARD 4TA SECC LEVITTOWN,TOA BAJA,PR,949,NOT AVAILABLE,(787) 784-4605
87397,720003001494,JESUS T. PINERO,CARR. 857 BO. CARRUSO,CAROLINA,PR,985,NOT AVAILABLE,(787) 769-3280
87481,720003000628,PADRE ANIBAL REYES BELEN (SUP NUEVA),CARR 130 K12 4 BO CAMPO ALEGRE,HATILLO,PR,659,NOT AVAILABLE,(787) 820-4022
50642,720003001356,GUSTAVO A. BECQUER,CALLE FRANCIA ESQ ARECIBO 31,SAN JUAN,PR,917,NOT AVAILABLE,(787) 764-4260
54247,720003001783,ELEMENTAL URBANA,CALLE TEODOMIRO RAMIREZ,VEGA ALTA,PR,692,NOT AVAILABLE,(787) 883-2770
56973,720003000195,SUPERIOR MIGUEL F SANTIAGO ECHEGARAY (SANTIAGO R PALMER SUP),CARR 186 KM 5 HM 5,CAMUY,PR,627,NOT AVAILABLE,(787) 898-9299
58443,720003001298,JUAN B. HUYKE,CALLE SAN IGNACIO URB. ALTAMESA,GUAYNABO,PR,928,NOT AVAILABLE,(787) 782-3924
40061,720003000396,JUAN SUAREZ PELEGRINA (NUEVA),CARR. 459 BO. MONTANA,AGUADILLA,PR,605,NOT AVAILABLE,(787) 890-2320
40445,720003000328,SU ROGELIO ROSADO (SU PLAYITA),RUTA 900 KM 4.5,YABUCOA,PR,767,NOT AVAILABLE,(787) 893-3075
42865,720003001471,JESUS MARIA SANROMA,CALLE 46 ESQ. BOULEVARD AVE. CALDERON FINAL,CAROLINA,PR,983,NOT AVAILABLE,(787) 769-8451
43302,720003001448,SU JULIAN MARRERO,CARR 164 KM 14 BO PALMAREJO,COROZAL,PR,783,NOT AVAILABLE,(787) 859-3027
45539,720003000007,INES M. MENDOZA DE MUNOZ MARIN,CARR 156 KM 26 BO. PALOMAS SECTOR MANUEL ESPINA,COMERIO,PR,782,NOT AVAILABLE,(787) 875-2084
46088,720003001570,DR. JOSE N. GANDARA,315 CALLE DEGETAU SUR,AIBONITO,PR,705,NOT AVAILABLE,(787) 735-7290
48820,720003002035,DR PEDRO ALBIZU CAMPOS,CARR 2 KM 22 HM 1 SECTOR EL TUQUE BO CANAS,PONCE,PR,731,NOT AVAILABLE,(787) 841-2548
71954,720003000289,PEDRO MILLAN RIVERA,Y 6 CALLE 7 URB RES BAIROA,CAGUAS,PR,725,NOT AVAILABLE,(787) 744-4777
72665,720003000511,MARIA I. DONES,CALLE 5 BO QUEBRADA VUELTAS,FAJARDO,PR,738,NOT AVAILABLE,(787) 863-8240
74868,720003000506,BERTA ZALDUONDO,URB MONTE BRISAS II CALLE 104,FAJARDO,PR,738,NOT AVAILABLE,(787) 863-3959
32349,720003000084,LORENZO COBALLES GANDIA,CARR 130 KM. 0.1 SECT. LOS ALVAREZ,HATILLO,PR,659,NOT AVAILABLE,(787) 898-4300
35888,720003000458,LA FERMINA,CARR 189,LAS PIEDRAS,PR,771,NOT AVAILABLE,(787) 852-9766
13898,720003001305,LUZ ENEIDA COLON (LA CUMBRE),CALLE LAS VEGAS FINAL URB. LAS CUBRE,SAN JUAN,PR,926,NOT AVAILABLE,(787) 720-1382
14348,720003001062,JULIO COLLAZO SILVA,CARR 14 BO CERRILLOS,PONCE,PR,731,NOT AVAILABLE,(787) 843-7939
15782,720003000402,JOSEFA VELEZ BAUZA (SUPERIOR URBANA),CARR 132 BO COTTO,PENUELAS,PR,624,NOT AVAILABLE,(787) 836-1665
18147,720003001845,ERNESTO VICENTE CARATTINI (ELEMENTAL BO CEIBA),CARR 782 KM 6 HM 2 BO CEIBA,CIDRA,PR,739,NOT AVAILABLE,(787) 739-0155
18738,720003001497,JOSEFITA MONSERRATE DE SELLES,PMB 263 UU-1 C/39,BAYAMON,PR,956,NOT AVAILABLE,(787) 785-2238
19111,720003001287,DR. JOSE CELSO BARBOSA,PDA. 4 1/2 PONCE DE LEON,SAN JUAN,PR,901,NOT AVAILABLE,(787) 721-9014
21747,720003001548,EPIFANIO FERNANDEZ VANGA,URB SANTA MONICA CALLE 8 A,BAYAMON,PR,960,NOT AVAILABLE,(787) 785-8373
94239,720003000288,BENITA GONZALEZ QUINONES,URB. JOSE DELGADO CALLE 5,CAGUAS,PR,725,NOT AVAILABLE,(787) 743-4467
96521,720003001490,JESUS MANUEL SUAREZ,CARR. 853 KM 8.3 BO. BARRAZAS,CAROLINA,PR,985,NOT AVAILABLE,(787) 750-6211
30939,720003000097,FRANCISCO MORALES,CARR 152 CALLE GEORGETTI INTERIOR,NARANJITO,PR,719,NOT AVAILABLE,(787) 869-5277
36433,720003000662,DR PEDRO PEREA FAJARDO,AVE LUIS LLORENS TORRES,MAYAGUEZ,PR,680,NOT AVAILABLE,(787) 833-0865
13893,720003001803,SUPERIOR VOC ELADIO RIVERA QUINONES (SUPERIOR VOC DE LOIZA),CARR 187 KM 5 HM 6 BO MEDIANIA,LOIZA,PR,772,NOT AVAILABLE,(787) 876-2295
19458,720003000576,LUIS MUNOZ RIVERA,CALLE 65 INFANTERIA ESQ DAVILA,LAJAS,PR,667,NOT AVAILABLE,(787) 899-2015
20296,720003001268,MANUEL ELZABURU VIZCARRONDO,CALLE MADISON RES LAS MARGARITAS,SAN JUAN,PR,916,NOT AVAILABLE,(787) 726-0125
20624,720003000259,INOCENCIO CINTRON ZAYAS,CARR 771 KM 9 HM 2 SECTOR MANA ABAJO BO BARRANCA,BARRANQUITAS,PR,794,NOT AVAILABLE,(787) 857-3581
21369,720003001864,ROSA COSTA VALDIVESO,CALLE CRISTOBAL COLON FINAL,YABUCOA,PR,767,NOT AVAILABLE,(787) 893-3390
27200,720003000676,LUIS MUNOZ RIVERA,CALLE ANTONIO CRUZ NUNEZ,MAYAGUEZ,PR,680,NOT AVAILABLE,(787) 834-7700
50618,720003001531,MARTA VELEZ DE FAJARDO (ESPECIALIZADA),URB CANA 100 CALLE 11,BAYAMON,PR,957,NOT AVAILABLE,(787) 797-1775
50951,720003000295,NICOLAS AGUAYO ALDEA,13 CALLE RAFAEL CORDERO URB. BORINQUEN,CAGUAS,PR,725,NOT AVAILABLE,(787) 743-5065
51892,720003000143,SU RAMON ALEJANDRO AYALA,CARR. 779 KM. 5 HM 3 BO PALOMAS,COMERIO,PR,782,NOT AVAILABLE,(787) 875-2929
56974,720003001522,INES MARIA MENDOZA DE MUNOZ MARIN,AVE TENIENTE MARTINEZ ALTURAS DE FLAMBOYAN,BAYAMON,PR,961,NOT AVAILABLE,(787) 780-8232
58042,720003000903,SUPERIOR OCUPACIONAL Y TECNICA DE YAUCO,CARR 368 KM O HM 12,YAUCO,PR,698,NOT AVAILABLE,(787) 856-2144
69320,720003001374,GABRIELA MISTRAL,AVE JESUS T PINERO,SAN JUAN,PR,928,NOT AVAILABLE,(787) 782-4208
72039,720003000641,JUAN DE DIOS QUINONES,CARR 125 KM 9 HM 7 BO VOLADORA,MOCA,PR,676,NOT AVAILABLE,(787) 877-5108
76056,720003002078,ALEJANDRO JR CRUZ (GALATEO PARCELAS),CARR 165 KM4 BO GALATEO,TOA ALTA,PR,954,NOT AVAILABLE,(787) 870-1665
77617,720003000509,ANTONIO VALERO BERNABE,AVE GENERAL VALERO,FAJARDO,PR,738,NOT AVAILABLE,(787) 863-0024
49028,720003000271,LUIS MUNOZ RIVERA,65 FINAL CALLE MUNOZ RIVERA,CAGUAS,PR,725,NOT AVAILABLE,(787) 743-2303
5741,720003000076,JUAN PONCE DE LEON (ESPECIALIZADA),CARR 2 KM 7 HM 3 BO JUAN DOMINGO,GUAYNABO,PR,970,NOT AVAILABLE,(787) 792-3550
9286,720003002007,ERNESTO RAMOS ANTONINI,48 AVE BARBOSA,YAUCO,PR,698,NOT AVAILABLE,(787) 856-1370
82035,720003001318,INES M MENDOZA VDA DE MUNOZ MARIN,CARR. 842 KM. 2.6 CAIMITO BAJO,SAN JUAN,PR,928,NOT AVAILABLE,(787) 720-2853
82059,720003001778,ANTONIO TULLA TORRES,CARR 140 KM 5 HM 6 BO MAMEYES,UTUADO,PR,641,NOT AVAILABLE,(787) 894-0229
88976,720003000922,PURIFICACION RODRIGUEZ,CALLE RODRIGUEZ HIDALGO ESQ CARRION MADURO,COAMO,PR,769,NOT AVAILABLE,(787) 825-1684
89889,720003000617,SALVADOR BRAU ELEMENTAL,JARDINES I CALLE 13 FINAL,CAYEY,PR,737,NOT AVAILABLE,(787) 738-3190
25410,720003001262,FRAY BARTOLOME DE LAS CASAS,AVE EDUARDO CONDE FINAL,SAN JUAN,PR,915,NOT AVAILABLE,(787) 726-5169
27801,720003001914,JOSEFINA FERRERO,AVE CONQUISTADOR ESQ URB MONTE BRISAS,FAJARDO,PR,738,NOT AVAILABLE,(787) 863-6770
28586,720003000101,DR. PEDRO ALBIZU CAMPOS,CARR 113 CALLE LINARES,QUEBRADILLAS,PR,678,NOT AVAILABLE,(787) 895-2780
60671,720003001476,MANUEL FEBRES GONZALEZ,VIA #5 URB. VILLA FONTANA,CAROLINA,PR,984,NOT AVAILABLE,(787) 768-3031
60798,720003001274,LUIS LLORENS TORRES,CALLE MARISABEL RES. LLORENS TORRES,SAN JUAN,PR,913,NOT AVAILABLE,(787) 726-1195
61734,720003000627,LUIS LLORENS TORRES,CALLE LA CRUZ JUANA DIAZ PUEBLO,JUANA DIAZ,PR,795,NOT AVAILABLE,(787) 837-9117
2347,720003000225,CARMEN D ORTIZ ORTIZ (SU SUMIDERO),CARR 173 KM7 KH0 BO SUMIDERO,AGUAS BUENAS,PR,703,NOT AVAILABLE,(787) 732-4040
3258,720003001222,CARMEN BARROSO MORALES,CALLE RAMON MORLA 6TA SECC. LEVITTOWN,TOA BAJA,PR,949,NOT AVAILABLE,(787) 795-8885
6829,720003000681,SEGUNDO RUIZ BELVIS,AVE GONZALEZ CLEMENTE RES CARMEN,MAYAGUEZ,PR,680,NOT AVAILABLE,(787) 832-5078
6942,720003001597,JESUS SILVA,CALLE AZUCENA ESQ. GARDENIA URB. VILLA BLANCA,TRUJILLO ALTO,PR,976,NOT AVAILABLE,(787) 761-0565
40431,720003001829,VIOLETA REYES PEREZ (ELEMENTAL URBANA K-6),BO RIO ABAJO KM 11 HM 1,CIDRA,PR,739,NOT AVAILABLE,(787) 739-0155
40568,720003001984,BENITO CEREZO MARQUEZ,CARR. 107INT. 458 BDA. BORINQUEN,AGUADILLA,PR,603,NOT AVAILABLE,(787) 891-5000
42180,720003001577,RABANAL,CARR 722 BO RABANAL,AIBONITO,PR,705,NOT AVAILABLE,(787) 735-8886
43035,720003001566,LUDOVICO COSTOSO,AVE CEMENTERIO NACIONAL HATO TEJAS,BAYAMON,PR,960,NOT AVAILABLE,(787) 787-9792
43596,720003000193,JUAN ANTONIO CORRETJER,CARR 146 KM 2 BO CORDILLERA,CIALES,PR,638,NOT AVAILABLE,(787) 871-5405
46488,720003001657,ALBERTO MELENDEZ TORRES,CALLE JUAN D RIVERA DE SANTIAGO,OROCOVIS,PR,720,NOT AVAILABLE,(787) 867-3353
46885,720003001990,STELLA MARQUEZ,CALLE UNION FINAL,SALINAS,PR,751,NOT AVAILABLE,(787) 824-3357
47310,720003000656,MARIANO RIERA PALMER,CALLE MENDEZ VIGO 297,MAYAGUEZ,PR,680,NOT AVAILABLE,(787) 832-5262
91246,720003001931,NUEVA BRIGIDA ALVAREZ RODRIGUEZ,CALLE BETANCES NUM.75,VEGA BAJA,PR,693,NOT AVAILABLE,(787) 855-6327
92231,720003000593,RAMON MARIA TORRES,AVE EMERITO ESTRADA CARRETERA 111,SAN SEBASTIAN,PR,685,NOT AVAILABLE,(787) 896-1135
93068,720003001030,DR. PILA,CARR PONCE A GUAYANILLA,PONCE,PR,732,NOT AVAILABLE,(787) 840-4800
96483,720003001344,CARMEN GOMEZ TEJERA,URB MONTECARLO CALLE 15 FINAL,SAN JUAN,PR,924,NOT AVAILABLE,(787) 762-7437
97471,720003001749,SU SANTIAGO R. PALMER,CARR 129 KM 1 HM 6 BO QUEBRADA,CAMUY,PR,627,NOT AVAILABLE,(787) 898-7976
97649,720003000324,SU ANDRES SANDIN MARTINEZ,CARR 906 KM 2.5 BO AGUACATE,YABUCOA,PR,767,NOT AVAILABLE,(787) 893-1070
81602,720003000463,JUAN A SANCHEZ,CARR 946 KM 0 HM 9 BO PLACITA,JUNCOS,PR,777,NOT AVAILABLE,(787) 734-4347
82209,720003000357,ESC. LIBRE DE MUSICA HUMACAO (ESPECIALIZADA),CALLLE DR VIDAL,HUMACAO,PR,792,NOT AVAILABLE,(787) 285-7901
82854,720003002031,SU SILVERIO GARCIA,CARR 3 KM 9 HM 4 BO DAGUAO,NAGUABO,PR,718,NOT AVAILABLE,(787) 874-6786
83275,720003001761,FRANCISCO RAMOS SANCHEZ,CALLE DR CUETO,UTUADO,PR,641,NOT AVAILABLE,(787) 894-2470
89817,720003000032,FRANCISCO RIVERA CLAUDIO,CARR 159KM 1 HM O AVE. COROZAL,MOROVIS,PR,687,NOT AVAILABLE,(787) 862-4985
89884,720003000723,JOSE C. ROSARIO,CARR 2 KM 11 HM 2 BO MORA,ISABELA,PR,662,NOT AVAILABLE,(787) 830-2025
102681,720003001946,CARMEN BOZELLO DE HUYKE,FRENTE CASERIO ISIDRO CORA,ARROYO,PR,714,NOT AVAILABLE,(787) 839-2655
16089,720003001299,REPUBLICA DE BRAZIL,CALLE 48 # 1258 LA RIVIERA,SAN JUAN,PR,928,NOT AVAILABLE,(787) 782-7714
30172,720003001929,MARCELINO RODRIGUEZ ROMAN,CARR 125 KM 0 HM 2 BO VOLADORA,MOCA,PR,676,NOT AVAILABLE,(787) 877-2324
35961,720003001631,JULIO LEBRON SOTO,CARR 135 KM 60 BO CASTANER,LARES,PR,669,NOT AVAILABLE,(787) 829-3916
71450,720003001842,JOSE FELIPE ZAYAS,CALLE 19 EXT. JARDINES DE COAMO,COAMO,PR,769,NOT AVAILABLE,(787) 825-5911
73925,720003001370,DR. ANTONIO S. PEDREIRA (ESPECIALIZADA),CALLE ANGEL ESQ ANDORRA URB PUERTO NUEVO,SAN JUAN,PR,928,NOT AVAILABLE,(787) 782-1030
74478,720003000717,CRISTOBAL SANTANA MELECIO (NUEVA),CALLE 8 RIO LAJAS,DORADO,PR,646,NOT AVAILABLE,(787) 870-3416
79129,720003001498,CARMEN GOMEZ TEJERA,AVE MAIN SANTA ROSA,BAYAMON,PR,956,NOT AVAILABLE,(787) 785-1364
79224,720003002037,VICTOR ROJAS 1,CALLE C BDA VICTOR ROJAS I,ARECIBO,PR,612,NOT AVAILABLE,(787) 880-3551
92063,720003000815,SU ANTONIO ACARON CORREA,CARR 102 KM 21 HM 9 BO MONTE GRANDE,CABO ROJO,PR,623,NOT AVAILABLE,(787) 851-3500
95201,720003000762,JOSE GONZALEZ RUIZ,CARR 416 KM 5.3 BO LAGUNAS,AGUADA,PR,602,NOT AVAILABLE,(787) 868-5740
70186,720003001976,ADELA BRENES TEXIDOR,CARR 3 KM. 143 HM 8,GUAYAMA,PR,785,NOT AVAILABLE,(787) 864-7700
74848,720003000964,JUAN SERAPIO MANGUAL,CARR 1 KM 13 HM 9 BO PASTILLO,JUANA DIAZ,PR,795,NOT AVAILABLE,(787) 837-8515
75064,720003001028,JULIO ALVARADO TRICOCHE,CALLE 13 URB JARDINES DEL CARIBE,PONCE,PR,731,NOT AVAILABLE,(787) 844-7048
75524,720003001839,RENE MARQUES,CALLE 16 FINAL JARDINES COUNTRY CLUB,CAROLINA,PR,983,NOT AVAILABLE,(787) 757-2760
76896,720003001844,JOSEFA DEL RIO GUERRERO,CARR 155 KM 1.6 BO PUEBLO,MOROVIS,PR,687,NOT AVAILABLE,(787) 862-2480
16402,720003001348,MIGUEL SUCH,AVE BARBOSA ESQ AVE PINERO,SAN JUAN,PR,928,NOT AVAILABLE,(787) 751-3780
32861,720003001473,DR. MODESTO RIVERA RIVERA,CALLE 9 #84 BLQ. 79 UR. VILLA CAROLINA,CAROLINA,PR,985,NOT AVAILABLE,(787) 762-7505
33251,720003000392,FIDELINA MELENDEZ MONSANTO,CALLE ANTONIO RIOS LATERAL 7,NAGUABO,PR,718,NOT AVAILABLE,(787) 874-3315
36135,720003000745,DRA. MARIA CADILLA DE MARTINEZ,CARR 129 SECTOR LAS CUNETAS INT CARR 490,ARECIBO,PR,614,NOT AVAILABLE,(787) 878-1068
37990,720003000063,SU FEDERICO DEGETAU,CARR 2 KM 68 BO SANTANA,ARECIBO,PR,612,NOT AVAILABLE,(787) 881-1524
38950,720003000166,ELVIRA RUPERTO QUILES (RIO CANAS ABAJO),CARR 351 INT 352 BO RIO CANAS,MAYAGUEZ,PR,682,NOT AVAILABLE,(787) 831-0050
55759,720003000501,MANUEL MENDEZ LICIAGA,CARR 125 KM 19 BO GUATEMALA,SAN SEBASTIAN,PR,685,NOT AVAILABLE,(787) 896-1430
58748,720003001943,UNIVERSITY GARDENS (ESPECIALIZADA),AVE PALMA REAL Y FORDHAM,SAN JUAN,PR,928,NOT AVAILABLE,(787) 764-8635
20991,720003000105,ROSA LUZ ZAYAS (CEDRO ARRIBA),CARR 809 KM 2 HM 9 BO CEDRO ARRIBA,NARANJITO,PR,719,NOT AVAILABLE,(787) 869-3976
21543,720003000449,JOSE DE DIEGO,CARR 183 RAMAL 917 KM 4 HM 7,LAS PIEDRAS,PR,771,NOT AVAILABLE,(787) 733-8777
24732,720003001817,SUPERIOR VOCACIONAL NUEVA,CALLE GEORGETTI NUM.42,COMERIO,PR,782,NOT AVAILABLE,(787) 875-3245
25021,720003001528,DR. AGUSTIN STAHL,CALLE PARQUE ESQ BETANCES,BAYAMON,PR,956,NOT AVAILABLE,(787) 785-1279
61286,720003001392,MARGARITA JANER PALACIOS,CARR ALEJANDRINO FINAL KM 1 HM 0,GUAYNABO,PR,970,NOT AVAILABLE,(787) 720-2217
62947,720003000503,GABINO SOTO,CALLE IGUALDAD 174,FAJARDO,PR,738,NOT AVAILABLE,(787) 863-8482
63654,720003001330,BERWIND INTERMEDIA,CALLE 2 FINAL RES. JARDINES DE BERWIND,SAN JUAN,PR,924,NOT AVAILABLE,(787) 752-0055
40331,720003000424,RAFAEL N. COCA,CALLE FERNANDEZ GARCIA FINAL,LUQUILLO,PR,773,NOT AVAILABLE,(787) 889-3243
42805,720003001782,JOSE VIZCARRONDO (SU ANGELES),CARR 111 INT 602 BO ANGELES,UTUADO,PR,641,NOT AVAILABLE,(787) 894-7702
42866,720003002066,EUGENIO GUERRA CRUZ,CARR 712 KM 3 HM 0 BO QUEBRADA YEGUA,SALINAS,PR,751,NOT AVAILABLE,(787) 824-1534
46742,720003002003,PETRA MERCADO BOUGART,CARR 906 AVE TEJAS FINAL,HUMACAO,PR,792,NOT AVAILABLE,(787) 852-7780
46816,720003001104,FERNANDO LUIS MALAVE OLIVERA,CALLE RAMOS ANTONINI 39 SECTOR EL TUQUE,PONCE,PR,731,NOT AVAILABLE,(787) 843-2048
3023,720003000909,BENICIA VELEZ,CARR 360 KM 11 HM 9 BO SUSUA ALTA,YAUCO,PR,698,NOT AVAILABLE,(787) 856-0100
5268,720003001785,RAFAEL HERNANDEZ,CALLE 3 URB SANTA ANA,VEGA ALTA,PR,692,NOT AVAILABLE,(787) 883-1025
13245,720003001777,SU MARTA LAFONTAINE,CARR 613 KM 3 HM 2 BO CAONILLAS,UTUADO,PR,641,NOT AVAILABLE,(787) 894-0000
15135,720003000567,DR EFRAIN GONZALEZ TEJERA,CARR 111 KM 16.6 BO ANGELES,UTUADO,PR,641,NOT AVAILABLE,(787) 894-7245
15710,720003000176,BENIGNO FERNANDEZ GARCIA,CALLE BARBOSA FINAL,CAYEY,PR,736,NOT AVAILABLE,(787) 738-2626
126,720003001942,VOC WILLIAM RIVERA BETANCOURT (BO SAN ISIDRO VOCACIONAL),BO SAN ISIDRO PR 188,CANOVANAS,PR,729,NOT AVAILABLE,(787) 256-8700
2543,720003000405,QUEBRADA GRANDE,CALLE 3 BO DUQUE ESQ 8 PARCELAS VIEJAS,NAGUABO,PR,718,NOT AVAILABLE,(787) 874-0430
9309,720003001915,SANTIAGO TORRES,BO TEJAS SECTOR MONTELLANOS CALLE EULOGIO REYES,LAS PIEDRAS,PR,771,NOT AVAILABLE,(787) 733-1454
20724,720003000544,BARTOLOME DE LAS CASAS,CARR 362 KM 4 HM 3 BO GUAMA,SAN GERMAN,PR,683,NOT AVAILABLE,(787) 892-7403
21147,720003000363,CASIANO CEPEDA (INTERMEDIA),CARR 959 KM 2 BO CIENAGA ALTA,RIO GRANDE,PR,745,NOT AVAILABLE,(787) 887-4410
21153,720003000290,PEPITA GARRIGA,CALLE ESMERALDA #1 ESQ CORAL,CAGUAS,PR,725,NOT AVAILABLE,(787) 743-3633
24606,720003001319,JUAN ANTONIO CORRETJER,CARR 844 KM 3 CUPEY BAJO,SAN JUAN,PR,924,NOT AVAILABLE,(787) 761-1560
25888,720003000345,ANTERA ROSADO FUENTES,CALLE 19 URB VILLAS DE RIO GRANDE,RIO GRANDE,PR,745,NOT AVAILABLE,(787) 887-2051
29678,720003000213,ALFONSO LOPEZ O'NEILL,CARR 797 KM 2 HM 4 BO. JAGUEYES ABAJO,AGUAS BUENAS,PR,703,NOT AVAILABLE,(787) 747-5895
40121,720003000609,ELEMENTAL NUEVA,AVE RAMON B LOPEZ SABANA LLANA,SAN JUAN,PR,923,NOT AVAILABLE,(787) 274-8255
42382,720003000160,BONIFACIO SANCHEZ JIMENEZ (GANDARA),CALLE SAN JOSE 119,AIBONITO,PR,705,NOT AVAILABLE,(787) 735-4631
45127,720003001675,ANGEL RAFAEL DIAZ COLON,CARR 566 KM 2 HM I BO SALTOS,OROCOVIS,PR,720,NOT AVAILABLE,(787) 867-4686
46595,720003001758,BERNARDO GONZALEZ COLON,CARR 10 KM 56 HM 3 BO SALTA ABAJO,UTUADO,PR,641,NOT AVAILABLE,(787) 894-2524
49980,720003000697,LOAIZA CORDERO DEL ROSARIO,AVE LUIS MUNOZ MARIN #1000,YAUCO,PR,698,NOT AVAILABLE,(787) 750-2774
38196,720003001228,LUIS M. SANTIAGO,CALLE LUIS MUNOZ RIVERA #6,TOA BAJA,PR,949,NOT AVAILABLE,(787) 794-1445
38537,720003000243,JOSE MERCADO (ESPECIALIZADA),URB. JOSE MERCADO CALLE WOODROW WILSON,CAGUAS,PR,725,NOT AVAILABLE,(787) 746-7858
90420,720003000734,LUIS NEGRON LOPEZ,CARR #368 KM 1.0 BO MACHUCHAL,SABANA GRANDE,PR,637,NOT AVAILABLE,(787) 804-2036
93111,720003000922,PURIFICACION RODRIGUEZ,CALLE RODRIGUEZ HIDALGO ESQ CARRION MADURO,COAMO,PR,769,NOT AVAILABLE,(787) 825-1684
93835,720003002060,LUIS MUNOZ MARIN,CARR. 402 KM. 1 HM.4 BO.MARIAS,ANASCO,PR,610,NOT AVAILABLE,(787) 826-1476
73609,720003001790,ELISA DAVILA VAZQUEZ (ESPINOSA ADENTRO),CARR 679 KM 2 HM 3 SECT FORTUNA BO ESPINOSA,VEGA ALTA,PR,692,NOT AVAILABLE,(787) 883-1165
75079,720003001683,JOHN W. HARRIS,AVE CONSTITUCION BO COTTO,ARECIBO,PR,612,NOT AVAILABLE,(787) 878-1514
76626,720003001371,PEDRO C. TIMOTHEE ANEXO,CALLE 16 NO ESQ CALLE 9 NO,SAN JUAN,PR,920,NOT AVAILABLE,(787) 783-3966
77061,720003001822,EDMUNDO DEL VALLE CRUZ,CALLE 20 URB ALTURAS DE RIO GRANDE,RIO GRANDE,PR,745,NOT AVAILABLE,(787) 887-8950
78277,720003001041,JOSEFINA BOYA LEON,CALLE HUCAR BO SABANETAS MERCEDITAS,PONCE,PR,715,NOT AVAILABLE,(787) 840-3770
62114,720003001838,VICENTE ACEVEDO BALLESTER,CARR 664 KM 1 HM 0 BO MAGUEYES,BARCELONETA,PR,617,NOT AVAILABLE,(787) 846-3110
64890,720003000398,LUTGARDA RIVERA REYES (FLORIDA),CARR 969 KM 2 HM 0 BO FLORIDA,NAGUABO,PR,718,NOT AVAILABLE,(787) 874-0010
67601,720003001500,DR. JOSE A. PADIN,URB LOMAS VERDES CALLE JACINTO ESQ DRAGON,BAYAMON,PR,956,NOT AVAILABLE,(787) 785-0010
68055,720003001932,ISABEL ALVARADO ALVARADO,CARR 151 KM 2.2 BO HATO PUERCO ARRIBA,VILLALBA,PR,766,NOT AVAILABLE,(787) 773-4075
84253,720003000394,SUPERIOR URBANA,CARR 105 KM 25,MARICAO,PR,606,NOT AVAILABLE,(787) 873-1521
50103,720003002059,MONSERRATE LEON DE IRIZARRY,CARR 101 KM 18 HM 2,CABO ROJO,PR,623,NOT AVAILABLE,(787) 255-2720
56989,720003000137,ESCUELA ESPECIALIZADA EN BEISBOL-MANUEL CRUZ MACEIRA,URB LA PLATA CALLE 6 BO PINAS ABAJO,COMERIO,PR,782,NOT AVAILABLE,(787) 875-5806
15797,720003001290,LUIS MUNIZ SOUFFRONT,CALLE 17 ESQ 28 SO CAPARRA TERRACE,SAN JUAN,PR,921,NOT AVAILABLE,(787) 782-0715
17778,720003002025,JUANA A MENDEZ (METROPOLIS),URB METROPOLIS CALLE 1 FINAL,CAROLINA,PR,987,NOT AVAILABLE,(787) 750-8954
83676,720003001333,BERWIND SUPERIOR,URB COUNTRY CLUB CALLE VINYATER FINAL,SAN JUAN,PR,924,NOT AVAILABLE,(787) 752-9720
83925,720003001180,SU ANTONIA SERRANO GONZALEZ,CARR 141 KM 11 HM 1 BO MAMEYES,JAYUYA,PR,664,NOT AVAILABLE,(787) 828-1285
88811,720003001007,COQUI INTERMEDIA,CARR 3 KM 156 HM 0 BO COQUI,SALINAS,PR,751,NOT AVAILABLE,(787) 853-4800
123,720003001935,PABLO DAVID BURGOS MARRERO (NUEVA SUP CON DEPART VOCACIONAL),PR-159 INT CAMINO ALBINO BO ABRAS,COROZAL,PR,783,NOT AVAILABLE,(787) 859-2500
4300,720003000713,REGINO VEGA MARTINEZ (NUEVA ELEMENTAL BO SANTA CLARA),CARR. 734 KM. 1 HM 8,CIDRA,PR,739,NOT AVAILABLE,(787) 739-6626
4314,720003000675,SU NUEVA BO. MEDIANIA,CARR #187 KM 3 HM 9 BO MEDIANIA ALTA,LOIZA,PR,772,NOT AVAILABLE,(787) 876-1377
43719,720003000005,GENEROSO MORALES MUNOZ,AVE JOSE DE DIEGO 58,SAN LORENZO,PR,754,NOT AVAILABLE,(787) 736-6658
47186,720003000753,DR. CARLOS GONZALEZ,CARR 441 KM 0 HM 1 BO GUANIQUILLA,AGUADA,PR,602,NOT AVAILABLE,(787) 868-3280
90488,720003001132,RAFAEL APARICIO JIMENEZ,CALLE RODULFO GONZALEZ FINAL,ADJUNTAS,PR,601,NOT AVAILABLE,(787) 829-3890
95316,720003001095,LUCY GRILLASCA,AVE EDUARDO RUBERTE PARQUE AMALIA MARIN,PONCE,PR,733,NOT AVAILABLE,(787) 842-4010
97830,720003001672,SU BOTIJAS 1,CARR 568 KM 5 HM 5 BO BOTIJAS I,OROCOVIS,PR,720,NOT AVAILABLE,(787) 867-2260
58083,720003001503,FAUSTINO SANTIAGO MONTALVO,URB JARDINES DE CAPARRA AVE COLECTORA CENTRAL,BAYAMON,PR,959,NOT AVAILABLE,(787) 787-3251
33829,720003001009,MARTIN G. BRUMBAUGH,33 CALLE EUGENIO MARIA DE HOSTOS,SANTA ISABEL,PR,757,NOT AVAILABLE,(787) 845-3315
35171,720003000809,SEBASTIAN PABON ALVES (COROZO),CARR 301 KM 7 HM 4 SECT COROZO,CABO ROJO,PR,623,NOT AVAILABLE,(787) 255-6705
35385,720003000339,PLAYA GRANDE,CARR. ESTATAL 993 KM1 HM 3,VIEQUES,PR,765,NOT AVAILABLE,(787) 741-2766
24470,720003000370,ADELA ROLON FUENTES,AVE PRINCIPAL TOA ALTA HEIGHTS,TOA ALTA,PR,954,NOT AVAILABLE,(787) 279-8282
24804,720003000584,RAMON OLIVARES,CARR 303 CALLE AMAPOLA BO OLIVARES,LAJAS,PR,667,NOT AVAILABLE,(787) 899-1695
28858,720003002022,CARMEN SOLA DE PEDREIRA,CALLE 40 5RA SECCION URB JARDINES DEL CARIBE,PONCE,PR,731,NOT AVAILABLE,(787) 841-6411
71083,720003000854,AUREA FUENTES MENDEZ (CALABAZAS INFANTES),CARR 435 KM 2 HM 3,SAN SEBASTIAN,PR,685,NOT AVAILABLE,(787) 896-4100
73520,720003000269,RAMON T. RIVERA (SU LAJITA),CARR 771 KM 5 HM 4 BO BARRANCAS,BARRANQUITAS,PR,794,NOT AVAILABLE,(787) 857-5571
76090,720003001241,JOSE MARIA DEL VALLE,CARR 819 KM 1HM 6 BO BUCARABONES II,TOA ALTA,PR,953,NOT AVAILABLE,(787) 797-5375
76252,720003000254,PETROAMERICA PAGAN,CALLE MUNOZ RIVERA #14,BARRANQUITAS,PR,794,NOT AVAILABLE,(787) 857-6050
76823,720003000418,SUPERIOR ISIDRO A SANCHEZ,URB BRISA DEL MAR CALLE 2,LUQUILLO,PR,773,NOT AVAILABLE,(787) 889-4333
77291,720003001470,MARIA TERESA SERRANO,VIA 8 URB. VILLA FONTANA,CAROLINA,PR,983,NOT AVAILABLE,(787) 752-2975
77393,720003000795,ESPINO,CARR.109 KM.5 HM.0 BO ESPINO,ANASCO,PR,610,NOT AVAILABLE,(787) 826-3380
60380,720003000426,CENTRO DE ADIESTRAMIENTO Y BELLAS ARTES,EDIF 608 BASE RAMEY,AGUADILLA,PR,604,NOT AVAILABLE,(787) 890-2008
60430,720003001986,ANTONIO BADILLO HERNANDEZ,CARR. 459 KM. 7.04 BO. MONTANA,AGUADILLA,PR,605,NOT AVAILABLE,(787) 890-3350
60494,720003000364,FRANCISCO GAZTAMBIDE VEGA,CARR 167 KM 13 HM 8 BUENA VISTA,BAYAMON,PR,959,NOT AVAILABLE,(787) 799-0563
60649,720003001704,SU HONORIO HERNANDEZ,CARR 113 KM 3 HM 8 BO SAN ANTONIO,QUEBRADILLAS,PR,678,NOT AVAILABLE,(787) 895-2962
65467,720003001387,RAMON MARIN SOLA,CALLE AZALEA FINAL ESQ. CAMPOBELLO URB,GUAYNABO,PR,971,NOT AVAILABLE,(787) 720-3911
68109,720003001849,BETHZAIDA VELAZQUEZ SUPERIOR,URB LAS DELICIAS 100 CALLE FLORENSITA FERRER,PONCE,PR,731,NOT AVAILABLE,(787) 284-1080
68742,720003001830,EL CONQUISTADOR,CALLE 13 ESQ. 1 EL CONQUISTADOR,TRUJILLO ALTO,PR,976,NOT AVAILABLE,(787) 760-2865
30242,720003001867,FELIPE RIVERA CENTENO,URB SANTA JUANA CALLE 1,CAGUAS,PR,727,NOT AVAILABLE,(787) 746-5660
30938,720003000371,NUEVA JUAN S MARCHAND,CARR 685 SECT LOS RABANOS BO BOQUILLAS,MANATI,PR,674,NOT AVAILABLE,(787) 854-4541
7256,720003001736,PEDRO AMADOR,CARR 485 KM 2 HM 2 SECT BAJURA BO YAGUADA,CAMUY,PR,627,NOT AVAILABLE,(787) 898-1337
7619,720003001836,SOR ISOLINA FERRE (VILLA DEL CARMEN),CALLE SOLIMAR URB VILLA DEL CARMEN,PONCE,PR,731,NOT AVAILABLE,(787) 840-6075
27378,720003001820,DR PEDRO ALBIZU CAMPOS,CALLE 30 SECTOR AGUILITA,JUANA DIAZ,PR,795,NOT AVAILABLE,(787) 260-0406
12894,720003000618,CLAUDIO FERRER COTTO,CARR 156 URB SABANA DEL PALMAR 826 PALMA REAL,COMERIO,PR,782,NOT AVAILABLE,(787) 875-3265
17283,720003000381,FLORENCIA GARCIA,CALLE JOSE C BARBOSA FRENTE CENTRO PIEZAS,LAS PIEDRAS,PR,771,NOT AVAILABLE,(787) 716-0044
70589,720003000818,SU ALFREDO DORRINGTON,URB VALLE HERMOSO 34 CALLE FLAMBOYAN,HORMIGUEROS,PR,660,NOT AVAILABLE,(787) 806-0185
71010,720003000366,MARIA DAVILA SEMIDEY,EDF. MARIA DAVILA SEMIDEY CARR 3 #300,PATILLAS,PR,723,NOT AVAILABLE,(787) 839-0844
72192,720003000445,RAMON POWER Y GIRALT,CALLE JESUS T PINERO 22,LAS PIEDRAS,PR,771,NOT AVAILABLE,(787) 733-2561
73496,720003000556,SU FRANCISCO MARIA QUINONES,CARR 102 KM 37 BO MINILLAS,SAN GERMAN,PR,683,NOT AVAILABLE,(787) 832-4155
41837,720003000168,SU JUAN D. STUBBE,CARR 787 KM 2 HM 9 BO. BAYAMON,CIDRA,PR,739,NOT AVAILABLE,(787) 739-8545
45832,720003001534,FRANCISCO MANRIQUE CABRERA,URB REXVILLE CALLE 41 FINAL,BAYAMON,PR,957,NOT AVAILABLE,(787) 797-1850
46545,720003001409,JACINTO LOPEZ MARTINEZ,CALLE NORTE #200,TOA BAJA,PR,646,NOT AVAILABLE,(787) 796-1255
49191,720003001301,WILLIAM D. BOYCE,CALLE 31 LAS LOMAS,SAN JUAN,PR,928,NOT AVAILABLE,(787) 792-4931
85863,720003000723,JOSE C. ROSARIO,CARR 2 KM 11 HM 2 BO MORA,ISABELA,PR,662,NOT AVAILABLE,(787) 830-2025
85967,720003000554,ROMAN COLON CORREA (RIO JUEYES),CARR 154 SECTOR RIO JUEYES,COAMO,PR,769,NOT AVAILABLE,(787) 825-5445
87890,720003001158,LUIS MUNOZ RIVERA,CARR 116 RAMAL 1116 BO CANO,GUANICA,PR,653,NOT AVAILABLE,(787) 821-7000
88335,720003001193,HERMINIO ARZOLA EMMANUELLI (QUEBRADAS),CARR 127 RAMAL 377 BO QUEBRADA,GUAYANILLA,PR,656,NOT AVAILABLE,(787) 835-2145
94084,720003001438,EMILIO R. DELGADO,CARR 159 KM 13,COROZAL,PR,783,NOT AVAILABLE,(787) 859-2037
94729,720003001861,RAMON E. RODRIGUEZ DIAZ,CALLE COMERCIO URB. VERDUN,HORMIGUEROS,PR,660,NOT AVAILABLE,(787) 849-1230
97284,720003002070,PETRA ZENON DE FABERY,CARR 181 KM 1 HM 8 BO LAS CUEVAS,TRUJILLO ALTO,PR,976,NOT AVAILABLE,(787) 760-0685
62966,720003000059,AUREA E. QUILES CLAUDIO,CARR OCHOA 333 KM 5,GUANICA,PR,653,NOT AVAILABLE,(787) 835-2770
65994,720003000678,RAFAEL MARTINEZ NADAL,CALLE SALVADOR MESTRE ESQ. CARBONELL VILLA,MAYAGUEZ,PR,680,NOT AVAILABLE,(787) 832-2002
100649,720003001450,SU NICOLAS RODRIGUEZ,CARR 568 KM 30 HM 1 BO PADILLA,COROZAL,PR,783,NOT AVAILABLE,(787) 859-3250
101486,720003001787,APOLO SAN ANTONIO,CALLE LUIS MUNOZ RIVERA,VEGA ALTA,PR,692,NOT AVAILABLE,(787) 883-3130
41255,720003001050,CAPITANEJO,CARR 1 INT 510 BO LA CUARTA SECTOR LAS PALOMAS,PONCE,PR,780,NOT AVAILABLE,(787) 837-6302
41381,720003000646,FRANCISCO ZAYAS SANTANA,CARR 150 KM 5 HM I URB LA VEGA,VILLALBA,PR,766,NOT AVAILABLE,(787) 847-2275
42909,720003001376,VICTOR PARES COLLAZO,CALLE PERU FINAL URB. HYDE PARK,SAN JUAN,PR,928,NOT AVAILABLE,(787) 764-2151
49190,720003000464,SU SABANA LLANA,CARR 3 KM 83 HM 0 HACIA ALBERGUE OLIMPICO,SALINAS,PR,751,NOT AVAILABLE,(787) 824-0896
37096,720003002010,AUREA E. RIVERA COLLAZO,P33 CALLE 7 URB EL MADRIGAL,PONCE,PR,731,NOT AVAILABLE,(787) 841-0328
37346,720003000974,RAFAEL IRIZARRY RIVERA,CALLE PEDRO ALVARADO,PENUELAS,PR,624,NOT AVAILABLE,(787) 836-1177
39687,720003000291,ABELARDO DIAZ MORALES,URB. SANTA ELVIRA CALLE SANTA GERTRUDIS,CAGUAS,PR,726,NOT AVAILABLE,(787) 743-9056
52658,720003001633,PROFESOR RAFAEL ALICEA VAZQUEZ (JOSEFINA LINARES),CARR 111 KM 12.5 BO. LARES,LARES,PR,669,NOT AVAILABLE,(787) 897-4070
58316,720003000813,SU FEDERICO DEGETAU,CARR 103 KM 11 HM 9 BO BOQUERON,CABO ROJO,PR,623,NOT AVAILABLE,(787) 851-3383
20561,720003000450,ELEMENTAL CEFERINA CORDERO,CALLE EMILIO GONZALEZ INTERIOR # 217,ISABELA,PR,662,NOT AVAILABLE,(787) 872-0464
21071,720003001349,RAMON VILA MAYO,CALLE BRUMBAUGH #1014,SAN JUAN,PR,926,NOT AVAILABLE,(787) 772-9864
21112,720003001980,ROSA PASCUAL PARIS,URB FAJARDO GARDENS CALLE 23,FAJARDO,PR,738,NOT AVAILABLE,(787) 863-8520
22898,720003000451,ELEMENTAL DANIEL VELEZ SOTO,CARR 111 KM 2 HM 0,LARES,PR,669,NOT AVAILABLE,(787) 897-3060
26200,720003000335,GERMAN RIECKEHOFF,BO. PUEBLO NUEVO,VIEQUES,PR,765,NOT AVAILABLE,(787) 741-8340
63865,720003002028,JUAN PONCE DE LEON (ESPECIALIZADA),CALLE DR VIDAL,HUMACAO,PR,792,NOT AVAILABLE,(787) 852-1242
66392,720003000301,FRANCISCO VALDES ROLA,CARR 798 KM 12 HM 5 BO. RIO CANAS,CAGUAS,PR,725,NOT AVAILABLE,(787) 747-9464
66415,720003000724,SU JOSE A VARGAS,CARR 446 KM 4.2 HM 4 BO LLAMADAS SECT SANTA ROSA,ISABELA,PR,662,NOT AVAILABLE,(787) 830-0260
67241,720003001871,ELOISA PASCUAL,RES BAIROA AVE ASTRO CALLE 11,CAGUAS,PR,725,NOT AVAILABLE,(787) 746-5506
90009,720003001643,FERNANDO CALLEJO,CALLE VENDING ESQ ROSARIO,MANATI,PR,674,NOT AVAILABLE,(787) 854-2629
73756,720003000608,ELEMENTAL URBANA NUEVA,AVE FLAMBOYAN #233,LAJAS,PR,667,NOT AVAILABLE,(787) 838-2245
75278,720003000308,CARMEN CASASUS MARTI (ELEM URBANA),CARR. 405 KM.0 HM. 9 BO. CARRERAS,ANASCO,PR,610,NOT AVAILABLE,(787) 826-5355
978,720003000780,ISABEL SUAREZ,CALLE 65 INFANTERIA,ANASCO,PR,610,NOT AVAILABLE,(787) 826-2575
1037,720003001151,HECTOR I. RIVERA,CARR 135 KM 75 HM 5 BO YAHUECAS,ADJUNTAS,PR,601,NOT AVAILABLE,(787) 829-3030
2124,720003001853,JOSEFINA BARCELO,CARR 177 KM 5 AVE LOMAS VERDES LOS FRAILES LLANOS,GUAYNABO,PR,969,NOT AVAILABLE,(787) 720-6482
3257,720003000113,MARGARITA RIVERA DE JANER,CALLE SAN ANTONIO,GURABO,PR,778,NOT AVAILABLE,(787) 737-6594
4608,720003001483,CARLOS F DANIELS,URB SEVERO QUINONES CALLE J S QUINONES,CAROLINA,PR,986,NOT AVAILABLE,(787) 768-3735
6845,720003001394,SANTA ROSA III,CARR 833 KM 11 HM 6 BO SANTA ROSA III,GUAYNABO,PR,969,NOT AVAILABLE,(787) 720-2718
8897,720003000092,SU RAFAEL ZAMOT CRUZ,CARR 134 KM 27 HM 21 BO BAYANEY,HATILLO,PR,659,NOT AVAILABLE,(787) 820-0841
9562,720003000626,ALFONSO CASTA MARTINEZ,AVE CALIMANO,MAUNABO,PR,707,NOT AVAILABLE,(787) 861-2300
15219,720003001431,ONOFRE CARBALLEIRA,AVE LAS NEREIDAS,CATANO,PR,962,NOT AVAILABLE,(787) 788-8975
16906,720003001336,AMALIA MARIN,CALLE GUARACANAL BO. VENEZUELA,SAN JUAN,PR,926,NOT AVAILABLE,(787) 764-0093
18544,720003000685,SUPERIOR URBANA NUEVA,PR 178 KM 2.9 BO GUASIMA,ARROYO,PR,714,NOT AVAILABLE,(787) 839-2655
2941,720003000579,ROSENDO MATIENZO CINTRON,CARR 117 KM 5.3 BO LAJAS ARRIBA,LAJAS,PR,667,NOT AVAILABLE,(787) 899-4179
8911,720003001885,FERMIN DELGADO DIAZ (SU BO PENA POBRE),CARR #31 INT #850 BO PENA POBRE SEC-HIGUERILLO,NAGUABO,PR,718,NOT AVAILABLE,(787) 874-6445
9242,720003001359,JUAN RAMON JIMENEZ,CALLE 46 ESQ. SICARDO RES. MANUEL A. PEREZ,SAN JUAN,PR,923,NOT AVAILABLE,(787) 767-9463
61236,720003000145,SU MARIA C. SANTIAGO,CARR 172 KM 1 HM 5 BO. NARANJO SECTOR SABANA,COMERIO,PR,782,NOT AVAILABLE,(787) 875-3613
64963,720003001588,ANDRES VALCARCEL,CALLE ANDRES VALCARCEL FINAL,TRUJILLO ALTO,PR,976,NOT AVAILABLE,(787) 761-1060
11278,720003000346,RAFAEL DE JESUS,CALLE PIMENTEL Y CASTRO,RIO GRANDE,PR,745,NOT AVAILABLE,(787) 887-2785
11281,720003001101,LILA MARIA MERCEDES MAYORAL,BLQ CANAS BOX 7409 SECTOR EL TUQUE,PONCE,PR,780,NOT AVAILABLE,(787) 843-1305
15407,720003000174,EMERITA LEON ELEMENTAL,URB VILLA VERDE 118 CALLE LUIS MORALES,CAYEY,PR,736,NOT AVAILABLE,(787) 738-2410
17761,720003000882,LENA M. FRANCESCH (RUBIAS KM. 25),CARR 105 KM 25 HM 1 BO RUBIAS,YAUCO,PR,698,NOT AVAILABLE,(787) 856-4020
18432,720003001639,TEODOMIRO TABOAS,CALLE VENDIG ESQ GEORGETTI,MANATI,PR,674,NOT AVAILABLE,(787) 854-2255
42367,720003000689,CENTRO RESIDENCIAL DE OPORTUNIDADES EDUCATIVAS DE MAYAGUEZ,CERRO LAS MESAS KM6 HM.9,MAYAGUEZ,PR,682,NOT AVAILABLE,(787) 832-3720
44168,720003001717,SU MANUEL RUIZ GANDIA,CARR 635 KM 2 BO DOMINGUITO,ARECIBO,PR,612,NOT AVAILABLE,(787) 879-0851
49337,720003000203,RUTH EVELYN CRUZ SANTOS,CARR 171 KM 1.0 BO. SUD,CIDRA,PR,739,NOT AVAILABLE,(787) 739-3011
31296,720003001723,NUEVA INTERMEDIA,CARR 140 BO LLANADAS,BARCELONETA,PR,617,NOT AVAILABLE,(787) 846-2460
31675,720003001432,FRANCISCO OLLER,AVE LAS NEREIDAS,TOA BAJA,PR,962,NOT AVAILABLE,(787) 788-1696
32108,720003001043,ANDRES GRILLASCA SALAS,AVE LAS AMERICAS URB CONSTANCIA,PONCE,PR,731,NOT AVAILABLE,(787) 842-6414
32420,720003000776,CENTRO VOCACIONAL ESPECIAL,CARR 417 KM 3 HM 6 BO GUANABANO,AGUADA,PR,602,NOT AVAILABLE,(787) 868-3245
34433,720003001473,DR. MODESTO RIVERA RIVERA,CALLE 9 #84 BLQ. 79 UR. VILLA CAROLINA,CAROLINA,PR,985,NOT AVAILABLE,(787) 762-7505
38800,720003001802,HECTOR HERNANDEZ ARANA (INTERMEDIA BO PILETAS),CARR 129 KM 24.7,LARES,PR,669,NOT AVAILABLE,(787) 897-2350
50481,720003001880,VILLA MARINA,CALLE BAHIA OESTE C-79,GURABO,PR,778,NOT AVAILABLE,(787) 737-4344
50641,720003001611,DOMINGO APONTE COLLAZO,CARR 111 CALLE RAMON DE JESUS SIERRA,LARES,PR,669,NOT AVAILABLE,(787) 897-2408
59195,720003001751,SU JOAQUIN VAZQUEZ CRUZ,CARR 456 KM 4 HM 9 BO CIBAO,CAMUY,PR,627,NOT AVAILABLE,(787) 820-2909
90794,720003001883,ESCUELA LIBRE DE MUSICA (ESPECIALIZADA),CARR 662 SECTOR LOS LLANOS BO SANTANA,ARECIBO,PR,614,NOT AVAILABLE,(787) 879-3567
99604,720003000552,HERMINIA C. RAMIREZ,CARR 347 KM 4 HM 3 LA HACIENDITA,SAN GERMAN,PR,683,NOT AVAILABLE,(787) 892-1320
84322,720003001379,TRINA PADILLA DE SANZ,AVE JESUS T PINERO OESTE #950,SAN JUAN,PR,928,NOT AVAILABLE,(787) 763-1130
87557,720003001505,MIGUEL DE CERVANTES SAAVEDRA,CARR 831 URB LOMAS VERDES,BAYAMON,PR,960,NOT AVAILABLE,(787) 785-4065
88366,720003001472,FRANCISCO MATIAS LUGO,CALLE ALMENDRO VALLE ARRIBA HIGTS,CAROLINA,PR,983,NOT AVAILABLE,(787) 757-0410
88812,720003001267,ALBERT EINSTEIN,CALLE HAYDEE REXACH ESQ BORINQUEN,SAN JUAN,PR,915,NOT AVAILABLE,(787) 727-5525
102680,720003001945,ESCUELA PUBLICA ALIANZA VIMENTI SCHOOL,SECTOR VILLA PRADES CALLE ANA OTERO FINAL,SAN JUAN,PR,928,NOT AVAILABLE,(787) 772-4729
30526,720003000468,CARMEN ARZUAGA DE RIVERA,URB VALENCIA I,JUNCOS,PR,777,NOT AVAILABLE,(787) 734-8151
36753,720003001027,LIBRADO NET,URB SAN ANTONIO 50 CALLE 9,PONCE,PR,728,NOT AVAILABLE,(787) 842-6395
38941,720003000296,MANUELA TORO MORICE,URB. CAGUAS NORTE 5 CALLE ESTANBUR,CAGUAS,PR,725,NOT AVAILABLE,(787) 744-2111
39450,720003001898,DR. RAMON EMETERIO BETANCES,AVE ANTONIO R BARCELO,CAYEY,PR,737,NOT AVAILABLE,(787) 738-3745
14209,720003001615,GEORGE WASHINGTON,CARR 111 KM 33 HM 9 BO PUEBLO SECT BURUQUILLO,LARES,PR,669,NOT AVAILABLE,(787) 897-4095
15303,720003000566,PEDRO COLON SANTIAGO,CARR 14 KM 11 BO JACAGUAS,JUANA DIAZ,PR,795,NOT AVAILABLE,(787) 837-1016
15616,720003000712,JAIME COIRA ORTIZ (SU POZAS),CARR 149 RAMAL 615 KM 7,CIALES,PR,638,NOT AVAILABLE,(787) 871-4692
17322,720003000315,MARTA SANCHEZ (GUAYABO),CARR 900 BO GUAYABO,YABUCOA,PR,767,NOT AVAILABLE,(787) 893-3300
64737,720003002002,CELSO GONZALEZ VAILLANT,CARR 188 KM 7 HM 2,LOIZA,PR,772,NOT AVAILABLE,(787) 876-8260
64770,720003001240,NICOLAS SEVILLA,URB JARD DE TOA ALTA CALLE 1,TOA ALTA,PR,953,NOT AVAILABLE,(787) 870-2570
65027,720003001426,ISAAC DEL ROSARIO,AVE FLOR DEL VALLE URB LAS VEGAS,CATANO,PR,962,NOT AVAILABLE,(787) 788-7210
25276,720003002068,INES MARIA MENDOZA,AVE LUIS MUNOZ MARIN,YAUCO,PR,698,NOT AVAILABLE,(787) 267-0030
28165,720003001999,GENARO CAUTINO,CALLE ASHFORD ESQ. SAN AGUSTIN,GUAYAMA,PR,784,NOT AVAILABLE,(787) 864-0668
95243,720003000921,JOSE RAMON RODRIGUEZ,CALLE DR VEVE SUR,COAMO,PR,769,NOT AVAILABLE,(787) 825-1127
50480,720003002073,ANGEL P. MILLAN ROHENA,CAR 857 KM 0.3 BO CANOVANILLAS,CAROLINA,PR,986,NOT AVAILABLE,(787) 750-4480
50868,720003001310,SU DR ARTURO MORALES CARRION,CARR 1 RM 19.3 BO TORTUGO,SAN JUAN,PR,928,NOT AVAILABLE,(787) 720-3708
53338,720003000272,PAULA MOJICA,CALLE ROBLE URB. VILLA TURABO,CAGUAS,PR,725,NOT AVAILABLE,(787) 743-2498
57949,720003000750,CRISTINA (AMADA) MARTINEZ MARTINEZ,CARR 149 BO JAGUEYES DESVIO #5561,VILLALBA,PR,766,NOT AVAILABLE,(787) 847-5940
59451,720003000065,SU EUGENIO MARIA DE HOSTOS,CARR 682 KM 7 HM 5 BO GARROCHALES,ARECIBO,PR,612,NOT AVAILABLE,(787) 881-3540
84462,720003001045,PONCE HIGH SCHOOL,CALLE CRISTINA #37,PONCE,PR,733,NOT AVAILABLE,(787) 842-4156
88025,720003002043,ANTONIO S PAOLI (MUSICA),AVE JOSE VILLARES ESQ RAFAEL CORDERO,CAGUAS,PR,725,NOT AVAILABLE,(787) 746-6644
88603,720003001762,LUIS MUNOZ RIVERA,124 CALLE DR CUETO,UTUADO,PR,641,NOT AVAILABLE,(787) 894-2666
73884,720003001350,SANTIAGO IGLESIAS PANTIN,CALLE URDIALES ESQ. FLANDES SAN JOSE,SAN JUAN,PR,923,NOT AVAILABLE,(787) 767-8721
222,720003001407,MARIANO ABRIL ELEMENTAL,CARR 8834 KM 1.8 BO RIO,CAGUAS,PR,970,NOT AVAILABLE,(787) 720-7870
3507,720003000902,ELVIRA VICENTE,AVE BARBOSA FINAL,YAUCO,PR,698,NOT AVAILABLE,(787) 856-7043
6730,720003000607,ELEMENTAL NUEVA (FACTOR V),1 SECC ANIMAS BO FACTOR,ARECIBO,PR,614,NOT AVAILABLE,(787) 881-3090
8426,720003001231,JOSE ROBLES OTERO,CARR 867 KM 5 BO INGENIO,TOA BAJA,PR,949,NOT AVAILABLE,(787) 794-3470
9394,720003000399,MANUEL GARCIA PEREZ (NUEVA),CALLE PEDRO ALBIZU CAMPOS INTERIOR,RINCON,PR,677,NOT AVAILABLE,(787) 823-0335
9658,720003001279,RAFAEL MARIA DE LABRA,PONCE DE LEON PDA #18 SANTURCE,SAN JUAN,PR,909,NOT AVAILABLE,(787) 724-2700
41314,720003001898,DR. RAMON EMETERIO BETANCES,AVE ANTONIO R BARCELO,CAYEY,PR,737,NOT AVAILABLE,(787) 738-3745
43156,720003000266,ANTONIO VAZQUEZ RAMOS (SU LA LOMA),CARR 156 KM 20 HM 1 BO QUEBRADA GRANDE,BARRANQUITAS,PR,794,NOT AVAILABLE,(787) 857-3611
44024,720003001535,JULIO RESSY,CARR 830 KM 2 HM 2 CERRO GORDO,BAYAMON,PR,956,NOT AVAILABLE,(787) 799-4950
44393,720003001530,REXVILLE ELEMENTAL,URB REXVILLE CALLE 13 ESQ 21,BAYAMON,PR,956,NOT AVAILABLE,(787) 797-5004
47134,720003000088,LUIS MUNOZ RIVERA,CARR 130 KM 3 HM 5 BO CAPAEZ,HATILLO,PR,659,NOT AVAILABLE,(787) 898-1830
48222,720003000313,CASIANO CEPEDA PRE-VOCACIONAL,CARR 959 KM 2 BO CIENAGA ALTA,RIO GRANDE,PR,745,NOT AVAILABLE,(787) 887-5200
48778,720003000178,BENJAMIN HARRISON,249 AVE JOSE DE DIEGO,CAYEY,PR,736,NOT AVAILABLE,(787) 738-1309
83783,720003001835,BASILIO MILAN HERNANDEZ,AVE JOSE DE DIEGO ESQ SABANA SECA,TOA BAJA,PR,950,NOT AVAILABLE,(787) 795-6570
91716,720003000390,EUGENIO BRAC,2 CALLE ANTONIO RIOS,NAGUABO,PR,718,NOT AVAILABLE,(787) 874-3295
92155,720003001013,ANA VALLDEJULY (JAUCA),CALLE LUIS MUNOZ RIVERA CARR 1 BO JAUCA,SANTA ISABEL,PR,757,NOT AVAILABLE,(787) 845-6147
101284,720003001253,MANUEL BOADA,AVE BORINQUEN ESQ CALLE CORTIJO,SAN JUAN,PR,915,NOT AVAILABLE,(787) 726-0989
50263,720003000275,MYRNA M. FUENTES,CALLE 33 BONNEVILLE HEIGTS,CAGUAS,PR,725,NOT AVAILABLE,(787) 744-2231
55003,720003001921,ESPECIALIZADA DE BELLAS ARTES,DESVIO MATIAS SOTO #57,CAYEY,PR,737,NOT AVAILABLE,(787) 739-4230
55176,720003001633,PROFESOR RAFAEL ALICEA VAZQUEZ (JOSEFINA LINARES),CARR 111 KM 12.5 BO. LARES,LARES,PR,669,NOT AVAILABLE,(787) 897-4070
55748,720003002009,JOSE ONOFRE TORRES FERMOSO,CARR 128 KM 1 HM 8 INT 368,YAUCO,PR,698,NOT AVAILABLE,(787) 856-7338
57920,720003000167,BELLAS ARTES DE PONCE (ESPECIALIZADA),20 CALLE LOLITA TIZOL,PONCE,PR,731,NOT AVAILABLE,(787) 259-7373
58916,720003001563,JUAN RAMON JIMENEZ,CARR 864 BO HATO TEJAS,BAYAMON,PR,956,NOT AVAILABLE,(787) 798-5428
59221,720003001964,DOLORES GONZALEZ,CALLE A URB JARDINES DE ARROYO,ARROYO,PR,714,NOT AVAILABLE,(787) 839-5177
6838,720003000571,DRA. CARMEN DELIA COLON MARTINEZ,CARR 725 BARRIO LLANOS SECTOR EL JUICIO,AIBONITO,PR,705,NOT AVAILABLE,(787) 991-0040
9501,720003001302,SOTERO FIGUEROA,AVE PALMA REAL Y FORDHAM,SAN JUAN,PR,928,NOT AVAILABLE,(787) 765-8132
30670,720003001477,LUZ AMERICA CALDERON,AVE CENTRAL BOULEVAR 18 VC,CAROLINA,PR,985,NOT AVAILABLE,(787) 768-4044
33354,720003000590,WILFREDO LAFUENTE ORTIZ,CARR 750 BO ATALANTE,MAUNABO,PR,707,NOT AVAILABLE,(787) 787-0024
33975,720003000140,LIDIA FIOL SCARANO,CALLE 6 VILLA HUMACAO,HUMACAO,PR,792,NOT AVAILABLE,(787) 850-7080
62414,720003000065,SU EUGENIO MARIA DE HOSTOS,CARR 682 KM 7 HM 5 BO GARROCHALES,ARECIBO,PR,612,NOT AVAILABLE,(787) 881-3540
66565,720003001865,SU AGAPITO LOPEZ FLORES,URB VERDE MAR CALLE 6,HUMACAO,PR,792,NOT AVAILABLE,(787) 852-6494
24351,720003001361,JUAN PONCE DE LEON,AVE BARBOSA ESQ VERGEL 374,SAN JUAN,PR,928,NOT AVAILABLE,(787) 764-4630
25646,720003000410,ILEANA DE GRACIA (SUPERIOR NUEVA),CARR 2 KM 31 HM 8 SECT BAJURAS,VEGA ALTA,PR,692,NOT AVAILABLE,(787) 270-3355
29365,720003000669,NELIDA MELENDEZ MELENDEZ (ELEM. URBANA),CARR 155 INT AVE LUIS M MARIN,OROCOVIS,PR,720,NOT AVAILABLE,(787) 867-2840
14796,720003000612,SU BARRIO SABANA HOYOS (NUEVA),CARR 639 KM 3 HM 2 BO. SABANA HOYOS,ARECIBO,PR,614,NOT AVAILABLE,(787) 815-9087
15641,720003001057,ERNESTO RAMOS ANTONINI,301 C AVE TITO CASTRO,PONCE,PR,731,NOT AVAILABLE,(787) 843-2336
16065,720003001281,RAFAEL CORDERO,CALLE AURORA ESQ HOARE PDA 15,SAN JUAN,PR,908,NOT AVAILABLE,(787) 722-6643
75221,720003000614,TOMAS MASSO RIVERA MORALES,CARR 861 KM 5.5 BO PINAS TOA ALTA,TOA ALTA,PR,954,NOT AVAILABLE,(787) 799-3020
79142,720003002013,FRANCISCO (PRISCO) FUENTES,CALLE GROVISH 13 URB. PARQUE ECUESTRE,CANOVANAS,PR,979,NOT AVAILABLE,(787) 750-4060
43597,720003002084,NEMESIO R. CANALES I,RES NEMESIO CANALES,SAN JUAN,PR,928,NOT AVAILABLE,(787) 782-6539
44237,720003000524,JUANA RODRIGUEZ MUNDO,URB LOIZA VALLEY CALLE ADONIS,CANOVANAS,PR,745,NOT AVAILABLE,(787) 876-4828
47676,720003000531,FRANCISCO FELICIE MARTINEZ (SU BRENAS),CARR 693 CALLE 2 KM 14 HM 4 BO BRENAS,VEGA ALTA,PR,692,NOT AVAILABLE,(787) 883-4535
10745,720003001983,LUIS COLON (ADOLFO BABILONIA),230 CALLE ISABELA PUEBLO,MOCA,PR,676,NOT AVAILABLE,(787) 877-3170
10966,720003001913,CAMILO VALLES MATIENZO,URB BRISA DEL MAR CALLE 3,LUQUILLO,PR,773,NOT AVAILABLE,(787) 889-1045
11322,720003000348,PEDRO FALU ORELLANO,CALLE PIMENTEL SECTOR LAS FLORES,RIO GRANDE,PR,745,NOT AVAILABLE,(787) 887-2778
5284,720003000619,ELEMENTAL BARRIO LAS 400,CARR 185 KM 15.8 PARCELA LAS 400,CANOVANAS,PR,745,NOT AVAILABLE,(787) 876-7280
9630,720003001649,EVARISTO CAMACHO,CARR 643 KM 2 HM 1 BO PUGNADO,MANATI,PR,674,NOT AVAILABLE,(787) 854-6315
90260,720003001558,VIRGILIO DAVILA,CARR 864 CALLE HATO TEJAS,BAYAMON,PR,956,NOT AVAILABLE,(787) 785-2378
90688,720003001916,ISABEL FLORES,URB LOS ALMENDROS,JUNCOS,PR,777,NOT AVAILABLE,(787) 734-6816
90773,720003000747,LUIS MUNOZ RIVERA,CARR. 457 C/E BASE RAMEY BO. CAMASEYES,AGUADILLA,PR,603,NOT AVAILABLE,(787) 891-0862
94967,720003000161,LEONCIO MELENDEZ,DESVIO SUR ANIBAL GARCIA PENA,LAS PIEDRAS,PR,771,NOT AVAILABLE,(787) 733-2520
98307,720003000606,BRYAN,CARR. 124 KM.10 BO.CERROTE,LAS MARIAS,PR,670,NOT AVAILABLE,(787) 827-3066
98741,720003000595,GLORIA MARIA BORRERO OLIVERAS (SEGUNDA UNIDAD BO. MACANA),CARR #132 KM 4 HM 2 BO MACANA,GUAYANILLA,PR,656,NOT AVAILABLE,(787) 899-1096
99645,720003000409,MARTIN GARCIA GIUSTI,CARR 863 KM 0 HM 9 BO PAJAROS,TOA BAJA,PR,949,NOT AVAILABLE,(787) 251-2231
99661,720003000762,JOSE GONZALEZ RUIZ,CARR 416 KM 5.3 BO LAGUNAS,AGUADA,PR,602,NOT AVAILABLE,(787) 868-5740
81008,720003000199,SU EUGENIO MARIA DE HOSTOS,CARR 14 KM 65 HM 3 BO TOITA,CAYEY,PR,736,NOT AVAILABLE,(787) 738-5866
81951,720003000991,TALLABOA ALTA INTERMEDIA,CARR 132 KM 14 HM 3 BO TALLABOA ALTA,PENUELAS,PR,624,NOT AVAILABLE,(787) 836-2100
84279,720003001196,HIPOLITO GARCIA BORRERO,CARR 335 HM 4 BO INDIOS,GUAYANILLA,PR,656,NOT AVAILABLE,(787) 835-2985
74259,720003001582,SU JOSE CELSO BARBOSA,CARR 14 KM 46 HM 5 BO ASOMANTE,AIBONITO,PR,705,NOT AVAILABLE,(787) 735-8892
75576,720003000765,ANSELMO VILLARRUBIA,RAMAL 4416 KM 1.8 BO MALPASO,AGUADA,PR,602,NOT AVAILABLE,(787) 868-8735
78161,720003001377,JUAN JOSE OSUNA (ESPSECIALIZADA),CALLE TOURS SOTO URB. BALDRICH,SAN JUAN,PR,928,NOT AVAILABLE,(787) 282-0950
50548,720003001753,JUAN PONCE DE LEON II,CARR 631 KM 5 BO CEIBA,FLORIDA,PR,650,NOT AVAILABLE,(787) 822-2050
55512,720003000703,FRANCISCO MENDOZA,CALLE CORCHADO,ISABELA,PR,662,NOT AVAILABLE,(787) 872-2275
58117,720003000623,FRANCISCO PRADO PICART,BO GUAYABAL CERRO,JUANA DIAZ,PR,795,NOT AVAILABLE,(787) 787-8048
59988,720003000059,AUREA E. QUILES CLAUDIO,CARR OCHOA 333 KM 5,GUANICA,PR,653,NOT AVAILABLE,(787) 835-2770
32883,720003001468,PETRA ROMAN VIGO,CARR. 887 KM. 3.5 BO SAN ANTON,CAROLINA,PR,979,NOT AVAILABLE,(787) 762-7385
33692,720003002069,LORENZO VIZCARRONDO,CALLE QUINONES #8 URB. SEVERO QUINONES,CAROLINA,PR,988,NOT AVAILABLE,(787) 276-0120
39952,720003000599,MANUEL GONZALEZ MELO,CARR 115 KM 9 HM 0 BO CANVALACHE,RINCON,PR,677,NOT AVAILABLE,(787) 823-1197
60061,720003000109,SU ADOLFO GARCIA,CARR 165 KM 1 HM 9 BO LOMAS,NARANJITO,PR,719,NOT AVAILABLE,(787) 869-4008
67533,720003000551,PROFESORA JUANA ROSARIO CARRERO (ESCUELA INTERMEDIA NUEVA),AVE. NATIVO ALERS DESVIO SUR,AGUADA,PR,602,NOT AVAILABLE,(787) 868-2260
22864,720003001363,PEDRO CARLOS TIMOTHEE,CALLE 5 NE PUERTO NUEVO,SAN JUAN,PR,928,NOT AVAILABLE,(787) 782-1280
43369,720003001591,JOSE F. DIAZ,CARR. 843 KM. 3.6 CARRAIZO ALTO,SAN JUAN,PR,926,NOT AVAILABLE,(787) 760-4255
45575,720003001171,SAN PATRICIO,CARR 139 KM 7 MH 6 BO SAN PATRICIO,JAYUYA,PR,664,NOT AVAILABLE,(787) 259-0112
788,720003000671,ANITA OTERO HERNANDEZ (ESC. ESP BELLAS ARTES HUMACAO),ZONA INDUSTRIAL BO CATANO,HUMACAO,PR,792,NOT AVAILABLE,(787) 285-5575
1620,720003000126,JUANA COLON,CARR 778 BDA. PASARELL. SECTOR INDUSTRIAL,COMERIO,PR,782,NOT AVAILABLE,(787) 875-2130
3098,720003002032,GEORGINA BAQUERO,CARR 186 KM 7 MH 1 BO CUBUY,CANOVANAS,PR,745,NOT AVAILABLE,(787) 876-7807
5455,720003001339,ANGELES PASTOR (SAN MARTIN),URB SAN MARTIN CALLE LUIS PARDO,SAN JUAN,PR,926,NOT AVAILABLE,(787) 768-3016
5779,720003001460,ROBERTO CLEMENTE,CALLE PERU #5 URB ROLLING HILLS,CAROLINA,PR,987,NOT AVAILABLE,(787) 276-4920
8093,720003000631,TOMAS VERA AYALA,CARR 111 KM 4 HM 0 BO PLATA ALTA,MOCA,PR,676,NOT AVAILABLE,(787) 877-3888
70789,720003001936,JARDINES DE PONCE,CARR 505 KM 7 HM 0 URB JARDINES DE PONCE,PONCE,PR,731,NOT AVAILABLE,(787) 844-3400
71641,720003000094,LUIS MELENDEZ RODRIGUEZ,CARR 130 KM 11 HM 1 BO CAMPO ALEGRE,HATILLO,PR,659,NOT AVAILABLE,(787) 898-9497
74117,720003000525,ANTONIO R. BARCELO,CALLE PALMER FINAL,CANOVANAS,PR,729,NOT AVAILABLE,(787) 876-4055
75854,720003001651,FELIX CORDOVA DAVILA,CARR 668 KM 1 HM 8 BDA CORDOVA DAVILA,MANATI,PR,674,NOT AVAILABLE,(787) 854-4255
77033,720003000269,RAMON T. RIVERA (SU LAJITA),CARR 771 KM 5 HM 4 BO BARRANCAS,BARRANQUITAS,PR,794,NOT AVAILABLE,(787) 857-5571
77702,720003002012,VENUS GARDENS,URB VENUS GARDENS 722 CALLE ASTER,TRUJILLO ALTO,PR,926,NOT AVAILABLE,(787) 755-3120
81502,720003000420,SU HIGINIO FIGUEROA VILLEGAS,SECTOR BORDALEZA BO EMAJAGUAS,MAUNABO,PR,707,NOT AVAILABLE,(787) 861-2340
83974,720003000201,SU GERARDO SELLES SOLA,CARR 184 KM 31 HM 3 BO GUAVATE,CAYEY,PR,736,NOT AVAILABLE,(787) 263-0490
85926,720003000901,SANTIAGO NEGRONI,4 AVE BARBOSA,YAUCO,PR,698,NOT AVAILABLE,(787) 856-8922
87393,720003000232,ANTONIO S PEDREIRA (PRE-TEC),CALLE 4 URB. VILLA DEL CARMEN,CAGUAS,PR,725,NOT AVAILABLE,(787) 743-4868
30266,720003000550,GEORGINA ALVARADO,CARR 330 KM 2.8 INT BO DUEY BAJO,SAN GERMAN,PR,683,NOT AVAILABLE,(787) 892-5756
31994,720003000856,SU BERNALDO MENDEZ JIMENEZ,CARR 125 KM 1 HM 5 BO HATO ARRIBA,SAN SEBASTIAN,PR,685,NOT AVAILABLE,(787) 896-5980
32868,720003001391,ROSALINA C. MARTINEZ,CALLE ROSALINA CARABALLO DE MARTINEZ,CATANO,PR,971,NOT AVAILABLE,(787) 783-8385
37852,720003000515,PROFESORA LUISA MONSEGUR VELEZ,BARRIO BARINAS,YAUCO,PR,698,NOT AVAILABLE,(787) 267-6615
38338,720003000263,JOSE COLON GONZALEZ,CARR 156 KM 17 HM 7 SECTOR EL PORTON BO HONDURAS,BARRANQUITAS,PR,794,NOT AVAILABLE,(787) 857-3686
63680,720003000419,AVELINO PENA REYES,CALLE DR VIDAL #3,HUMACAO,PR,792,NOT AVAILABLE,(787) 285-6542
67521,720003001092,SU JUAN ALEMANY SILVA,BO GUAMANI CARR 179 K.4.4,GUAYAMA,PR,785,NOT AVAILABLE,(787) 864-3005
100598,720003002000,ANTONIO DOMINGUEZ NIEVES,BO RIO CANAS CALLE 1 SECT REPARTO SOLANO,CAGUAS,PR,727,NOT AVAILABLE,(787) 747-2026
106622,720003001947,CHRISTIAN MILITARY ACADEMY ALLIANCE ALIANZA,CARR 687 KM 7 TORTUGUERO,VEGA BAJA,PR,693,NOT AVAILABLE,(787) 855-3188
21215,720003000179,MIGUEL MELENDEZ MUNOZ,AVE ANTONIO R BARCELO FRENTE CUC,CAYEY,PR,737,NOT AVAILABLE,(787) 738-3078
29688,720003001155,AGRIPINA SEDA,45 CALLE 13 DE MARZO,GUANICA,PR,653,NOT AVAILABLE,(787) 821-2310
93666,720003000327,SU JESUS T SANABRIA CRUZ,CARR 3 RUTA 905,YABUCOA,PR,767,NOT AVAILABLE,(787) 893-4860
99472,720003001982,JOSE COLLAZO COLON,CARR 935 RAMAL BO CEIBA NORTE,JUNCOS,PR,777,NOT AVAILABLE,(787) 734-4345
46443,720003001971,JUDITH A VIVAS,AVE RIBAS DOMINICCI,UTUADO,PR,641,NOT AVAILABLE,(787) 894-3446
48221,720003001869,ELADIO TIRADO LOPEZ,CARR 417 KM 3 HM 6 BO GUANABANO,AGUADA,PR,602,NOT AVAILABLE,(787) 868-2161
48537,720003000719,EPIFANIO ESTRADA,CARR 113 KM 9 HM 9 BO COTTO,ISABELA,PR,662,NOT AVAILABLE,(787) 872-4650
58213,720003001351,JUANITA GARCIA PERAZA,LAGUNA FINAL BO ISRAEL,SAN JUAN,PR,928,NOT AVAILABLE,(787) 763-8272
12332,720003001540,SU CACIQUE MAJAGUA,CARR 167 RAMAL 829 KM 1.4 BO BUENA VISTA,BAYAMON,PR,956,NOT AVAILABLE,(787) 797-5480
17429,720003000375,AMALIA LOPEZ DE AVILA,CARR. 119 KM 5.6 INT.BO PUENTE SECTOR ZARZA,CAMUY,PR,627,NOT AVAILABLE,(787) 898-4830
19168,720003001671,SU MATRULLAS,CARR 564 KM 4 HM 3 BO MATRULLAS,OROCOVIS,PR,720,NOT AVAILABLE,(787) 867-3966
41953,720003000087,CARMEN NOELIA PERAZA TOLEDO,CARR 492 KM 3 HM 1 BO CORCOVADOS,HATILLO,PR,659,NOT AVAILABLE,(787) 898-0001
43776,720003000887,DORIS MARTINEZ (ALMACIGO ALTO 2),CARR 371 BO ALMACIGO ALTO,YAUCO,PR,698,NOT AVAILABLE,(787) 856-9028
44426,720003000274,DIEGO VAZQUEZ,CALLE D FINAL BDA. MORALES,CAGUAS,PR,725,NOT AVAILABLE,(787) 743-3695
44427,720003001677,SU SANAMUERTOS,CARR 157 KM 23 BO BARROS,OROCOVIS,PR,720,NOT AVAILABLE,(787) 867-2870
45363,720003001862,ANTONIO FERNOS ISERN,CARR 181 KM 32.5 BO QUEBRADA,SAN LORENZO,PR,754,NOT AVAILABLE,(787) 736-8330
50847,720003001692,FRANCISCO G. PACHIN MARIN,URB VISTA AZUL CALLE 17,ARECIBO,PR,612,NOT AVAILABLE,(787) 878-2019
58156,720003001153,MARIA L MCDOUGALL,23 CALLE 65 INFANTERIA,GUANICA,PR,653,NOT AVAILABLE,(787) 821-6066
30810,720003000414,SUPERIOR VOCACIONAL (ANTONIO LUCHETTI),12 BO SANTANA SECT LOS LLANOS,ARECIBO,PR,614,NOT AVAILABLE,(787) 880-6696
32525,720003000306,TEODORO AGUILAR MORA,CALLE MENDEZ,YABUCOA,PR,767,NOT AVAILABLE,(787) 266-4418
34434,720003000249,CENTRO DE ADIESTRAMIENTO,CARR 155 KM 6 HM 5 BO PUGNADO AFUERA,VEGA BAJA,PR,693,NOT AVAILABLE,(787) 855-1360
37069,720003000367,JOSEFINA MUNOZ DE BERNIER,AVE JESUS T PINERO,PATILLAS,PR,723,NOT AVAILABLE,(787) 839-3630
38991,720003001876,MARIA C. OSORIO,URB TOA ALTA HEIGHTS CALLE 19 BO PINAS,TOA ALTA,PR,953,NOT AVAILABLE,(787) 799-3562
8975,720003000182,ELVIRA M. COLON NEGRON,CALLE CELIS AGUILERA,SANTA ISABEL,PR,757,NOT AVAILABLE,(787) 845-2751
20843,720003000162,SUP VOC MANUEL MEDIAVILLA,58B CALLE CARRERAS PARQUE INDUSTRIAL,HUMACAO,PR,792,NOT AVAILABLE,(787) 852-1315
23001,720003001125,SUPERIOR JUAN SERRALES,CARR. 14 BO COTO LAUREL,PONCE,PR,731,NOT AVAILABLE,(787) 848-5274
25136,720003001087,OSCAR HERNANDEZ GUEVARRA,BDA BLONDET CALLE D,GUAYAMA,PR,784,NOT AVAILABLE,(787) 864-8242
25758,720003002079,SEVERO E. COLBERG RAMIREZ,102 AVE PEDRO ALBIZU CAMPOS,CABO ROJO,PR,623,NOT AVAILABLE,(787) 821-7322
28831,720003000775,SU JUAN B. SOTO,CARR 411 KM.5 HM.7 BO. ATALAYA,AGUADA,PR,602,NOT AVAILABLE,(787) 868-4470
14505,720003000538,HENRY W. LONGFELLOW,CALLE LUNA,SAN GERMAN,PR,683,NOT AVAILABLE,(787) 892-7110
18908,720003001816,RAFAEL HERNANDEZ,CALLE 12 I 100 URB JARDINES DE VEGA BAJA,VEGA BAJA,PR,693,NOT AVAILABLE,(787) 858-1994
90759,720003000715,CARMEN FELICIANO CARRERA (INTERMEDIA BO PALMER),CALLE PRINCIPAL CARR 967 BO PALMER,RIO GRANDE,PR,745,NOT AVAILABLE,(787) 809-0052
91472,720003000232,ANTONIO S PEDREIRA (PRE-TEC),CALLE 4 URB. VILLA DEL CARMEN,CAGUAS,PR,725,NOT AVAILABLE,(787) 743-4868
92967,720003001695,JUAN ALEJO ARIZMENDI,CALLE FRANCISCO AVILA,QUEBRADILLAS,PR,678,NOT AVAILABLE,(787) 895-2180
93427,720003001650,FRANCISCO MENENDEZ BALBANE,CARR 667 KM 4 HM 6 BO CORTES,MANATI,PR,674,NOT AVAILABLE,(787) 854-3063
98086,720003000615,SU LAURO GONZALEZ HIJO,CARR. 406 BO. ANONES,LAS MARIAS,PR,670,NOT AVAILABLE,(787) 827-2540
71873,720003001879,ABELARDO MARTINEZ OTERO,VILLA LOS SANTOS CALLE 14 FINAL,ARECIBO,PR,614,NOT AVAILABLE,(787) 879-2614
74818,720003000320,JAIME C. RODRIGUEZ,CARR 900 URB JAIME C RODRIGUEZ,YABUCOA,PR,767,NOT AVAILABLE,(787) 893-2010
82473,720003000257,PABLO COLON BERDECIA,CALLE BARCELO FINAL SECTOR NUEVO,BARRANQUITAS,PR,794,NOT AVAILABLE,(787) 857-2897
101142,720003000924,BENJAMIN FRANKLIN,CALLE JOSE I QUINTON #82,COAMO,PR,769,NOT AVAILABLE,(787) 825-1284
101365,720003001220,DR. EFRAIN SANCHEZ HIDALGO,MARIANO ABRIL COSTALO 6TO SEC LEVITOWN,TOA BAJA,PR,950,NOT AVAILABLE,(787) 784-5570
21992,720003000303,JOSE F. CINTRON Y ANEXO,CALLE JOSE F CINTRON FINAL,YABUCOA,PR,767,NOT AVAILABLE,(787) 266-2333
23375,720003001251,ANTONIA B. CAIMARY,AVE EDUARDO CONDE ESQ TAPIA VILLA PALMERAS,SAN JUAN,PR,915,NOT AVAILABLE,(787) 726-6783
122,720003001940,CENTRO RESIDENCIAL DE OPORTUNIDADES EDUCATIVAS DE CEIBA,CALLE ROOSEVELT FD-ROOSEVELT ROADS,CEIBA,PR,735,NOT AVAILABLE,(787) 865-1000
1930,720003000004,LUIS MUNOZ RIVERA,CALLE LUIS MUNOZ RIVERA,SAN LORENZO,PR,754,NOT AVAILABLE,(787) 736-5856
5777,720003001226,FRANCISCA DAVILA SEMPRIT,CARR 866 AVE. PRINCIPAL BO SABANA SECA,TOA BAJA,PR,949,NOT AVAILABLE,(787) 784-3455
6900,720003001882,ADRIAN TORRES TORRES,CARR 141-R KM 2 HM 1 SECTOR PUEBLO,JAYUYA,PR,664,NOT AVAILABLE,(787) 828-3445
10795,720003001236,ERNESTINA BRACERO,CANDELARIA ARENAS CARR 865 KM 03,TOA BAJA,PR,951,NOT AVAILABLE,(787) 784-5540
11305,720003000030,SU CARLOS ZAYAS,CARR 916 KM 4 HM 4 CERRO GORDO,SAN LORENZO,PR,754,NOT AVAILABLE,(787) 736-9633
15305,720003001635,SU ANGELICA DELGADO (SU AMERICA),CARR 129 KM 135 BARRIO BUENOS AIRES SEC LA AMERICA,LARES,PR,669,NOT AVAILABLE,(787) 897-1905
19509,720003000039,JUANA G AVILES (FRANQUEZ),CARR 155 KM 2 HM 1 RAMAL 634 BO FRANQUEZ,MOROVIS,PR,687,NOT AVAILABLE,(787) 862-2440
50264,720003001786,IGNACIO MIRANDA,CALLE B URB LAS COLINAS,VEGA ALTA,PR,692,NOT AVAILABLE,(787) 883-2775
55641,720003001902,LUIS MUNOZ MARIN,CALLE A SECTOR NUEVO,BARRANQUITAS,PR,794,NOT AVAILABLE,(787) 857-3714
80718,720003000204,CENTRO ADIEST. VOC. GABRIEL BIBILONI,AVE ANTONIO R BARCELO ESQ EL VETERANO,CAYEY,PR,737,NOT AVAILABLE,(787) 263-1480
85708,720003001658,JOSE ROJAS CORTES,CALLE JUAN D RIVERA Y SANTIAGO,OROCOVIS,PR,720,NOT AVAILABLE,(787) 867-2630
91318,720003001019,PEDRO MELENDEZ SANTIAGO,CALLE LIBERTAD BO PLAYITA CORTADA,SANTA ISABEL,PR,757,NOT AVAILABLE,(787) 845-3565
91320,720003001044,ISMAEL MALDONADO LUGARO,4 CALLES BO SAN ANTON,PONCE,PR,731,NOT AVAILABLE,(787) 843-2135
96253,720003001818,MANUEL MARTINEZ DAVILA,CARR 155 BO PUGNADO,VEGA BAJA,PR,693,NOT AVAILABLE,(787) 858-1152
43992,720003001527,JESUS SANCHEZ ERAZO,URB SANTA JUANITA CALLE MARTIZ SECC 9,BAYAMON,PR,956,NOT AVAILABLE,(787) 787-4831
44468,720003000043,RAMON TORRES RIVERA,CARR 155 KM 5 HM 9 RAMAL 567 BO SAN LORENZO,MOROVIS,PR,687,NOT AVAILABLE,(787) 862-3406
47751,720003000035,ESPERANZA GONZALEZ,CARR 159 KM 9 RAMAL 618 BO CUCHILLAS,MOROVIS,PR,687,NOT AVAILABLE,(787) 862-2792
47985,720003000079,SU FRANCISCO SERRANO,CARR 149 KM 20 HM 9 BO PESA,CIALES,PR,638,NOT AVAILABLE,(787) 871-3385
48978,720003000240,CIPRIANO MANRIQUE,CARR 765 KM3 HM 1 BO. BORINQUEN PARCELAS VIEJAS,CAGUAS,PR,725,NOT AVAILABLE,(787) 747-3600
49049,720003000006,JOSE CAMPECHE,CALLE EMILIO BUITRAGO,SAN LORENZO,PR,754,NOT AVAILABLE,(787) 736-2701
49236,720003001239,JOSE PABLO MORALES,CALLE BARCELO #50,TOA ALTA,PR,953,NOT AVAILABLE,(787) 870-2135
39189,720003000337,JUANITA RIVERA ALBERT,COMUNIDAD ESPERANZA PARCELAS NUEVAS KM3 HM2 INT.,VIEQUES,PR,765,NOT AVAILABLE,(787) 741-3060
39924,720003000972,WEBSTER,CALLE LUIS MUNOZ RIVERA 225,PENUELAS,PR,624,NOT AVAILABLE,(787) 836-1216
68116,720003001906,DR. SANTIAGO VEVE CALZADA,AVE GENERAL VALERO,FAJARDO,PR,738,NOT AVAILABLE,(787) 863-0125
16657,720003000402,JOSEFA VELEZ BAUZA (SUPERIOR URBANA),CARR 132 BO COTTO,PENUELAS,PR,624,NOT AVAILABLE,(787) 836-1665
18404,720003001282,PADRE RUFO (BILINGUE),236 CALLE DEL PARQUE PDA 23,SAN JUAN,PR,909,NOT AVAILABLE,(787) 723-4930
52664,720003001860,ROBERTO SILVA MORALES,CARR 929 INT CARR #9919,JUNCOS,PR,777,NOT AVAILABLE,(787) 734-2241
54334,720003002039,LUIS MUNOZ MARIN,CARR 53 KM 1 HM 5 SECT BARRANCAS,ARECIBO,PR,614,NOT AVAILABLE,(787) 880-0757
56962,720003001586,TULIO LARRINAGA,CALLE ANDRES VALCARCEL,TRUJILLO ALTO,PR,977,NOT AVAILABLE,(787) 761-1154
57910,720003001583,SU CARMEN ZENAIDA VEGA (LA PLATA),CARR 723 RAMAL 728 KM 1 HM 1 BO. LA PLATA,AIBONITO,PR,705,NOT AVAILABLE,(787) 735-8801
58572,720003000732,ECOLOGICA DE CULEBRA,109 CALLE ESCUDERO,CULEBRA,PR,775,NOT AVAILABLE,(787) 742-0730
58912,720003001886,DR ALFREDO M AGUAYO,AVE 65 INFANTERIA ESQ VALDIVIESO BO PLAYA,PONCE,PR,731,NOT AVAILABLE,(787) 843-1305
40062,720003000968,SU ZOILO GRACIA,CARR 512 KM 5 HM 3 SECT CAPITAL BO COLLORES,JUANA DIAZ,PR,795,NOT AVAILABLE,(787) 837-0544
3035,720003000613,LEONARDO VALENTIN TIRADO,CARR 140 CALLE RAMON TORRES #12,FLORIDA,PR,650,NOT AVAILABLE,(787) 822-2263
3309,720003000513,INES ENCARNACION,CARR 985 BO FLORENCIO,FAJARDO,PR,738,NOT AVAILABLE,(787) 863-7570
66667,720003000602,DANIEL SERRANO RIVERA,CARR 149 KM 59 BO VILLALBA ABAJO,VILLALBA,PR,766,NOT AVAILABLE,(787) 851-5027
21748,720003002023,LA ESPERANZA (LUIS PALES MATOS),CALLE 19 NE PTO NUEVO,SAN JUAN,PR,921,NOT AVAILABLE,(787) 782-0295
25315,720003000744,ANA M. JAVARIZ,CARR.107 URB. EL PRADO,AGUADILLA,PR,605,NOT AVAILABLE,(787) 891-2260
26445,720003001533,MIGUEL MELENDEZ MUNOZ,CARR 840 KM 1 HM 1 SECTOR LA ALDEA,BAYAMON,PR,957,NOT AVAILABLE,(787) 799-7300
28753,720003001929,MARCELINO RODRIGUEZ ROMAN,CARR 125 KM 0 HM 2 BO VOLADORA,MOCA,PR,676,NOT AVAILABLE,(787) 877-2324
29130,720003001941,CENTRO EUGENIO MARIA DE HOSTOS,URB PUERTO NUEVO CALLE CONSTITUCION ESQ CAMPECHE,SAN JUAN,PR,921,NOT AVAILABLE,(787) 792-0111
35738,720003000329,SU ASUNCION LUGO,CARR 701 BO CAMINO NUEVO,YABUCOA,PR,767,NOT AVAILABLE,(787) 893-2626
37745,720003001164,ELSA E COUTO ANNONI,CARR 321 SECTOR FUY BO CIENAGA,GUANICA,PR,653,NOT AVAILABLE,(787) 821-7308
37781,720003000026,FELIPE COLON DIAZ,CALLE MARIANO ABRIL,JUANA DIAZ,PR,795,NOT AVAILABLE,(787) 837-2365
39100,720003000553,JOSE M ESPADA ZAYAS,AVE LUIS MUNOZ MARIN AL LADO CDT,COAMO,PR,769,NOT AVAILABLE,(787) 825-1435
39821,720003000731,SALVADOR FUENTES,CALLE NORTH EASTEDIF.611 RAMEY,AGUADILLA,PR,605,NOT AVAILABLE,(787) 890-5600
90534,720003001378,ERNESTO RAMOS ANTONINI (MUSICA),AVE CHARDON 125,SAN JUAN,PR,919,NOT AVAILABLE,(787) 754-1335
92956,720003001525,JOSE CAMPECHE,URB SANTA JUANITA CALLE ROBLE SECC 11,BAYAMON,PR,956,NOT AVAILABLE,(787) 786-1580
94916,720003000031,JORGE L MARRERO PADILLA (ELEMENTAL URBANA),CALLE DEL CARMEN FINAL BO PUEBLO,MOROVIS,PR,687,NOT AVAILABLE,(787) 862-2570
97434,720003001654,ANTONIO VELEZ ALVARADO,CARR 2 KM 46 HM 8 BO CAMPO ALEGRE,MANATI,PR,674,NOT AVAILABLE,(787) 854-4160
73785,720003000477,RUFINO VIGO,CALLE DUCHESNE #113,HUMACAO,PR,791,NOT AVAILABLE,(787) 852-3215
78635,720003002053,LUZ A CRUZ DE SANTANA,CALLE 15 URB VILLA UNIVERSITARIA,HUMACAO,PR,792,NOT AVAILABLE,(787) 850-6460
100762,720003001818,MANUEL MARTINEZ DAVILA,CARR 155 BO PUGNADO,VEGA BAJA,PR,693,NOT AVAILABLE,(787) 858-1152
102154,720003000478,CARLOS RIVERA UFRET,#80 AVE ROOSEVELT,HUMACAO,PR,791,NOT AVAILABLE,(787) 285-0052
43328,720003001440,GENARO BOU,CARR 818 INTERIOR BO CIBUCO,COROZAL,PR,783,NOT AVAILABLE,(787) 859-1566
43956,720003000730,JOSE DE DIEGO,AVE FERNANDO YUMET,AGUADILLA,PR,603,NOT AVAILABLE,(787) 891-2220
47165,720003001029,EDUARDO NEUMANN GANDIA,AVE CEMENTERIO CIVIL URB SAN ANTONIO,PONCE,PR,731,NOT AVAILABLE,(787) 840-0112
53151,720003000660,JOSE GAUTIER BENITEZ,BALBOA # 64,MAYAGUEZ,PR,680,NOT AVAILABLE,(787) 834-0900
58904,720003000942,MANUEL F FERNANDEZ JUNCOS,CARR 14 CALLE COMERIO,JUANA DIAZ,PR,795,NOT AVAILABLE,(787) 837-2249
30770,720003001874,DR. HERIBERTO DOMENECH,CARR 2 KM 112 BO MORA,ISABELA,PR,662,NOT AVAILABLE,(787) 830-2915
31359,720003001391,ROSALINA C. MARTINEZ,CALLE ROSALINA CARABALLO DE MARTINEZ,CATANO,PR,971,NOT AVAILABLE,(787) 783-8385
31720,720003001895,RAMON DE JESUS SIERRA,AVE LOS PATRIOTAS,LARES,PR,669,NOT AVAILABLE,(787) 897-2590
34504,720003000435,BELEN BLANCO DE ZEQUEIRA,URB SAN PATRICIO 205 CALLE CARLOS ESCOBAR,LOIZA,PR,772,NOT AVAILABLE,(787) 256-3060
35407,720003000518,SANTIAGO IGLESIAS PANTIN,URB ROSSY VALLEY CALLE FRANCISCO GAUTIER,CEIBA,PR,742,NOT AVAILABLE,(787) 885-3200
36727,720003000237,HERMINIO W SANTAELLA,CARR 14 BO LOS LLANOS,COAMO,PR,769,NOT AVAILABLE,(787) 825-5559
37127,720003001870,SIMON MADERA,CALLE MCARTHUR,GUAYAMA,PR,785,NOT AVAILABLE,(787) 864-0768
21023,720003001352,MANUEL A. PEREZ,CALLE ELIZONDO ESQ 46 RES MANUEL A PEREZ,SAN JUAN,PR,919,NOT AVAILABLE,(787) 751-2420
21077,720003000323,CRISTOBAL DEL CAMPO,CARR 962 KM 2 HM 4 BO LIMONES,YABUCOA,PR,767,NOT AVAILABLE,(787) 893-3332
22589,720003000540,LOLA RODRIGUEZ DE TIO,AVE DR VEV E FINAL,SAN GERMAN,PR,683,NOT AVAILABLE,(787) 892-1358
23191,720003001449,DR. JOSE PADIN,CARR 565 KM 6 BO CUCHILLAS,COROZAL,PR,783,NOT AVAILABLE,(787) 859-0304
23914,720003001046,RAMON MARIN,AVE LAS AMERICAS,PONCE,PR,733,NOT AVAILABLE,(787) 842-1371
25275,720003000310,SU URBANA SALINAS,CARR 3 SALIDA HACIA GUAYAMA SANTOS P. AMADO FINAL,SALINAS,PR,751,NOT AVAILABLE,(787) 824-3306
27609,720003001516,BERNARDO HUYKE,8VA SECC URB SANTA JUANITA CALLE PENSACOLA,BAYAMON,PR,956,NOT AVAILABLE,(787) 786-5275
29301,720003000491,RAMON QUINONES MEDINA,URB REPARTO HORIZONTE FRENTE AL CEMENTERIO,YABUCOA,PR,767,NOT AVAILABLE,(787) 893-2216
60681,720003001933,SUSANA RIVERA-NUEVA (ELEMENTAL BO LLANOS),BO LOS LLANOS CARR PR 14 INT 545 KM 26.7,COAMO,PR,769,NOT AVAILABLE,(787) 773-4075
66243,720003001022,JAIME L. DREW,AVE ROOSEVELT BDA BALDORIOTY,PONCE,PR,731,NOT AVAILABLE,(787) 842-7343
91166,720003000526,LUIS HERNAIZ VERONNE,CALLE AUTONOMIA FINAL,CANOVANAS,PR,729,NOT AVAILABLE,(787) 876-2395
91477,720003001561,RAMON MORALES PENA,URB RIVERVIEW CALLE 7 BLQ F,BAYAMON,PR,961,NOT AVAILABLE,(787) 798-3773
99079,720003001708,ELBA LUGO CARRION (ESPECIALIZADA),URB VILLA SERENA CALLE ORQUIDEA,ARECIBO,PR,614,NOT AVAILABLE,(787) 879-4825
99481,720003000798,PEDRO NELSON COLBERG,SECTOR PUEBLO NUEVO,CABO ROJO,PR,623,NOT AVAILABLE,(787) 851-3200
2241,720003001439,FIDEL LOPEZ COLON,BO PUEBLO,COROZAL,PR,783,NOT AVAILABLE,(787) 859-4592
10054,720003000080,SU TORIBIO RIVERA,CARR 146 KM 14 HM 6 SEC SABANA BO FRONTON,CIALES,PR,638,NOT AVAILABLE,(787) 871-4738
11091,720003001907,INT BO QUEBRADA ARENAS,CARR 159 KM 19.0 BO QUEBRADA ARENAS,TOA BAJA,PR,949,NOT AVAILABLE,(787) 870-2500
11979,720003000858,SU MAXIMINO A. SALAS,CARR 111 KM 29.2 BO JUNCAL,SAN SEBASTIAN,PR,685,NOT AVAILABLE,(787) 896-2838
13241,720003001819,SU ALMIRANTE NORTE,CARR 160 KM 4 HM 3 BO ALMIRANTE NORTE,VEGA BAJA,PR,693,NOT AVAILABLE,(787) 858-5252
15575,720003001323,FELIPE GUTIERREZ,CALLE ARITIDES CHAVIER VILLA PRADES,SAN JUAN,PR,924,NOT AVAILABLE,(787) 767-5395
70983,720003000494,SUPERIOR CATALINA MORALES FLORES,CARR 110 CALLE CONCEPCION VERA,MOCA,PR,676,NOT AVAILABLE,(787) 877-5575
71202,720003002001,WASHINGTON I,CALLE HOSTOS SUR,GUAYAMA,PR,785,NOT AVAILABLE,(787) 864-0566
78489,720003000357,ESC. LIBRE DE MUSICA HUMACAO (ESPECIALIZADA),CALLLE DR VIDAL,HUMACAO,PR,792,NOT AVAILABLE,(787) 285-7901
79532,720003001373,LAS AMERICAS,CALLE CONSTITUCION ESQ. CASINO PUERTO NUEVO,SAN JUAN,PR,928,NOT AVAILABLE,(787) 782-0070
83283,720003001826,CARMEN BELEN VEIGA,CALLE LA CRUZ,JUANA DIAZ,PR,795,NOT AVAILABLE,(787) 837-2435
84021,720003000859,SU CARMELO SERRANO CUBANO,CARR 445 KM 3 HM 6 BO SALTOS,SAN SEBASTIAN,PR,685,NOT AVAILABLE,(787) 896-6810
88563,720003001181,SU NEMESIO R. CANALES,BO COABEY CARR 144 KM 9 HM2,JAYUYA,PR,664,NOT AVAILABLE,(787) 828-2007
89370,720003001925,NUEVA ELEMENTAL URBANA DE GUAYNABO,CARR 169 KM 6.2 BO FRAILES,GUAYNABO,PR,970,NOT AVAILABLE,(787) 720-2195
89793,720003001481,JOSE SEVERO QUINONES,URB JOSE S QUINONES CALLE ULISES ORTIZ,CAROLINA,PR,985,NOT AVAILABLE,(787) 769-3260
89928,720003000698,RUBEN RODRIGUEZ FIGUEROA,CARR #164 BO NUEVO,NARANJITO,PR,719,NOT AVAILABLE,(787) 787-3035
83092,720003001587,FAIR VIEW,CALLE 7 ESQ 18 URB FAIR VIEW,TRUJILLO ALTO,PR,976,NOT AVAILABLE,(787) 761-3280
84692,720003000368,CECILIO LEBRON RAMOS,CALLE MUNOZ RIVERA FINAL,PATILLAS,PR,723,NOT AVAILABLE,(787) 839-3550
21840,720003001569,RAFAEL PONT FLORES,CALLE RUIZ RIVERA FINAL SECTOR EL COQUI,AIBONITO,PR,705,NOT AVAILABLE,(787) 735-4571
22513,720003001186,ARISTIDES CALES QUIROS,CALLE LUIS MUNOZ RIVERA INTERIOR,GUAYANILLA,PR,656,NOT AVAILABLE,(787) 835-7451
22883,720003001285,RAMON POWER Y GIRALT,CALLE LOIZA FINAL,SAN JUAN,PR,914,NOT AVAILABLE,(787) 727-4830
23026,720003000053,ANTONIO PAOLI,CALLE REINA FINAL,PONCE,PR,731,NOT AVAILABLE,(787) 844-0615
26944,720003001289,RAFAEL RIVERA OTERO,CALLE SANDALIO ALONSO URB. LAS LOMAS,SAN JUAN,PR,921,NOT AVAILABLE,(787) 782-3180
27995,720003000144,SU OSCAR PORRATA DORIA,CARR 156 RAMAL 776 BO RIO HONDO I,COMERIO,PR,782,NOT AVAILABLE,(787) 875-2850
73870,720003001506,TOMAS C. ONGAY,URB INDUSTRIAL MINILLAS CARR 174,BAYAMON,PR,956,NOT AVAILABLE,(787) 785-3414
62896,720003000061,FEDERICO ASENJO (PRE-TECNICA),AVE BORINQUEN 32015 BO OBRERO,SAN JUAN,PR,915,NOT AVAILABLE,(787) 268-0770
64639,720003001230,ADOLFINA IRIZARRY DE PUIG,AVE LUIS MUNOZ RIVERA FINAL #2,TOA BAJA,PR,951,NOT AVAILABLE,(787) 794-2018
65556,720003001154,JOSE RODRIGUEZ DE SOTO,AVE LOS VETERANOS #40 BO ENSENADA,LAJAS,PR,667,NOT AVAILABLE,(787) 821-3160
68533,720003000482,ANTONIO ROSA GUZMAN (BO. MARIANA),CARR 909 KM 2 HM 2 BO MARIANA,HUMACAO,PR,792,NOT AVAILABLE,(787) 852-3650
13961,720003000562,BLANCA MALARET,CALLE PEDRO RODRIGUEZ ACOSTA 1,SABANA GRANDE,PR,637,NOT AVAILABLE,(787) 892-5759
17592,720003001693,RAMON EMETERIO BETANCES,236 CALLE SAN JUSTO,QUEBRADILLAS,PR,678,NOT AVAILABLE,(787) 895-2575
18129,720003001856,MILDRED ARROYO CARDOZA (SEGUNDA UNIDAD BO PUERTO REAL),CARR PR308 KM 5.3 SECTOR PR,CABO ROJO,PR,623,NOT AVAILABLE,(787) 851-4720
18525,720003001381,LUIS MUNOZ RIVERA II,AVE PONCE DE LEON BO AMELIA,GUAYNABO,PR,970,NOT AVAILABLE,(787) 783-5290
31439,720003000138,VIRGINIA VAZQUEZ MENDOZA,URB LA PLATA 11 CALLE JADE,CAYEY,PR,737,NOT AVAILABLE,(787) 263-4635
31983,720003001899,PEPITA ARENAS,URB. VALLE TOLIMA CALLE MILAGROS CARRILLO BLQ. Q,CAGUAS,PR,727,NOT AVAILABLE,(787) 746-4262
32035,720003002067,MIGUEL GONZALEZ BAUZA,BO QUEBRADA CALLE 1 SECT CARACOLES,PENUELAS,PR,624,NOT AVAILABLE,(787) 836-0972
38629,720003000473,SU CLARA M. ARAMBURU,CARR 31 KM 20.8,JUNCOS,PR,777,NOT AVAILABLE,(787) 734-7444
39923,720003001707,TRINA PADILLA DE SANZ,URB VILLA LOS SANTOS CARR 653 KM 1,ARECIBO,PR,614,NOT AVAILABLE,(787) 878-1365
40825,720003001992,RVDO FELIX CASTRO RODRIGUEZ,CALLE 612 AVE CAMPO RICO FINAL,CAROLINA,PR,985,NOT AVAILABLE,(787) 750-1330
44214,720003000090,EUGENIO MARIA DE HOSTOS,CARR 2 KM 84 HM 5 CALLE B BO CARRIZALES,HATILLO,PR,659,NOT AVAILABLE,(787) 898-1586
45275,720003001684,COTTO ANEXO,AVE CONSTITUCION BO COTTO,ARECIBO,PR,612,NOT AVAILABLE,(787) 878-8160
54245,720003001784,ANTONIO PAOLI,URB SANTA RITA CALLE 9 V. ALTA,VEGA ALTA,PR,692,NOT AVAILABLE,(787) 883-4945
54423,720003000347,LIBERATA IRALDO (NUEVA),CALLE MAIN URB ALTURAS DE RIO GRANDE,RIO GRANDE,PR,745,NOT AVAILABLE,(787) 888-3534
5637,720003001799,ANGEL SANDIN MARTINEZ,4 CALLE JULIO OTERO ESQ JOSE ACOSTA,VEGA BAJA,PR,693,NOT AVAILABLE,(787) 858-2120
92187,720003000268,FEDERICO DEGETAU (SU PALO HINCADO),CARR 156 KM 11 HM 4 BO PALO HINCADO,BARRANQUITAS,PR,794,NOT AVAILABLE,(787) 857-0646
93985,720003000032,FRANCISCO RIVERA CLAUDIO,CARR 159KM 1 HM O AVE. COROZAL,MOROVIS,PR,687,NOT AVAILABLE,(787) 862-4985
97976,720003001475,AGUSTIN CABRERA,URB V.CAROLINA,CAROLINA,PR,985,NOT AVAILABLE,(787) 768-4044
98486,720003000687,MARIA DOLORES FARIA,AVE JC CLEMENTE,MAYAGUEZ,PR,680,NOT AVAILABLE,(787) 834-9289
99597,720003001543,MARIA VAZQUEZ DE UMPIERRE,CARR 167 KM 15 HM 3 PARC VANS COY BO BUENA VISTA,BAYAMON,PR,957,NOT AVAILABLE,(787) 797-5360
2541,720003000224,SU BAYAMONCITO,CARR 156 KM 42 HM 3 BO. BAYAMONCITO,AGUAS BUENAS,PR,703,NOT AVAILABLE,(787) 732-0440
3579,720003001249,MANUEL VELILLA,CARR 861 KM 5.9 BO PINAS,TOA ALTA,PR,953,NOT AVAILABLE,(787) 797-3558
5753,720003001388,RAFAEL MARTINEZ NADAL,CALLE RAMON MURGA BO CANO,GUAYNABO,PR,970,NOT AVAILABLE,(787) 720-3356
9082,720003001205,JOSE M. MASSARI,CALLE MORSE #162,ARROYO,PR,714,NOT AVAILABLE,(787) 839-3140
40120,720003001411,JOSE SANTOS ALEGRIA,PEDRO J RIJOS FINAL,DORADO,PR,646,NOT AVAILABLE,(787) 796-1520
49192,720003002085,JUAN QUIRINDONGO MORELL (SUPERIOR),CALLE Q FERNAL URB EL ROSARIO,VEGA BAJA,PR,693,NOT AVAILABLE,(787) 858-0859
72109,720003000502,RAMON QUINONES PACHECO,CALLE FEDERICO GARCIA 155,FAJARDO,PR,738,NOT AVAILABLE,(787) 863-0624
74365,720003001165,MAGUEYES II,BO SUSUA BAJA SECTOR MAGUEYES,GUANICA,PR,653,NOT AVAILABLE,(787) 821-2490
74685,720003001584,SU PASTO,CARR 162 KM5 HM 2 BO PASTO,AIBONITO,PR,705,NOT AVAILABLE,(787) 735-8158
75394,720003001280,REPUBLICA DEL PERU,CALLE LOIZA FINAL,SAN JUAN,PR,914,NOT AVAILABLE,(787) 727-2327
79089,720003000666,PAPA JUAN XXIII,ISLA NENA 10 ESQ AO VILLA RICA,BAYAMON,PR,959,NOT AVAILABLE,(787) 785-3449
50262,720003001729,IMBERY,PARCELAS IMBERY CALLE 6 ESQ 5,BARCELONETA,PR,617,NOT AVAILABLE,(787) 846-0361
52310,720003001286,CENTRAL ARTES VISUALES (ESPECIALIZADA),1415 AVE PONCE DE LEON PDA 20,SAN JUAN,PR,907,NOT AVAILABLE,(787) 723-8911
81489,720003000925,FLORENCIO SANTIAGO,CALLE JOSE I QUINTON 116 BO PUEBLO,COAMO,PR,769,NOT AVAILABLE,(787) 825-1575
83037,720003001278,ABRAHAM LINCOLN,CALLE SOL 351,SAN JUAN,PR,901,NOT AVAILABLE,(787) 722-1561
89403,720003001332,ANTONIO SARRIERA EGOZCUE,CALLE CARMEN HERNANDEZ URB EL COMANDANTE,SAN JUAN,PR,924,NOT AVAILABLE,(787) 769-7415
89637,720003001889,ELEMENTAL BO HIGUILLAR (ECOLOGICA),CARR 695 KM 1 HM 16 BO HIGUILLAR,DORADO,PR,646,NOT AVAILABLE,(787) 898-2795
12826,720003001641,JESUS T. PINERO,AVE ROSAS ESQ PATRIOTA POZO,MANATI,PR,674,NOT AVAILABLE,(787) 854-2259
15796,720003000228,CHARLES E. MINER,URB VILLA NUEVA CALLE 25,CAGUAS,PR,727,NOT AVAILABLE,(787) 744-7779
90098,720003000545,MARIANO ABRIL,CARR 361 HOCONUCO ALTO,SAN GERMAN,PR,683,NOT AVAILABLE,(787) 892-7105
91004,720003000471,ANA DELIA FLORES SANTANA VOC,BO QUEBRADA VUELTA,FAJARDO,PR,738,NOT AVAILABLE,(787) 863-0424
96578,720003000121,SU VIDAL SERRANO,CARR 189 RAMAL 931 PARCELAS NAVARRO,GURABO,PR,778,NOT AVAILABLE,(787) 747-2323
98549,720003000897,LUIS MUNOZ RIVERA,AVE BARBOSA,YAUCO,PR,698,NOT AVAILABLE,(787) 856-3635
60003,720003001437,MANUEL BOU GALI,CARR 891 KM 13 HM 2,COROZAL,PR,783,NOT AVAILABLE,(787) 859-4656
69614,720003000301,FRANCISCO VALDES ROLA,CARR 798 KM 12 HM 5 BO. RIO CANAS,CAGUAS,PR,725,NOT AVAILABLE,(787) 747-9464
20539,720003001109,HERMINIA GARCIA,CALLE E9 URB GLENVIEW GARDEN,PONCE,PR,733,NOT AVAILABLE,(787) 840-6455
26377,720003001659,VISITACION PAGAN,CARR 155 KM 34 HM 1 BO GATO,OROCOVIS,PR,720,NOT AVAILABLE,(787) 867-5383
28236,720003001991,JULIAN E BLANCO (BALLET),CALLE MARTIN TRAVIESO ESQ. ESTRELLA,SAN JUAN,PR,907,NOT AVAILABLE,(787) 721-9021
31407,720003001100,HEMETERIO COLON,CALLE CONCORDIA 8139,PONCE,PR,731,NOT AVAILABLE,(787) 840-3500
35981,720003000647,INDIERA FRIA,CARR 366 KM 3 BO INDIERA FRIA,MARICAO,PR,606,NOT AVAILABLE,(787) 838-2150
101659,720003001998,MARIA J. CORREDOR RIVERA,CALLE CAMPO AMOR ESQ. PELAYO URB COVADONGA,TOA BAJA,PR,949,NOT AVAILABLE,(787) 740-2225
102418,720003001927,EMILIO SCHARON RODRIGUEZ,CARR. 111 KM.1.9 BO.HOYAMALA,SAN SEBASTIAN,PR,685,NOT AVAILABLE,(787) 896-4142
51131,720003001258,ALEJANDRO TAPIA Y RIVERA,VILLA PALMERA 369 CALLE BELEVUE,SAN JUAN,PR,915,NOT AVAILABLE,(787) 726-0100
52173,720003001881,GUILLERMINA ROSADO DE AYALA,CALLE 25 URB VILLAS DE LOIZA,LOIZA,PR,772,NOT AVAILABLE,(787) 256-2050
52331,720003000281,REPUBLICA DE COSTA RICA,390CALLE HECTOR R BUNKER,CAGUAS,PR,725,NOT AVAILABLE,(787) 746-7565
52739,720003001341,SAN AGUSTIN,CALLE 6 EXT. SAN AGUSTIN,SAN JUAN,PR,924,NOT AVAILABLE,(787) 765-6946
55239,720003001890,JOSE PAGAN DE JESUS (ELEMENTAL BO SABANA HOYOS),CARR 690 KH.2.2 BO SABANA HOYOS,VEGA ALTA,PR,692,NOT AVAILABLE,(787) 898-2795
58875,720003001238,VIOLANTA JIMENEZ,CALLE PROFESORA ADELA ROLON FINAL,TOA ALTA,PR,953,NOT AVAILABLE,(787) 870-1378
84278,720003001520,CARLOS ORAMA PADILLA,CALLE 10 URB MAGNOLIA GARDENS,BAYAMON,PR,956,NOT AVAILABLE,(787) 785-5630
85110,720003000659,MANUEL A. BARRETO,CALLE PILAR DEFILLO,MAYAGUEZ,PR,680,NOT AVAILABLE,(787) 832-3046
85633,720003000148,JESUS T. PINERO,CALLE JOSE DE DIEGO FINAL SALIDA ARENAS,CIDRA,PR,739,NOT AVAILABLE,(787) 739-2481
89830,720003001938,EUGENIO LE COMPTE BENITEZ,CARR 132 VILLA FINAL 1150,PONCE,PR,731,NOT AVAILABLE,(787) 844-4552
70957,720003001165,MAGUEYES II,BO SUSUA BAJA SECTOR MAGUEYES,GUANICA,PR,653,NOT AVAILABLE,(787) 821-2490
71173,720003001873,LUIS MUNOZ MARIN,CARR 902 KM 2.2 BO LIMONES,YABUCOA,PR,767,NOT AVAILABLE,(787) 893-2880
77674,720003000990,RAMON PEREZ PURCELL,CARR 132 KM 7 HM 7 BO SANTO DOMINGO,PENUELAS,PR,624,NOT AVAILABLE,(787) 836-3577
90421,720003000016,SU JAGUAL ADENTRO,CARR 181 RAMAL 765 KM 2 BO JAGUAL,SAN LORENZO,PR,754,NOT AVAILABLE,(787) 736-7877
91168,720003001283,JOSE JULIAN ACOSTA (TEATRO),PDA 1 AVE JUAN PONCE DE LEON,SAN JUAN,PR,901,NOT AVAILABLE,(787) 722-1253
93620,720003001981,JOSE A. LOPEZ CASTRO,CALLE ALGARIN FINAL BO MAMEY,JUNCOS,PR,777,NOT AVAILABLE,(787) 734-4544
94225,720003001326,VILLA CAPRI,CALLE VERONA ESQ. NIZA URB. VILLA CAPRI,SAN JUAN,PR,924,NOT AVAILABLE,(787) 761-8765
30054,720003000384,GUILLERMO RIEFKHOL,CARR 3 KM 118 HM 3,PATILLAS,PR,723,NOT AVAILABLE,(787) 839-8231
36812,720003000710,SUPERIOR VOCACIONAL,CARR 10. KM. 52.5 BO. SALTO ARRIBA,UTUADO,PR,641,NOT AVAILABLE,(787) 814-0012
21885,720003000542,FRANCISCO ROQUE MUNOZ,CARR 814 KM 4 BO ANONES,NARANJITO,PR,719,NOT AVAILABLE,(787) 869-3121
22635,720003001294,RAFAEL HERNANDEZ MARIN,CALLE ASOMANTE URB. SUMMIT HILLS,SAN JUAN,PR,927,NOT AVAILABLE,(787) 792-0494
22884,720003001364,ELEONOR ROOSEVELT,CALLE ANTILINNIN URB ROOSEVELT,SAN JUAN,PR,928,NOT AVAILABLE,(787) 763-4518
26624,720003001457,PEDRO MOCZO BANIET,APARTADO 3114 VALLE,CAROLINA,PR,983,NOT AVAILABLE,(787) 769-2612
27712,720003001510,ANDRES C. GONZALEZ,CARR 829 KM 5 HM 5 BO SANTA OYALA,BAYAMON,PR,957,NOT AVAILABLE,(787) 797-6580
17591,720003001979,IRMA PEDRAZA RUIZ (INTERMEDIA NUEVA),URB ROSSY VALLEY CALLE BARCELONA,CEIBA,PR,742,NOT AVAILABLE,(787) 885-3170
124,720003001939,CENTRO RES DE OPORTUNIDADES EDUCATIVAS DE VILLALBA (CROEV),CARR 159 INT K 57.3 CALLE ALBIZU CAMPOS,VILLALBA,PR,766,NOT AVAILABLE,(787) 847-7440
6236,720003000607,ELEMENTAL NUEVA (FACTOR V),1 SECC ANIMAS BO FACTOR,ARECIBO,PR,614,NOT AVAILABLE,(787) 881-3090
7930,720003000611,DR SILVERIO MEDINA GAUD (CONSUMO),CARR. 199 KM.6 BO. NARANJALES,LAS MARIAS,PR,670,NOT AVAILABLE,(787) 831-0818
9037,720003000036,RUTHFORD B HAYES,CALLE COMERCIO CARR 14,JUANA DIAZ,PR,795,NOT AVAILABLE,(787) 837-2336
9277,720003001300,JULIO SELLES SOLA,URB VILLA NEVAREZ CALLE 19 ESQ 20,SAN JUAN,PR,927,NOT AVAILABLE,(787) 767-1333
62319,720003000539,JULIO VICTOR GUZMAN,AVE DR HARRIS 23,SAN GERMAN,PR,683,NOT AVAILABLE,(787) 264-2018
65455,720003001074,DR RAFAEL LOPEZ LANDRON,URB. VIVES CALLE PASEO DEL PUEBLO,GUAYAMA,PR,784,NOT AVAILABLE,(787) 864-4366
72517,720003001685,JULIO SEIJO,CARR 129 KM 28 HM 3 BO HATO ARRIBA,ARECIBO,PR,612,NOT AVAILABLE,(787) 878-2062
74061,720003001676,SU BONIFACIO ALVARADO,CARR 143 KM 41 HM 8 BO BERMEJALES,OROCOVIS,PR,720,NOT AVAILABLE,(787) 867-4633
15054,720003001354,RAFAEL HERNANDEZ,CALLE VALVERDE,SAN JUAN,PR,923,NOT AVAILABLE,(787) 763-8514
18079,720003000970,LUIS MUNOZ MARIN,CARR 1 SECTOR SINGAPUR BO PASTILLO,JUANA DIAZ,PR,795,NOT AVAILABLE,(787) 837-8151
790,720003001788,LADISLAO MARTINEZ,CALLE C URB LAS COLINAS,VEGA ALTA,PR,692,NOT AVAILABLE,(787) 883-5105
1501,720003002062,PATRIA LATORRE RAMIREZ,CARR.111KM.23HM.2BO. PIEDRAS BLANCA,SAN SEBASTIAN,PR,685,NOT AVAILABLE,(787) 896-3970
3310,720003001167,ANGELICA TORO (NUEVA),48 CALLE CEMENTERIO,JAYUYA,PR,664,NOT AVAILABLE,(787) 828-0330
20512,720003000774,SU EPIFANIO ESTRADA,CARR 411 KM.2 HM.8 BO JAGUEY,AGUADA,PR,602,NOT AVAILABLE,(787) 868-2670
27802,720003001840,PEDRO P. CASABLANCA,URB JARDINES DE CAPARRA CALLE 21 #200,BAYAMON,PR,959,NOT AVAILABLE,(787) 782-1562
30712,720003001912,NUEVA ESCUELA URBANA DE CIALES,EXT CORCHADO SALIDA BO PUEBLO,CIALES,PR,638,NOT AVAILABLE,(787) 781-3165
34857,720003001256,DR. JULIO J. HENNA,VILLA PALMERA CALLE HENNA ESQ PROVIDENCIA,SAN JUAN,PR,925,NOT AVAILABLE,(787) 726-4803
38173,720003000662,DR PEDRO PEREA FAJARDO,AVE LUIS LLORENS TORRES,MAYAGUEZ,PR,680,NOT AVAILABLE,(787) 833-0865
55934,720003001943,UNIVERSITY GARDENS (ESPECIALIZADA),AVE PALMA REAL Y FORDHAM,SAN JUAN,PR,928,NOT AVAILABLE,(787) 764-8635
80997,720003001859,MERCEDES GARCIA DE COLORADO,AVE FLOR DEL VALLE FINAL URB LAS VEGAS,CATANO,PR,962,NOT AVAILABLE,(787) 788-4025
83467,720003001828,DRA. MARIA SOCORRO LACOT,AVE ALBIZU CAMPOS,GUAYAMA,PR,784,NOT AVAILABLE,(787) 864-0685
85563,720003001502,LUIS PALES MATOS,URB SANTA ROSA CALLE 11 ESQ 17,BAYAMON,PR,959,NOT AVAILABLE,(787) 786-4275
85984,720003001760,MARIA LIBERTAD GOMEZ,URB PEREZ MATOS CALLE ROBLES #18,UTUADO,PR,641,NOT AVAILABLE,(787) 894-2188
85985,720003001643,FERNANDO CALLEJO,CALLE VENDING ESQ ROSARIO,MANATI,PR,674,NOT AVAILABLE,(787) 854-2629
87769,720003000767,AQUILINO CABAN,CARR 4417 KM 0 HM 8 BO MAMEY,AGUADA,PR,602,NOT AVAILABLE,(787) 252-4699
91225,720003001720,SU ENRIQUE DE JESUS BORRAS,CARR 10 KM 78 HM 9 BO HATO VIEJO,ARECIBO,PR,612,NOT AVAILABLE,(787) 878-7699
92694,720003000718,MATEO HERNANDEZ,CARR 113 KM 3 HM 2 AVE NOEL ESTRADA BO GUAYABOS,ISABELA,PR,662,NOT AVAILABLE,(787) 872-5770
97472,720003001307,EL SENORIAL,CALLE POP BARAJA ESQ BENITO FEIJOO EL SENORIAL,SAN JUAN,PR,924,NOT AVAILABLE,(787) 761-5920
98614,720003000434,SU ALEJANDRINA RIOS (SU SABANA),CARR 984 BO SABANA,LUQUILLO,PR,773,NOT AVAILABLE,(787) 889-3750
99040,720003000773,JUAN LINO SANTIAGO,CARR 417 KM.3HM.6 BO. GUANABANO,AGUADA,PR,602,NOT AVAILABLE,(787) 868-5600
43407,720003001944,GASPAR VILA MAYANS,CALLE GENERAL VALERO URB. LAS DELICIAS,SAN JUAN,PR,928,NOT AVAILABLE,(787) 767-1402
44621,720003001719,DR. CAYETANO COLL Y TOSTE,CARR 638 HM 5 BO MIRAFLORES,ARECIBO,PR,612,NOT AVAILABLE,(787) 881-5429
48180,720003001750,ANTONIO REYES,CARR 486 KM 2 HM 6 BO ZANJA,CAMUY,PR,627,NOT AVAILABLE,(787) 820-1472
49429,720003000487,CANDIDO BERRIOS,CARR 3 RAMAL KM 87 HM 1 BO CANDELERO ARRIBA,HUMACAO,PR,791,NOT AVAILABLE,(787) 850-1165
72484,720003000048,ANGELICA GOMEZ DE BETANCOURT,CARR 681 HM 3 BO ISLOTE,ARECIBO,PR,614,NOT AVAILABLE,(787) 878-1675
73171,720003000714,SUPERIOR URBANA,CARR. 3 SECTOR GODREAU,SALINAS,PR,751,NOT AVAILABLE,(787) 835-2986
74166,720003001901,ANA J. CANDELAS,CARR 171 KM 0 HM 3 BO SUD,CIDRA,PR,739,NOT AVAILABLE,(787) 739-8070
90645,720003000388,SU JOAQUIN PARRILLA,CARR 184 KM 2 HM 5,PATILLAS,PR,723,NOT AVAILABLE,(787) 839-0357
97080,720003000422,MANUEL ORTIZ SUYA,CARR 759 RAMAL 7762 PALO SECO,MAUNABO,PR,707,NOT AVAILABLE,(787) 861-4600
61515,720003001293,EVARISTO RIVERA CHEVREMONT,CALLE 58 ESQ 17 RES VISTA HERMOSA,SAN JUAN,PR,928,NOT AVAILABLE,(787) 792-0255
63398,720003001517,RAFAEL COLON SALGADO,URB ROYAL TOWN CALLE 3 FINAL,BAYAMON,PR,956,NOT AVAILABLE,(787) 799-0333
63549,720003001459,PASCASIO P. SANCERRIT,CALLE GRANADA URB. VISTAMAR,CAROLINA,PR,983,NOT AVAILABLE,(787) 769-4260
64544,720003000374,RICARDO RODRIGUEZ TORRES,CARR 645 KM 12 HM 3 CALLE ANTONIO ALCARZA,FLORIDA,PR,650,NOT AVAILABLE,(787) 822-1005
64795,720003000280,JOSE GAUTIER BENITEZ,CALLE GAUTIER BENITEZ ESQ. CRISTOBAL COLON,CAGUAS,PR,725,NOT AVAILABLE,(787) 743-4211
40063,720003000437,JOBOS,CARR 187 KM 9 HM 8 BO MEDIANIA ALTA,LOIZA,PR,772,NOT AVAILABLE,(787) 256-4500
40642,720003000536,JOSE CALZADA FERRER,CARR 185 KM 5 HM 5 BO CAMPO RICO,CANOVANAS,PR,729,NOT AVAILABLE,(787) 876-4359
44703,720003001781,INOCENCIO A. MONTERO,CARR 110 KM 51 HM 6 BO SALTO ARRIBA,UTUADO,PR,641,NOT AVAILABLE,(787) 894-1448
45715,720003000998,FELIX GARAY ORTIZ,CALLE ANTONIA SAEZ BO COCO,SALINAS,PR,751,NOT AVAILABLE,(787) 824-4265
47163,720003001897,LIBRE DE MUSICA Y BELLAS ARTES ERNESTO RAMOS ANTONINI,BVD EDUARDO BAEZ SECTOR BUENA VISTA,MAYAGUEZ,PR,680,NOT AVAILABLE,(787) 832-2062
47986,720003001752,JUANITA RAMIREZ GONZALEZ,CARR 642 KM 10 HM 3 COMUNIDAD ARROYO,FLORIDA,PR,650,NOT AVAILABLE,(787) 822-2190
49393,720003001813,NUEVA ELEM BO QUEBRADA NEGRITO,CARR #181 KM 10 HM 7 BO QUEBRADA NEGRITO,TRUJILLO ALTO,PR,976,NOT AVAILABLE,(787) 760-3665
83654,720003001427,RAFAEL CORDERO,CALLE MARGINAL AVE LOS CANOS,CATANO,PR,962,NOT AVAILABLE,(787) 788-1557
83827,720003000767,AQUILINO CABAN,CARR 4417 KM 0 HM 8 BO MAMEY,AGUADA,PR,602,NOT AVAILABLE,(787) 252-4699
83895,720003000684,MARIA LUISA ARCELAY,CALLE SAN EXPEDITO RES. SABALOS NUEVO,MAYAGUEZ,PR,682,NOT AVAILABLE,(787) 833-8845
87770,720003000573,SU DAVID ANTONGIORGI CORDOVA,CARR 121 KM 5 HM O BO MACHUCHAL,SABANA GRANDE,PR,637,NOT AVAILABLE,(787) 873-1520
13549,720003001985,ESTER FELICIANO MENDOZA,CALLE E BASE RAMEY,AGUADILLA,PR,603,NOT AVAILABLE,(787) 890-2418
52455,720003002018,LYDIA MELENDEZ,CARR 115 KM 23 HM 9 BO ASOMANTE,AGUADA,PR,602,NOT AVAILABLE,(787) 868-3850
53446,720003001800,LINO PADRO RIVERA,CALLE TULIO OTERO,VEGA BAJA,PR,693,NOT AVAILABLE,(787) 858-2110
20272,720003001133,JOSE EMILIO LUGO,URB CERROS 75 CALLE FRANCISCO PIETRI,ADJUNTAS,PR,631,NOT AVAILABLE,(787) 829-0408
21320,720003001747,RALPH W. EMERSON,CARR 2 KM 92.5 HM 3 BO MEMBRILLO,CAMUY,PR,627,NOT AVAILABLE,(787) 898-2037
21569,720003001358,PACHIN MARIN,CALLE PARIS ESQ. PACHIN MARIN FLORAL PARK,SAN JUAN,PR,925,NOT AVAILABLE,(787) 753-9304
26817,720003000716,RAMON LOPEZ BERRIOS (EMILIA BONILLA),CARR. 561 KM. 5 BO. VACAS,VILLALBA,PR,766,NOT AVAILABLE,(787) 847-6729
27874,720003000989,SU JORGE LUCAS VALDIVIESO,CARR 2 KM 4 BO ENCARNACION,PENUELAS,PR,624,NOT AVAILABLE,(787) 836-1105
29366,720003001362,EMILIO DEL TORO CUEVAS,CALLE CHILE #1ESQ QUISQUELLA HATO REY,SAN JUAN,PR,928,NOT AVAILABLE,(787) 753-0384
30000,720003000101,DR. PEDRO ALBIZU CAMPOS,CARR 113 CALLE LINARES,QUEBRADILLAS,PR,678,NOT AVAILABLE,(787) 895-2780
33974,720003000776,CENTRO VOCACIONAL ESPECIAL,CARR 417 KM 3 HM 6 BO GUANABANO,AGUADA,PR,602,NOT AVAILABLE,(787) 868-3245
34867,720003001467,EDUARDO J. SALDANA,CALLE RODRZ. EMMA ESQ. ROBLES,CAROLINA,PR,983,NOT AVAILABLE,(787) 769-3753
39617,720003000640,CUCHILLAS,CARR 444 KM 3 HM 7,MOCA,PR,676,NOT AVAILABLE,(787) 877-3150
3395,720003000304,PETRA CORRETJER DE ONEILL,CARR 670 KM 2 HM 7,MANATI,PR,674,NOT AVAILABLE,(787) 854-6601
5195,720003001405,BETTY ROSADO DE VEGA,CARR 20 KM 8 HM 6 BO CAMARONES,GUAYNABO,PR,970,NOT AVAILABLE,(787) 720-6178
8793,720003001551,JUAN MORELL CAMPOS,URB EXT VILLA RICA CALLE 4 ESQ 5,BAYAMON,PR,959,NOT AVAILABLE,(787) 786-5520
61746,720003001179,SU ANTONIO ROMERO MUNIZ,CARR 140 KM 16 HM 0 BO COLLORES,JAYUYA,PR,664,NOT AVAILABLE,(787) 828-2144
61764,720003001852,JUAN E. MIRANDA,CARR 177 AVE LOMAS VERDES BO FRAILES LLANOS,GUAYNABO,PR,970,NOT AVAILABLE,(787) 790-8198
62392,720003001001,LAS MAREAS,BO LAS MAREAS CALLE PRINCIPAL,SALINAS,PR,751,NOT AVAILABLE,(787) 864-4727
10300,720003000131,ANGEL G QUINTERO ALFARO,CARR 633 KM 4 HM 7 BO BARAHONA,MOROVIS,PR,687,NOT AVAILABLE,(787) 862-1716
16091,720003000587,CONRADO RODRIGUEZ,CALLE LUIS MUNOZ RIVERA FINAL,RINCON,PR,677,NOT AVAILABLE,(787) 823-0005
41254,720003000207,FEDERICO DEGETAU II,CALLE SAN JOSE ESQ. IGNACIO LOPEZ,AIBONITO,PR,705,NOT AVAILABLE,(787) 735-7628
42732,720003001937,SUPERIOR JARDINES DE PONCE,CARR 505 KM 0 HM 7 URB JARDINES DE PONCE,PONCE,PR,731,NOT AVAILABLE,(787) 840-7785
43303,720003001111,DR. RAFAEL PUJALS,CALLE LOLITA TIZOL ESQ SOL,PONCE,PR,731,NOT AVAILABLE,(787) 840-4600
46760,720003000592,EUGENIO MARIA DE HOSTOS (INTERMEDIA),AVE MATIAS BRUGMAN,LAS MARIAS,PR,670,NOT AVAILABLE,(787) 827-2100
49598,720003002082,INTERMEDIA JUAN SERRALLES,CALLE JOBOS FINAL BO COTO LAUREL,PONCE,PR,731,NOT AVAILABLE,(787) 848-2005
22886,720003000362,RAFAEL REXACH DUENO,CALLE PRINCIPAL BO PALMER,RIO GRANDE,PR,745,NOT AVAILABLE,(787) 887-2720
24347,720003000594,LYSANDER BORRERO TERRY,CARR 149 KM 57.2 BO TIERRA SANTA,VILLALBA,PR,766,NOT AVAILABLE,(787) 847-1606
27575,720003000252,SU SANDALIO MARCANO,CARR 788 KM 6 HM 6 BO TOMAS DE CASTRO I,CAGUAS,PR,725,NOT AVAILABLE,(787) 747-3110
29597,720003000557,LAURA MERCADO,CALLE NESTOR TORRES BO ROSARIO,SAN GERMAN,PR,683,NOT AVAILABLE,(787) 892-0715
29669,720003001328,BERWIND ELEMENTAL,RES JARDINES DE BERWIND CALLE 1,SAN JUAN,PR,924,NOT AVAILABLE,(787) 768-2570
72938,720003001547,DR. HIRAM GONZALEZ,URB SAN FERNANDO 9 INTERIOR CALLE LOS MILLONES,BAYAMON,PR,957,NOT AVAILABLE,(787) 785-2536
76894,720003000884,ARTURO LLUBERAS,CARR 376 BO ALMACIGO BAJO,YAUCO,PR,698,NOT AVAILABLE,(787) 267-4984
77487,720003000142,ESTEBAN ROSADO BAEZ,CARR. 341 BO. MANI,MAYAGUEZ,PR,682,NOT AVAILABLE,(787) 831-6199
3402,720003000443,CARMEN BENITEZ,CALLE JOSE C BARBOSA #97,LAS PIEDRAS,PR,771,NOT AVAILABLE,(787) 733-2660
4149,720003001673,SU ANA JOAQUINA ORTIZ ORTIZ,CARR 156 KM 6 HM 2 BO BOTIJAS 2,OROCOVIS,PR,720,NOT AVAILABLE,(787) 867-0411
8379,720003001020,DR. JOSE CELSO BARBOSA,CALLE GUADALUPE BO PUEBLO,PONCE,PR,731,NOT AVAILABLE,(787) 842-8671
54746,720003001928,EVA Y PATRIA CUSTODIO,CARR.120 KM.0 HM.6 BO. MARAVILLA SUR,LAS MARIAS,PR,670,NOT AVAILABLE,(787) 827-4115
55591,720003001069,VICENTE PALES ANES,CALLE 4 ESQ. VICENTE PALES,GUAYAMA,PR,784,NOT AVAILABLE,(787) 864-0866
56482,720003000668,LUIS FELIPE RODRIGUEZ GARCIA,CARR #483 KM 13 HM 1 BO PIEDRA GORDA,ARECIBO,PR,614,NOT AVAILABLE,(787) 787-1240
84823,720003001267,ALBERT EINSTEIN,CALLE HAYDEE REXACH ESQ BORINQUEN,SAN JUAN,PR,915,NOT AVAILABLE,(787) 727-5525
88790,720003001495,SALVADOR BRAU,CARR. 853 K.6. H.0,CAROLINA,PR,985,NOT AVAILABLE,(787) 750-0011
94956,720003001900,LUIS MUNOZ MARIN,CARR.775 RAMAL 7774 KM 0 HM 4 BO PINAS SECTOR LA MORA,COMERIO,PR,782,NOT AVAILABLE,(787) 875-3390
99245,720003000093,TIMOTEO DELGADO,CARR 130 KM 8 HM 3 BO PAJUIL,HATILLO,PR,659,NOT AVAILABLE,(787) 898-9566
100222,720003000926,RAMON JOSE DAVILA,URB EL EDEN CALLE A,COAMO,PR,769,NOT AVAILABLE,(787) 825-1247
106623,720003001948,ACADEMIA DE CIENCIAS Y TECNOLOGIA ALIANZA,CALLE TULIPAN RB20 URB. ROSALEDA II,TOA BAJA,PR,949,NOT AVAILABLE,(787) 702-4179
21860,720003001042,ANGELA CORDERO BERNARD,CALLE SOLIMAR URB VILLA DEL CARMEN,PONCE,PR,731,NOT AVAILABLE,(787) 844-4020
25167,720003001884,EUGENIO MARIA DE HOSTOS (SUPERIOR),CALLE NANADICH ESQ VAZQUEZ,MAYAGUEZ,PR,680,NOT AVAILABLE,(787) 832-2062
6719,720003001736,PEDRO AMADOR,CARR 485 KM 2 HM 2 SECT BAJURA BO YAGUADA,CAMUY,PR,627,NOT AVAILABLE,(787) 898-1337
8384,720003000805,JAMES GARFIELD,CARR 103 KM 7 HM 1 BO PEDERNALES CARR. 103 KM 7,CABO ROJO,PR,623,NOT AVAILABLE,(787) 851-1825
31533,720003000875,SU HATILLO,CARR 150 KM 3 HM 6 HATO PUERCO,VILLALBA,PR,766,NOT AVAILABLE,(787) 847-3774
32730,720003000470,PEDRO BOSCH,CARR 935 KM 2 BO CEIBA NORTE,JUNCOS,PR,777,NOT AVAILABLE,(787) 734-4346
33429,720003001854,LUIS MUNOZ MARIN,CALLE MONSERRATE FINAL SECTOR LA ARANA,AGUAS BUENAS,PR,703,NOT AVAILABLE,(787) 732-3521
37718,720003000764,SEGUNDO RUIZ BELVIS,16 CALLE SEGUNDO RUIZ BELVIS,HORMIGUEROS,PR,660,NOT AVAILABLE,(787) 849-2610
37794,720003001038,ABRAHAM LINCOLN,46 CALLE CAMPECHE BDA BELGICA,PONCE,PR,731,NOT AVAILABLE,(787) 842-0117
38404,720003001309,AMALIA MARIN,CALLE PENASCO FINAL PARADISE HILLS,SAN JUAN,PR,924,NOT AVAILABLE,(787) 763-5218
38425,720003001776,FRANCISCO JORDAN,CARR 111 RAMAL 621,UTUADO,PR,641,NOT AVAILABLE,(787) 894-7705
38729,720003001984,BENITO CEREZO MARQUEZ,CARR. 107INT. 458 BDA. BORINQUEN,AGUADILLA,PR,603,NOT AVAILABLE,(787) 891-5000
11236,720003001923,DR EFRAIN SANCHEZ HIDALGO,CALLE MONSENOR JOSE TORRES,MOCA,PR,676,NOT AVAILABLE,(787) 818-0941
12154,720003000311,DRA. MARIA T DELGADO DE MARCANO,CARR 9929 KM 0 HM 2 BO FLORIDA,SAN LORENZO,PR,754,NOT AVAILABLE,(787) 736-0470
68024,720003001962,COLEEN VAZQUEZ URRUTIA,CARR 164 KM 7 HM 1 BO ACHIOTE,NARANJITO,PR,719,NOT AVAILABLE,(787) 869-1309
69123,720003001518,CRISTOBAL COLON,URB LOMAS VERDES CALLE TULIPAN ESQ SAUCE,BAYAMON,PR,956,NOT AVAILABLE,(787) 785-1190
70613,720003001564,CACIQUE AGUEYBANA,URB SIERRA BAYAMON CALLE 61,BAYAMON,PR,960,NOT AVAILABLE,(787) 780-9906
71585,720003000112,MATIAS GONZALEZ GARCIA,CALLE ANDRES ARUZ RIVERA CARR 189,GURABO,PR,778,NOT AVAILABLE,(787) 737-2056
76272,720003002047,SU JOSEFINA SITIRICHE,CARR 181 KM 2 HM 9 BO CELADA,GURABO,PR,778,NOT AVAILABLE,(787) 737-2626
76373,720003000110,SU PEDRO FERNANDEZ,CARR 152 KM 10 HM 5 BO CEDRO ARRIBA,NARANJITO,PR,719,NOT AVAILABLE,(787) 869-4787
86218,720003001145,DOMINGO MASSOL,CARR 388 KM 0 HM 1 BO VACAS SALTILLO,ADJUNTAS,PR,601,NOT AVAILABLE,(787) 829-2494
87238,720003001337,LUIS MUNOZ RIVERA,CALLE ROBLES #42,SAN JUAN,PR,928,NOT AVAILABLE,(787) 751-2214
52503,720003001640,JUAN A. SANCHEZ DAVILA,CARR 670 KM 1 HM 2,MANATI,PR,674,NOT AVAILABLE,(787) 854-7747
52776,720003001501,MARIANO FELIU BALSEIRO,URB LOMAS VERDES CARR 831,BAYAMON,PR,956,NOT AVAILABLE,(787) 785-9185
58026,720003001890,JOSE PAGAN DE JESUS (ELEMENTAL BO SABANA HOYOS),CARR 690 KH.2.2 BO SABANA HOYOS,VEGA ALTA,PR,692,NOT AVAILABLE,(787) 898-2795
90095,720003001266,DR. FACUNDO BUESO,CALLE DEL VALLE ESQ EDUARDO CONDE,SAN JUAN,PR,915,NOT AVAILABLE,(787) 727-4578
92130,720003002043,ANTONIO S PAOLI (MUSICA),AVE JOSE VILLARES ESQ RAFAEL CORDERO,CAGUAS,PR,725,NOT AVAILABLE,(787) 746-6644
93529,720003000331,MANUEL RAMOS HERNANDEZ,CARR 2 KM 101 HM 3,QUEBRADILLAS,PR,678,NOT AVAILABLE,(787) 895-7117
93558,720003000260,EL FARALLON,CARR 152 KM 7 HM 6 BO QUEBRADILLAS,BARRANQUITAS,PR,794,NOT AVAILABLE,(787) 857-2435
60622,720003001832,MANUEL GONZALEZ PATO,CALLE 9 URB LA RAMBLA,PONCE,PR,731,NOT AVAILABLE,(787) 841-7216
63402,720003001232,ALTINENCIA VALLE,BO CAMPANILLA CALLE PALMA 2,TOA BAJA,PR,951,NOT AVAILABLE,(787) 794-1460
65315,720003000159,DR. PEDRO ALBIZU CAMPOS,CARR 156 RAMAL 794 BO.CAGUITAS SECTOR CAMINO VERDE,AGUAS BUENAS,PR,703,NOT AVAILABLE,(787) 732-1040
65708,720003000104,BERNARDA ROBLES DE HEVIA,CARR 167 KM 7 HM 7 BO PARCELAS,NARANJITO,PR,719,NOT AVAILABLE,(787) 869-1433
67805,720003000227,ROSA C. BENITEZ,URB. VILLA DEL REY CALLE WINDSOR 1RA. SECCION,CAGUAS,PR,725,NOT AVAILABLE,(787) 743-8446
68199,720003002076,ABELARDO DIAZ ALFARO (INT. PINAS),CARR. 828 AU. RAMAL BO. PINAS,TOA ALTA,PR,953,NOT AVAILABLE,(787) 797-0315
69359,720003000462,ALFONSO DIAZ LEBRON,CARR 31 SALIDA HACIA NAGUABO,JUNCOS,PR,777,NOT AVAILABLE,(787) 734-6806
69452,720003000918,SU JAIME CASTANER,CARR 372 KM 9,YAUCO,PR,698,NOT AVAILABLE,(787) 856-1830
11402,720003001703,SU LUIS MUNOZ RIVERA,CARR 2 RAMAL 484 BO COCOS,QUEBRADILLAS,PR,678,NOT AVAILABLE,(787) 895-2146
14797,720003000010,20 DE SEPTIEMBRE DE 1988,CARR ESTATAL 200 ESQ CARR ESTATAL 993,VIEQUES,PR,765,NOT AVAILABLE,(787) 741-3091
17893,720003000340,LUIS F. CRESPO (SUP. NUEVA),CARR 486 KM 3 BO PUENTE,CAMUY,PR,627,NOT AVAILABLE,(787) 262-8421
19567,720003000278,LUIS RAMOS GONZALEZ,AVE GAUTIER BENITEZ FINAL,CAGUAS,PR,725,NOT AVAILABLE,(787) 743-9194
81813,720003001724,FERNANDO SURIA CHAVEZ,CALLE GEORGETTI BO PUEBLO,BARCELONETA,PR,617,NOT AVAILABLE,(787) 846-6750
81849,720003002048,DRA. CONCHITA CUEVAS,PR 30 INT PR 189 RAMAL 9944,GURABO,PR,778,NOT AVAILABLE,(787) 737-2700
84801,720003001495,SALVADOR BRAU,CARR. 853 K.6. H.0,CAROLINA,PR,985,NOT AVAILABLE,(787) 750-0011
88245,720003000149,EDUCACION BILINGUE LUIS MUNOZ IGLESIAS,URB FERNANDEZ CALLE LUIS LUGO ESQ. HADDOCK,CIDRA,PR,739,NOT AVAILABLE,(787) 739-2535
88573,720003001722,ELI RAMOS ROSARIO,CARR 140 BO FORTUNA,BARCELONETA,PR,617,NOT AVAILABLE,(787) 846-3165
1294,720003001415,LUISA M. VALDERRAMA (SAN ANTONIO),CARR 696 KM 1HM 5 BO HIGILLAR,DORADO,PR,646,NOT AVAILABLE,(787) 796-4410
2891,720003001102,BERNARDINO CORDERO BERNARD,CARR 488 AVE JUAN B ROMAN,PONCE,PR,731,NOT AVAILABLE,(787) 842-7091
8456,720003001084,RAFAEL ANTONIO DELGADO MATEO,BO OLIMPO CALLE 7,GUAYAMA,PR,784,NOT AVAILABLE,(787) 864-3875
9523,720003000092,SU RAFAEL ZAMOT CRUZ,CARR 134 KM 27 HM 21 BO BAYANEY,HATILLO,PR,659,NOT AVAILABLE,(787) 820-0841
30876,720003001347,REPUBLICA DE COLOMBIA,CALLE MAXIMO ALOMAR URB SAN AGUSTIN,SAN JUAN,PR,928,NOT AVAILABLE,(787) 764-4910
32872,720003000393,JUAN JOSE MAUNEZ,CALLE BUENOS AIRES FINAL,NAGUABO,PR,718,NOT AVAILABLE,(787) 874-0416
39968,720003001599,HERMINA DIAZ APONTE (LAGO ALTO),CALLE TORRECILLA URB. LAGO ALTO #1167,TRUJILLO ALTO,PR,976,NOT AVAILABLE,(787) 761-1425
40886,720003001469,DR. JOSE M. LAZARO,AVE EL COMANDANTE URB COUNTRY CLUB,CAROLINA,PR,979,NOT AVAILABLE,(787) 769-3638
45655,720003000046,OSCAR RODRIGUEZ RIVERA (BARAHONA),CARR 33 KM 4 HM O BO BARAHONA,MOROVIS,PR,687,NOT AVAILABLE,(787) 862-2010
48357,720003001346,VILLA GRANADA,URB VILLA GRANADA CALLE ASTURIAS,SAN JUAN,PR,928,NOT AVAILABLE,(787) 751-1016
50425,720003000151,CLEMENCIA MELENDEZ,CARR 173 KM 7 HM 9 BO RABANAL,CIDRA,PR,739,NOT AVAILABLE,(787) 739-8913
70115,720003000591,ELEMENTAL NUEVA,CARR 309 KM 1.9 INTERIOR BO JUANAJIBO,HORMIGUEROS,PR,660,NOT AVAILABLE,(787) 849-2610
70714,720003000525,ANTONIO R. BARCELO,CALLE PALMER FINAL,CANOVANAS,PR,729,NOT AVAILABLE,(787) 876-4055
71353,720003002011,SANTA TERESITA,CALLE 23 URB SANTA TERESITA,PONCE,PR,731,NOT AVAILABLE,(787) 841-4949
74606,720003000453,NUEVA ESCUELA SU ANTONIO RIVERA (NUEVA ESC SU DE BAYAMON),CARR 167 RAMAL 816 KM 6 BO NUEVO,BAYAMON,PR,956,NOT AVAILABLE,(787) 730-5613
20584,720003000408,LCDO GUILLERMO ATILES MOREAU,CALLE PONCE URB PEREZ MORRIS,SAN JUAN,PR,924,NOT AVAILABLE,(787) 767-6710
21635,720003001275,LUIS MUNOZ RIVERA,PARADA 25 AVE FERNANDEZ JUNCOS,SAN JUAN,PR,909,NOT AVAILABLE,(787) 727-6755
23368,720003000454,LUIS MUNOZ RIVERA,CARR 936 BO BOQUERON INT 937,LAS PIEDRAS,PR,771,NOT AVAILABLE,(787) 733-1441
24073,720003000362,RAFAEL REXACH DUENO,CALLE PRINCIPAL BO PALMER,RIO GRANDE,PR,745,NOT AVAILABLE,(787) 887-2720
26112,720003002077,SILVESTRE MARTINEZ,CARR 826 KM 12 HM 1 BO GUADIANA COM LAGO LA PLATA,NARANJITO,PR,719,NOT AVAILABLE,(787) 869-1266
92413,720003002026,AGAPITO ROSARIO ROSARIO,CALLE S ESQ T URB ALTURAS,VEGA BAJA,PR,693,NOT AVAILABLE,(787) 858-2988
98244,720003002060,LUIS MUNOZ MARIN,CARR. 402 KM. 1 HM.4 BO.MARIAS,ANASCO,PR,610,NOT AVAILABLE,(787) 826-1476
99712,720003001107,RODULFO DEL VALLE,AVE TITO CASTRO CARR. 14,PONCE,PR,731,NOT AVAILABLE,(787) 844-1265
