OBJECTID,NCESID,NAME,ADDRESS,CITY,STATE,ZIP,ZIP4,TELEPHONE
11482,450090001206,NEW PROSPECT ELEMENTARY,126 NEW PROSPECT CHURCH ROAD,ANDERSON,SC,29625,NOT AVAILABLE,(864) 260-5195
12024,450078000072,SPEARMAN ELEMENTARY,2001 EASLEY HIGHWAY,PIEDMONT,SC,29673,NOT AVAILABLE,(864) 947-9787
14924,450234000594,NORTHSIDE MIDDLE,431 DEADFALL ROAD WEST,GREENWOOD,SC,29649,NOT AVAILABLE,(864) 941-5780
15741,450219000451,MAIN STREET ELEMENTARY,318 EAST MAIN STREET,LAKE CITY,SC,29560,NOT AVAILABLE,(843) 374-2221
17141,450156000308,MCBEE ELEMENTARY,284 E. MAPLE AVE,MCBEE,SC,29101,NOT AVAILABLE,(843) 335-8347
513,450231001335,OVERBROOK CHILD DEVELOPMENT CENTER,111 LAURENS ROAD,GREENVILLE,SC,29607,NOT AVAILABLE,(864) 355-7350
1440,450201001674,ALSTON-BAILEY ELEMENTARY,820 WEST 5TH NORTH STREET,SUMMERVILLE,SC,29483,NOT AVAILABLE,(843) 695-5210
3660,450351001451,CHESNEE MIDDLE,805 SOUTH ALABAMA AVENUE,CHESNEE,SC,29323,NOT AVAILABLE,(864) 461-3900
5295,450078000686,POWDERSVILLE ELEMENTARY,139 HOOD ROAD,GREENVILLE,SC,29611,NOT AVAILABLE,(864) 269-4431
5680,450390101688,GREER MIDDLE COLLEGE CHARTER HIGH,138 WEST MCELHANEY ROAD,TAYLORS,SC,29687,NOT AVAILABLE,(864) 469-7571
5899,450390901701,THE MONTESSORI SCHOOL OF CAMDEN,2 MONTESSORI WAY,CAMDEN,SC,29020,NOT AVAILABLE,(803) 432-6828
7102,450390101582,EAST POINT ACADEMY,1401 LEAPHART STREET,WEST COLUMBIA,SC,29169,NOT AVAILABLE,(803) 926-0524
40171,450336000499,BURTON PACK ELEMENTARY,111 GARDEN DRIVE,COLUMBIA,SC,29204,NOT AVAILABLE,(803) 691-5550
41368,450231000530,STONE ACADEMY,115 RANDALL STREET,GREENVILLE,SC,29609,NOT AVAILABLE,(864) 355-8400
43266,450390101619,PEE DEE MATH SCI & TECH,101 DOCS DRIVE,BISHOPVILLE,SC,29010,NOT AVAILABLE,(803) 428-8400
45933,450231000490,ARMSTRONG ELEMENTARY,8601 WHITE HORSE ROAD,GREENVILLE,SC,29617,NOT AVAILABLE,(864) 355-1100
47354,450186001498,DARLINGTON COUNTY INSTITUTE OF TECHNOLOGY,160 PINEDALE DRIVE,DARLINGTON,SC,29532,NOT AVAILABLE,(843) 398-4796
48553,450125000424,SANDY RUN SCHOOL,450 OLD SWAMP ROAD,SWANSEA,SC,29160,NOT AVAILABLE,(803) 655-2746
49071,450258001260,A. R. RUCKER MIDDLE,422 OLD DIXIE ROAD,LANCASTER,SC,29720,NOT AVAILABLE,(803) 416-8555
49089,450270001484,CAROLINA SPRINGS ELEMENTARY,6340 PLATT SPRINGS ROAD,LEXINGTON,SC,29073,NOT AVAILABLE,(803) 821-5100
49815,450144000224,MATILDA F. DUNSTON ELEMENTARY,1825 REMOUNT ROAD,NORTH CHARLESTON,SC,29406,NOT AVAILABLE,(843) 745-7109
61728,450069000010,WRIGHT MIDDLE,111 HIGHWAY 71,ABBEVILLE,SC,29620,NOT AVAILABLE,(864) 366-5998
62070,450213000434,SAVANNAH GROVE ELEMENTARY,2348 SAVANNAH GROVE ROAD,EFFINGHAM,SC,29541,NOT AVAILABLE,(843) 664-8463
67299,450117001209,SANGAREE ELEMENTARY,1460 ROYLE ROAD,SUMMERVILLE,SC,29483,NOT AVAILABLE,(843) 820-3868
67419,450270000977,PLEASANT HILL MIDDLE,660 RAWL ROAD,LEXINGTON,SC,29072,NOT AVAILABLE,(803) 821-2700
69034,450270000720,LEXINGTON ELEMENTARY,116 AZALEA DRIVE,LEXINGTON,SC,29072,NOT AVAILABLE,(803) 821-4000
69812,450144001328,BURKE HIGH,244 PRESIDENT STREET,CHARLESTON,SC,29403,NOT AVAILABLE,(843) 579-4815
101439,450384001124,BETHANY ELEMENTARY,337 MAYNARD GRAYSON ROAD,CLOVER,SC,29710,NOT AVAILABLE,(803) 810-8800
102226,450303001281,GALLMAN ELEMENTARY,255 HAWKINS ROAD,NEWBERRY,SC,29108,NOT AVAILABLE,(803) 321-2655
102806,450390001735,KINGS TOWN ELEMENTARY,1774 MASON BEND DRIVE,FORT MILL,SC,29708,NOT AVAILABLE,(803) 396-3400
102807,450390001736,FOREST CREEK MIDDLE SCHOOL,2211 WHITE'S ROAD,FORT MILL,SC,29715,NOT AVAILABLE,(803) 548-2527
106166,450390901590,ROYAL LIVE OAKS ACADEMY OF THE ARTS AND SCIENCES CHARTER SCH,400 JOHN SMITH ROAD,HARDEEVILLE,SC,29927,NOT AVAILABLE,(843) 784-2630
106185,450391000849,BETHUNE-BOWMAN ELEMENTARY,4857 CHARLESTON HIGHWAY,ROWESVILLE,SC,29133,NOT AVAILABLE,(803) 533-6371
20356,450111001350,HILTON HEAD ISLAND HIGH,70 WILBORN ROAD,HILTON HEAD ISLAND,SC,29926,NOT AVAILABLE,(843) 689-4800
21424,450282000758,IRMO MIDDLE,6051 WESCOTT ROAD,COLUMBIA,SC,29212,NOT AVAILABLE,(803) 476-3600
22473,450231001517,RULDOLPH G. GORDON SCHOOL AT JONES MILL,1507 SCUFFLETOWN ROAD,SIMPSONVILLE,SC,29681,NOT AVAILABLE,(864) 355-0200
23319,450231000523,PARIS ELEMENTARY,32 EAST BELVUE ROAD,TAYLORS,SC,29687,NOT AVAILABLE,(864) 355-4260
26480,450072000046,AIKEN HIGH,449 RUTLAND DRIVE,AIKEN,SC,29801,NOT AVAILABLE,(803) 641-2500
26643,450111000047,JOSEPH S. SHANKLIN ELEMENTARY,121 MORRALL DRIVE,BEAUFORT,SC,29906,NOT AVAILABLE,(843) 466-3400
27050,450264001397,EASTSIDE ELEMENTARY,103 OLD COLONY ROAD,CLINTON,SC,29325,NOT AVAILABLE,(864) 833-0827
80523,450378001094,W.M. ANDERSON PRIMARY,500 LEXINGTON AVENUE,KINGSTREE,SC,29556,NOT AVAILABLE,(843) 355-5493
82620,450072000018,BYRD ELEMENTARY,1225 WELDON WAY,GRANITEVILLE,SC,29829,NOT AVAILABLE,(803) 663-4320
83012,450336000649,FOREST HEIGHTS ELEMENTARY,2500 BLUE RIDGE TERRACE,COLUMBIA,SC,29203,NOT AVAILABLE,(803) 691-3780
85815,450282000017,DUTCH FORK HIGH,1400 OLD TAMAH ROAD,IRMO,SC,29063,NOT AVAILABLE,(803) 476-3300
86363,450201001489,RIVER OAKS MIDDLE,8642 RIVER OAKS DRIVE,NORTH CHARLESTON,SC,29420,NOT AVAILABLE,(843) 695-2470
87666,450276000744,BATESBURG-LEESVILLE ELEMENTARY SCHOOL,403 SOUTH LEE STREET,BATESBURG-LEESVILLE,SC,29070,NOT AVAILABLE,(803) 532-1155
88458,450348000986,INMAN ELEMENTARY,25 OAKLAND AVENUE,INMAN,SC,29349,NOT AVAILABLE,(864) 472-8403
37123,450231000961,LANGSTON CHARTER MIDDLE,1950 WOODRUFF ROAD,GREENVILLE,SC,29607,NOT AVAILABLE,(864) 286-9700
39063,450279000615,SANDHILLS ELEMENTARY,130 LEWIS RAST ROAD,SWANSEA,SC,29160,NOT AVAILABLE,(803) 490-7003
39246,450195000390,LATTA MIDDLE,612 NORTH RICHARDSON STREET,LATTA,SC,29565,NOT AVAILABLE,(843) 752-7117
93252,450249000900,ST. JAMES HIGH,10800 HIGHWAY 707,MURRELLS INLET,SC,29576,NOT AVAILABLE,(843) 650-5600
94148,450306000844,HAMILTON CAREER AND TECHNOLOGY CENTER,445 OCONEE BUSINESS PARKWAY,WESTMINSTER,SC,29693,NOT AVAILABLE,(864) 886-4425
94224,450390800771,NORTH MULLINS PRIMARY,105 CHARLES STREET,MULLINS,SC,29574,NOT AVAILABLE,(843) 464-3750
94920,450144001167,DRAYTON HALL ELEMENTARY,3138 ASHLEY RIVER ROAD,CHARLESTON,SC,29414,NOT AVAILABLE,(843) 852-0678
96135,450390101645,RIVERWALK ACADEMY,5750 MOUNT GALLANT ROAD,ROCK HILL,SC,29732,NOT AVAILABLE,(803) 327-8400
97002,450261001622,HICKORY TAVERN ELEMENTARY/MIDDLE,163 NEELY FERRY ROAD,GRAY COURT,SC,29645,NOT AVAILABLE,(864) 575-2126
97276,450387001141,SUNSET PARK CENTER FOR ACCELERATED STUDIES,1036 OGDEN ROAD,ROCK HILL,SC,29730,NOT AVAILABLE,(803) 981-1260
99989,450156000303,CHERAW PRIMARY,321 HIGH STREET,CHERAW,SC,29520,NOT AVAILABLE,(843) 921-1020
52351,450231000546,BRYSON MIDDLE,3657 SOUTH INDUSTRIAL DRIVE,SIMPSONVILLE,SC,29681,NOT AVAILABLE,(864) 355-2100
53023,450390101617,BRIDGES PREPARATORY SCHOOL,1100 BOUNDARY ST,BEAUFORT,SC,29449,NOT AVAILABLE,(843) 982-7737
54479,450390901699,VIRTUS ACADEMY OF SOUTH CAROLINA,404 DORADO DRIVE,FLORENCE,SC,29505,NOT AVAILABLE,(843) 799-4032
55421,450144000429,CHARLES PINCKNEY ELEMENTARY,3300 THOMAS CARIO BOULEVARD,MT. PLEASANT,SC,29466,NOT AVAILABLE,(843) 856-4585
57163,450390901699,VIRTUS ACADEMY OF SOUTH CAROLINA,2407 PISGAH ROAD,FLORENCE,SC,29501,NOT AVAILABLE,(843) 799-4032
59266,450234000871,WESTVIEW MIDDLE,1410 WEST ALEXANDER ROAD,GREENWOOD,SC,29646,NOT AVAILABLE,(864) 229-4301
72906,450390201453,KINGSBURY ELEMENTARY,825 KINGSBURY ROAD,SUMTER,SC,29154,NOT AVAILABLE,(803) 775-6244
79126,450213001332,SOUTHSIDE MIDDLE,200 EAST HOWE SPRINGS ROAD,FLORENCE,SC,29505,NOT AVAILABLE,(843) 664-8467
1011,450144000230,ST. ANDREW'S SCHOOL OF MATH AND SCIENCE,30 CHADWICK DRIVE,CHARLESTON,SC,29407,NOT AVAILABLE,(843) 763-1503
3674,450234000591,HODGES ELEMENTARY,4717 MAIN STREET,HODGES,SC,29653,NOT AVAILABLE,(864) 374-5000
6050,450390101698,POLARIS TECH CHARTER SCHOOL,1508 GRAYS HIGHWAY,RIDGELAND,SC,29936,NOT AVAILABLE,(843) 645-0605
6990,450144000265,RB STALL HIGH,3625 ASHLEY PHOSPHATE ROAD,NORTH CHARLESTON,SC,29418,NOT AVAILABLE,(843) 764-2200
7312,450078000067,CEDAR GROVE ELEMENTARY,107 MELVIN LANE,WILLIAMSTON,SC,29697,NOT AVAILABLE,(864) 847-3500
7424,450183000332,BELLS ELEMENTARY,12088 BELLS HIGHWAY,RUFFIN,SC,29475,NOT AVAILABLE,(843) 782-0012
8928,450234000051,DR. BENJAMIN E. MAYS ELEMENTARY,1608 FLORIDA AVENUE,GREENWOOD,SC,29646,NOT AVAILABLE,(864) 941-5535
42115,450297000783,BENNETTSVILLE PRIMARY,301 JEFFERSON STREET,BENNETTSVILLE,SC,29512,NOT AVAILABLE,(843) 479-5936
43412,450390201061,WILDER ELEMENTARY,975 SOUTH MAIN STREET,SUMTER,SC,29150,NOT AVAILABLE,(803) 773-5723
44615,450144000214,JENNIE MOORE ELEMENTARY,2725 BULRUSH BASKET LANE,MT. PLEASANT,SC,29466,NOT AVAILABLE,(843) 849-2815
49969,450333000894,WEST END ELEMENTARY,314 PELZER HIGHWAY,EASLEY,SC,29642,NOT AVAILABLE,(864) 397-2500
63594,450231000561,BLUE RIDGE HIGH,2151 FEWS CHAPEL ROAD,GREER,SC,29651,NOT AVAILABLE,(864) 355-1800
66113,450249000747,PALMETTO BAYS ELEMENTARY,8900 HIGHWAY 544,MYRTLE BEACH,SC,29588,NOT AVAILABLE,(843) 236-6200
66261,450249000872,AYNOR MIDDLE,400 FRYE ROAD,GALIVANTS FERRY,SC,29544,NOT AVAILABLE,(843) 358-6000
67699,450363000029,ROEBUCK ELEMENTARY,2401 EAST BLACKSTOCK ROAD,ROEBUCK,SC,29376,NOT AVAILABLE,(864) 576-6151
53878,450177000431,PHOENIX CHARTER HIGH,1423 HOTEL STREET,ALCOLU,SC,29001,NOT AVAILABLE,(803) 505-6800
53980,450090000103,VARENNES ELEMENTARY,1820 HIGHWAY 29 SOUTH,ANDERSON,SC,29626,NOT AVAILABLE,(864) 260-5215
56778,450231001365,BUENA VISTA ELEMENTARY,310 BATESVILLE ROAD,GREER,SC,29650,NOT AVAILABLE,(864) 355-2200
57715,450270000726,GILBERT HIGH,840 MAIN STREET,GILBERT,SC,29054,NOT AVAILABLE,(803) 821-1900
57814,450087000092,TOWNVILLE ELEMENTARY,105 TOWNVILLE SCHOOL ROAD,TOWNVILLE,SC,29689,NOT AVAILABLE,(864) 403-2600
58940,450279000751,SANDHILLS MIDDLE,582 MEADOWFIELD ROAD,GASTON,SC,29053,NOT AVAILABLE,(803) 490-7005
90721,450306001357,WEST-OAK HIGH,130 WARRIOR LANE,WESTMINSTER,SC,29693,NOT AVAILABLE,(864) 886-4530
94423,450336000920,HOPKINS ELEMENTARY,6120 CABIN CREEK ROAD,HOPKINS,SC,29061,NOT AVAILABLE,(803) 783-5541
96166,450249001418,FORESTBROOK ELEMENTARY,4000 PANTHERS PARKWAY,MYRTLE BEACH,SC,29579,NOT AVAILABLE,(843) 236-8100
97388,450144000215,MORNINGSIDE MIDDLE,1999 SINGLEY LANE,NORTH CHARLESTON,SC,29405,NOT AVAILABLE,(843) 745-2000
80605,450000401402,CEDAR SPRINGS ACADEMY,355 CEDAR SPRINGS ROAD,SPARTANBURG,SC,29302,NOT AVAILABLE,(864) 577-7771
80673,450125000187,CALHOUN COUNTY HIGH,150 SAINTS AVENUE,ST. MATTHEWS,SC,29135,NOT AVAILABLE,(803) 874-3071
81380,450174000188,SCOTT'S BRANCH MIDDLE,9253 ALEX HARVIN HIGHWAY,SUMMERTON,SC,29148,NOT AVAILABLE,(803) 574-2100
83455,450231000521,MOUNTAIN VIEW ELEMENTARY,6350 HIGHWAY 253,TAYLORS,SC,29687,NOT AVAILABLE,(864) 355-6800
86164,450336000919,A. J. LEWIS GREENVIEW ELEMENTARY,726 EASTER STREET,COLUMBIA,SC,29203,NOT AVAILABLE,(803) 735-3417
102810,450391001604,OCSD HIGH SCHOOL FOR HEALTH PROFESSIONS,130 HOWARD HILL DRIVE,ORANGEBURG,SC,29118,NOT AVAILABLE,(803) 535-1693
106169,450390901650,GRAY COLLEGIATE ACADEMY,3833 LEAPHART ROAD,WEST COLUMBIA,SC,29169,NOT AVAILABLE,(803) 951-3321
107286,450391000875,DOVER ELEMENTARY,1411 BEDFORD AVENUE,NORTH,SC,29112,NOT AVAILABLE,(803) 247-2184
107289,450391000879,LOCKETT ELEMENTARY,1349 DORANGE ROAD,BRANCHVILLE,SC,29432,NOT AVAILABLE,(803) 274-8588
12389,450390201057,ALICE DRIVE ELEMENTARY,251 ALICE DRIVE,SUMTER,SC,29150,NOT AVAILABLE,(803) 775-0857
15170,450258000681,MCDONALD GREEN ELEMENTARY,2763 LYNWOOD DRIVE,LANCASTER,SC,29720,NOT AVAILABLE,(803) 285-7416
16776,450249001644,RIVERSIDE ELEMENTARY,1287 HIGHWAY 57 SOUTH,LITTLE RIVER,SC,29566,NOT AVAILABLE,(843) 399-8800
30057,450390001564,BANKS TRAIL MIDDLE,1640 BANKS ROAD,FORT MILL,SC,29715,NOT AVAILABLE,(803) 578-2990
32214,450366001051,MCCRACKEN MIDDLE,300 WEBBER ROAD,SPARTANBURG,SC,29307,NOT AVAILABLE,(864) 594-4457
33381,450336000953,C. A. JOHNSON HIGH,2219 BARHAMVILLE ROAD,COLUMBIA,SC,29204,NOT AVAILABLE,(803) 253-7092
33817,450072001202,SOUTH AIKEN HIGH,232 EAST PINE LOG ROAD,AIKEN,SC,29803,NOT AVAILABLE,(803) 641-2600
35572,450156000314,CHERAW HIGH,649 CHESTERFIELD HIGHWAY,CHERAW,SC,29520,NOT AVAILABLE,(843) 921-1000
35878,450000401227,SC SCHOOL FOR THE DEAF HIGH,355 CEDAR SPRING ROAD,SPARTANBURG,SC,29302,NOT AVAILABLE,(864) 577-7811
39454,450213000427,DELMAE HEIGHTS ELEMENTARY,1211 SOUTH CASHUA DRIVE,FLORENCE,SC,29501,NOT AVAILABLE,(843) 664-8448
71045,450231000571,RIVERSIDE HIGH,794 HAMMETT BRIDGE ROAD,GREER,SC,29650,NOT AVAILABLE,(864) 355-7800
71662,450390800773,MULLINS HIGH,747 MILLER'S ROAD,MULLINS,SC,29574,NOT AVAILABLE,(843) 464-3710
74565,450210001392,FAIRFIELD CENTRAL HIGH,836 US HIGHWAY 321 BYPASS SOUTH,WINNSBORO,SC,29180,NOT AVAILABLE,(803) 635-1441
23929,450282000759,IRMO HIGH,6671 ST. ANDREWS ROAD,COLUMBIA,SC,29212,NOT AVAILABLE,(803) 476-5000
26931,450249000901,WATERWAY ELEMENTARY,700 SANDRIDGE ROAD,LITTLE RIVER,SC,29566,NOT AVAILABLE,(843) 399-2204
71795,450110000152,BEAUFORT-JASPER ACADEMY FOR CAREER EXCELLENCE,80 LOWCOUNTRY DRIVE,RIDGELAND,SC,29936,NOT AVAILABLE,(843) 987-8107
73298,450231001247,HUGHES ACADEMY OF SCIENCE AND TECHNOLOGY,122 DEOYLEY AVENUE,GREENVILLE,SC,29605,NOT AVAILABLE,(864) 355-6200
76149,450183000337,FOREST HILLS ELEMENTARY,633 HIERS CORNER ROAD,WALTERBORO,SC,29488,NOT AVAILABLE,(843) 782-4512
77951,450228000475,MCDONALD ELEMENTARY,532 MCDONALD ROAD,GEORGETOWN,SC,29440,NOT AVAILABLE,(843) 527-3485
79119,450387001133,EBINPORT ELEMENTARY,2142 INDIA HOOK ROAD,ROCK HILL,SC,29732,NOT AVAILABLE,(803) 981-1550
79971,450213000437,WALLACE GREGG ELEMENTARY,515 FRANCIS MARION ROAD,FLORENCE,SC,29505,NOT AVAILABLE,(843) 664-8481
92038,450258000039,BUFORD MIDDLE,1890 NORTH ROCKY RIVER ROAD,LANCASTER,SC,29720,NOT AVAILABLE,(803) 285-8473
93554,450261000701,LAURENS DISTRICT 55 HIGH,5058 HIGHWAY 76 WEST,LAURENS,SC,29360,NOT AVAILABLE,(864) 682-3151
96230,450270001547,ROCKY CREEK ELEMENTARY,430 CALKS FERRY ROAD,LEXINGTON,SC,29072,NOT AVAILABLE,(803) 821-4200
99988,450090000099,HOMELAND PARK PRIMARY,3519 WILMONT STREET,ANDERSON,SC,29624,NOT AVAILABLE,(864) 260-5125
101773,450336000950,DREHER HIGH,3319 MILLWOOD AVENUE,COLUMBIA,SC,29205,NOT AVAILABLE,(803) 253-7000
102147,450273000734,SPRINGDALE ELEMENTARY,361 WATTLING ROAD,WEST COLUMBIA,SC,29170,NOT AVAILABLE,(803) 739-4175
102247,450072001007,MOSSY CREEK ELEMENTARY,421 WEST FIVE NOTCH ROAD,NORTH AUGUSTA,SC,29841,NOT AVAILABLE,(803) 442-6090
102811,450391001693,RIVELON ELEMENTARY,350 THOMAS B. EKLUND CIRCLE,ORANGEBURG,SC,29115,NOT AVAILABLE,(803) 534-2949
106149,450390001734,RIVER TRAIL ELEMENTARY,1016 FORT MILL PARKWAY,FORT MILL,SC,29715,NOT AVAILABLE,(803) 835-7555
106152,450390101739,GREEN LOWCOUNTRY,3710 LANDMARK DRIVE SUITE 201,COLUMBIA,SC,29204,NOT AVAILABLE,(803) 734-8322
107274,450390101722,GREEN CHARTER SCHOOL OF SPARTANBURG,8150 WARREN H. ABERNATHY HIGHWAY,SPARTANBURG,SC,29301,NOT AVAILABLE,(864) 586-3939
82095,450153000302,CHESTER COUNTY CAREER CENTER,1324 J. A. COCHRAN BYPASS,CHESTER,SC,29706,NOT AVAILABLE,(803) 377-1991
85449,450267000711,LOWER LEE ELEMENTARY,5142 ST. CHARLES ROAD,MAYESVILLE,SC,29104,NOT AVAILABLE,(803) 428-3637
89977,450084000089,CRESCENT HIGH,9104 HIGHWAY 81 SOUTH,IVA,SC,29655,NOT AVAILABLE,(864) 352-6175
50137,450357001015,WOODRUFF HIGH,710 CROSS ANCHOR HIGHWAY,WOODRUFF,SC,29388,NOT AVAILABLE,(864) 476-7045
53883,450183001586,COLLETON COUNTY MIDDLE,1379 TUSKEGEE AIRMEN DRIVE,WALTERBORO,SC,29488,NOT AVAILABLE,(843) 782-0040
53946,450339001554,RICHLAND TWO CHARTER HIGH,7900 BROOKMONT LANE,COLUMBIA,SC,29203,NOT AVAILABLE,(803) 419-1348
58694,450249000623,MIDLAND ELEMENTARY,3011 NICHOLS HIGHWAY,GALIVANTS FERRY,SC,29544,NOT AVAILABLE,(843) 358-3036
20017,450150000282,LUTHER L. VAUGHAN ELEMENTARY,192 VAUGHAN ROAD,GAFFNEY,SC,29341,NOT AVAILABLE,(864) 206-6054
20993,450207000037,JOHNSTON-EDGEFIELD-TRENTON MIDDLE,1095 COLUMBIA ROAD,JOHNSTON,SC,29832,NOT AVAILABLE,(803) 275-1997
21395,450219000454,OLANTA ELEMENTARY,312 NORTH JONES ROAD,OLANTA,SC,29114,NOT AVAILABLE,(843) 396-4457
21534,450228001607,COASTAL MONTESSORI CHARTER,111 OLD PLANTATION DRIVE,PAWLEYS ISLAND,SC,29585,NOT AVAILABLE,(843) 235-0413
23931,450249000626,HOMEWOOD ELEMENTARY,108 NORTH CLEMSON CIRCLE,CONWAY,SC,29526,NOT AVAILABLE,(843) 365-2512
24985,450156000306,JEFFERSON ELEMENTARY,809 WEST ELIZABETH STREET,JEFFERSON,SC,29718,NOT AVAILABLE,(843) 658-3295
25123,450231000513,FOUNTAIN INN ELEMENTARY,608 FAIRVIEW STREET,FOUNTAIN INN,SC,29644,NOT AVAILABLE,(864) 355-5100
26277,450231000496,BLYTHE ACADEMY,100 BLYTHE DRIVE,GREENVILLE,SC,29605,NOT AVAILABLE,(864) 355-4400
60823,450270000052,MIDWAY ELEMENTARY,180 MIDWAY ROAD,LEXINGTON,SC,29072,NOT AVAILABLE,(803) 821-0300
62200,450201000400,NEWINGTON ELEMENTARY,10 KING CHARLES CIRCLE,SUMMERVILLE,SC,29485,NOT AVAILABLE,(843) 871-3230
64176,450183000348,THUNDERBOLT CAREER AND TECHNOLOGY CENTER,1069 THUNDERBOLT ROAD,WALTERBORO,SC,29488,NOT AVAILABLE,(843) 782-4514
66916,450186000353,LAMAR ELEMENTARY,214 NORTH DARLINGTON AVENUE,LAMAR,SC,29069,NOT AVAILABLE,(843) 326-7575
68037,450072000058,AIKEN COUNTY CAREER CENTER,2455 JEFFERSON DAVIS HIGHWAY,WARRENVILLE,SC,29851,NOT AVAILABLE,(803) 593-7300
30599,450072000027,HAMMOND HILL ELEMENTARY,901 WEST WOODLAWN AVENUE,NORTH AUGUSTA,SC,29841,NOT AVAILABLE,(803) 442-6170
32944,450144000838,CHARLESTON DEVELOPMENT ACADEMY,233 LINE STREET,CHARLESTON,SC,29403,NOT AVAILABLE,(843) 722-2689
34821,450231000565,GREER HIGH,3000 EAST GAP CREEK DRIVE,GREER,SC,29651,NOT AVAILABLE,(864) 355-5700
35574,450270000476,LAKE MURRAY ELEMENTARY,205 WISE FERRY ROAD,LEXINGTON,SC,29072,NOT AVAILABLE,(803) 821-3100
35728,450072000057,WAGENER-SALLY HIGH,272 MAIN STREET SOUTH,WAGENER,SC,29164,NOT AVAILABLE,(803) 564-1100
37502,450348001475,INMAN INTERMEDIATE,10 WEST MILLER STREET,INMAN,SC,29349,NOT AVAILABLE,(864) 472-1510
39023,450231000539,WESTCLIFFE ELEMENTARY,105 EASTBOURNE ROAD,GREENVILLE,SC,29611,NOT AVAILABLE,(864) 355-0300
10180,450105000128,KELLY EDWARDS ELEMENTARY,1071 ELKO STREET,WILLISTON,SC,29853,NOT AVAILABLE,(803) 266-3737
11142,450084000087,STARR ELEMENTARY,400 PROFESSOR BROWN LANE,STARR,SC,29684,NOT AVAILABLE,(864) 352-6154
11918,450207000410,W. E. PARKER ELEMENTARY,41 CREST ROAD,EDGEFIELD,SC,29824,NOT AVAILABLE,(803) 637-4020
14928,450387001140,ROSEWOOD ELEMENTARY,2240 ROSEWOOD DRIVE,ROCK HILL,SC,29732,NOT AVAILABLE,(803) 981-1540
18417,450387001139,RICHMOND DRIVE ELEMENTARY,1162 RICHMOND DRIVE,ROCK HILL,SC,29732,NOT AVAILABLE,(803) 981-1930
44252,450249001585,ACADEMY OF HOPE CHARTER,3521 JUNIPER BAY ROAD,CONWAY,SC,29527,NOT AVAILABLE,(843) 397-5712
44848,450333001565,LIBERTY PRIMARY,940 CHASTAIN ROAD,LIBERTY,SC,29657,NOT AVAILABLE,(864) 397-4800
45202,450072001193,JEFFERSON ELEMENTARY,170 FLINT DRIVE,WARRENVILLE,SC,29851,NOT AVAILABLE,(803) 593-7180
46365,450231000515,LAKE FOREST ELEMENTARY,16 BERKSHIRE AVENUE,GREENVILLE,SC,29615,NOT AVAILABLE,(864) 355-4000
47876,450249000645,AYNOR HIGH,201 JORDANVILLE ROAD,AYNOR,SC,29511,NOT AVAILABLE,(843) 488-7100
1215,450231000459,RIVERSIDE MIDDLE,615 HAMMETT BRIDGE ROAD,GREER,SC,29650,NOT AVAILABLE,(864) 355-7900
2236,450390701579,SC GOVERNOR'S SCHOOL FOR SCIENCE AND MATHEMATICS,401 RAILROAD AVENUE,HARTSVILLE,SC,29550,NOT AVAILABLE,(843) 383-3902
4879,450249001677,SOCASTEE MIDDLE,151 SHEFFIELD ROAD,MYRTLE BEACH,SC,29588,NOT AVAILABLE,(843) 903-6051
6778,450144001218,MOULTRIE MIDDLE,645 COLEMAN BOULEVARD,MOUNT PLEASANT,SC,29464,NOT AVAILABLE,(843) 849-2819
8700,450075001184,ALLENDALE ELEMENTARY,3305 ALLENDALE-FAIRFAX HIGHWAY,FAIRFAX,SC,29827,NOT AVAILABLE,(803) 584-3476
95574,450258001261,BUFORD HIGH,4290 TABERNACLE ROAD,LANCASTER,SC,29720,NOT AVAILABLE,(803) 286-7068
95597,450249000616,DAISY ELEMENTARY,2801 RED BLUFF ROAD,LORIS,SC,29569,NOT AVAILABLE,(843) 756-5136
95858,450390001652,TEGA CAY ELEMENTARY,2185 GOLD HILL ROAD,TEGA CAY,SC,29708,NOT AVAILABLE,(803) 548-8282
62939,450213001601,LUCY T. DAVIS ELEMENTARY,201 WESTFIELD DRIVE,FLORENCE,SC,29501,NOT AVAILABLE,(843) 665-5977
64765,450255001257,CAMDEN MIDDLE,902 MCRAE ROAD,CAMDEN,SC,29020,NOT AVAILABLE,(803) 425-8975
65253,450339001443,SUMMIT PARKWAY MIDDLE,200 SUMMIT PARKWAY,COLUMBIA,SC,29229,NOT AVAILABLE,(803) 699-3580
65804,450231000576,WASHINGTON CENTER,2 BETTY SPENCER DRIVE,GREENVILLE,SC,29607,NOT AVAILABLE,(864) 355-0250
84783,450144000207,LADSON ELEMENTARY,3321 LADSON ROAD,LADSON,SC,29456,NOT AVAILABLE,(843) 764-2225
88241,450231000536,WELCOME ELEMENTARY,36 EAST WELCOME ROAD,GREENVILLE,SC,29611,NOT AVAILABLE,(864) 355-3900
89827,450117000161,J. K. GOURDIN ELEMENTARY,1649 HIGHWAY 45,PINEVILLE,SC,29468,NOT AVAILABLE,(843) 567-3637
51831,450144000199,A. C. CORCORAN ELEMENTARY,8585 VISTAVIA ROAD,NORTH CHARLESTON,SC,29406,NOT AVAILABLE,(843) 764-2218
56937,450300000800,MCCORMICK ELEMENTARY,6977 HIGHWAY 28 SOUTH,MCCORMICK,SC,29835,NOT AVAILABLE,(864) 443-2292
57332,450390101685,LEGACY EARLY COLLEGE,900 WOODSIDE AVENUE,GREENVILLE,SC,29611,NOT AVAILABLE,(864) 248-0646
42723,450270001268,LEXINGTON MIDDLE,702 NORTH LAKE DRIVE,LEXINGTON,SC,29072,NOT AVAILABLE,(803) 821-3700
42938,450231000531,SUMMIT DRIVE ELEMENTARY,424 SUMMIT DRIVE,GREENVILLE,SC,29609,NOT AVAILABLE,(864) 355-8800
43732,450282001450,CHAPIN INTERMEDIATE,1130 OLD LEXINGTON HIGHWAY,CHAPIN,SC,29036,NOT AVAILABLE,(803) 575-5700
47194,450144000233,STONO PARK ELEMENTARY,314 HUNTLEY DRIVE,CHARLESTON,SC,29407,NOT AVAILABLE,(843) 763-1507
47660,450306001436,SENECA MIDDLE,810 WEST SOUTH FOURTH STREET,SENECA,SC,29678,NOT AVAILABLE,(864) 886-4455
71624,450346000982,SALUDA HIGH,160 IVORY KEY ROAD,SALUDA,SC,29138,NOT AVAILABLE,(864) 445-3011
78997,450117001159,HOWE HALL AIMS ELEMENTARY,115 HOWE HALL ROAD,GOOSE CREEK,SC,29445,NOT AVAILABLE,(843) 820-3899
30774,450390201072,RAFTING CREEK ELEMENTARY,4100 HIGHWAY 261 NORTH,REMBERT,SC,29128,NOT AVAILABLE,(803) 432-2994
31737,450225000468,JOHNSONVILLE HIGH,237 GEORGETOWN HIGHWAY,JOHNSONVILLE,SC,29555,NOT AVAILABLE,(843) 386-2707
36639,450144001404,MT. ZION ELEMENTARY,3464 RIVER ROAD,JOHNS ISLAND,SC,29455,NOT AVAILABLE,(843) 559-3841
37737,450387001145,MOUNT GALLANT ELEMENTARY,4664 MOUNT GALLANT ROAD,ROCK HILL,SC,29732,NOT AVAILABLE,(803) 981-1360
12697,450207000412,JOHNSTON ELEMENTARY,514 LEE STREET,JOHNSTON,SC,29832,NOT AVAILABLE,(803) 275-1755
12714,450363001315,L. E. GABLE MIDDLE,198 OTT SHOALS ROAD,ROEBUCK,SC,29376,NOT AVAILABLE,(864) 576-3500
13189,450249001341,ST. JAMES ELEMENTARY,9711 ST. JAMES ROAD,MYRTLE BEACH,SC,29588,NOT AVAILABLE,(843) 650-8220
15169,450231000568,J. L. MANN HIGH ACADEMY,160 FAIRFOREST WAY,GREENVILLE,SC,29607,NOT AVAILABLE,(864) 355-6300
16144,450231000529,SLATER MARIETTA ELEMENTARY,100 BAKER CIRCLE,MARIETTA,SC,29661,NOT AVAILABLE,(864) 355-2000
17938,450078001203,WREN MIDDLE,1010 WREN SCHOOL ROAD,PIEDMONT,SC,29673,NOT AVAILABLE,(864) 850-5930
19471,450231000569,MAULDIN HIGH,701 EAST BUTLER ROAD,MAULDIN,SC,29662,NOT AVAILABLE,(864) 355-6500
19565,450072000019,J. D. LEVER ELEMENTARY,2404 COLUMBIA HIGHWAY,AIKEN,SC,29801,NOT AVAILABLE,(803) 641-2760
1040,450144001667,DEER PARK MIDDLE,2263 OTRANTO ROAD,NORTH CHARLESTON,SC,29406,NOT AVAILABLE,(843) 990-5200
1945,450231000541,ELLEN WOODSIDE ELEMENTARY,9122 AUGUSTA ROAD,PELZER,SC,29669,NOT AVAILABLE,(864) 355-4900
6470,450144000265,RB STALL HIGH,3625 ASHLEY PHOSPHATE ROAD,NORTH CHARLESTON,SC,29418,NOT AVAILABLE,(843) 764-2200
6612,450270000719,GILBERT ELEMENTARY,314 MAIN STREET,GILBERT,SC,29054,NOT AVAILABLE,(803) 821-1600
7103,450375001082,BUFFALO ELEMENTARY,733 MAIN STREET,BUFFALO,SC,29321,NOT AVAILABLE,(864) 429-1730
7297,450336000926,A. C. MOORE ELEMENTARY,333 ETIWAN AVENUE,COLUMBIA,SC,29205,NOT AVAILABLE,(803) 343-2910
9265,450249001419,ST. JAMES MIDDLE,9775 ST. JAMES ROAD,MYRTLE BEACH,SC,29588,NOT AVAILABLE,(843) 650-5543
9822,450228000482,ANDREWS HIGH,12890 COUNTY LINE ROAD,ANDREWS,SC,29510,NOT AVAILABLE,(843) 264-3414
20926,450339001606,WESTWOOD HIGH,180 TURKEY FARM ROAD,BLYTHEWOOD,SC,29016,NOT AVAILABLE,(803) 691-4049
26776,450201001508,ASHLEY RIDGE HIGH,9800 DELEMAR HIGHWAY,SUMMERVILLE,SC,29485,NOT AVAILABLE,(843) 695-4900
102351,450072001191,CYRIL B. BUSBEE ELEMENTARY,20 A.L. CORBETT CIRCLE,WAGENER,SC,29164,NOT AVAILABLE,(803) 564-1000
106125,450000101731,KIRKLAND HIGH,4460 BROAD RIVER,COLUMBIA,SC,29827,NOT AVAILABLE,(803) 896-2714
90969,450270000015,WHITE KNOLL MIDDLE,116 WHITE KNOLL WAY,WEST COLUMBIA,SC,29170,NOT AVAILABLE,(803) 821-4300
92692,450213000440,SOUTH FLORENCE HIGH,3200 SOUTH IRBY STREET,FLORENCE,SC,29505,NOT AVAILABLE,(843) 664-8190
93420,450153000301,LEWISVILLE HIGH,3971 LEWISVILLE HIGH SCHOOL ROAD,RICHBURG,SC,29729,NOT AVAILABLE,(803) 789-5131
94422,450339000972,WINDSOR ELEMENTARY,9800 DUNBARTON DRIVE,COLUMBIA,SC,29223,NOT AVAILABLE,(803) 736-8723
94557,450339001075,SANDLAPPER ELEMENTARY,1001 LONGTOWN ROAD,COLUMBIA,SC,29229,NOT AVAILABLE,(803) 691-4045
94929,450078000076,PALMETTO HIGH,804 NORTH HAMILTON STREET,WILLIAMSTON,SC,29697,NOT AVAILABLE,(864) 847-7311
97223,450357001013,WOODRUFF ELEMENTARY,915 CROSS ANCHOR ROAD,WOODRUFF,SC,29388,NOT AVAILABLE,(864) 476-3123
98277,450336000813,BROCKMAN ELEMENTARY,2245 MONTCLAIR DRIVE,COLUMBIA,SC,29206,NOT AVAILABLE,(803) 790-6743
31103,450333001385,LIBERTY MIDDLE,125 FALCON LANE,LIBERTY,SC,29657,NOT AVAILABLE,(864) 397-3400
35456,450078000068,CONCRETE PRIMARY,535 POWDERSVILLE MAIN,EASLEY,SC,29642,NOT AVAILABLE,(864) 269-4571
35729,450348000060,LANDRUM MIDDLE,104 REDLAND ROAD,LANDRUM,SC,29356,NOT AVAILABLE,(864) 457-2629
36792,450339000814,ROUND TOP ELEMENTARY,449 RIMER POND ROAD,BLYTHEWOOD,SC,29016,NOT AVAILABLE,(803) 691-8676
39815,450111000941,HILTON HEAD ISLAND EARLY CHILDHOOD CENTER,165 PEMBROKE DRIVE,HILTON HEAD ISLAND,SC,29926,NOT AVAILABLE,(843) 689-0400
13628,450144000204,W. B. GOODWIN ELEMENTARY,5501 DORCHESTER ROAD,NORTH CHARLESTON,SC,29418,NOT AVAILABLE,(843) 767-5911
20120,450390001156,FORT MILL HIGH,215 NORTH HIGHWAY 21 BYPASS,FORT MILL,SC,29715,NOT AVAILABLE,(803) 548-1900
21351,450090001576,NORTH POINTE ELEMENTARY,3325 HIGHWAY 81 NORTH,ANDERSON,SC,29621,NOT AVAILABLE,(864) 260-5040
21442,450234000585,LAKEVIEW ELEMENTARY,660 CENTER STREET,GREENWOOD,SC,29649,NOT AVAILABLE,(864) 941-5760
24006,450081000080,HONEA PATH ELEMENTARY,806 EAST GREER STREET,HONEA PATH,SC,29654,NOT AVAILABLE,(864) 369-7612
26203,450000200445,WOODLAND HIGH,4128 HIGHWAY 78,DORCHESTER,SC,29437,NOT AVAILABLE,(843) 563-5956
26474,450213001625,ALFRED RUSH ACADEMY,1201 EAST ASHBY ROAD,QUINBY,SC,29506,NOT AVAILABLE,(843) 664-4156
51781,450111001630,ROBERT SMALLS INTERNATIONAL ACADEMY,43 W. K. ALSTON DRIVE,BEAUFORT,SC,29906,NOT AVAILABLE,(843) 322-2500
55407,450144001352,ST. JAMES SANTEE ELEMENTARY-MIDDLE,8900 HIGHWAY 17 NORTH,MCCLELLANVILLE,SC,29458,NOT AVAILABLE,(843) 723-0863
65446,450156000310,RUBY ELEMENTARY,249 THURMAN AVENUE,RUBY,SC,29741,NOT AVAILABLE,(843) 634-6310
67337,450360001018,REIDVILLE ELEMENTARY,520 MAIN STREET,REIDVILLE,SC,29375,NOT AVAILABLE,(864) 949-2388
69043,450072001201,SCHOFIELD MIDDLE,224 KERSHAW STREET NORTHEAST,AIKEN,SC,29801,NOT AVAILABLE,(803) 641-2770
74987,450261001623,GRAY COURT-OWINGS ELEMENTARY/MIDDLE,9210 HIGHWAY 14,GRAY COURT,SC,29645,NOT AVAILABLE,(864) 876-2131
75790,450144001211,NORTHWOODS MIDDLE,7763 NORTHSIDE DRIVE,NORTH CHARLESTON,SC,29420,NOT AVAILABLE,(843) 764-2212
78740,450117001472,DANIEL ISLAND SCHOOL,2365 DANIEL ISLAND DRIVE,CHARLESTON,SC,29492,NOT AVAILABLE,(843) 471-2301
48764,450117000177,GOOSE CREEK HIGH,1137 RED BANK ROAD,GOOSE CREEK,SC,29445,NOT AVAILABLE,(843) 553-5300
4569,450249001677,SOCASTEE MIDDLE,151 SHEFFIELD ROAD,MYRTLE BEACH,SC,29588,NOT AVAILABLE,(843) 903-6051
6993,450387001146,CASTLE HEIGHTS MIDDLE,2382 FIRETOWER ROAD,ROCK HILL,SC,29730,NOT AVAILABLE,(803) 981-1400
7893,450000800863,COPE AREA CAREER CENTER,6052 SLAB LANDING ROAD,COPE,SC,29038,NOT AVAILABLE,(803) 534-7661
80285,450234000588,MERRYWOOD ELEMENTARY,329 DEADFALL ROAD WEST,GREENWOOD,SC,29649,NOT AVAILABLE,(864) 941-5700
81509,450096000122,DENMARK OLAR HIGH,197 VIKING CIRCLE,DENMARK,SC,29042,NOT AVAILABLE,(803) 793-3307
81986,450231001337,WOODMONT MIDDLE,325 NORTH FLAT ROCK ROAD,PIEDMONT,SC,29673,NOT AVAILABLE,(864) 355-8500
85570,450078001444,POWDERSVILLE MIDDLE,135 HOOD ROAD,GREENVILLE,SC,29611,NOT AVAILABLE,(864) 269-1821
85778,450255001259,NORTH CENTRAL HIGH,3000 LOCKHART ROAD,KERSHAW,SC,29067,NOT AVAILABLE,(803) 432-9858
86258,450357001014,WOODRUFF MIDDLE,205 S. J. WORKMAN HIGHWAY,WOODRUFF,SC,29388,NOT AVAILABLE,(864) 476-3150
86514,450348000983,CAMPOBELLO-GRAMLING SCHOOL,250 FAGAN AVENUE,CAMPOBELLO,SC,29322,NOT AVAILABLE,(864) 472-9110
106138,450213001728,R.N. BECK CHILD DEVELOPMENT CENTER,1001 WEST SUMTER STREET,FLORENCE,SC,29501,NOT AVAILABLE,(843) 673-1129
107276,450390901615,COASTAL LEADERSHIP ACADEMY,3710 PALMETTO POINTE BOULEVARD,MYRTLE BEACH,SC,29588,NOT AVAILABLE,(843) 788-9898
20343,450150000274,DRAYTONVILLE ELEMENTARY,2373 WILKINSVILLE HIGHWAY,GAFFNEY,SC,29340,NOT AVAILABLE,(864) 206-6783
22610,450336000913,ANNIE BURNSIDE ELEMENTARY,7300 PATTERSON ROAD,COLUMBIA,SC,29209,NOT AVAILABLE,(803) 783-5530
26509,450339000118,RIDGE VIEW HIGH,4801 HARD SCRABBLE ROAD,COLUMBIA,SC,29229,NOT AVAILABLE,(803) 699-2999
26559,450084000086,IVA ELEMENTARY,803 ANTREVILLE HIGHWAY,IVA,SC,29655,NOT AVAILABLE,(864) 348-6400
26618,450207000411,MERRIWETHER ELEMENTARY,565 SPRING HAVEN DRIVE,NORTH AUGUSTA,SC,29860,NOT AVAILABLE,(803) 279-9993
66583,450156000309,PLAINVIEW ELEMENTARY,16002 HIGHWAY 102,PATRICK,SC,29584,NOT AVAILABLE,(843) 498-6633
66982,450144000707,WEST ASHLEY MIDDLE,1776 WILLIAM KENNERTY DRIVE,CHARLESTON,SC,29407,NOT AVAILABLE,(843) 763-1546
67020,450381001123,FLOYD D. JOHNSON TECHNOLOGY CENTER,275 ALEXANDER LOVE HIGHWAY,YORK,SC,29745,NOT AVAILABLE,(803) 684-1910
2958,450255000009,WATEREE ELEMENTARY,424 WILDWOOD LANE,LUGOFF,SC,29078,NOT AVAILABLE,(803) 438-8018
3492,450213000425,BRIGGS ELEMENTARY,1012 CONGAREE DRIVE,FLORENCE,SC,29501,NOT AVAILABLE,(843) 664-8169
4126,450303001286,PROSPERITY-RIKARD ELEMENTARY,381 SOUTH WHEELER AVENUE,PROSPERITY,SC,29127,NOT AVAILABLE,(803) 364-2321
8965,450387000537,SALUDA TRAIL MIDDLE,2300 SALUDA ROAD,ROCK HILL,SC,29730,NOT AVAILABLE,(803) 981-1800
9765,450231000526,SIMPSONVILLE ELEMENTARY,200 MORTON AVENUE,SIMPSONVILLE,SC,29681,NOT AVAILABLE,(864) 355-8300
44228,450297001434,MARLBORO COUNTY HIGH,951 FAYETTEVILLE AVENUE EXTENSION,BENNETTSVILLE,SC,29512,NOT AVAILABLE,(843) 479-5900
47747,450300000803,MCCORMICK MIDDLE,6979 HIGHWAY 28 SOUTH,MCCORMICK,SC,29835,NOT AVAILABLE,(864) 443-2243
48526,450000100266,RIDGELAND HIGH,5 CORRECTIONAL ROAD,RIDGELAND,SC,29936,NOT AVAILABLE,(803) 896-3252
92105,450111000142,PORT ROYAL ELEMENTARY,1214 PARIS AVENUE,PORT ROYAL,SC,29935,NOT AVAILABLE,(843) 322-0834
93192,450282000754,DUTCH FORK ELEMENTARY,7900 BROAD RIVER ROAD,IRMO,SC,29063,NOT AVAILABLE,(803) 476-3900
94897,450219001641,LAKE CITY EARLY CHILDHOOD CENTER,906 NORTH MATTHEWS ROAD,LAKE CITY,SC,29560,NOT AVAILABLE,(843) 374-2353
95096,450234000590,PINECREST ELEMENTARY,220 EAST NORTHSIDE DRIVE,GREENWOOD,SC,29649,NOT AVAILABLE,(864) 941-5580
97951,450213000426,CARVER ELEMENTARY,515 NORTH CASHUA DRIVE,FLORENCE,SC,29501,NOT AVAILABLE,(843) 664-8156
56311,450273001678,CAYCE ELEMENTARY,515 BULLDOG BOULEVARD,CAYCE,SC,29033,NOT AVAILABLE,(803) 936-5500
57977,450219000456,SCRANTON ELEMENTARY,1649 US 52 HIGHWAY,SCRANTON,SC,29591,NOT AVAILABLE,(843) 389-2531
81175,450090000108,T. L. HANNA HIGH,2600 HIGHWAY 81 NORTH,ANDERSON,SC,29621,NOT AVAILABLE,(864) 260-5110
82734,450378000237,HEMINGWAY CAREER AND TECHNOLOGY CENTER,1593 HEMINGWAY HIGHWAY,HEMINGWAY,SC,29554,NOT AVAILABLE,(843) 558-5813
83582,450231001241,BEREA MIDDLE,151 BEREA MIDDLE SCHOOL ROAD,GREENVILLE,SC,29617,NOT AVAILABLE,(864) 355-1700
84883,450000200435,HARLEYVILLE ELEMENTARY,1650 EAST MAIN STREET,DORCHESTER,SC,29437,NOT AVAILABLE,(843) 462-7671
86384,450333000887,HAGOOD ELEMENTARY,435 SPARKS LANE,PICKENS,SC,29671,NOT AVAILABLE,(864) 397-1900
86385,450339000342,KILLIAN ELEMENTARY,2621 CLEMSON ROAD,COLUMBIA,SC,29229,NOT AVAILABLE,(803) 699-2981
87411,450117000176,CROSS HIGH,1293 OLD HIGHWAY 6,CROSS,SC,29436,NOT AVAILABLE,(843) 899-8900
89594,450144000257,GARRETT ACADEMY OF TECHNOLOGY,2731 GORDON STREET,NORTH CHARLESTON,SC,29405,NOT AVAILABLE,(843) 745-7126
100813,450391001192,LAKE MARION HIGH SCHOOL AND TECHNOLOGY CENTER,3656 TEE VEE ROAD,SANTEE,SC,29142,NOT AVAILABLE,(803) 854-9213
106132,450144001746,LUCY GARRETT BECKHAM HIGH,1560 MATHIS FERRY ROAD,MT. PLEASANT,SC,29464,NOT AVAILABLE,(843) 856-6790
106150,450390101737,BUTLER ACADEMY,710 SOUTH 5TH STREET,HARTSVILLE,SC,29550,NOT AVAILABLE,(843) 287-2399
12142,450378001519,HEMINGWAY ELEMENTARY,160 BAXLEY ROAD,HEMINGWAY,SC,29554,NOT AVAILABLE,(843) 558-4444
14604,450125001532,ST. MATTHEWS K-8 SCHOOL,135 SAINTS AVENUE,ST. MATTHEWS,SC,29135,NOT AVAILABLE,(803) 655-2750
14762,450258000673,CLINTON ELEMENTARY,110 CLINTON SCHOOL ROAD,LANCASTER,SC,29720,NOT AVAILABLE,(803) 285-5395
14802,450072000682,LLOYD-KENNEDY CHARTER,130 AVERY LANE,AIKEN,SC,29802,NOT AVAILABLE,(803) 644-4824
16185,450153001225,LEWISVILLE MIDDLE,3595 LANCASTER HIGHWAY,RICHBURG,SC,29729,NOT AVAILABLE,(803) 789-5858
32446,450255000662,LUGOFF-ELGIN MIDDLE,1244 HIGHWAY 1 SOUTH,LUGOFF,SC,29078,NOT AVAILABLE,(803) 438-3591
32974,450381001412,YORK MIDDLE,1010 DEVINNEY ROAD,YORK,SC,29745,NOT AVAILABLE,(803) 684-5008
33966,450336001305,EDWARD E. TAYLOR ELEMENTARY,200 MCRAE STREET,COLUMBIA,SC,29203,NOT AVAILABLE,(803) 343-2974
34980,450258000671,BUFORD ELEMENTARY,1906 NORTH ROCKY RIVER ROAD,LANCASTER,SC,29720,NOT AVAILABLE,(803) 286-0026
35269,450108000132,BARNWELL HIGH,474 JACKSON STREET,BARNWELL,SC,29812,NOT AVAILABLE,(803) 541-1390
35394,450240000746,NINETY SIX PRIMARY,121 SOUTH CAMBRIDGE STREET,NINETY SIX,SC,29666,NOT AVAILABLE,(864) 543-3112
37674,450177000327,MANNING HIGH,2155 PAXVILLE HIGHWAY,MANNING,SC,29102,NOT AVAILABLE,(803) 435-4417
70292,450090001602,ANDERSON FIVE CHARTER SCHOOL,1225 SOUTH MCDUFFIE STREET,ANDERSON,SC,29624,NOT AVAILABLE,(864) 260-5538
77551,450258000675,ERWIN ELEMENTARY,1477 LOCUSTWOOD AVENUE,LANCASTER,SC,29720,NOT AVAILABLE,(803) 285-8484
93112,450333000882,CENTRAL ACADEMY OF THE ARTS,608 JOHNSON ROAD,CENTRAL,SC,29630,NOT AVAILABLE,(864) 397-1400
93140,450144001330,MILITARY MAGNET ACADEMY,2950 CARNER AVENUE,NORTH CHARLESTON,SC,29405,NOT AVAILABLE,(843) 745-7102
93591,450087000090,LA FRANCE ELEMENTARY,550 WILLIAMS STREET,PENDLETON,SC,29670,NOT AVAILABLE,(864) 403-2300
95699,450336000952,A. C. FLORA HIGH,1 FALCON DRIVE,COLUMBIA,SC,29204,NOT AVAILABLE,(803) 738-7300
98128,450390201317,HIGH HILLS ELEMENTARY,4971 FRIERSON ROAD,SHAW AIR FORCE BASE,SC,29152,NOT AVAILABLE,(803) 499-3327
75713,450282000776,BALLENTINE ELEMENTARY,1040 BICKLEY ROAD,IRMO,SC,29063,NOT AVAILABLE,(803) 476-4500
79708,450339000973,E. L. WRIGHT MIDDLE,2740 ALPINE ROAD,COLUMBIA,SC,29223,NOT AVAILABLE,(803) 736-8740
82133,450150000296,GRASSY POND ELEMENTARY,1146 BOILING SPRINGS HIGHWAY,GAFFNEY,SC,29341,NOT AVAILABLE,(864) 206-6671
83863,450231000494,BEREA ELEMENTARY,100 BEREA DRIVE,GREENVILLE,SC,29617,NOT AVAILABLE,(864) 355-1500
100996,450201000403,ALSTON MIDDLE,500 BRYAN STREET,SUMMERVILLE,SC,29483,NOT AVAILABLE,(843) 873-3890
106147,450270001753,CENTERVILLE ELEMENTARY,4147 AUGUSTA HIGHWAY,GILBERT,SC,29054,NOT AVAILABLE,(803) 821-1000
106159,450390301754,GOVERNOR'S SCHOOL FOR AGRICULTURE AT JOHN DE LA HOWE,192 GETTYS ROAD,MCCORMICK,SC,29835,NOT AVAILABLE,(864) 391-2131
107272,450390001718,CATAWBA RIDGE HIGH SCHOOL,1180 FORT MILL PARKWAY,FORT MILL,SC,29715,NOT AVAILABLE,(803) 835-5222
107279,450391000861,CARVER EDISTO MIDDLE,2018 CARVER SCHOOL ROAD,COPE,SC,29038,NOT AVAILABLE,(803) 534-3554
10900,450144000083,CHARLESTON SCHOOL OF THE ARTS,5109-B WEST ENTERPRISE STREET,NORTH CHARLESTON,SC,29405,NOT AVAILABLE,(843) 529-4990
12073,450339001442,PONTIAC ELEMENTARY,500 SPEARS CREEK CHURCH ROAD,ELGIN,SC,29045,NOT AVAILABLE,(803) 699-2700
12728,450231000528,SKYLAND ELEMENTARY,4221 HIGHWAY 14 NORTH,GREER,SC,29651,NOT AVAILABLE,(864) 355-7200
14823,450336000949,COLUMBIA HIGH,1701 WESTCHESTER DRIVE,COLUMBIA,SC,29210,NOT AVAILABLE,(803) 731-8950
15143,450213000433,ROYALL ELEMENTARY,1101 CHERAW DRIVE,FLORENCE,SC,29501,NOT AVAILABLE,(843) 664-8167
19177,450336000907,ARDEN ELEMENTARY,1300 ASHLEY STREET,COLUMBIA,SC,29203,NOT AVAILABLE,(803) 735-3400
31323,450153001172,CHESTER PARK ELEMENTARY SCHOOL OF LITERACY AND TECHNOLOGY,835-B LANCASTER HIGHWAY,CHESTER,SC,29706,NOT AVAILABLE,(803) 581-7275
32947,450174000323,SCOTT'S BRANCH HIGH,9253 ALEX HARVIN HIGHWAY,SUMMERTON,SC,29148,NOT AVAILABLE,(803) 574-2100
38036,450363001024,ARCADIA ELEMENTARY,375 SPRING STREET,SPARTANBURG,SC,29301,NOT AVAILABLE,(864) 576-1371
50771,450093001609,RICHARD CARROLL ELEMENTARY,1980 MAIN HIGHWAY,BAMBERG,SC,29003,NOT AVAILABLE,(803) 245-3043
51506,450267001540,LEE CENTRAL MIDDLE,41 CHARLENE LANE,BISHOPVILLE,SC,29010,NOT AVAILABLE,(803) 428-2100
53509,450153000298,CHESTER SENIOR HIGH,1330 J. A. COCHRAN BYPASS,CHESTER,SC,29706,NOT AVAILABLE,(803) 377-3161
54550,450000101378,SARA BABB HIGH,4450 BROAD RIVER ROAD,COLUMBIA,SC,29210,NOT AVAILABLE,(803) 896-2714
54883,450201001673,DR. EUGENE SIRES ELEMENTARY,301 CHANDLER CREEK ROAD,SUMMERVILLE,SC,29485,NOT AVAILABLE,(843) 695-5205
56310,450249001680,TEN OAKS MIDDLE,150 REVOLUTIONARY WAR WAY,MYRTLE BEACH,SC,29579,NOT AVAILABLE,(843) 488-8896
59795,450333000881,AMBLER ELEMENTARY,838 AMBLER SCHOOL ROAD,PICKENS,SC,29671,NOT AVAILABLE,(864) 397-1200
23141,450201000008,BEECH HILL ELEMENTARY,1001 BEECH HILL ROAD,SUMMERVILLE,SC,29485,NOT AVAILABLE,(843) 821-3970
25057,450144000226,SANDERS-CLYDE ELEMENTARY,805 MORRISON DRIVE,CHARLESTON,SC,29403,NOT AVAILABLE,(843) 724-7783
25185,450199000407,DORCHESTER CAREER AND TECHNOLOGY CENTER,507 SCHOOL HOUSE ROAD,DORCHESTER,SC,29437,NOT AVAILABLE,(843) 563-2361
25421,450390201062,WILLOW DRIVE ELEMENTARY,26 WILLOW DRIVE,SUMTER,SC,29150,NOT AVAILABLE,(803) 773-5796
27051,450282000753,CHAPIN ELEMENTARY,940 OLD BUSH RIVER ROAD,CHAPIN,SC,29036,NOT AVAILABLE,(803) 575-5900
60260,450270001627,DEERFIELD ELEMENTARY,638 LONGS POND ROAD,LEXINGTON,SC,29073,NOT AVAILABLE,(803) 821-5500
62000,450228000469,ANDREWS ELEMENTARY,13072 COUNTY LINE ROAD,ANDREWS,SC,29510,NOT AVAILABLE,(843) 264-3419
62316,450261000697,LAURENS ELEMENTARY,301 HENRY STREET,LAURENS,SC,29360,NOT AVAILABLE,(864) 984-3067
63998,450270000014,SAXE GOTHA ELEMENTARY,100 BILL WILLIAMSON COURT,LEXINGTON,SC,29073,NOT AVAILABLE,(803) 821-4800
40401,450201001568,JOSEPH R. PYE ELEMENTARY,9701 PATRIOT BOULEVARD,LADSON,SC,29456,NOT AVAILABLE,(843) 695-2979
40694,450111001538,RED CEDAR ELEMENTARY,10 BOX ELDER STREET,BLUFFTON,SC,29910,NOT AVAILABLE,(843) 707-0600
40699,450090001575,GLENVIEW MIDDLE,2575 OLD WILLIAMSTON ROAD,ANDERSON,SC,29621,NOT AVAILABLE,(864) 716-4060
43645,450240000603,EDGEWOOD MIDDLE,644 SOUTH CAMBRIDGE STREET,NINETY SIX,SC,29666,NOT AVAILABLE,(864) 543-3511
43943,450306000841,SENECA HIGH,100 BOBCAT RIDGE,SENECA,SC,29678,NOT AVAILABLE,(864) 886-4460
5324,450346000980,HOLLYWOOD ELEMENTARY,1261 HOLLYWOOD ROAD,SALUDA,SC,29138,NOT AVAILABLE,(864) 445-8333
13892,450267000559,LEE CENTRAL HIGH,1800 WISACKY HIGHWAY,BISHOPVILLE,SC,29010,NOT AVAILABLE,(803) 428-4010
17430,450346000981,SALUDA MIDDLE,140 IVORY KEY ROAD,SALUDA,SC,29138,NOT AVAILABLE,(864) 445-3767
18105,450390101541,SPARTANBURG PREPARATORY SCHOOL,385 SOUTH SPRING STREET,SPARTANBURG,SC,29306,NOT AVAILABLE,(864) 621-3882
1039,450384001672,OAKRIDGE ELEMENTARY,5670 OAKRIDGE ROAD,CLOVER,SC,29710,NOT AVAILABLE,(803) 631-8400
1333,450390800764,JOHNAKIN MIDDLE,601 GURLEY STREET,MARION,SC,29571,NOT AVAILABLE,(843) 423-8360
2997,450117000169,HANAHAN MIDDLE,5815 MURRAY DRIVE,HANAHAN,SC,29410,NOT AVAILABLE,(843) 820-3800
5270,450210000416,KELLY MILLER ELEMENTARY,255 KELLY MILLER ROAD,WINNSBORO,SC,29180,NOT AVAILABLE,(803) 635-2961
9671,450153000291,GREAT FALLS ELEMENTARY,301 DEARBORN STREET,GREAT FALLS,SC,29055,NOT AVAILABLE,(803) 482-2214
20442,450243000607,VARNVILLE ELEMENTARY,395 PINE STREET EAST,VARNVILLE,SC,29944,NOT AVAILABLE,(803) 943-2376
20723,450276000748,BATESBURG-LEESVILLE HIGH SCHOOL,600 SUMMERLAND AVENUE,BATESBURG-LEESVILLE,SC,29006,NOT AVAILABLE,(803) 532-9251
21383,450228000479,PLANTERSVILLE ELEMENTARY,1668 EXODUS DRIVE,GEORGETOWN,SC,29440,NOT AVAILABLE,(843) 546-8453
21961,450333000892,PICKENS ELEMENTARY,567 HAMPTON AVENUE,PICKENS,SC,29671,NOT AVAILABLE,(864) 397-2300
26318,450186000351,CAIN ELEMENTARY,607 FIRST STREET,DARLINGTON,SC,29532,NOT AVAILABLE,(843) 398-5020
26388,450201000399,ROLLINGS MIDDLE SCHOOL OF THE ARTS,815 SOUTH MAIN STREET,SUMMERVILLE,SC,29483,NOT AVAILABLE,(843) 873-3610
27653,450213001331,DEWEY-CARTER ELEMENTARY,4937 SOUTH IRBY STREET,EFFINGHAM,SC,29541,NOT AVAILABLE,(843) 664-8479
40542,450306000834,WALHALLA ELEMENTARY,508 FOWLER ROAD,WEST UNION,SC,29696,NOT AVAILABLE,(864) 886-4480
45032,450243000605,BRUNSON ELEMENTARY,34 COLLEGE STREET,BRUNSON,SC,29911,NOT AVAILABLE,(803) 398-5584
45999,450243000610,WADE HAMPTON HIGH,115 AIRPORT ROAD AVENUE,VARNVILLE,SC,29944,NOT AVAILABLE,(803) 943-3568
46320,450303000812,NEWBERRY ELEMENTARY,1829 NANCE STREET,NEWBERRY,SC,29108,NOT AVAILABLE,(803) 321-2670
48956,450111000143,MICHAEL C. RILEY ELEMENTARY,200 BURNT CHURCH ROAD,BLUFFTON,SC,29910,NOT AVAILABLE,(843) 706-8300
33051,450303000811,REUBEN ELEMENTARY,3605 SPEARMAN ROAD,NEWBERRY,SC,29108,NOT AVAILABLE,(803) 321-2664
33640,450363001316,R. P. DAWKINS MIDDLE,1300 EAST BLACKSTOCK ROAD,MOORE,SC,29369,NOT AVAILABLE,(864) 576-8088
39407,450072001194,LANGLEY-BATH-CLEARWATER MIDDLE,29 LIONS TRAIL,WARRENVILLE,SC,29851,NOT AVAILABLE,(803) 593-7260
93421,450111001550,WHALE BRANCH EARLY COLLEGE HIGH,169 DETOUR ROAD,SEABROOK,SC,29940,NOT AVAILABLE,(843) 466-2700
98240,450144000232,STILES POINT ELEMENTARY,883-A MIKELL DRIVE,CHARLESTON,SC,29412,NOT AVAILABLE,(843) 762-2767
71871,450231001179,ROBERT E. CASHION ELEMENTARY,1500 FORK SHOALS ROAD,GREENVILLE,SC,29605,NOT AVAILABLE,(864) 355-8000
74728,450390201068,R. E. DAVIS COLLEGE PREPARATORY ACADEMY,345 EASTERN SCHOOL ROAD,SUMTER,SC,29153,NOT AVAILABLE,(803) 495-3247
78317,450234000587,MATHEWS ELEMENTARY,725 MARSHALL ROAD,GREENWOOD,SC,29646,NOT AVAILABLE,(864) 941-5680
78538,450387001491,INDIA HOOK ELEMENTARY,2068 YUKON DRIVE,ROCK HILL,SC,29732,NOT AVAILABLE,(803) 985-1600
68099,450117001351,STRATFORD HIGH,951 CROWFIELD BOULEVARD,GOOSE CREEK,SC,29445,NOT AVAILABLE,(843) 820-4000
68984,450375001092,UNION COUNTY HIGH,1163 LAKESIDE DRIVE,UNION,SC,29379,NOT AVAILABLE,(864) 429-1750
69758,450072001189,AIKEN ELEMENTARY,2050 PINE LOG ROAD,AIKEN,SC,29803,NOT AVAILABLE,(803) 641-2740
80707,450231001180,CHERRYDALE ELEMENTARY,302 PERRY ROAD,GREENVILLE,SC,29609,NOT AVAILABLE,(864) 355-3300
83013,450348000985,HOLLY SPRINGS-MOTLOW ELEMENTARY,325 MOTLOW SCHOOL ROAD,CAMPOBELLO,SC,29322,NOT AVAILABLE,(864) 472-8120
85741,450111000136,BROAD RIVER ELEMENTARY,474 BROAD RIVER ROAD,BEAUFORT,SC,29906,NOT AVAILABLE,(843) 322-8400
89618,450105001327,WILLISTON-ELKO MIDDLE,12233 MAIN STREET,WILLISTON,SC,29853,NOT AVAILABLE,(803) 266-3430
51063,450279000631,SANDHILLS PRIMARY,140 LEWIS RAST ROAD,SWANSEA,SC,29160,NOT AVAILABLE,(803) 490-7002
51088,450390401580,SC GOVERNOR'S SCHOOL FOR ARTS AND HUMANITIES,15 UNIVERSITY STREET,GREENVILLE,SC,29601,NOT AVAILABLE,(864) 282-3757
52366,450090000690,MCLEES ELEMENTARY,4900 DOBBINS BRIDGE ROAD,ANDERSON,SC,29626,NOT AVAILABLE,(864) 716-3600
54506,450366001664,MEETING STREET ACADEMY-SPARTANBURG,201 EAST BROAD STREET SUITE 110,SPARTANBURG,SC,29306,NOT AVAILABLE,(864) 253-1800
56314,450390100460,GREENVILLE TECHNICAL CHARTER HIGH SCHOOL,506 PLEASANTBURG DRIVE #119,GREENVILLE,SC,29607,NOT AVAILABLE,(864) 250-8944
106160,450390801725,CREEK BRIDGE STEM ACADEMY,6641 SOUTH HIGHWAY 41,MARION,SC,29571,NOT AVAILABLE,(843) 362-3500
106164,450390901520,SC CONNECTIONS ACADEMY,201 EXECUTIVE CENTER DRIVE SUITE 250,COLUMBIA,SC,29210,NOT AVAILABLE,(803) 569-1302
107273,450390101706,CHARLESTON ADVANCEMENT ACADEMY HIGH SCHOOL,1929 GRIMBALL ROAD,CHARLESTON,SC,29412,NOT AVAILABLE,(843) 580-7283
107282,450391000866,BROOKDALE ELEMENTARY,394 BROOKDALE DRIVE,ORANGEBURG,SC,29115,NOT AVAILABLE,(803) 534-5982
11358,450333000885,EAST END ELEMENTARY,505 EAST SECOND AVENUE,EASLEY,SC,29640,NOT AVAILABLE,(864) 397-1700
14450,450186000356,ROSENWALD ELEMENTARY/MIDDLE,508 CHURCH STREET,SOCIETY HILL,SC,29593,NOT AVAILABLE,(843) 398-2700
19899,450366001041,E. P. TODD SCHOOL,150 OLD CANAAN ROAD,SPARTANBURG,SC,29302,NOT AVAILABLE,(864) 594-4475
84535,450249001471,BLACK WATER MIDDLE,900 EAST COX FERRY ROAD,CONWAY,SC,29526,NOT AVAILABLE,(843) 903-8440
89818,450117000155,BOULDER BLUFF ELEMENTARY,400 JUDY DRIVE,GOOSE CREEK,SC,29445,NOT AVAILABLE,(843) 553-1223
1332,450144001611,NORTH CHARLESTON CREATIVE ARTS ELEMENTARY,5200 LACKAWANNA BOULEVARD,NORTH CHARLESTON,SC,29405,NOT AVAILABLE,(843) 529-2831
1444,450351001669,SHOALLY CREEK ELEMENTARY,3777 PARIS BRIDGE ROAD,BOILING SPRINGS,SC,29316,NOT AVAILABLE,(864) 594-3200
3942,450333000898,RICHARD H. GETTYS MIDDLE,510 SOUTH PENDLETON STREET,EASLEY,SC,29640,NOT AVAILABLE,(864) 397-3900
6105,450390101688,GREER MIDDLE COLLEGE CHARTER HIGH,138 WEST MCELHANEY ROAD,TAYLORS,SC,29687,NOT AVAILABLE,(864) 469-7571
7232,450366001048,MARY H. WRIGHT ELEMENTARY,457 SOUTH CHURCH STREET,SPARTANBURG,SC,29306,NOT AVAILABLE,(864) 594-4477
8123,450336000929,SOUTH KILBOURNE ELEMENTARY,1400 SOUTH KILBOURNE ROAD,COLUMBIA,SC,29205,NOT AVAILABLE,(803) 738-7215
8654,450249001419,ST. JAMES MIDDLE,9775 ST. JAMES ROAD,MYRTLE BEACH,SC,29588,NOT AVAILABLE,(843) 650-5543
9264,450093000120,BAMBERG-EHRHARDT MIDDLE,897 NORTH STREET,BAMBERG,SC,29003,NOT AVAILABLE,(803) 245-3058
44616,450183000347,COLLETON COUNTY HIGH,150 COUGAR NATION DRIVE,WALTERBORO,SC,29488,NOT AVAILABLE,(843) 782-0031
45369,450216001409,HANNAH-PAMPLICO ELEMENTARY/MIDDLE,2131 SOUTH PAMPLICO HIGHWAY,PAMPLICO,SC,29583,NOT AVAILABLE,(843) 493-5588
45757,450249000645,AYNOR HIGH,201 JORDANVILLE ROAD,AYNOR,SC,29511,NOT AVAILABLE,(843) 488-7100
47168,450351000994,CHESNEE ELEMENTARY,985 FAIRFIELD ROAD,CHESNEE,SC,29323,NOT AVAILABLE,(864) 461-7322
49086,450186000365,WASHINGTON ST. ELEMENTARY,325 WASHINGTON STREET,HARTSVILLE,SC,29550,NOT AVAILABLE,(843) 383-3141
95386,450387001132,EBENEZER AVENUE ELEMENTARY: TRADITIONAL MONTESORRI INQUIRY,242 EBENEZER AVENUE,ROCK HILL,SC,29730,NOT AVAILABLE,(803) 981-1435
97955,450111000420,H. E. MCCRACKEN MIDDLE,250 H. E. MCCRACKEN CIRCLE,BLUFFTON,SC,29910,NOT AVAILABLE,(843) 706-8700
99484,450186000370,HARTSVILLE HIGH,701 LEWELLYN AVENUE,HARTSVILLE,SC,29550,NOT AVAILABLE,(843) 383-3130
99577,450231001393,BLUE RIDGE MIDDLE,2423 EAST TYGER BRIDGE ROAD,GREER,SC,29651,NOT AVAILABLE,(864) 355-1900
100999,450346000936,SALUDA PRIMARY,200 MATTHEWS DRIVE,SALUDA,SC,29138,NOT AVAILABLE,(864) 445-2469
101738,450333000897,R. C. EDWARDS MIDDLE,1157 MADDEN BRIDGE ROAD,CENTRAL,SC,29630,NOT AVAILABLE,(864) 397-4200
106158,450390101745,GREEN FIVE FORKS,3710 LANDMARK DRIVE SUITE 201,COLUMBIA,SC,29204,NOT AVAILABLE,(803) 734-8322
51542,450339001076,POLO ROAD ELEMENTARY,1250 POLO ROAD,COLUMBIA,SC,29223,NOT AVAILABLE,(803) 419-2226
52479,450390201388,SUMTER CAREER AND TECHNOLOGY CENTER,2612 MCCRAY'S MILL ROAD,SUMTER,SC,29154,NOT AVAILABLE,(803) 481-8575
53299,450150000288,INSTITUTE OF INNOVATION,175 CAMPUS DRIVE,GAFFNEY,SC,29341,NOT AVAILABLE,(864) 206-2576
55098,450390001154,RIVERVIEW ELEMENTARY,1300 SPRATT STREET,FORT MILL,SC,29715,NOT AVAILABLE,(803) 548-4677
55272,450069000011,ABBEVILLE HIGH,701 WASHINGTON STREET,ABBEVILLE,SC,29620,NOT AVAILABLE,(864) 366-5916
56964,450255000657,JACKSON SCHOOL,1730 JEFFERSON DAVIS HIGHWAY,CAMDEN,SC,29020,NOT AVAILABLE,(803) 425-8965
56969,450192000383,GORDON ELEMENTARY,926 PERRY AVENUE,DILLON,SC,29536,NOT AVAILABLE,(843) 774-1227
30036,450252001449,HARDEEVILLE-RIDGELAND MIDDLE,150 HURRICANE ALLEY,HARDEEVILLE,SC,29927,NOT AVAILABLE,(843) 310-1898
30134,450144001438,BELLE HALL ELEMENTARY,385 EGYPT ROAD,MT. PLEASANT,SC,29464,NOT AVAILABLE,(843) 849-2841
32584,450387000817,CENTRAL CHILD DEVELOPMENT CENTER,414 EAST BLACK STREET,ROCK HILL,SC,29730,NOT AVAILABLE,(803) 980-2060
36719,450267000712,WEST LEE ELEMENTARY,55 WEST LEE SCHOOL ROAD,REMBERT,SC,29128,NOT AVAILABLE,(803) 428-3147
39303,450228001440,WACCAMAW HIGH,2412 KINGS RIVER ROAD,PAWLEYS ISLAND,SC,29585,NOT AVAILABLE,(843) 237-9899
39634,450390201064,BATES MIDDLE,715 ESTATE STREET,SUMTER,SC,29150,NOT AVAILABLE,(803) 775-0711
22873,450117000160,TIMBERLAND HIGH,1418 GRAVEL HILL ROAD,ST. STEPHEN,SC,29479,NOT AVAILABLE,(843) 567-8110
27116,450144000234,SULLIVAN'S ISLAND ELEMENTARY,2014 MIKE PERKIS PLACE,SULLIVAN'S ISLAND,SC,29482,NOT AVAILABLE,(843) 883-3118
29303,450117000157,CROSS ELEMENTARY,1325 RANGER DRIVE,CROSS,SC,29436,NOT AVAILABLE,(843) 899-8916
72467,450096000123,DENMARK-OLAR MIDDLE,64 GREEN STREET,DENMARK,SC,29042,NOT AVAILABLE,(803) 793-3383
73731,450069000065,CHEROKEE TRAIL ELEMENTARY,6219 HIGHWAY 184 EAST,DONALDS,SC,29638,NOT AVAILABLE,(864) 379-8500
76819,450255000661,PINE TREE HILL ELEMENTARY,938 BISHOPVILLE HIGHWAY,CAMDEN,SC,29020,NOT AVAILABLE,(803) 425-8970
63695,450072000030,MILLBROOK ELEMENTARY,255 EAST PINE LOG ROAD,AIKEN,SC,29803,NOT AVAILABLE,(803) 641-2580
66986,450282001345,HARBISON WEST ELEMENTARY,257 CROSSBOW DRIVE,COLUMBIA,SC,29212,NOT AVAILABLE,(803) 476-3800
34516,450351000995,COOLEY SPRINGS-FINGERVILLE ELEMENTARY,140 COOLEY SPRINGS SCHOOL ROAD,CHESNEE,SC,29323,NOT AVAILABLE,(864) 592-1211
571,450117001658,NEXTON ELEMENTARY,200 SCHOLAR WAY,SUMMERVILLE,SC,29483,NOT AVAILABLE,(843) 900-3222
4130,450249000637,LORIS MIDDLE,5209 HIGHWAY 66,LORIS,SC,29569,NOT AVAILABLE,(843) 756-2181
4804,450258000678,INDIAN LAND ELEMENTARY,4137 DOBY'S BRIDGE ROAD,INDIAN LAND,SC,29707,NOT AVAILABLE,(803) 548-2916
5645,450144000216,MT. PLEASANT ACADEMY,605 CENTER STREET,MOUNT PLEASANT,SC,29464,NOT AVAILABLE,(843) 849-2826
8879,450000200439,ST. GEORGE MIDDLE,600 MINUS STREET,ST. GEORGE,SC,29477,NOT AVAILABLE,(843) 563-3171
22117,450303000821,NEWBERRY COUNTY CAREER CENTER,3413 MAIN STREET,NEWBERRY,SC,29108,NOT AVAILABLE,(803) 321-2674
23374,450144000213,MITCHELL ELEMENTARY,2 PERRY STREET,CHARLESTON,SC,29403,NOT AVAILABLE,(843) 724-7261
26344,450228000555,CARVERS BAY MIDDLE,13000 CHOPPEE ROAD,HEMINGWAY,SC,29554,NOT AVAILABLE,(843) 545-0918
26346,450390001102,SPRINGFIELD MIDDLE,1711 SPRINGFIELD PARKWAY,FORT MILL,SC,29715,NOT AVAILABLE,(803) 548-8199
27696,450360000651,BERRY SHOALS INTERMEDIATE,300 SHOALS ROAD,DUNCAN,SC,29334,NOT AVAILABLE,(864) 949-2300
12182,450090001206,NEW PROSPECT ELEMENTARY,126 NEW PROSPECT CHURCH ROAD,ANDERSON,SC,29625,NOT AVAILABLE,(864) 260-5195
12864,450249001531,HCS EARLY COLLEGE HIGH,2050 HIGHWAY 501 EAST HGTC,CONWAY,SC,29528,NOT AVAILABLE,(843) 349-3131
15144,450279000752,SWANSEA HIGH,500 EAST FIRST STREET,SWANSEA,SC,29160,NOT AVAILABLE,(803) 490-7007
16154,450234000596,GREENWOOD HIGH,1816 COKESBURY ROAD,GREENWOOD,SC,29649,NOT AVAILABLE,(864) 941-5600
18507,450090000687,MIDWAY ELEMENTARY,1221 HARRIETT CIRCLE,ANDERSON,SC,29621,NOT AVAILABLE,(864) 716-3800
19511,450339001566,MULLER ROAD MIDDLE,1031 MULLER ROAD,BLYTHEWOOD,SC,29016,NOT AVAILABLE,(803) 691-6851
73258,450144000548,WEST ASHLEY HIGH,4060 WEST WILDCAT BOULEVARD,CHARLESTON,SC,29414,NOT AVAILABLE,(843) 573-1201
73628,450390201059,LEMIRA ELEMENTARY,952 FULTON STREET,SUMTER,SC,29150,NOT AVAILABLE,(803) 775-0658
77527,450201001405,OAKBROOK ELEMENTARY,306 OLD FORT DRIVE,LADSON,SC,29456,NOT AVAILABLE,(843) 821-1165
44404,450282001441,H. E. CORLEY ELEMENTARY,1500 CHADFORD ROAD,IRMO,SC,29063,NOT AVAILABLE,(803) 476-4001
44646,450195000391,LATTA HIGH,618 NORTH RICHARDSON STREET,LATTA,SC,29565,NOT AVAILABLE,(843) 752-5751
45998,450144000211,MIDLAND PARK PRIMARY,2415 MIDLAND PARK ROAD,NORTH CHARLESTON,SC,29406,NOT AVAILABLE,(843) 574-2183
48760,450117000822,GOOSE CREEK ELEMENTARY,200 FOSTER CREEK ROAD,GOOSE CREEK,SC,29445,NOT AVAILABLE,(843) 820-8008
80842,450249000639,SOCASTEE HIGH,4900 SOCASTEE BOULEVARD,MYRTLE BEACH,SC,29588,NOT AVAILABLE,(843) 293-2513
83010,450156000317,MCBEE HIGH,264 EAST PINE STREET,MCBEE,SC,29101,NOT AVAILABLE,(843) 335-8251
87768,450069000002,JOHN C. CALHOUN ELEMENTARY,750 NORTH CALHOUN SHORES PARKWAY,CALHOUN FALLS,SC,29628,NOT AVAILABLE,(864) 418-8016
89716,450270000041,GILBERT MIDDLE,120 RIKARD CIRCLE,GILBERT,SC,29054,NOT AVAILABLE,(803) 821-1700
56983,450249000246,SOCASTEE ELEMENTARY,4223 SOCASTEE BOULEVARD,MYRTLE BEACH,SC,29588,NOT AVAILABLE,(843) 650-2606
58047,450387001006,THE PALMETTO SCHOOL AT THE CHILDREN?S ATTENTION HOME,386 EAST BLACK STREET,ROCK HILL,SC,29730,NOT AVAILABLE,(803) 328-6555
58120,450333000903,LIBERTY HIGH,124 RED DEVIL DRIVE,LIBERTY,SC,29657,NOT AVAILABLE,(864) 397-2600
59866,450381001577,HAROLD C. JOHNSON ELEMENTARY,400 EAST JEFFERSON STREET,YORK,SC,29745,NOT AVAILABLE,(803) 818-6040
91832,450336000955,LOWER RICHLAND HIGH,2615 LOWER RICHLAND BOULEVARD,HOPKINS,SC,29061,NOT AVAILABLE,(803) 695-3000
93320,450228001333,GEORGETOWN MIDDLE,2400 AUTHUAN MAYBANK DRIVE,GEORGETOWN,SC,29440,NOT AVAILABLE,(843) 527-4495
93584,450192000382,SOUTH ELEMENTARY,900 PATRIOT STREET,DILLON,SC,29536,NOT AVAILABLE,(843) 774-1210
97378,450144000222,MALCOLM C. HURSEY MONTESSORI,4542 SIMMS STREET,NORTH CHARLESTON,SC,29406,NOT AVAILABLE,(843) 745-7105
97857,450351001001,CHESNEE HIGH,795 SOUTH ALABAMA AVENUE,CHESNEE,SC,29323,NOT AVAILABLE,(864) 461-7318
98510,450381001456,HUNTER STREET ELEMENTARY,1100 HUNTER STREET,YORK,SC,29745,NOT AVAILABLE,(803) 684-1926
60914,450363001314,FAIRFOREST MIDDLE,150 LINCOLN SCHOOL ROAD,SPARTANBURG,SC,29301,NOT AVAILABLE,(864) 576-1270
63977,450228000472,PLEASANT HILL ELEMENTARY,127 SCHOOLHOUSE ROAD,HEMINGWAY,SC,29554,NOT AVAILABLE,(843) 558-9417
64656,450366001583,SPARTANBURG SCHOOL DISTRICT 7 EARLY CHILDHOOD CENTER,301 CRESCENT AVENUE,SPARTANBURG,SC,29306,NOT AVAILABLE,(864) 594-4465
66115,450249000630,PEE DEE ELEMENTARY,6555 HIGHWAY 134,CONWAY,SC,29527,NOT AVAILABLE,(843) 397-2579
66846,450153000299,CHESTER MIDDLE,1014 MCCANDLESS ROAD,CHESTER,SC,29706,NOT AVAILABLE,(803) 377-8192
100230,450336000930,SATCHEL FORD ELEMENTARY,5901 SATCHEL FORD ROAD,COLUMBIA,SC,29206,NOT AVAILABLE,(803) 738-7209
100647,450072000025,GLOVERVILLE ELEMENTARY,114 GLORIA RUSH CIRCLE,GLOVERVILLE,SC,29828,NOT AVAILABLE,(803) 593-7280
101497,450078001324,PALMETTO ELEMENTARY,1 ROBERTS BOULEVARD,WILLIAMSTON,SC,29697,NOT AVAILABLE,(864) 847-5442
106123,450000101721,BROAD RIVER HIGH,4460 BROAD RIVER ROAD,COLUMBIA,SC,29210,NOT AVAILABLE,(803) 896-2714
106156,450390101743,PACE,3710 LANDMARK DRIVE SUITE 201,COLUMBIA,SC,29204,NOT AVAILABLE,(803) 734-8322
106175,450390901717,CLEAR DOT CHARTER SCHOOL,2015 MARION STREET,COLUMBIA,SC,29201,NOT AVAILABLE,(803) 567-3075
106181,450390901760,GATES SCHOOL,1201 MAIN STREET SUITE 300,COLUMBIA,SC,29201,NOT AVAILABLE,(803) 849-2464
107287,450391000876,NORTH MIDDLE/HIGH,692 CROMER AVENUE,NORTH,SC,29112,NOT AVAILABLE,(803) 247-2541
44539,450336001298,CRAYTON MIDDLE,5000 CLEMSON AVENUE,COLUMBIA,SC,29206,NOT AVAILABLE,(803) 738-7224
49816,450201000398,JAMES H. SPANN ELEMENTARY,901 JOHN MCKISSICK WAY,SUMMERVILLE,SC,29483,NOT AVAILABLE,(843) 873-3050
32244,450186000374,SPAULDING MIDDLE,400 EAST CARTERSVILLE HIGHWAY,LAMAR,SC,29069,NOT AVAILABLE,(843) 326-7625
34248,450273001273,R. H. FULMER MIDDLE,1614 WALTERBORO ST.,WEST COLUMBIA,SC,29170,NOT AVAILABLE,(803) 822-5660
34975,450282000757,SEVEN OAKS ELEMENTARY,2800 ASHLAND ROAD,COLUMBIA,SC,29210,NOT AVAILABLE,(803) 476-8500
37158,450177000326,MANNING JUNIOR HIGH,1101 W.L. HAMILTON ROAD,MANNING,SC,29102,NOT AVAILABLE,(803) 435-8195
38469,450267000712,WEST LEE ELEMENTARY,55 WEST LEE SCHOOL ROAD,REMBERT,SC,29128,NOT AVAILABLE,(803) 428-3147
38534,450213001235,THEODORE LESTER ELEMENTARY,3501 EAST PALMETTO STREET,FLORENCE,SC,29506,NOT AVAILABLE,(843) 664-8459
39568,450390201078,FURMAN MIDDLE,3400 BETHEL CHURCH ROAD,SUMTER,SC,29154,NOT AVAILABLE,(803) 481-8519
50739,450192001596,DILLON MIDDLE,1803 JOAN DRIVE,DILLON,SC,29536,NOT AVAILABLE,(843) 774-1212
52232,450117000172,ST. STEPHEN MIDDLE,225 CAROLINA AVENUE,ST. STEPHEN,SC,29479,NOT AVAILABLE,(843) 567-3128
53529,450387001004,SOUTH POINTE HIGH,801 NEELY ROAD,ROCK HILL,SC,29730,NOT AVAILABLE,(803) 980-2100
54881,450390101665,TALL PINES STEM ACADEMY,82 CAMP LONG ROAD,AIKEN,SC,29805,NOT AVAILABLE,(803) 502-1692
55163,450144000228,JAMES SIMONS MONTESSORI,741 KING STREET,CHARLESTON,SC,29403,NOT AVAILABLE,(843) 724-7763
22585,450228000554,CARVERS BAY HIGH,13002 CHOPPEE ROAD,HEMINGWAY,SC,29554,NOT AVAILABLE,(843) 545-5837
28408,450144001533,JERRY ZUCKER MIDDLE SCHOOL OF SCIENCE,6401 DORCHESTER ROAD,NORTH CHARLESTON,SC,29418,NOT AVAILABLE,(843) 767-8383
28575,450117000035,DEVON FOREST ELEMENTARY,1127 DOROTHY STREET,GOOSE CREEK,SC,29455,NOT AVAILABLE,(843) 820-3880
29570,450072001390,REDCLIFFE ELEMENTARY,22 DOUBLE SPRINGS ROAD,AIKEN,SC,29803,NOT AVAILABLE,(803) 827-3350
29905,450144001553,PATTISON'S ACADEMY FOR COMPREHENSIVE EDUCATION,721 WAPPOO ROAD,CHARLESTON,SC,29407,NOT AVAILABLE,(843) 746-6516
80806,450186000359,SPAULDING ELEMENTARY,204 EAST PEARL STREET,LAMAR,SC,29069,NOT AVAILABLE,(843) 326-7666
85628,450339001348,NORTH SPRINGS ELEMENTARY,1300 CLEMSON ROAD,COLUMBIA,SC,29229,NOT AVAILABLE,(803) 736-3183
85862,450231001337,WOODMONT MIDDLE,325 NORTH FLAT ROCK ROAD,PIEDMONT,SC,29673,NOT AVAILABLE,(864) 355-8500
61017,450153000292,LEWISVILLE ELEMENTARY,4006 LEWISVILLE HIGH SCHOOL ROAD,RICHBURG,SC,29729,NOT AVAILABLE,(803) 789-5164
90324,450390201066,CHERRYVALE ELEMENTARY,1420 FURMAN DRIVE,SUMTER,SC,29154,NOT AVAILABLE,(803) 494-8200
97685,450351000938,OAKLAND ELEMENTARY,151 MUD CREEK ROAD,INMAN,SC,29349,NOT AVAILABLE,(864) 814-3870
98673,450150000859,BLACKSBURG PRIMARY,1010 EAST CHEROKEE STREET,BLACKSBURG,SC,29702,NOT AVAILABLE,(864) 206-6936
70212,450231000492,AUGUSTA CIRCLE ELEMENTARY,100 WINYAH STREET,GREENVILLE,SC,29605,NOT AVAILABLE,(864) 355-1200
72098,450231000579,J. HARLEY BONDS CAREER CENTER,505 NORTH MAIN STREET,GREER,SC,29650,NOT AVAILABLE,(864) 355-8080
72721,450111000270,COOSA ELEMENTARY,45 MIDDLE ROAD,BEAUFORT,SC,29907,NOT AVAILABLE,(843) 322-6100
79789,450177001439,MANNING ELEMENTARY,311 WEST BOYCE STREET,MANNING,SC,29102,NOT AVAILABLE,(803) 435-5066
106126,450072001702,A. L. CORBETT MIDDLE,10 A.L. CORBETT CIRCLE,WAGENER,SC,29164,NOT AVAILABLE,(803) 564-1050
106130,450072001729,GRANITEVILLE ELEMENTARY,1 WILLIS CIRCLE,GRANITEVILLE,SC,29829,NOT AVAILABLE,(803) 564-1058
106141,450249001726,MYRTLE BEACH CHILD DEVELOPMENT CENTER,612 29TH AVENUE NORTH,MYRTLE BEACH,SC,29577,NOT AVAILABLE,(843) 448-1658
106183,450391000196,HUNTER-KINARD-TYLER HIGH,7066 NORWAY ROAD,NEESES,SC,29107,NOT AVAILABLE,(803) 263-4832
106186,450391000850,BETHUNE-BOWMAN MIDDLE/HIGH,4857 CHARLESTON HIGHWAY,ROWESVILLE,SC,29133,NOT AVAILABLE,(803) 516-6011
107277,450390901616,CYBER ACADEMY OF SOUTH CAROLINA,330 PELHAM ROAD SUITE 101A,GREENVILLE,SC,29615,NOT AVAILABLE,(855) 611-2830
2998,450183000189,NORTHSIDE ELEMENTARY,1929 INDUSTRIAL ROAD,WALTERBORO,SC,29488,NOT AVAILABLE,(843) 782-0015
6667,450231001334,GATEWAY ELEMENTARY,200 HAWKINS ROAD,TRAVELERS REST,SC,29690,NOT AVAILABLE,(864) 355-5200
6760,450336000926,A. C. MOORE ELEMENTARY,333 ETIWAN AVENUE,COLUMBIA,SC,29205,NOT AVAILABLE,(803) 343-2910
12187,450339000203,BLYTHEWOOD MIDDLE,2351 LONGTOWN ROAD EAST,BLYTHEWOOD,SC,29016,NOT AVAILABLE,(803) 691-6850
12754,450333001293,PICKENS MIDDLE,140 TORCH LANE,PICKENS,SC,29671,NOT AVAILABLE,(864) 397-4100
6934,450111000147,BEAUFORT HIGH,84 SEA ISLAND PARKWAY,BEAUFORT,SC,29907,NOT AVAILABLE,(843) 302-2000
8623,450270000586,GILBERT PRIMARY,520 MAIN STREET,GILBERT,SC,29054,NOT AVAILABLE,(803) 821-1400
60259,450249001635,OCEAN DRIVE ELEMENTARY,901 11TH AVENUE NORTH,NORTH MYRTLE BEACH,SC,29582,NOT AVAILABLE,(843) 663-0195
61078,450366001052,SPARTANBURG HIGH,2250 E. MAIN STREET,SPARTANBURG,SC,29307,NOT AVAILABLE,(864) 594-4410
62257,450339001312,RICHLAND NORTHEAST HIGH,7500 BROOKFIELD ROAD,COLUMBIA,SC,29223,NOT AVAILABLE,(803) 699-2800
62286,450144000430,THOMAS C. CARIO MIDDLE,3500 THOMAS CARIO BOULEVARD,MT. PLEASANT,SC,29466,NOT AVAILABLE,(843) 856-4595
66213,450258001262,NORTH ELEMENTARY,1100 RODDEY DRIVE,LANCASTER,SC,29720,NOT AVAILABLE,(803) 283-9918
66523,450156000318,CENTRAL HIGH,200 ZION CHURCH ROAD,PAGELAND,SC,29728,NOT AVAILABLE,(843) 672-6115
67197,450270000583,PELION MIDDLE,758 MAGNOLIA STREET,PELION,SC,29123,NOT AVAILABLE,(803) 821-2300
69144,450231000518,MITCHELL ROAD ELEMENTARY,4124 EAST NORTH STREET EXTENSION,GREENVILLE,SC,29615,NOT AVAILABLE,(864) 355-6700
10251,450231000498,BRYSON ELEMENTARY,703 BRYSON DRIVE,SIMPSONVILLE,SC,29681,NOT AVAILABLE,(864) 355-3600
11325,450213000436,HENRY TIMROD ELEMENTARY,1901 EAST OLD MARION HIGHWAY,FLORENCE,SC,29506,NOT AVAILABLE,(843) 664-8454
40170,450231000566,WADE HAMPTON HIGH,100 PINE KNOLL DRIVE,GREENVILLE,SC,29609,NOT AVAILABLE,(864) 355-0100
40196,450117000174,BERKELEY HIGH,406 WEST MAIN STREET,MONCKS CORNER,SC,29461,NOT AVAILABLE,(843) 899-8800
41892,450270000721,PELION ELEMENTARY,1202 PINE STREET,PELION,SC,29123,NOT AVAILABLE,(803) 821-2000
42585,450111001538,RED CEDAR ELEMENTARY,10 BOX ELDER STREET,BLUFFTON,SC,29910,NOT AVAILABLE,(843) 707-0600
45094,450144000233,STONO PARK ELEMENTARY,314 HUNTLEY DRIVE,CHARLESTON,SC,29407,NOT AVAILABLE,(843) 763-1507
48925,450303000818,MID-CAROLINA HIGH,377 CY SCHUMPERT ROAD,PROSPERITY,SC,29127,NOT AVAILABLE,(803) 364-2134
30457,450375001088,MONARCH ELEMENTARY,218 MONARCH SCHOOL DRIVE,UNION,SC,29379,NOT AVAILABLE,(864) 429-1733
32959,450297001433,WALLACE ELEMENTARY/MIDDLE,3643 HIGHWAY 9 WEST,WALLACE,SC,29596,NOT AVAILABLE,(843) 537-7493
33639,450348000990,T.E. MABRY MIDDLE,35 OAKLAND AVENUE,INMAN,SC,29349,NOT AVAILABLE,(864) 472-8402
37605,450231000488,ALEXANDER ELEMENTARY,1601 BRAMLETT ROAD,GREENVILLE,SC,29611,NOT AVAILABLE,(864) 355-1000
50742,450390800768,MCCORMICK ELEMENTARY,1123 SANDY BLUFF ROAD,MULLINS,SC,29574,NOT AVAILABLE,(843) 464-3760
56603,450090000103,VARENNES ELEMENTARY,1820 HIGHWAY 29 SOUTH,ANDERSON,SC,29626,NOT AVAILABLE,(864) 260-5215
94069,450384001125,BETHEL ELEMENTARY,6000 HIGHWAY 55 EAST,CLOVER,SC,29710,NOT AVAILABLE,(803) 631-8300
97888,450346000979,SALUDA ELEMENTARY,400 WEST BUTLER AVENUE,SALUDA,SC,29138,NOT AVAILABLE,(864) 445-2564
27903,450144000857,GREG MATHIS CHARTER HIGH,2872 AZALEA DRIVE,NORTH CHARLESTON,SC,29405,NOT AVAILABLE,(843) 557-1611
28949,450306000252,ORCHARD PARK ELEMENTARY,600 TOCCOA HIGHWAY,WESTMINSTER,SC,29693,NOT AVAILABLE,(864) 886-4515
29503,450144000261,WANDO HIGH,1000 WARRIOR WAY,MOUNT PLEASANT,SC,29466,NOT AVAILABLE,(843) 881-8200
81117,450000401246,SC SCHOOL FOR THE BLIND ELEMENTARY/MIDDLE,355 CEDAR SPRINGS ROAD,SPARTANBURG,SC,29302,NOT AVAILABLE,(864) 577-7600
81742,450351000996,JAMES H. HENDRIX ELEMENTARY,1084 SPRINGFIELD ROAD,BOILING SPRINGS,SC,29316,NOT AVAILABLE,(864) 216-4000
82096,450249000643,LORIS HIGH,301 LORIS LIONS ROAD,LORIS,SC,29569,NOT AVAILABLE,(843) 390-6800
83336,450255000465,LESLIE M. STOVER MIDDLE,1649 SMYRNA ROAD,ELGIN,SC,29045,NOT AVAILABLE,(803) 438-7414
84215,450384000522,CROWDERS CREEK ELEMENTARY,5515 CHARLOTTE HIGHWAY,CLOVER,SC,29710,NOT AVAILABLE,(803) 810-8500
84433,450306000828,JAMES M. BROWN ELEMENTARY,225 COFFEE ROAD,WALHALLA,SC,29691,NOT AVAILABLE,(864) 886-4470
84774,450072000020,CLEARWATER ELEMENTARY,4552 AUGUSTA ROAD,CLEARWATER,SC,29822,NOT AVAILABLE,(803) 593-7240
88718,450231000580,ENOREE CAREER CENTER,108 SCALYBARK ROAD,GREENVILLE,SC,29617,NOT AVAILABLE,(864) 355-7400
73257,450084000088,STARR-IVA MIDDLE,1034 RAINEY ROAD,STARR,SC,29684,NOT AVAILABLE,(864) 352-6146
74025,450213000438,JOHN W. MOORE MIDDLE,191 WESTFIELD DRIVE,FLORENCE,SC,29501,NOT AVAILABLE,(843) 664-8171
79537,450213000958,PALMETTO YOUTH ACADEMY CHARTER,1209 NORTH DOUGLAS STREET,FLORENCE,SC,29501,NOT AVAILABLE,(843) 679-7070
100176,450270001269,RED BANK ELEMENTARY,246 COMMUNITY DRIVE,LEXINGTON,SC,29073,NOT AVAILABLE,(803) 821-4600
100739,450270001547,ROCKY CREEK ELEMENTARY,430 CALKS FERRY ROAD,LEXINGTON,SC,29072,NOT AVAILABLE,(803) 821-4200
102812,450391001694,MELLICHAMP ELEMENTARY,350 MURRAY ROAD,ORANGEBURG,SC,29115,NOT AVAILABLE,(803) 534-8044
106142,450249001732,MYRTLE BEACH PRIMARY,620 29TH AVENUE NORTH,MYRTLE BEACH,SC,29577,NOT AVAILABLE,(843) 448-1774
106174,450390901716,THORNWELL CHARTER SCHOOL,203 WEST CALHOUN STREET,CLINTON,SC,29325,NOT AVAILABLE,(864) 808-0801
106191,450391001192,LAKE MARION HIGH SCHOOL AND TECHNOLOGY CENTER,3656 TEE VEE ROAD,SANTEE,SC,29142,NOT AVAILABLE,(803) 854-9213
34566,450336000504,PINE GROVE ELEMENTARY,111 HUFFSTETLER DRIVE,COLUMBIA,SC,29210,NOT AVAILABLE,(803) 214-2380
36172,450351000995,COOLEY SPRINGS-FINGERVILLE ELEMENTARY,140 COOLEY SPRINGS SCHOOL ROAD,CHESNEE,SC,29323,NOT AVAILABLE,(864) 592-1211
10260,450261000693,FORD ELEMENTARY,601 LUCAS AVENUE,LAURENS,SC,29360,NOT AVAILABLE,(864) 984-3986
18318,450144001329,JAMES B. EDWARDS ELEMENTARY,885 VON KOLNITZ ROAD,MT. PLEASANT,SC,29464,NOT AVAILABLE,(843) 849-2805
63397,450351001000,BOILING SPRINGS HIGH,2251 OLD FURNACE ROAD,BOILING SPRINGS,SC,29316,NOT AVAILABLE,(864) 578-8465
65390,450183000336,COTTAGEVILLE ELEMENTARY,648 PEIRCE ROAD,COTTAGEVILLE,SC,29435,NOT AVAILABLE,(843) 782-4528
20066,450219000453,J. C. LYNCH ELEMENTARY,124 HICKS ROAD,COWARD,SC,29530,NOT AVAILABLE,(843) 389-3323
20359,450249001470,OCEAN BAY ELEMENTARY,950 INTERNATIONAL DRIVE,MYRTLE BEACH,SC,29579,NOT AVAILABLE,(843) 903-8400
21022,450270001525,NEW PROVIDENCE ELEMENTARY,1118 OLD CHEROKEE ROAD,LEXINGTON,SC,29072,NOT AVAILABLE,(803) 821-3300
25215,450381001557,YORK INTERMEDIATE,1280 JOHNSON ROAD,YORK,SC,29745,NOT AVAILABLE,(803) 684-2311
25981,450231000578,DONALDSON CAREER CENTER,100 VOCATIONAL DRIVE,GREENVILLE,SC,29605,NOT AVAILABLE,(864) 355-4650
26389,450339000650,LAKE CAROLINA ELEMENTARY LOWER CAMPUS,1151 KELLY MILL ROAD,BLYTHEWOOD,SC,29016,NOT AVAILABLE,(803) 714-1300
26614,450090000110,MCCANTS MIDDLE,2123 MARCHBANKS AVENUE,ANDERSON,SC,29621,NOT AVAILABLE,(864) 260-5145
92688,450111000422,WHALE BRANCH MIDDLE,2009 TRASK PARKWAY,SEABROOK,SC,29941,NOT AVAILABLE,(843) 466-3000
95765,450180000331,EAST CLARENDON MIDDLE-HIGH,1171 POPE STREET,TURBEVILLE,SC,29162,NOT AVAILABLE,(843) 659-2185
98715,450102000124,MACEDONIA ELEMENTARY-MIDDLE,556 JONES BRIDGE ROAD,BLACKVILLE,SC,29817,NOT AVAILABLE,(803) 284-5800
98990,450339001075,SANDLAPPER ELEMENTARY,1001 LONGTOWN ROAD,COLUMBIA,SC,29229,NOT AVAILABLE,(803) 691-4045
99750,450354001008,PACOLET ELEMENTARY,150 MCDOWELL STREET,PACOLET,SC,29372,NOT AVAILABLE,(864) 279-6500
99802,450354001010,BROOME HIGH,381 CHERRY HILL ROAD,SPARTANBURG,SC,29307,NOT AVAILABLE,(864) 279-6700
51446,450255001258,CAMDEN ELEMENTARY,416 LAURENS STREET,CAMDEN,SC,29020,NOT AVAILABLE,(803) 425-8960
83447,450111000145,ST. HELENA ELEMENTARY,1025 SEA ISLAND PARKWAY,ST. HELENA,SC,29920,NOT AVAILABLE,(843) 838-0300
83452,450153000300,GREAT FALLS HIGH,409 SUNSET AVENUE,GREAT FALLS,SC,29055,NOT AVAILABLE,(803) 482-2210
83642,450387001147,W. C. SULLIVAN MIDDLE,1825 EDEN TERRACE,ROCK HILL,SC,29730,NOT AVAILABLE,(803) 981-1450
86730,450363001028,PAULINE-GLENN SPRINGS ELEMENTARY,2957 HIGHWAY 56,PAULINE,SC,29374,NOT AVAILABLE,(864) 583-1868
88282,450117000173,COLLEGE PARK MIDDLE,713 COLLEGE PARK ROAD,LADSON,SC,29456,NOT AVAILABLE,(843) 553-8300
88295,450228000481,SAMPIT ELEMENTARY,69 WOODLAND AVENUE,GEORGETOWN,SC,29440,NOT AVAILABLE,(843) 527-4411
88402,450231001253,SEVIER MIDDLE,1000 PIEDMONT PARK ROAD,GREENVILLE,SC,29609,NOT AVAILABLE,(864) 355-8200
75413,450186000100,SOUTHSIDE EARLY CHILDHOOD CENTER,1615 BLANDING DRIVE,HARTSVILLE,SC,29550,NOT AVAILABLE,(843) 383-3310
75507,450333000884,DACUSVILLE ELEMENTARY,200 CHEROKEE TRAIL,EASLEY,SC,29640,NOT AVAILABLE,(864) 397-2800
77342,450351000146,CARLISLE-FOSTER'S GROVE ELEMENTARY,625 FOSTER'S GROVE ROAD,CHESNEE,SC,29323,NOT AVAILABLE,(864) 578-2215
4123,450375001612,UNION COUNTY CAREER AND TECHNOLOGY CENTER,1165 LAKESIDE DRIVE,UNION,SC,29379,NOT AVAILABLE,(864) 429-1765
6949,450087000094,PENDLETON HIGH,7324 HIGHWAY 187,ANDERSON,SC,29625,NOT AVAILABLE,(864) 403-2100
8725,450387001526,DUTCHMAN CREEK MIDDLE,4757 MOUNT GALLANT ROAD,ROCK HILL,SC,29732,NOT AVAILABLE,(803) 985-1700
46243,450231001633,DR. PHINNIZE J. FISHER MIDDLE,700 MILLENNIUM BOULEVARD,GREENVILLE,SC,29607,NOT AVAILABLE,(864) 355-0800
48981,450336001295,ALCORN MIDDLE,5125 FAIRFIELD ROAD,COLUMBIA,SC,29203,NOT AVAILABLE,(803) 735-3439
49501,450249000614,AYNOR ELEMENTARY,516 JORDANVILLE ROAD,AYNOR,SC,29511,NOT AVAILABLE,(843) 488-7070
100425,450390101588,CAPE ROMAIN ENVIRONMENTAL EDUCATION CHARTER SCHOOL,1101 OLD CEMETERY ROAD,MCCLELLANVILLE,SC,29458,NOT AVAILABLE,(843) 887-3323
100469,450231001551,A.J. WHITTENBURG ELEMENTARY,420 WESTFIELD STREET,GREENVILLE,SC,29601,NOT AVAILABLE,(864) 452-0500
100775,450360000253,RIVER RIDGE ELEMENTARY,5960 REIDVILLE ROAD,MOORE,SC,29369,NOT AVAILABLE,(864) 949-7620
100827,450228001518,WACCAMAW INTERMEDIATE,320 WILDCAT WAY,PAWLEYS ISLAND,SC,29585,NOT AVAILABLE,(843) 237-7071
100993,450111000418,BLUFFTON ELEMENTARY,160 H.E. MCCRACKEN CIRCLE,BLUFFTON,SC,29910,NOT AVAILABLE,(843) 706-8500
101739,450072000034,RIDGE SPRING-MONETTA ELEMENTARY,422 HAZZARD CIRCLE,RIDGE SPRING,SC,29129,NOT AVAILABLE,(803) 685-2000
102092,450144000212,E.B. ELLINGTON ELEMENTARY,5540 OLD JACKSONBORO ROAD,RAVENEL,SC,29470,NOT AVAILABLE,(843) 889-9411
102808,450390101703,MIDLANDS ARTS CONSERVATORY,3806 NORTH MAIN STREET,COLUMBIA,SC,29203,NOT AVAILABLE,(803) 630-1622
106148,450273001711,RIVERBANK ELEMENTARY,160 COUGAR DRIVE,WEST COLUMBIA,SC,29169,NOT AVAILABLE,(803) 936-3400
106172,450390901687,BRASHIER MIDDLE COLLEGE CHARTER HIGH,1830 WEST GEORGIA ROAD BUILDING 203,SIMPSONVILLE,SC,29680,NOT AVAILABLE,(864) 757-1800
106188,450391000855,VANCE-PROVIDENCE ELEMENTARY,633 CAMDEN ROAD,VANCE,SC,29163,NOT AVAILABLE,(803) 492-7766
81112,450201000395,KNIGHTSVILLE ELEMENTARY,847 ORANGEBURG ROAD,SUMMERVILLE,SC,29483,NOT AVAILABLE,(843) 873-4851
83011,450210000421,FAIRFIELD MIDDLE,728 US HIGHWAY 321 BYPASS SOUTH,WINNSBORO,SC,29180,NOT AVAILABLE,(803) 635-4270
83325,450213000048,HENRY L. SNEED MIDDLE,1102 EBENEZER ROAD,FLORENCE,SC,29501,NOT AVAILABLE,(843) 673-1199
85666,450096001426,DENMARK-OLAR ELEMENTARY,1459 SOLOMON BLATT BOULEVARD,DENMARK,SC,29042,NOT AVAILABLE,(803) 793-3112
87257,450270000582,WHITE KNOLL HIGH,5643 PLATT SPRINGS ROAD,LEXINGTON,SC,29073,NOT AVAILABLE,(803) 821-5200
101687,450258001263,SOUTH MIDDLE,1551 BILLINGS DRIVE,LANCASTER,SC,29720,NOT AVAILABLE,(803) 283-8416
106157,450390101744,BEREA,3710 LANDMARK DRIVE SUITE 201,COLUMBIA,SC,29204,NOT AVAILABLE,(803) 734-8322
106177,450390901755,CHEROKEE CHARTER SCHOOL,3206 CHEROKEE AVENUE,GAFFNEY,SC,29340,NOT AVAILABLE,(864) 489-7198
106184,450391000635,HUNTER-KINARD-TYLER ELEMENTARY,7066 NORWAY ROAD,NEESES,SC,29107,NOT AVAILABLE,(803) 263-4441
106190,450391000912,THE ORANGEBURG TECHNOLOGY CENTER,3720 MAGNOLIA STREET,ORANGEBURG,SC,29118,NOT AVAILABLE,(803) 536-4473
106193,450391001290,ST. JAMES-GAILLARD ELEMENTARY,1555 GARDENSGATE ROAD,EUTAWVILLE,SC,29048,NOT AVAILABLE,(803) 492-7927
52863,450387000816,OLD POINTE ELEMENTARY,380 OLD POINTE SCHOOL ROAD,ROCK HILL,SC,29732,NOT AVAILABLE,(803) 980-2040
53897,450249001595,PALMETTO ACADEMY OF LEARNING MOTORSPORTS (PALM),136 RODEO DRIVE,CONWAY,SC,29579,NOT AVAILABLE,(843) 903-6600
54022,450075001661,FAIRFAX ELEMENTARY,734 14TH STREET EAST,FAIRFAX,SC,29827,NOT AVAILABLE,(803) 632-2536
54677,450111001361,HILTON HEAD ISLAND MIDDLE,55 WILBORN ROAD,HILTON HEAD ISLAND,SC,29926,NOT AVAILABLE,(843) 689-4500
56309,450117001682,BOWEN'S CORNER ELEMENTARY,1173 WILLIAMS LANE,HANAHAN,SC,29461,NOT AVAILABLE,(843) 572-5567
57010,450381001577,HAROLD C. JOHNSON ELEMENTARY,400 EAST JEFFERSON STREET,YORK,SC,29745,NOT AVAILABLE,(803) 818-6040
58553,450390201071,OAKLAND PRIMARY,5415 OAKLAND DRIVE,SUMTER,SC,29154,NOT AVAILABLE,(803) 499-3366
3189,450390800761,EASTERLING PRIMARY,600 EAST NORTHSIDE AVENUE,MARION,SC,29571,NOT AVAILABLE,(843) 423-8335
3464,450306000832,TAMASSEE-SALEM ELEMENTARY,9950 NORTH HIGHWAY 11,TAMASSEE,SC,29686,NOT AVAILABLE,(864) 886-4540
5720,450231000497,BRUSHY CREEK ELEMENTARY,1344 BRUSHY CREEK ROAD,TAYLORS,SC,29687,NOT AVAILABLE,(864) 355-5400
30458,450375001086,JONESVILLE ELEMENTARY MIDDLE,350 NEW HOPE CHURCH ROAD,JONESVILLE,SC,29353,NOT AVAILABLE,(864) 674-5518
30576,450252001395,HARDEEVILLE ELEMENTARY,150 HURRICANE ALLEY,HARDEEVILLE,SC,29927,NOT AVAILABLE,(843) 310-1888
30609,450258000689,INDIAN LAND HIGH,8063 RIVER ROAD,INDIAN LAND,SC,29707,NOT AVAILABLE,(803) 547-7571
32939,450075001415,ALLENDALE-FAIRFAX MIDDLE,3581 ALLENDALE-FAIRFAX HIGHWAY,FAIRFAX,SC,29827,NOT AVAILABLE,(803) 584-3489
32962,450336000922,HYATT PARK ELEMENTARY,4200 MAIN STREET,COLUMBIA,SC,29203,NOT AVAILABLE,(803) 735-3421
32996,450231000740,BELL'S CROSSING ELEMENTARY,804 SCUFFLETOWN ROAD,SIMPSONVILLE,SC,29681,NOT AVAILABLE,(864) 355-3800
60935,450390201452,POCALLA SPRINGS ELEMENTARY,2060 BETHEL CHURCH ROAD,SUMTER,SC,29154,NOT AVAILABLE,(803) 481-5800
62648,450360001503,ABNER CREEK ACADEMY,2050 ABNER CREEK ROAD,DUNCAN,SC,29334,NOT AVAILABLE,(864) 949-2334
64005,450249001178,WHITTEMORE PARK MIDDLE,1808 RHUE STREET,CONWAY,SC,29527,NOT AVAILABLE,(843) 488-0669
65359,450144000430,THOMAS C. CARIO MIDDLE,3500 THOMAS CARIO BOULEVARD,MT. PLEASANT,SC,29466,NOT AVAILABLE,(843) 856-4595
65598,450210000419,GEIGER ELEMENTARY,150 T.M. COOK ROAD,RIDGEWAY,SC,29130,NOT AVAILABLE,(803) 337-8288
21639,450186000352,CAROLINA ELEMENTARY,719 WEST CAROLINA AVENUE,HARTSVILLE,SC,29550,NOT AVAILABLE,(843) 857-3230
22583,450000200444,WILLIAM MEMORIAL ELEMENTARY,290 SOUTH METTS STREET,ST. GEORGE,SC,29477,NOT AVAILABLE,(843) 563-3231
29485,450336000932,H. B. RHAME ELEMENTARY,1300 ARROWWOOD DRIVE,COLUMBIA,SC,29210,NOT AVAILABLE,(803) 731-8900
12596,450339001081,LONGLEAF MIDDLE,1160 LONGREEN PARKWAY,COLUMBIA,SC,29229,NOT AVAILABLE,(803) 691-4870
14234,450387001148,RAWLINSON ROAD MIDDLE,2631 WEST MAIN STREET,ROCK HILL,SC,29732,NOT AVAILABLE,(803) 981-1500
14898,450231000574,WOODMONT HIGH,2831 WEST GEORGIA ROAD,PIEDMONT,SC,29673,NOT AVAILABLE,(864) 355-8600
15794,450384001126,KINARD ELEMENTARY,201 PRESSLY STREET,CLOVER,SC,29710,NOT AVAILABLE,(803) 810-8700
16889,450234000593,EMERALD HIGH,150 BYPASS 225,GREENWOOD,SC,29646,NOT AVAILABLE,(864) 941-5730
17504,450249000625,NORTH MYRTLE BEACH MIDDLE,11240 HIGHWAY 90,LITTLE RIVER,SC,29566,NOT AVAILABLE,(843) 399-6136
71113,450336000931,SANDEL ELEMENTARY,2700 SEMINOLE ROAD,COLUMBIA,SC,29210,NOT AVAILABLE,(803) 731-8906
71693,450150001391,BLACKSBURG ELEMENTARY,402 HARDIN STREET,BLACKSBURG,SC,29702,NOT AVAILABLE,(864) 206-6518
71919,450351000937,BOILING SPRINGS HIGH NINTH GRADE CAMPUS,3655 BOILING SPRINGS ROAD,BOILING SPRINGS,SC,29316,NOT AVAILABLE,(864) 578-2610
74001,450303001284,NEWBERRY MIDDLE,125 O'NEAL STREET,NEWBERRY,SC,29108,NOT AVAILABLE,(803) 321-2640
41000,450246000612,ESTILL MIDDLE,1450 COLUMBIA HIGHWAY SUITE B,ESTILL,SC,29918,NOT AVAILABLE,(803) 625-5200
47659,450210001407,FAIRFIELD ELEMENTARY,175 MEDLEY ROAD,WINNSBORO,SC,29180,NOT AVAILABLE,(803) 635-5594
47746,450117000165,ST. STEPHEN ELEMENTARY,1053 RUSSELVILLE ROAD,ST. STEPHEN,SC,29479,NOT AVAILABLE,(843) 567-2813
10954,450252001487,RIDGELAND-HARDEEVILLE HIGH,250 JAGUAR TRAIL,RIDGELAND,SC,29936,NOT AVAILABLE,(843) 489-8844
12744,450210001232,FAIRFIELD CAREER AND TECHNOLOGY CENTER,790 US HIGHWAY 321 NORTH,WINNSBORO,SC,29180,NOT AVAILABLE,(803) 635-5506
15164,450090000097,CONCORD ELEMENTARY,2701 CALROSSIE ROAD,ANDERSON,SC,29621,NOT AVAILABLE,(864) 260-5105
15486,450249001340,MYRTLE BEACH MIDDLE,3101 NORTH OAK STREET,MYRTLE BEACH,SC,29577,NOT AVAILABLE,(843) 448-3932
16325,450111000135,BEAUFORT ELEMENTARY,1800 PRINCE STREET,BEAUFORT,SC,29902,NOT AVAILABLE,(843) 322-2600
16360,450231001164,GOLDEN STRIP CAREER AND TECHNOLOGY CENTER,1120 EAST BUTLER ROAD,GREENVILLE,SC,29607,NOT AVAILABLE,(864) 355-1050
19750,450117001608,CANE BAY MIDDLE,1175 CANE BAY BOULEVARD,SUMMERVILLE,SC,29486,NOT AVAILABLE,(843) 899-1857
923,450117001556,BERKELEY COUNTY MIDDLE COLLEGE HIGH,1001 SOUTH LIVE OAK DRIVE,MONCKS CORNER,SC,29461,NOT AVAILABLE,(843) 899-8110
2890,450390201073,SHAW HEIGHTS ELEMENTARY,5121 FRIERSON ROAD,SHAW AIR FORCE BASE,SC,29152,NOT AVAILABLE,(803) 666-2335
4885,450390101544,YORK PREPARATORY ACADEMY,1047 GOLDEN GATE COURT,ROCK HILL,SC,29732,NOT AVAILABLE,(803) 324-4400
5617,450150000276,GOUCHER ELEMENTARY,604 GOUCHER SCHOOL ROAD,GAFFNEY,SC,29340,NOT AVAILABLE,(864) 206-6890
8705,450081000079,MARSHALL PRIMARY,218 BANNISTER STREET,BELTON,SC,29627,NOT AVAILABLE,(864) 369-4716
95405,450111000819,OKATIE ELEMENTARY,53 CHERRY POINT ROAD,BLUFFTON,SC,29909,NOT AVAILABLE,(843) 322-7700
95757,450237000601,WARE SHOALS HIGH,56 SOUTH GREENWOOD AVENUE,WARE SHOALS,SC,29692,NOT AVAILABLE,(864) 456-7923
97731,450117000178,HANAHAN HIGH,6015 MURRAY DRIVE,HANAHAN,SC,29410,NOT AVAILABLE,(843) 820-3710
98663,450255000766,NORTH CENTRAL MIDDLE,805 KEYS LANE,KERSHAW,SC,29067,NOT AVAILABLE,(803) 424-2740
83125,450249001486,BURGESS ELEMENTARY,9645 SCIPIO LANE,MYRTLE BEACH,SC,29588,NOT AVAILABLE,(843) 650-4600
84291,450261000696,E. B. MORSE ELEMENTARY,200 PARKVIEW DRIVE,LAURENS,SC,29360,NOT AVAILABLE,(864) 984-7777
84385,450192000381,EAST ELEMENTARY,901 EAST HARRISON STREET,DILLON,SC,29536,NOT AVAILABLE,(843) 774-1222
85670,450378001107,KINGSTREE MIDDLE MAGNET,710 THIRD AVENUE,KINGSTREE,SC,29556,NOT AVAILABLE,(843) 355-1506
71410,450144000208,LAMBS ELEMENTARY,6800 DORCHESTER ROAD,NORTH CHARLESTON,SC,29458,NOT AVAILABLE,(843) 767-5900
78757,450081000081,WRIGHT ELEMENTARY,1136 WRIGHT SCHOOL ROAD,BELTON,SC,29627,NOT AVAILABLE,(864) 296-1776
50736,450000201597,HARLEYVILLE-RIDGEVILLE MIDDLE,1650 EAST MAIN STREET,DORCHESTER,SC,29437,NOT AVAILABLE,(843) 462-2470
54442,450390901700,BELTON PREPARATORY ACADEMY,5901 BELTON HIGHWAY,BELTON,SC,29627,NOT AVAILABLE,(864) 392-1173
57975,450186000369,HARTSVILLE MIDDLE,1427 FOURTEENTH STREET,HARTSVILLE,SC,29550,NOT AVAILABLE,(843) 857-3121
33030,450339001555,LANGFORD ELEMENTARY,480 LANGFORD ROAD,BLYTHEWOOD,SC,29016,NOT AVAILABLE,(803) 691-4091
35051,450351001002,BOILING SPRINGS MIDDLE,4801 HIGHWAY 9,INMAN,SC,29349,NOT AVAILABLE,(864) 578-5954
35249,450228000474,MARYVILLE ELEMENTARY,2125 POPLAR STREET,GEORGETOWN,SC,29440,NOT AVAILABLE,(843) 546-8423
64574,450156000307,PETERSBURG PRIMARY,326 NORTH ARNOLD STREET,PAGELAND,SC,29728,NOT AVAILABLE,(843) 672-6241
64803,450201001483,EAGLE NEST ELEMENTARY,8640 RIVER OAKS DRIVE,NORTH CHARLESTON,SC,29420,NOT AVAILABLE,(843) 695-2460
64842,450150000283,BLACKSBURG HIGH,201 WEST RAMSEUR DRIVE,BLACKSBURG,SC,29702,NOT AVAILABLE,(864) 206-2378
68374,450390800772,PALMETTO MIDDLE,305 O'NEAL STREET,MULLINS,SC,29574,NOT AVAILABLE,(843) 464-3730
69544,450243000609,NORTH DISTRICT MIDDLE,611 TILLMAN AVENUE,VARNVILLE,SC,29944,NOT AVAILABLE,(803) 943-3507
69717,450270001626,RIVER BLUFF HIGH,320 CORLEY MILL ROAD,LEXINGTON,SC,29072,NOT AVAILABLE,(803) 821-0700
24229,450390000666,SPRINGFIELD ELEMENTARY,1691 SPRINGFIELD PARKWAY,FORT MILL,SC,29715,NOT AVAILABLE,(803) 584-8150
24827,450381001120,JEFFERSON ELEMENTARY,1543 CHESTER HIGHWAY,YORK,SC,29745,NOT AVAILABLE,(803) 684-1942
28258,450249000618,CONWAY ELEMENTARY,1101 SNOWHILL DRIVE,CONWAY,SC,29526,NOT AVAILABLE,(843) 488-0696
44263,450351000998,MAYO ELEMENTARY,1300 SPRINGDALE ROAD,MAYO,SC,29368,NOT AVAILABLE,(864) 461-2622
45599,450201000007,FORT DORCHESTER HIGH,8500 PATRIOT BOULEVARD,NORTH CHARLESTON,SC,29420,NOT AVAILABLE,(843) 760-4450
101001,450264000702,M. S. BAILEY CHILD DEVELOPMENT CENTER,625 ELIZABETH STREET,CLINTON,SC,29325,NOT AVAILABLE,(864) 833-0836
101775,450001001039,R. D. ANDERSON APPLIED TECHNOLOGY CENTER,1151 CENTER POINT DRIVE,MOORE,SC,29369,NOT AVAILABLE,(864) 576-5020
106154,450390101741,LIBERTY STEAM,3710 LANDMARK DRIVE SUITE 201,COLUMBIA,SC,29204,NOT AVAILABLE,(803) 734-8322
106155,450390101742,LOWCOUNTRY ACCELERATION,3710 LANDMARK DRIVE SUITE 201,COLUMBIA,SC,29204,NOT AVAILABLE,(803) 734-8322
106180,450390901759,THE SOUTH CAROLINA PREPARATORY ACADEMY,1201 MAIN STREET SUITE 300,COLUMBIA,SC,29201,NOT AVAILABLE,(803) 849-2464
106182,450391000116,EDISTO ELEMENTARY,136 WOODOLIVE LANE,ORANGEBURG,SC,29515,NOT AVAILABLE,(803) 531-7646
107284,450391000869,WHITTAKER ELEMENTARY,790 WHITTAKER PARKWAY,ORANGEBURG,SC,29115,NOT AVAILABLE,(803) 534-6559
7602,450231000524,PELHAM ROAD ELEMENTARY,100 ALL STAR WAY,GREENVILLE,SC,29615,NOT AVAILABLE,(864) 355-7600
70551,450360001504,LYMAN ELEMENTARY,1221 HOLLY SPRINGS ROAD,LYMAN,SC,29365,NOT AVAILABLE,(864) 949-2330
75780,450207000408,DOUGLAS ELEMENTARY,215 SOUTH EAST DIGGS ROAD,TRENTON,SC,29847,NOT AVAILABLE,(803) 275-1752
78832,450249000617,GREEN SEA FLOYDS ELEMENTARY,5000 TULIP GROVE ROAD,GREEN SEA,SC,29545,NOT AVAILABLE,(843) 392-1078
79887,450144000168,ACADEMIC MAGNET HIGH,5109-A WEST ENTERPRISE STREET,NORTH CHARLESTON,SC,29405,NOT AVAILABLE,(843) 746-1300
80228,450390201060,MILLWOOD ELEMENTARY,24 PINEWOOD ROAD,SUMTER,SC,29150,NOT AVAILABLE,(803) 775-0648
80575,450144000210,MEMMINGER ELEMENTARY,20 BEAUFAIN STREET,CHARLESTON,SC,29401,NOT AVAILABLE,(843) 724-7778
80870,450231000512,FORK SHOALS SCHOOL,916 MCKELVEY ROAD,PELZER,SC,29669,NOT AVAILABLE,(864) 355-5000
82616,450150000285,GAFFNEY HIGH,149 TWIN LAKE ROAD,GAFFNEY,SC,29341,NOT AVAILABLE,(864) 206-2000
88959,450336000951,EAU CLAIRE HIGH,4800 MONTICELLO ROAD,COLUMBIA,SC,29203,NOT AVAILABLE,(803) 735-7600
89698,450090000101,NEVITT FOREST ELEMENTARY,1401 BOLT DRIVE,ANDERSON,SC,29621,NOT AVAILABLE,(864) 260-5190
30042,450111001552,BLUFFTON MIDDLE,30 NEW MUSTANG ROAD,BLUFFTON,SC,29910,NOT AVAILABLE,(843) 707-0700
31434,450231000542,GREENBRIER ELEMENTARY,853 LOG SHOALS ROAD,GREENVILLE,SC,29607,NOT AVAILABLE,(864) 355-5300
32750,450087001326,RIVERSIDE MIDDLE,458 RIVERSIDE STREET,PENDLETON,SC,29670,NOT AVAILABLE,(864) 403-2200
33039,450090000096,CENTERVILLE ELEMENTARY,1529 WHITEHALL ROAD,ANDERSON,SC,29625,NOT AVAILABLE,(864) 260-5100
36745,450333000891,CLEMSON ELEMENTARY,581 BERKELEY DRIVE,CLEMSON,SC,29631,NOT AVAILABLE,(864) 397-1500
38567,450156000315,CHESTERFIELD HIGH,401 NORTH PAGE STREET,CHESTERFIELD,SC,29709,NOT AVAILABLE,(843) 623-2161
63492,450387001143,YORK ROAD ELEMENTARY,2254 WEST MAIN STREET,ROCK HILL,SC,29732,NOT AVAILABLE,(803) 981-1950
63712,450387001135,FINLEY ROAD ELEMENTARY,1089 FINLEY ROAD,ROCK HILL,SC,29730,NOT AVAILABLE,(803) 981-1280
65379,450213000441,WILLIAMS MIDDLE,1119 NORTH IRBY STREET,FLORENCE,SC,29501,NOT AVAILABLE,(843) 664-8162
66361,450186000350,BROCKINGTON ELEMENTARY,413 BROCKINGTON ROAD,DARLINGTON,SC,29532,NOT AVAILABLE,(843) 398-2500
66430,450228000739,WACCAMAW MIDDLE,247 WILDCAT WAY,PAWLEYS ISLAND,SC,29585,NOT AVAILABLE,(843) 237-0106
101044,450390101176,FOX CREEK HIGH,165 SHORTCUT ROAD,NORTH AUGUSTA,SC,29860,NOT AVAILABLE,(803) 613-9435
101672,450381001422,HICKORY GROVE-SHARON ELEMENTARY,4901 HICKORY GROVE ROAD,HICKORY GROVE,SC,29717,NOT AVAILABLE,(803) 925-2116
106163,450390901513,SOUTH CAROLINA VIRTUAL CHARTER SCHOOL,2023 PLATT SPRINGS ROAD,WEST COLUMBIA,SC,29169,NOT AVAILABLE,(803) 253-6222
106170,450390901663,OCEANSIDE COLLEGIATE ACADEMY,580 FAISON ROAD,MOUNT PLEASANT,SC,29466,NOT AVAILABLE,(843) 936-7128
21391,450390000663,ORCHARD PARK ELEMENTARY,474 THIRD BAXTER STREET,FORT MILL,SC,29708,NOT AVAILABLE,(803) 548-8170
22553,450117001161,MARRINGTON ELEMENTARY,101 GEARING STREET,GOOSE CREEK,SC,29445,NOT AVAILABLE,(843) 572-3373
25099,450282000247,LAKE MURRAY ELEMENTARY,1531 THREE DOG ROAD,CHAPIN,SC,29036,NOT AVAILABLE,(803) 476-4600
26317,450072000031,NORTH AIKEN ELEMENTARY,100 BEARS ROCK ROAD,AIKEN,SC,29801,NOT AVAILABLE,(803) 641-2690
29624,450339000042,RICE CREEK ELEMENTARY,4751 HARD SCRABBLE ROAD,COLUMBIA,SC,29229,NOT AVAILABLE,(803) 699-2900
29756,450078001567,POWDERSVILLE HIGH,145 HOOD ROAD,GREENVILLE,SC,29611,NOT AVAILABLE,(864) 312-5641
90251,450282000248,RIVER SPRINGS ELEMENTARY,115 CONNIE WRIGHT ROAD,IRMO,SC,29063,NOT AVAILABLE,(803) 476-4400
96366,450249000644,NORTH MYRTLE BEACH HIGH,3750 SEA MOUNTAIN HIGHWAY,LITTLE RIVER,SC,29566,NOT AVAILABLE,(843) 399-6171
43704,450111000149,BATTERY CREEK HIGH,1 BLUE DOLPHIN DRIVE,BEAUFORT,SC,29906,NOT AVAILABLE,(843) 322-5500
43731,450231000544,GROVE ELEMENTARY,1220 OLD GROVE ROAD,PIEDMONT,SC,29673,NOT AVAILABLE,(864) 355-5900
44372,450282001169,CROSSROADS INTERMEDIATE,6949 ST. ANDREWS ROAD,COLUMBIA,SC,29212,NOT AVAILABLE,(803) 476-8300
46242,450144001648,MEETING STREET ELEMENTARY,2685 LEEDS AVENUE,NORTH CHARLESTON,SC,29405,NOT AVAILABLE,(843) 735-7102
50772,450000201600,CLAY HILL ELEMENTARY,387 SOUTH RAILROAD AVENUE,RIDGEVILLE,SC,29472,NOT AVAILABLE,(843) 851-7386
52419,450390200511,CHESTNUT OAKS MIDDLE,1200 OSWEGO ROAD,SUMTER,SC,29153,NOT AVAILABLE,(803) 775-7272
54032,450144001660,SIMMONS PINCKNEY MIDDLE,244 PRESIDENT STREET,CHARLESTON,SC,29403,NOT AVAILABLE,(843) 724-7789
55273,450231000114,OAKVIEW ELEMENTARY,515 GODFREY ROAD,SIMPSONVILLE,SC,29681,NOT AVAILABLE,(864) 355-7100
56846,450231001466,STERLING SCHOOL,99 JOHN MCCARROLL WAY,GREENVILLE,SC,29607,NOT AVAILABLE,(864) 355-4480
11448,450339000968,L. W. CONDER ELEMENTARY,8040 HUNT CLUB ROAD,COLUMBIA,SC,29223,NOT AVAILABLE,(803) 736-8720
12180,450234000592,WOODFIELDS ELEMENTARY,1032 EMERALD ROAD,GREENWOOD,SC,29646,NOT AVAILABLE,(864) 941-5540
16271,450087000091,PENDLETON ELEMENTARY,902 EAST QUEEN STREET,PENDLETON,SC,29670,NOT AVAILABLE,(864) 403-2500
19176,450090000106,WHITEHALL ELEMENTARY,702 WHITEHALL ROAD,ANDERSON,SC,29625,NOT AVAILABLE,(864) 260-5255
40266,450249000243,FORESTBROOK MIDDLE,4430 GATOR LANE,MYRTLE BEACH,SC,29588,NOT AVAILABLE,(843) 236-7300
41387,450255000669,DR. GILBERT G. WOOLARD TECHNOLOGY CENTER,70 INNOVATION LANE,CAMDEN,SC,29020,NOT AVAILABLE,(803) 425-8982
41836,450231000533,TIGERVILLE ELEMENTARY,25 TIGERVILLE ELEMENTARY SCHOOL ROAD,TAYLORS,SC,29687,NOT AVAILABLE,(864) 355-4600
43780,450231000533,TIGERVILLE ELEMENTARY,25 TIGERVILLE ELEMENTARY SCHOOL ROAD,TAYLORS,SC,29687,NOT AVAILABLE,(864) 355-4600
43983,450270000722,OAK GROVE ELEMENTARY,479 OAK DRIVE,LEXINGTON,SC,29073,NOT AVAILABLE,(803) 821-0100
45070,450117000166,WHITESVILLE ELEMENTARY,324 GAILLARD ROAD,MONCKS CORNER,SC,29461,NOT AVAILABLE,(843) 899-8880
48597,450336000924,LOGAN ELEMENTARY,815 ELMWOOD AVENUE,COLUMBIA,SC,29201,NOT AVAILABLE,(803) 343-2915
48770,450231000562,CAROLINA ACADEMY (HIGH),2725 ANDERSON ROAD,GREENVILLE,SC,29611,NOT AVAILABLE,(864) 355-2300
48974,450117001158,MARRINGTON MIDDLE SCHOOL OF THE ARTS,109 GEARING STREET,GOOSE CREEK,SC,29445,NOT AVAILABLE,(843) 572-0313
49925,450117000165,ST. STEPHEN ELEMENTARY,1053 RUSSELVILLE ROAD,ST. STEPHEN,SC,29479,NOT AVAILABLE,(843) 567-2813
52880,450144001352,ST. JAMES SANTEE ELEMENTARY-MIDDLE,8900 HIGHWAY 17 NORTH,MCCLELLANVILLE,SC,29458,NOT AVAILABLE,(843) 723-0863
54188,450267000718,LEE COUNTY CAREER AND TECHNOLOGY CENTER,1804 WISACKY HIGHWAY,BISHOPVILLE,SC,29010,NOT AVAILABLE,(803) 428-4633
32615,450336001302,HOPKINS MIDDLE,1601 CLARKSON ROAD,HOPKINS,SC,29061,NOT AVAILABLE,(803) 695-3331
33653,450117000162,HENRY E. BONNER ELEMENTARY,171 MACEDONIA FOXES CIRCLE,MONCKS CORNER,SC,29461,NOT AVAILABLE,(843) 899-8950
35239,450231000519,MONAVIEW ELEMENTARY,10 MONAVIEW STREET,GREENVILLE,SC,29617,NOT AVAILABLE,(864) 355-4300
39391,450231000488,ALEXANDER ELEMENTARY,1601 BRAMLETT ROAD,GREENVILLE,SC,29611,NOT AVAILABLE,(864) 355-1000
575,450390101656,NEXT HIGH,2000 WADE HAMPTON BOULEVARD,GREENVILLE,SC,29615,NOT AVAILABLE,(864) 735-7260
1079,450360000997,FLORENCE CHAPEL MIDDLE,290 SHOALS ROAD,DUNCAN,SC,29334,NOT AVAILABLE,(864) 949-2310
1437,450201001675,SAND HILL ELEMENTARY,324 GNARLY OAK LANE,SUMMERVILLE,SC,29485,NOT AVAILABLE,(843) 695-5201
5258,450144000216,MT. PLEASANT ACADEMY,605 CENTER STREET,MOUNT PLEASANT,SC,29464,NOT AVAILABLE,(843) 849-2826
6854,450306000842,WALHALLA HIGH,4701 NORTH HIGHWAY 11,WALHALLA,SC,29691,NOT AVAILABLE,(864) 886-4490
21390,450390001153,FORT MILL ELEMENTARY,192 SPRINGFIELD PARKWAY,FORT MILL,SC,29715,NOT AVAILABLE,(803) 547-7546
21736,450072001321,JACKSON STEM MAGNET,18371 ATOMIC ROAD,JACKSON,SC,29831,NOT AVAILABLE,(803) 279-3525
27001,450273000733,SALUDA RIVER ACADEMY FOR THE ARTS,1520 DUKE AVENUE,WEST COLUMBIA,SC,29169,NOT AVAILABLE,(803) 739-4095
27976,450351000992,BOILING SPRINGS ELEMENTARY,700 DOUBLE BRIDGE ROAD,BOILING SPRINGS,SC,29316,NOT AVAILABLE,(864) 578-1231
28077,450342001187,THE PALMETTO EMPOWERMENT AND ENRICHMENT ACADEMY,1731 SHIVERS ROAD,COLUMBIA,SC,29210,NOT AVAILABLE,(803) 896-5952
28947,450108000131,GUINYARD-BUTLER MIDDLE,779 ALLEN STREET,BARNWELL,SC,29812,NOT AVAILABLE,(803) 541-1370
29630,450072000055,NORTH AUGUSTA HIGH,2000 KNOBCONE AVENUE,NORTH AUGUSTA,SC,29841,NOT AVAILABLE,(803) 442-6100
14682,450267000559,LEE CENTRAL HIGH,1800 WISACKY HIGHWAY,BISHOPVILLE,SC,29010,NOT AVAILABLE,(803) 428-4010
15785,450098000127,BARNWELL COUNTY CAREER CENTER,5214 REYNOLDS ROAD,BLACKVILLE,SC,29817,NOT AVAILABLE,(803) 259-5512
92365,450390800765,MARION HIGH,1205 SOUTH MAIN STREET,MARION,SC,29571,NOT AVAILABLE,(843) 423-2571
93717,450306001477,WEST OAK MIDDLE,501 WESTMINSTER HIGHWAY,WESTMINSTER,SC,29693,NOT AVAILABLE,(864) 886-4525
95516,450090000099,HOMELAND PARK PRIMARY,3519 WILMONT STREET,ANDERSON,SC,29624,NOT AVAILABLE,(864) 260-5125
71121,450000401228,SC SCHOOL FOR THE DEAF ELEMENTARY/MIDDLE,355 CEDAR SPRINGS ROAD,SPARTANBURG,SC,29302,NOT AVAILABLE,(864) 577-7811
71817,450231000567,HILLCREST HIGH,3665 SOUTH INDUSTRIAL DRIVE,SIMPSONVILLE,SC,29681,NOT AVAILABLE,(864) 355-3500
76169,450144000229,SPRINGFIELD ELEMENTARY,2130 PINEHURST AVENUE,CHARLESTON,SC,29414,NOT AVAILABLE,(843) 763-1538
76909,450105000129,WILLISTON-ELKO HIGH,12233 MAIN STREET,WILLISTON,SC,29853,NOT AVAILABLE,(803) 266-3110
77510,450084001506,FLAT ROCK ELEMENTARY,115 THOMPSON ROAD,ANDERSON,SC,29624,NOT AVAILABLE,(864) 296-9191
79085,450078000077,WREN HIGH,905 WREN SCHOOL ROAD,PIEDMONT,SC,29673,NOT AVAILABLE,(864) 850-5900
61252,450351001410,BOILING SPRINGS INTERMEDIATE,2055 HANGING ROCK ROAD,BOILING SPRINGS,SC,29316,NOT AVAILABLE,(864) 578-2884
81678,450072000016,BELVEDERE ELEMENTARY,201 RHOMBOID PLACE,BELVEDERE,SC,29841,NOT AVAILABLE,(803) 442-6330
84128,450180000329,WALKER-GAMBLE ELEMENTARY,2358 WALKER-GAMBLE ROAD,NEW ZION,SC,29111,NOT AVAILABLE,(843) 659-2102
85617,450231000506,DUNCAN CHAPEL ELEMENTARY,210 DUNCAN CHAPEL ROAD,GREENVILLE,SC,29617,NOT AVAILABLE,(864) 355-2700
86628,450306000835,WESTMINSTER ELEMENTARY,206 HAMILTON STREET,WESTMINSTER,SC,29693,NOT AVAILABLE,(864) 886-4520
88334,450378001096,GREELEYVILLE ELEMENTARY,7 VARNER AVENUE,GREELEYVILLE,SC,29056,NOT AVAILABLE,(843) 426-2116
88658,450264000708,CLINTON HIGH,18132 HIGHWAY 72 EAST,CLINTON,SC,29325,NOT AVAILABLE,(864) 833-0817
102809,450391001291,ROBERT E. HOWARD MIDDLE,1255 BELLEVILLE ROAD,ORANGEBURG,SC,29115,NOT AVAILABLE,(803) 534-5470
106134,450144001748,COOPER RIVER CENTER FOR ADVANCED STUDIES,1088 EAST MONTAGUE AVENUE,NORTH CHARLESTON,SC,29405,NOT AVAILABLE,(843) 953-3138
107275,450390101733,RENAISSANCE COLLEGIATE ACADEMY,425 SUMMIT TERRACE COURT BUILDING 2,COLUMBIA,SC,29229,NOT AVAILABLE,(803) 567-5634
21955,450258000680,KERSHAW ELEMENTARY,108 NORTH ROLLINS DRIVE,KERSHAW,SC,29067,NOT AVAILABLE,(803) 475-6655
24060,450339001311,DENT MIDDLE,2721 DECKER BOULEVARD,COLUMBIA,SC,29206,NOT AVAILABLE,(803) 699-2750
26319,450225000466,JOHNSONVILLE ELEMENTARY,160 EAST MARION STREET,JOHNSONVILLE,SC,29555,NOT AVAILABLE,(843) 386-2955
27049,450213000443,WEST FLORENCE HIGH,221 NORTH BELTLINE DRIVE,FLORENCE,SC,29501,NOT AVAILABLE,(843) 664-8472
4878,450249001679,ST. JAMES INTERMEDIATE,9641 SCIPIO LANE,MYRTLE BEACH,SC,29588,NOT AVAILABLE,(843) 903-6005
5884,450144001691,CAMP ROAD MIDDLE,1825 CAMP ROAD,CHARLESTON,SC,29412,NOT AVAILABLE,(843) 762-2784
6969,450243000608,FENNELL ELEMENTARY,131 YEMASSEE HIGHWAY,YEMASSEE,SC,29945,NOT AVAILABLE,(803) 398-5591
9606,450249000629,WACCAMAW ELEMENTARY,251 CLARIDY ROAD,CONWAY,SC,29526,NOT AVAILABLE,(843) 347-4684
11063,450363001031,JESSE S. BOBO ELEMENTARY,495 POWELL MILL ROAD,SPARTANBURG,SC,29301,NOT AVAILABLE,(864) 576-2085
19196,450108001163,BARNWELL ELEMENTARY,10524 MARLBORO AVENUE,BARNWELL,SC,29812,NOT AVAILABLE,(803) 541-1285
100287,450339000969,FOREST LAKE ELEMENTARY,6801 BROOKFIELD ROAD,COLUMBIA,SC,29206,NOT AVAILABLE,(803) 782-0470
106131,450117001707,FOXBANK ELEMENTARY,169 FOXBANK PLANTATION DRIVE,MONCKS CORNER,SC,29461,NOT AVAILABLE,(843) 761-1120
106133,450144001747,EAST COOPER CENTER FOR ADVANCED STUDIES,900 WARRIOR WAY,MOUNT PLEASANT,SC,29466,NOT AVAILABLE,(843) 856-5800
106151,450390101738,COMPASS,3710 LANDMARK DRIVE SUITE 201,COLUMBIA,SC,29204,NOT AVAILABLE,(803) 734-8322
106173,450390901715,LEGION COLLEGIATE ACADEMY,505 UNIVERSITY DRIVE,ROCK HILL,SC,29730,NOT AVAILABLE,(803) 620-6040
106176,450390901719,SUMMIT CLASSICAL SCHOOL,600 EAST FLORIDA STREET,CLINTON,SC,29325,NOT AVAILABLE,(864) 200-0535
51689,450357001012,WOODRUFF PRIMARY,200 LUCY P. EDWARDS ROAD,WOODRUFF,SC,29388,NOT AVAILABLE,(864) 476-3174
51936,450390001529,SUGAR CREEK ELEMENTARY,1599 FARM HOUSE ROAD,FORT MILL,SC,29715,NOT AVAILABLE,(803) 835-0150
52346,450333000893,SIX MILE ELEMENTARY,777 NORTH MAIN STREET,SIX MILE,SC,29682,NOT AVAILABLE,(864) 397-2400
56312,450339001676,JACKSON CREEK ELEMENTARY,7150 TRENHOLM ROAD EXTENSION,COLUMBIA,SC,29223,NOT AVAILABLE,(803) 790-3800
80010,450231001248,LAKEVIEW MIDDLE,3801 OLD BUNCOMBE ROAD,GREENVILLE,SC,29617,NOT AVAILABLE,(864) 355-6400
80401,450336001308,ST. ANDREWS MIDDLE,1231 BLUEFIELD ROAD,COLUMBIA,SC,29210,NOT AVAILABLE,(803) 731-8910
82503,450234001512,GREENWOOD EARLY CHILDHOOD CENTER,1125 CAMBRIDGE AVENUE,GREENWOOD,SC,29646,NOT AVAILABLE,(864) 941-5520
86710,450390101620,GREEN CHARTER SCHOOL,1440 PELHAM STREET,GREENVILLE,SC,29615,NOT AVAILABLE,(864) 288-4134
86903,450255000667,CAMDEN HIGH,1022 EHRENCLOU ROAD,CAMDEN,SC,29020,NOT AVAILABLE,(803) 425-8930
87528,450117001210,WESTVIEW MIDDLE,101 WESTVIEW BOULEVARD,GOOSE CREEK,SC,29445,NOT AVAILABLE,(843) 572-1700
87739,450000101376,MACDOUGALL HIGH,1516 OLD GILLIARD ROAD,RIDGEVILLE,SC,29472,NOT AVAILABLE,(803) 737-3036
88227,450249001458,OCEAN BAY MIDDLE,905 INTERNATIONAL DRIVE,MYRTLE BEACH,SC,29579,NOT AVAILABLE,(843) 903-8420
88447,450231000489,BROOK GLENN ELEMENTARY,2003 EAST LEE ROAD,TAYLORS,SC,29687,NOT AVAILABLE,(864) 355-4700
95778,450390101646,LOWCOUNTRY MONTESSORI SCHOOL,749 BROAD RIVER DRIVE,BEAUFORT,SC,29906,NOT AVAILABLE,(843) 322-0577
98989,450267000709,DENNIS ELEMENTARY,321 ROLAND STREET,BISHOPVILLE,SC,29010,NOT AVAILABLE,(803) 483-1005
43997,450144000219,NORTH CHARLESTON ELEMENTARY,4921 DURANT AVENUE,NORTH CHARLESTON,SC,29405,NOT AVAILABLE,(843) 745-7107
46352,450339000966,BETHEL-HANBERRY ELEMENTARY,125 BONEY ROAD,BLYTHEWOOD,SC,29016,NOT AVAILABLE,(803) 691-6880
46951,450231001252,NORTHWOOD MIDDLE,710 IKE'S ROAD,TAYLORS,SC,29687,NOT AVAILABLE,(864) 355-7000
49091,450297000024,BLENHEIM MIDDLE SCHOOL OF DISCOVERY,143 HIGHLAND STREET,BLENHEIM,SC,29516,NOT AVAILABLE,(843) 528-3262
31314,450240000604,NINETY SIX HIGH,640 SOUTH CAMBRIDGE STREET,NINETY SIX,SC,29666,NOT AVAILABLE,(864) 543-2911
32135,450270000727,LEXINGTON TECHNOLOGY CENTER,2421 AUGUSTA HIGHWAY,LEXINGTON,SC,29072,NOT AVAILABLE,(803) 821-3000
32221,450378001112,C. E. MURRAY HIGH,222 C.E. MURRAY BOULEVARD,GREELEYVILLE,SC,29056,NOT AVAILABLE,(843) 426-2121
36976,450270001493,CAROLINA SPRINGS MIDDLE,6180 PLATT SPRINGS ROAD,LEXINGTON,SC,29073,NOT AVAILABLE,(803) 821-4900
37756,450258000556,DISCOVERY CHARTER OF LANCASTER,302 WEST DUNLAP STREET,LANCASTER,SC,29720,NOT AVAILABLE,(803) 285-8430
37987,450186000095,DARLINGTON HIGH,525 SPRING STREET,DARLINGTON,SC,29532,NOT AVAILABLE,(843) 398-5140
38111,450354001009,COWPENS MIDDLE,150 FOSTER STREET,COWPENS,SC,29330,NOT AVAILABLE,(864) 279-6400
60558,450303000807,LITTLE MOUNTAIN ELEMENTARY,692 MILL STREET,LITTLE MOUNTAIN,SC,29075,NOT AVAILABLE,(803) 945-7721
60812,450390201077,EBENEZER MIDDLE,3440 EBENEZER ROAD,SUMTER,SC,29153,NOT AVAILABLE,(803) 469-8571
65394,450333000890,LIBERTY ELEMENTARY,251 NORTH HILLCREST STREET,LIBERTY,SC,29657,NOT AVAILABLE,(864) 397-2100
68980,450339000928,BLYTHEWOOD HIGH,10901 WILSON BOULEVARD,BLYTHEWOOD,SC,29016,NOT AVAILABLE,(803) 691-4090
70531,450144000944,LAUREL HILL PRIMARY,3100 THOMAS CARIO BOULEVARD,MT. PLEASANT,SC,29466,NOT AVAILABLE,(843) 849-2200
71395,450117001351,STRATFORD HIGH,951 CROWFIELD BOULEVARD,GOOSE CREEK,SC,29445,NOT AVAILABLE,(843) 820-4000
78300,450222000737,JOHNSON MIDDLE,304 KEMPER STREET,TIMMONSVILLE,SC,29161,NOT AVAILABLE,(843) 346-3956
79175,450213001234,MCLAURIN ELEMENTARY,1400 MCMILLAN LANE,FLORENCE,SC,29506,NOT AVAILABLE,(843) 664-8457
10071,450255000760,DOBY'S MILL ELEMENTARY,1964 FT. JACKSON ROAD,LUGOFF,SC,29078,NOT AVAILABLE,(803) 438-4055
13817,450090001574,SOUTHWOOD ACADEMY FOR THE ARTS,1110 SOUTHWOOD STREET,ANDERSON,SC,29624,NOT AVAILABLE,(864) 260-5205
52411,450366001040,JESSE BOYD ELEMENTARY,1505 FERNWOOD GLENDALE ROAD,SPARTANBURG,SC,29307,NOT AVAILABLE,(864) 594-4430
52543,450240000602,NINETY SIX ELEMENTARY,810 JOHNSTON ROAD,NINETY SIX,SC,29666,NOT AVAILABLE,(864) 543-4995
55169,450255000665,LUGOFF-ELGIN HIGH,1284 HIGHWAY 1 SOUTH,LUGOFF,SC,29078,NOT AVAILABLE,(803) 438-3481
56313,450390001683,PLEASANT KNOLL MIDDLE,2320 PLEASANT ROAD,FORT MILL,SC,29708,NOT AVAILABLE,(803) 835-3770
56564,450339001554,RICHLAND TWO CHARTER HIGH,7900 BROOKMONT LANE,COLUMBIA,SC,29203,NOT AVAILABLE,(803) 419-1348
59323,450144001382,BUIST ACADEMY,103 CALHOUN STREET,CHARLESTON,SC,29401,NOT AVAILABLE,(843) 724-7750
59343,450231000564,GREENVILLE SENIOR HIGH ACADEMY,1 VARDY STREET,GREENVILLE,SC,29601,NOT AVAILABLE,(864) 355-5500
41654,450297001431,CLIO ELEMENTARY,2635 HIGHWAY 9 EAST,CLIO,SC,29525,NOT AVAILABLE,(843) 586-9391
43521,450243001428,BEN HAZEL PRIMARY,628 RAILROAD AVENUE WEST,HAMPTON,SC,29924,NOT AVAILABLE,(803) 943-3659
45075,450384000044,GRIGGS ROAD ELEMENTARY,100 GRIGGS ROAD,CLOVER,SC,29710,NOT AVAILABLE,(803) 631-8200
46775,450273000742,BROOKLAND-CAYCE HIGH,1300 STATE STREET,CAYCE,SC,29033,NOT AVAILABLE,(803) 791-5000
47173,450384000044,GRIGGS ROAD ELEMENTARY,100 GRIGGS ROAD,CLOVER,SC,29710,NOT AVAILABLE,(803) 631-8200
1192,450144001611,NORTH CHARLESTON CREATIVE ARTS ELEMENTARY,5200 LACKAWANNA BOULEVARD,NORTH CHARLESTON,SC,29403,NOT AVAILABLE,(843) 529-2831
5469,450336000954,W.J. KEENAN HIGH,361 PISGAH CHURCH ROAD,COLUMBIA,SC,29203,NOT AVAILABLE,(803) 714-2500
6074,450144001690,CAROLINA PARK ELEMENTARY,3650 PARK AVENUE BOULEVARD,MT. PLEASANT,SC,29466,NOT AVAILABLE,(843) 856-8060
61234,450363001033,WOODLAND HEIGHTS ELEMENTARY,1216 JOHN B. WHITE SR. BOULEVARD,SPARTANBURG,SC,29306,NOT AVAILABLE,(864) 576-0506
61969,450144001168,JAMES ISLAND CHARTER HIGH,1000 FT. JOHNSON ROAD,CHARLESTON,SC,29412,NOT AVAILABLE,(843) 762-2754
63681,450336000925,MILL CREEK ELEMENTARY,925 UNIVERSAL DRIVE,COLUMBIA,SC,29209,NOT AVAILABLE,(803) 783-5553
67799,450150000275,MARY BRAMLETT ELEMENTARY,301 SPRUCE STREET,GAFFNEY,SC,29340,NOT AVAILABLE,(864) 206-2520
69543,450192000385,DILLON HIGH,1730 HIGHWAY 301 NORTH,DILLON,SC,29536,NOT AVAILABLE,(843) 774-1230
22665,450366001042,THE CLEVELAND ACADEMY OF LEADERSHIP,151 FRANKLIN STREET,SPARTANBURG,SC,29303,NOT AVAILABLE,(864) 594-4444
22753,450348000987,NEW PROSPECT ELEMENTARY,9251 HIGHWAY 9,INMAN,SC,29349,NOT AVAILABLE,(864) 592-1970
24286,450231001249,LEAGUE ACADEMY,125 TWIN LAKE DRIVE,GREENVILLE,SC,29609,NOT AVAILABLE,(864) 355-8100
27523,450000200445,WOODLAND HIGH,4128 HIGHWAY 78,DORCHESTER,SC,29437,NOT AVAILABLE,(843) 563-5956
27864,450219000458,LAKE CITY HIGH,652 NORTH MATTHEWS ROAD,LAKE CITY,SC,29560,NOT AVAILABLE,(843) 374-3321
28173,450072000045,CHUKKER CREEK ELEMENTARY,1830 CHUKKER CREEK ROAD,AIKEN,SC,29803,NOT AVAILABLE,(803) 641-2474
32804,450090000113,WESTSIDE HIGH,806 PEARMAN DAIRY ROAD,ANDERSON,SC,29625,NOT AVAILABLE,(864) 260-5260
36808,450282000756,LEAPHART ELEMENTARY,120 PINEY GROVE ROAD,COLUMBIA,SC,29210,NOT AVAILABLE,(803) 476-4700
91146,450249001603,RIVER OAKS ELEMENTARY,700 AUGUSTA PLANTATION DRIVE,MYRTLE BEACH,SC,29579,NOT AVAILABLE,(843) 903-6300
92129,450333000895,MCKISSICK ACADEMY OF SCIENCE AND TECHNOLOGY,156 MCKISSICK ROAD,EASLEY,SC,29640,NOT AVAILABLE,(864) 397-2200
94370,450306000829,RAVENEL ELEMENTARY,150 RAVENEL SCHOOL ROAD,SENECA,SC,29678,NOT AVAILABLE,(864) 886-4450
95794,450339000969,FOREST LAKE ELEMENTARY,6801 BROOKFIELD ROAD,COLUMBIA,SC,29206,NOT AVAILABLE,(803) 782-0470
96710,450117000423,HANAHAN ELEMENTARY,4000 MABELINE ROAD,HANAHAN,SC,29410,NOT AVAILABLE,(843) 553-3290
99685,450339001572,CATAWBA TRAIL ELEMENTARY,1080 OLD NATIONAL HIGHWAY,ELGIN,SC,29045,NOT AVAILABLE,(803) 699-3501
71548,450192000380,LAKE VIEW HIGH,401 EAST THIRD AVENUE,LAKE VIEW,SC,29563,NOT AVAILABLE,(843) 759-3009
74022,450144000201,JANE EDWARDS ELEMENTARY,1960 JANE EDWARDS ROAD,EDISTO ISLAND,SC,29438,NOT AVAILABLE,(843) 559-4171
77150,450390201059,LEMIRA ELEMENTARY,952 FULTON STREET,SUMTER,SC,29150,NOT AVAILABLE,(803) 775-0658
77585,450186000190,MAYO HIGH FOR MATH SCIENCE & TECHNOLOGY,405 CHESTNUT STREET,DARLINGTON,SC,29532,NOT AVAILABLE,(843) 398-5050
78934,450279001587,SWANSEA HIGH FRESHMAN ACADEMY,1195 I. W. HUTTO ROAD,SWANSEA,SC,29160,NOT AVAILABLE,(803) 490-7006
80524,450234001255,BREWER MIDDLE,1000 EMERALD ROAD,GREENWOOD,SC,29646,NOT AVAILABLE,(864) 941-5500
81110,450102000126,BLACKVILLE-HILDA HIGH,76 ATKINS CIRCLE,BLACKVILLE,SC,29817,NOT AVAILABLE,(803) 284-5700
87278,450339000970,JOSEPH KEELS ELEMENTARY,7500 SPRINGCREST DRIVE,COLUMBIA,SC,29223,NOT AVAILABLE,(803) 736-8754
88958,450249000641,GREEN SEA FLOYDS HIGH,4990 TULIP GROVE ROAD,GREEN SEA,SC,29545,NOT AVAILABLE,(843) 392-3131
100124,450108000130,BARNWELL PRIMARY,9286 MARLBORO AVENUE,BARNWELL,SC,29812,NOT AVAILABLE,(803) 541-1320
102804,450273001705,LEXINGTON TWO INNOVATION CENTER,509 BULLDOG BOULEVARD,CAYCE,SC,29033,NOT AVAILABLE,(803) 936-5550
106167,450390901613,LOWCOUNTRY LEADERSHIP CHARTER SCHOOL,5139 GIBSON ROAD,MEGGETT,SC,29449,NOT AVAILABLE,(843) 889-5527
106187,450391000853,HOLLY HILL ELEMENTARY,1490 BRANT AVENUE,HOLLY HILL,SC,29059,NOT AVAILABLE,(803) 496-3464
40065,450076001380,CAREER AND TECHNOLOGY CENTER OF ANDERSON 1 & 2,702 BELTON HIGHWAY,WILLIAMSTON,SC,29697,NOT AVAILABLE,(864) 847-4121
40540,450261000699,SANDERS MIDDLE,609 GREEN STREET,LAURENS,SC,29360,NOT AVAILABLE,(864) 984-0354
47030,450117001208,MACEDONIA MIDDLE,200 MACEDONIA FOXES CIRCLE,MONCKS CORNER,SC,29461,NOT AVAILABLE,(843) 899-8940
49926,450387001150,ROCK HILL HIGH,320 WEST SPRINGDALE ROAD,ROCK HILL,SC,29730,NOT AVAILABLE,(803) 981-1300
50059,450117001403,SANGAREE INTERMEDIATE,201 SCHOOL HOUSE LANE,SUMMERVILLE,SC,29483,NOT AVAILABLE,(843) 820-3850
50473,450255000658,LUGOFF ELEMENTARY,994 RIDGEWAY ROAD,LUGOFF,SC,29078,NOT AVAILABLE,(803) 438-8000
54931,450117001670,PHILIP SIMMONS MIDDLE,2065 SEVEN STICKS DRIVE,WANDO,SC,29492,NOT AVAILABLE,(843) 471-2590
56315,450390101684,GREEN CHARTER SCHOOL OF THE MIDLANDS,7820 BROAD RIVER ROAD,IRMO,SC,29063,NOT AVAILABLE,(803) 563-5387
57166,450390101695,BETTIS PREPARATORY LEADERSHIP ACADEMY,69 NICHOLSON ROAD,TRENTON,SC,29847,NOT AVAILABLE,(803) 663-7266
34236,450270001514,FORTS POND ELEMENTARY,7350 FISH HATCHERY ROAD,PELION,SC,29123,NOT AVAILABLE,(803) 821-2500
34930,450225000467,JOHNSONVILLE MIDDLE,415 MAPLE STREET,JOHNSONVILLE,SC,29555,NOT AVAILABLE,(843) 386-2066
34981,450282000755,IRMO ELEMENTARY,7401 GIBBES STREET,IRMO,SC,29063,NOT AVAILABLE,(803) 476-4200
38179,450387001137,NORTHSIDE ELEMENTARY,840 NORTH ANNAFREL STREET,ROCK HILL,SC,29730,NOT AVAILABLE,(803) 981-1570
38561,450282000756,LEAPHART ELEMENTARY,120 PINEY GROVE ROAD,COLUMBIA,SC,29210,NOT AVAILABLE,(803) 476-4700
39521,450255000669,DR. GILBERT G. WOOLARD TECHNOLOGY CENTER,70 INNOVATION LANE,CAMDEN,SC,29020,NOT AVAILABLE,(803) 425-8982
24205,450186000360,BRUNSON-DARGAN ELEMENTARY,400 WELLS STREET,DARLINGTON,SC,29532,NOT AVAILABLE,(843) 398-5080
24206,450231000049,HERITAGE ELEMENTARY,1592 GREER HIGHWAY,TRAVELERS REST,SC,29690,NOT AVAILABLE,(864) 355-6000
24855,450387001516,MOUNT HOLLY ELEMENTARY,1800 PORTER ROAD,ROCK HILL,SC,29730,NOT AVAILABLE,(803) 985-1650
26702,450243000606,HAMPTON ELEMENTARY,505 HOOVER STREET,HAMPTON,SC,29924,NOT AVAILABLE,(803) 943-3251
27112,450222000738,BROCKINGTON ELEMENTARY,304 KEMPER STREET,TIMMONSVILLE,SC,29161,NOT AVAILABLE,(843) 346-3956
61675,450231000455,MAULDIN MIDDLE,1190 HOLLAND ROAD,SIMPSONVILLE,SC,29681,NOT AVAILABLE,(864) 355-6770
62844,450336000918,GADSDEN ELEMENTARY,1660 SOUTH GOODWIN CIRCLE,GADSDEN,SC,29052,NOT AVAILABLE,(803) 353-2231
64792,450144000218,MURRAY-LASAINE MONTESSORI,691 RIVERLAND DRIVE,CHARLESTON,SC,29412,NOT AVAILABLE,(843) 762-2765
66027,450207000413,STROM THURMOND HIGH,1131 COLUMBIA ROAD,JOHNSTON,SC,29832,NOT AVAILABLE,(803) 275-1768
67471,450156000316,LONG MIDDLE,1010 WEST GREEN STREET,CHERAW,SC,29520,NOT AVAILABLE,(843) 921-1010
68983,450363001038,DORMAN HIGH,1050 CAVALIER WAY,ROEBUCK,SC,29376,NOT AVAILABLE,(864) 582-4347
92072,450387001131,BELLEVIEW ELEMENTARY,501 BELLEVIEW ROAD,ROCK HILL,SC,29730,NOT AVAILABLE,(803) 981-1181
94693,450111001360,LADY'S ISLAND MIDDLE,30 COUGAR DRIVE,BEAUFORT,SC,29907,NOT AVAILABLE,(843) 322-3167
95489,450231000517,MAULDIN ELEMENTARY,1194 HOLLAND ROAD,SIMPSONVILLE,SC,29681,NOT AVAILABLE,(864) 355-3700
98583,450207000038,MERRIWETHER MIDDLE,430 MURRAH ROAD,NORTH AUGUSTA,SC,29860,NOT AVAILABLE,(803) 279-2511
1355,450081000084,BELTON HONEA PATH HIGH,11000 BELTON-HONEA PATH HIGHWAY,HONEA PATH,SC,29654,NOT AVAILABLE,(864) 369-7382
4150,450156000170,CHERAW INTERMEDIATE,421 CHESTERFIELD HIGHWAY,CHERAW,SC,29520,NOT AVAILABLE,(843) 921-1030
5237,450390101544,YORK PREPARATORY ACADEMY,1047 GOLDEN GATE COURT,ROCK HILL,SC,29732,NOT AVAILABLE,(803) 324-4400
5616,450381001122,YORK COMPREHENSIVE HIGH,275 EAST ALEXANDER LOVE HIGHWAY,YORK,SC,29745,NOT AVAILABLE,(803) 684-2336
7200,450336001300,HAND MIDDLE,2600 WHEAT STREET,COLUMBIA,SC,29205,NOT AVAILABLE,(803) 343-2947
15399,450195000389,LATTA ELEMENTARY,300 VIKING DRIVE,LATTA,SC,29565,NOT AVAILABLE,(843) 752-5295
72237,450111000547,BEAUFORT MIDDLE,2501 MOSSY OAKS BOULEVARD,BEAUFORT,SC,29902,NOT AVAILABLE,(843) 322-5700
76249,450144000251,NORTH CHARLESTON HIGH,1087 EAST MONTAGUE AVENUE,NORTH CHARLESTON,SC,29405,NOT AVAILABLE,(843) 745-7140
76285,450117000156,CAINHOY ELEMENTARY,2434 CAINHOY ROAD,HUGER,SC,29450,NOT AVAILABLE,(843) 899-8975
76922,450144000210,MEMMINGER ELEMENTARY,20 BEAUFAIN STREET,CHARLESTON,SC,29401,NOT AVAILABLE,(843) 724-7778
81785,450177000325,MANNING PRIMARY,125 NORTH BOUNDARY STREET,MANNING,SC,29102,NOT AVAILABLE,(803) 435-2268
83021,450156000305,EDWARDS ELEMENTARY,2411 WEST BOULEVARD,CHESTERFIELD,SC,29709,NOT AVAILABLE,(843) 623-2351
83504,450231000509,EAST NORTH STREET ACADEMY,1720 EAST NORTH STREET,GREENVILLE,SC,29607,NOT AVAILABLE,(864) 355-2900
83621,450117001207,BERKELEY MIDDLE,320 NORTH LIVE OAK DRIVE,MONCKS CORNER,SC,29461,NOT AVAILABLE,(843) 899-8840
85495,450378001108,HEMINGWAY HIGH,402 SOUTH MAIN STREET,HEMINGWAY,SC,29554,NOT AVAILABLE,(843) 558-9413
85786,450150000269,ALMA ELEMENTARY,213 ALMA STREET,GAFFNEY,SC,29340,NOT AVAILABLE,(864) 206-6482
86257,450213000446,FLORENCE CAREER CENTER,126 EAST HOWE SPRINGS ROAD,FLORENCE,SC,29505,NOT AVAILABLE,(843) 664-8464
88551,450255000655,BETHUNE ELEMENTARY,302 NORWOOD STREET EAST,BETHUNE,SC,29009,NOT AVAILABLE,(843) 334-6278
88765,450201001231,FLOWERTOWN ELEMENTARY,20 KING CHARLES CIRCLE,SUMMERVILLE,SC,29485,NOT AVAILABLE,(843) 871-7400
106135,450186001749,J. L. CAIN ELEMENTARY,607 FIRST STREET,DARLINGTON,SC,29532,NOT AVAILABLE,(843) 398-6220
106137,450186001751,LAMAR-SPAULDING ELEMENTARY,5232 LAMAR HIGHWAY 401,LAMAR,SC,29069,NOT AVAILABLE,(843) 398-6370
107281,450391000864,MARSHALL ELEMENTARY,1441 MARSHALL STREET,ORANGEBURG,SC,29118,NOT AVAILABLE,(803) 534-7865
81066,450336001195,RICHLAND ONE CHARTER MIDDLE COLLEGE,316 SOUTH BELTLINE BOULEVARD RICHLAND HALL 132,COLUMBIA,SC,29205,NOT AVAILABLE,(803) 738-7114
85387,450384001100,OAKRIDGE MIDDLE,5670 OAKRIDGE ROAD,CLOVER,SC,29710,NOT AVAILABLE,(803) 631-8000
101369,450258000670,BROOKLYN SPRINGS ELEMENTARY,1637 BILLINGS DRIVE,LANCASTER,SC,29720,NOT AVAILABLE,(803) 283-8471
106140,450249001724,MYRTLE BEACH ELEMENTARY,3301 OAK STREET,MYRTLE BEACH,SC,29577,NOT AVAILABLE,(843) 626-5831
106178,450390901757,BERKELEY PREPARATORY ACADEMY,1201 MAIN STREET SUITE 300,COLUMBIA,SC,29201,NOT AVAILABLE,(803) 849-2464
106189,450391000880,BRANCHVILLE HIGH,1349 DORANGE ROAD,BRANCHVILLE,SC,29432,NOT AVAILABLE,(803) 274-8875
21265,450231000449,CHANDLER CREEK ELEMENTARY,301 CHANDLER ROAD,GREER,SC,29651,NOT AVAILABLE,(864) 355-2400
24523,450366001046,PINE ST. ELEMENTARY,500 SOUTH PINE STREET,SPARTANBURG,SC,29302,NOT AVAILABLE,(864) 594-4470
25087,450390101589,YOUTH LEADERSHIP ACADEMY,698 CONCORD CHURCH ROAD,PICKENS,SC,29671,NOT AVAILABLE,(864) 898-4511
71665,450306000825,NORTHSIDE ELEMENTARY,710 NORTH TOWNVILLE STREET,SENECA,SC,29678,NOT AVAILABLE,(864) 886-4445
72742,450348000988,CHAPMAN HIGH,1420 COMPTON BRIDGE ROAD,INMAN,SC,29349,NOT AVAILABLE,(864) 472-2836
73501,450093000119,BAMBERG-EHRHARDT HIGH,267 RED RAIDER DRIVE,BAMBERG,SC,29003,NOT AVAILABLE,(803) 245-3030
78342,450270001578,MEADOW GLEN MIDDLE,440 GINNY LANE,LEXINGTON,SC,29072,NOT AVAILABLE,(803) 821-0600
78565,450183000333,BLACK STREET EARLY CHILDHOOD CENTER,256 SMITH STREET,WALTERBORO,SC,29488,NOT AVAILABLE,(843) 782-4516
79885,450363001025,FAIRFOREST ELEMENTARY,1005 MOUNT ZION ROAD,SPARTANBURG,SC,29303,NOT AVAILABLE,(864) 439-5000
64550,450078001325,WREN ELEMENTARY,226 ROPER ROAD,PIEDMONT,SC,29673,NOT AVAILABLE,(864) 850-5950
64758,450390201079,HILLCREST MIDDLE,4355 PEACH ORCHARD ROAD,DALZELL,SC,29040,NOT AVAILABLE,(803) 499-3341
65874,450273001270,CYRIL B. BUSBEE CREATIVE ARTS ACADEMY,501 BULLDOG BOULEVARD,CAYCE,SC,29033,NOT AVAILABLE,(803) 739-4070
66710,450390800053,MARION INTERMEDIATE,2320 NORTH HIGHWAY 41-A,MARION,SC,29571,NOT AVAILABLE,(843) 423-8345
68204,450111000141,MOSSY OAKS ELEMENTARY,2510 MOSSY OAKS ROAD,BEAUFORT,SC,29902,NOT AVAILABLE,(843) 322-2900
10741,450186000371,LAMAR HIGH,216 NORTH DARLINGTON AVENUE,LAMAR,SC,29069,NOT AVAILABLE,(843) 326-5543
15713,450246000611,ESTILL ELEMENTARY,636 FOURTH STREET,ESTILL,SC,29918,NOT AVAILABLE,(803) 625-5030
16834,450378001559,HEMINGWAY MB LEE MIDDLE,400 SOUTH MAIN STREET,HEMINGWAY,SC,29554,NOT AVAILABLE,(843) 558-2721
30822,450336001303,MEADOWFIELD ELEMENTARY,525 GALWAY LANE,COLUMBIA,SC,29209,NOT AVAILABLE,(803) 738-5549
33380,450282000757,SEVEN OAKS ELEMENTARY,2800 ASHLAND ROAD,COLUMBIA,SC,29210,NOT AVAILABLE,(803) 476-8500
34004,450153001171,CHESTER PARK ELEMENTARY SCHOOL FOR THE ARTS,835-A LANCASTER HIGHWAY,CHESTER,SC,29706,NOT AVAILABLE,(803) 581-7279
34194,450186000362,ST. JOHN'S ELEMENTARY,140 PARK STREET,DARLINGTON,SC,29532,NOT AVAILABLE,(843) 398-5130
34649,450258000685,ANDREW JACKSON MIDDLE,6865 KERSHAW CAMDEN HIGHWAY,KERSHAW,SC,29067,NOT AVAILABLE,(803) 475-6021
35792,450144001505,CHARLESTON CHARTER SCHOOL FOR MATH AND SCIENCE,1002 KING STREET,CHARLESTON,SC,29403,NOT AVAILABLE,(843) 720-3085
38544,450336001306,ROSEWOOD ELEMENTARY,3300 ROSEWOOD DRIVE,COLUMBIA,SC,29205,NOT AVAILABLE,(803) 343-2930
39302,450117000158,COLLEGE PARK ELEMENTARY,100 DAVIDSON DRIVE,LADSON,SC,29456,NOT AVAILABLE,(843) 797-2711
40368,450336001463,CAROLINA SCHOOL FOR INQUIRY,7405-A FAIRFIELD ROAD,COLUMBIA,SC,29203,NOT AVAILABLE,(803) 691-1250
41885,450258000677,HEATH SPRINGS ELEMENTARY,158 SOLAR ROAD,HEATH SPRINGS,SC,29058,NOT AVAILABLE,(803) 273-3176
42773,450072000026,GREENDALE ELEMENTARY,505 SOUTH BOUNDARY AVENUE,NEW ELLENTON,SC,29809,NOT AVAILABLE,(803) 652-8170
44103,450246000613,ESTILL HIGH,1450 COLUMBIA HIGHWAY SUITE A,ESTILL,SC,29918,NOT AVAILABLE,(803) 625-5100
44755,450378001099,KENNETH GARDNER ELEMENTARY,1503 WOODLAND DRIVE,KINGSTREE,SC,29556,NOT AVAILABLE,(843) 355-7233
44782,450237000598,WARE SHOALS ELEMENTARY MIDDLE,45 WEST MAIN STREET,WARE SHOALS,SC,29692,NOT AVAILABLE,(864) 456-2711
48523,450000201597,HARLEYVILLE-RIDGEVILLE MIDDLE,1650 EAST MAIN STREET,DORCHESTER,SC,29437,NOT AVAILABLE,(843) 462-2470
507,450117001658,NEXTON ELEMENTARY,200 SCHOLAR WAY,SUMMERVILLE,SC,29483,NOT AVAILABLE,(843) 900-3222
1008,450282001621,SPRING HILL HIGH,11629 BROAD RIVER ROAD,CHAPIN,SC,29036,NOT AVAILABLE,(803) 476-8700
8523,450270000976,PLEASANT HILL ELEMENTARY,664 RAWL ROAD,LEXINGTON,SC,29072,NOT AVAILABLE,(803) 821-2800
8696,450270001429,WHITE KNOLL ELEMENTARY,132 WHITE KNOLL WAY,WEST COLUMBIA,SC,29170,NOT AVAILABLE,(803) 821-4500
90657,450111000943,HILTON HEAD ISLAND ELEMENTARY,30 SCHOOL ROAD,HILTON HEAD ISLAND,SC,29926,NOT AVAILABLE,(843) 342-4100
94933,450336000638,WATKINS-NANCE ELEMENTARY,2525 BARHAMVILLE ROAD,COLUMBIA,SC,29204,NOT AVAILABLE,(803) 733-4321
95187,450150000284,JOHN E. EWING MIDDLE,171 EAST JUNIOR HIGH ROAD,GAFFNEY,SC,29340,NOT AVAILABLE,(864) 206-2449
95462,450231000495,BETHEL ELEMENTARY,111 BETHEL SCHOOL ROAD,SIMPSONVILLE,SC,29681,NOT AVAILABLE,(864) 355-4100
98484,450384001125,BETHEL ELEMENTARY,6000 HIGHWAY 55 EAST,CLOVER,SC,29710,NOT AVAILABLE,(803) 631-8300
2180,450111001549,PRITCHARDVILLE ELEMENTARY,9447 EVAN WAY,BLUFFTON,SC,29910,NOT AVAILABLE,(843) 707-0500
8369,450363001032,WEST VIEW ELEMENTARY,400 OAK GROVE ROAD,SPARTANBURG,SC,29301,NOT AVAILABLE,(864) 576-1833
9678,450249000906,BRIDGEWATER ACADEMY CHARTER,191 RIVER LANDING BOULEVARD,MYRTLE BEACH,SC,29579,NOT AVAILABLE,(843) 236-3689
41891,450111000392,WHALE BRANCH ELEMENTARY,15 STUART POINT ROAD,SEABROOK,SC,29941,NOT AVAILABLE,(843) 466-1000
45031,450231000563,EASTSIDE HIGH,1300 BRUSHY CREEK ROAD,TAYLORS,SC,29687,NOT AVAILABLE,(864) 355-2800
46389,450000100266,RIDGELAND HIGH,5 CORRECTIONAL ROAD,RIDGELAND,SC,29936,NOT AVAILABLE,(803) 896-3252
47029,450072000040,WARRENVILLE ELEMENTARY,569 HOWLANDVILLE ROAD,WARRENVILLE,SC,29851,NOT AVAILABLE,(803) 663-4270
47756,450336001299,W. G. SANDERS MIDDLE,3455 PINE BELT ROAD,COLUMBIA,SC,29204,NOT AVAILABLE,(803) 735-7575
48788,450390001155,FORT MILL MIDDLE,200 SPRINGFIELD PARKWAY,FORT MILL,SC,29715,NOT AVAILABLE,(803) 547-5553
70907,450201000397,SUMMERVILLE ELEMENTARY,835 SOUTH MAIN STREET,SUMMERVILLE,SC,29483,NOT AVAILABLE,(843) 873-2372
71195,450390201058,CROSSWELL DRIVE ELEMENTARY,301 CROSSWELL DRIVE,SUMTER,SC,29150,NOT AVAILABLE,(803) 775-0679
71831,450072001198,MIDLAND VALLEY HIGH,227 MUSTANG DRIVE,GRANITEVILLE,SC,29829,NOT AVAILABLE,(803) 593-7100
72929,450387001144,INDEPENDENCE ELEMENTARY,132 WEST SPRINGDALE ROAD,ROCK HILL,SC,29730,NOT AVAILABLE,(803) 981-1135
73971,450333000883,CROSSWELL ELEMENTARY,161 SCHOOL ROAD,EASLEY,SC,29640,NOT AVAILABLE,(864) 397-1600
75390,450144000249,C. E. WILLIAMS MIDDLE SCHOOL FOR CREATIVE AND SCIENTIFIC ART,3090 SANDERS ROAD,CHARLESTON,SC,29414,NOT AVAILABLE,(843) 763-1529
75439,450213000432,NORTH VISTA ELEMENTARY,1100 NORTH IRBY STREET,FLORENCE,SC,29501,NOT AVAILABLE,(843) 664-8159
76804,450384001127,CLOVER MIDDLE,1233 BARRETT ROAD,CLOVER,SC,29710,NOT AVAILABLE,(803) 810-8300
79239,450144000250,BAPTIST HILL HIGH,5117 BAPTIST HILL ROAD,HOLLYWOOD,SC,29449,NOT AVAILABLE,(843) 889-2276
79484,450090000107,CALHOUN ACADEMY OF THE ARTS,1520 EAST CALHOUN STREET,ANDERSON,SC,29621,NOT AVAILABLE,(864) 260-5090
50007,450390001103,NATION FORD HIGH,1400 AO JONES BOULEVARD,FORT MILL,SC,29715,NOT AVAILABLE,(803) 835-0000
50740,450282001599,CENTER FOR ADVANCED TECHNICAL STUDIES,916 MOUNT VERNON CHURCH ROAD,CHAPIN,SC,29036,NOT AVAILABLE,(803) 476-8600
55221,450117001166,SANGAREE MIDDLE,1050 DISCOVERY DRIVE,LADSON,SC,29445,NOT AVAILABLE,(843) 821-4028
56308,450117001681,PHILIP SIMMONS HIGH,3080 RIVER VILLAGE DRIVE,CHARLESTON,SC,29492,NOT AVAILABLE,(843) 471-2960
56735,450156001173,CHESTERFIELD-RUBY MIDDLE,14445 HIGHWAY 9,CHESTERFIELD,SC,29709,NOT AVAILABLE,(843) 623-9401
80161,450390201063,ALICE DRIVE MIDDLE,40 MILLER ROAD,SUMTER,SC,29150,NOT AVAILABLE,(803) 775-0821
83646,450000700597,G. FRANK RUSSELL TECHNOLOGY CENTER,601 EAST NORTHSIDE DRIVE,GREENWOOD,SC,29649,NOT AVAILABLE,(864) 941-5750
83752,450213000437,WALLACE GREGG ELEMENTARY,515 FRANCIS MARION ROAD,FLORENCE,SC,29505,NOT AVAILABLE,(843) 664-8481
86544,450249000647,ACADEMY FOR ARTS/SCIENCE/TECHNOLOGY,895 INTERNATIONAL DRIVE,MYRTLE BEACH,SC,29579,NOT AVAILABLE,(843) 903-8460
87902,450252001396,RIDGELAND ELEMENTARY,250 JAGUAR TRAIL,RIDGELAND,SC,29936,NOT AVAILABLE,(843) 489-8845
88294,450282001277,NURSERY ROAD ELEMENTARY,6706 NURSERY ROAD,COLUMBIA,SC,29212,NOT AVAILABLE,(803) 476-4300
10404,450000401226,SC SCHOOL FOR THE BLIND HIGH,355 CEDAR SPRINGS ROAD,SPARTANBURG,SC,29302,NOT AVAILABLE,(864) 577-7600
10999,450000100148,TRENTON HIGH,84 GREENHOUSE ROAD,TRENTON,SC,29847,NOT AVAILABLE,(803) 896-3044
12150,450333000902,EASLEY HIGH,154 GREEN WAVE BOULEVARD,EASLEY,SC,29642,NOT AVAILABLE,(864) 397-3100
14062,450069000071,LONG CANE PRIMARY,815 EAST GREENWOOD STREET,ABBEVILLE,SC,29620,NOT AVAILABLE,(864) 366-5924
14291,450186000363,THORNWELL SCHOOL FOR THE ARTS,437 WEST CAROLINA AVENUE,HARTSVILLE,SC,29550,NOT AVAILABLE,(843) 383-3127
16777,450258001634,HARRISBURG ELEMENTARY,10251 HARRISBURG ROAD,INDIAN LAND,SC,29707,NOT AVAILABLE,(803) 283-8484
17777,450213000442,WILSON HIGH,1411 OLD MARION HIGHWAY,FLORENCE,SC,29506,NOT AVAILABLE,(843) 664-8440
91353,450339000970,JOSEPH KEELS ELEMENTARY,7500 SPRINGCREST DRIVE,COLUMBIA,SC,29223,NOT AVAILABLE,(803) 736-8754
94676,450231001593,MONARCH ELEMENTARY,224 FIVE FORKS ROAD,SIMPSONVILLE,SC,29681,NOT AVAILABLE,(864) 355-0600
94782,450231000572,SOUTHSIDE HIGH,6630 FRONTAGE AT WHITE HORSE ROAD,GREENVILLE,SC,29605,NOT AVAILABLE,(864) 355-8700
95611,450336000946,W. A. PERRY MIDDLE,2600 BARHAMVILLE ROAD,COLUMBIA,SC,29204,NOT AVAILABLE,(803) 256-6347
95626,450144000264,ST. JOHNS HIGH,1518 MAIN ROAD,JOHNS ISLAND,SC,29455,NOT AVAILABLE,(843) 559-6400
96316,450228001518,WACCAMAW INTERMEDIATE,320 WILDCAT WAY,PAWLEYS ISLAND,SC,29585,NOT AVAILABLE,(843) 237-7071
98472,450347001056,DANIEL MORGAN TECHNOLOGY CENTER,201 ZION HILL ROAD,SPARTANBURG,SC,29307,NOT AVAILABLE,(864) 279-6900
99784,450276000745,BATESBURG-LEESVILLE PRIMARY SCHOOL,800 SUMMERLAND AVENUE,BATESBURG-LEESVILLE,SC,29006,NOT AVAILABLE,(803) 532-4452
61879,450117001537,CANE BAY ELEMENTARY,1247 CANE BAY BOULEVARD,SUMMERVILLE,SC,29486,NOT AVAILABLE,(843) 899-5100
62729,450144001214,HARBOR VIEW ELEMENTARY,1576 HARBOR VIEW ROAD,CHARLESTON,SC,29412,NOT AVAILABLE,(843) 762-2749
67472,450231000503,CRESTVIEW ELEMENTARY,509 AMERICAN LEGION ROAD,GREER,SC,29651,NOT AVAILABLE,(864) 355-2600
67697,450186000355,PATE ELEMENTARY,1010 INDIAN BRANCH ROAD,DARLINGTON,SC,29532,NOT AVAILABLE,(843) 398-5070
67728,450156000307,PETERSBURG PRIMARY,326 NORTH ARNOLD STREET,PAGELAND,SC,29728,NOT AVAILABLE,(843) 672-6241
69908,450270001569,MEADOW GLEN ELEMENTARY,510 GINNY LANE,LEXINGTON,SC,29072,NOT AVAILABLE,(803) 821-0400
20244,450108001163,BARNWELL ELEMENTARY,10524 MARLBORO AVENUE,BARNWELL,SC,29812,NOT AVAILABLE,(803) 541-1285
22529,450336000935,WEBBER SCHOOL,140 WEBBER SCHOOL ROAD,EASTOVER,SC,29044,NOT AVAILABLE,(803) 353-8771
22838,450336000911,BRENNEN ELEMENTARY,4438 DEVEREAUX ROAD,COLUMBIA,SC,29205,NOT AVAILABLE,(803) 738-7204
27958,450249000191,CAROLINA FOREST ELEMENTARY,285 CAROLINA FOREST BOULEVARD,MYRTLE BEACH,SC,29579,NOT AVAILABLE,(843) 236-0001
28106,450228000470,BROWN'S FERRY ELEMENTARY,7292 BROWN'S FERRY ROAD,GEORGETOWN,SC,29440,NOT AVAILABLE,(843) 527-1325
28800,450249000621,SOUTH CONWAY ELEMENTARY,3001 FOURTH AVENUE,CONWAY,SC,29526,NOT AVAILABLE,(843) 488-0272
30168,450390101542,PALMETTO SCHOLARS ACADEMY,7499 DORCHESTER ROAD,NORTH CHARLESTON,SC,29418,NOT AVAILABLE,(843) 300-4118
30456,450231000514,HOLLIS ACADEMY,200 GOODRICH STREET,GREENVILLE,SC,29611,NOT AVAILABLE,(864) 355-4800
30675,450231000560,BEREA HIGH,201 BURDINE DRIVE,GREENVILLE,SC,29617,NOT AVAILABLE,(864) 355-1600
33111,450078000070,WEST PELZER ELEMENTARY,110 WEST STEWART STREET,WEST PELZER,SC,29669,NOT AVAILABLE,(864) 947-6424
36034,450144000856,EAST COOPER MONTESSORI CHARTER,1120 RIFLE RANGE ROAD,MT. PLEASANT,SC,29464,NOT AVAILABLE,(843) 216-2883
101409,450144000220,OAKLAND ELEMENTARY,505-A ARLINGTON DRIVE,CHARLESTON,SC,29414,NOT AVAILABLE,(843) 763-1510
106129,450072001727,AIKEN INTERMEDIATE,101 GATOR LANE,AIKEN,SC,29801,NOT AVAILABLE,(803) 641-2570
106139,450219001709,J. PAUL TRULUCK CREATIVE ARTS AND SCIENCE MAGNET,319 CARLISLE STREET,LAKE CITY,SC,29560,NOT AVAILABLE,(843) 374-8685
106143,450249001752,HCS SCHOLARS ACADEMY HIGH,104 CHANTICLEER DRIVE EAST,CONWAY,SC,29526,NOT AVAILABLE,(843) 349-4117
106162,450390901510,CALHOUN FALLS CHARTER SCHOOL,205 EDGEFIELD STREET,CALHOUN FALLS,SC,29628,NOT AVAILABLE,(864) 418-8014
106179,450390901758,LOWCOUNTRY CONNECTIONS ACADEMY,1201 MAIN STREET SUITE 300,COLUMBIA,SC,29201,NOT AVAILABLE,(803) 849-2464
106192,450391001289,HOLLY HILL-ROBERTS MIDDLE,530 HESSEMAN STREET,HOLLY HILL,SC,29059,NOT AVAILABLE,(803) 496-3818
107271,450366001710,DRAYTON MILLS ELEMENTARY,1500 SKYLYN DRIVE,SPARTANBURG,SC,29307,NOT AVAILABLE,(864) 586-7979
50738,450144001610,MONTESSORI COMMUNITY SCHOOL,2122 WOOD AVENUE,CHARLESTON,SC,29414,NOT AVAILABLE,(843) 769-0346
54028,450111001662,RIVER RIDGE ACADEMY,3050 RIVER RIDGE DRIVE,BLUFFTON,SC,29910,NOT AVAILABLE,(843) 836-4600
54035,450282001654,CHAPIN MIDDLE,11661 BROAD RIVER ROAD,CHAPIN,SC,29036,NOT AVAILABLE,(803) 722-5500
56825,450360001023,D. R. HILL MIDDLE,1303 HOLLY SPRINGS ROAD,LYMAN,SC,29365,NOT AVAILABLE,(864) 949-2370
57126,450390901700,BELTON PREPARATORY ACADEMY,5901 BELTON HIGHWAY,BELTON,SC,29627,NOT AVAILABLE,(864) 392-1173
57271,450390101689,MEYER CENTER FOR SPECIAL CHILDREN,1132 RUTHERFORD ROAD,GREENVILLE,SC,29609,NOT AVAILABLE,(864) 250-0005
58714,450153001020,ACADEMY FOR TEACHING AND LEARNING,109 HINTON STREET,CHESTER,SC,29706,NOT AVAILABLE,(803) 385-6334
59075,450069000012,DIXIE HIGH,1 HAYNES STREET,DUE WEST,SC,29639,NOT AVAILABLE,(864) 379-2186
41422,450081001205,HONEA PATH MIDDLE,107 BROCK AVENUE,HONEA PATH,SC,29654,NOT AVAILABLE,(864) 369-7641
43630,450249000642,CONWAY HIGH,2301 CHURCH STREET,CONWAY,SC,29526,NOT AVAILABLE,(843) 488-0662
43879,450333000899,D. W. DANIEL HIGH,140 BLUE AND GOLD BOULEVARD,CENTRAL,SC,29630,NOT AVAILABLE,(864) 397-2900
45322,450255000656,BLANEY ELEMENTARY,1621 SMYRNA ROAD,ELGIN,SC,29045,NOT AVAILABLE,(803) 438-3241
46241,450144001628,CAROLINA VOYAGER CHARTER,721 WAPPOO ROAD,CHARLESTON,SC,29407,NOT AVAILABLE,(843) 203-3891
49092,450333000904,PICKENS HIGH,150 BLUE FLAME DRIVE,PICKENS,SC,29671,NOT AVAILABLE,(864) 397-3600
81116,450282000339,DUTCH FORK MIDDLE,1528 OLD TAMAH ROAD,IRMO,SC,29063,NOT AVAILABLE,(803) 476-4800
82016,450117000154,BERKELEY ELEMENTARY,715 HIGHWAY 6,MONCKS CORNER,SC,29461,NOT AVAILABLE,(843) 899-8860
86569,450336000933,J. P. THOMAS ELEMENTARY,6001 WESTON AVENUE,COLUMBIA,SC,29203,NOT AVAILABLE,(803) 735-3430
71125,450210001448,FAIRFIELD MAGNET FOR MATH AND SCIENCE,1647 US HIGHWAY 321 BYPASS NORTH,WINNSBORO,SC,29180,NOT AVAILABLE,(803) 635-4810
76117,450360001021,WELLFORD ACADEMY OF SCIENCE AND TECHNOLOGY,864 SYPHRIT ROAD,WELLFORD,SC,29385,NOT AVAILABLE,(864) 949-2385
76574,450258000691,LANCASTER HIGH,625 WOODLAND DRIVE,LANCASTER,SC,29720,NOT AVAILABLE,(803) 283-2001
77121,450297001605,BENNETTSVILLE INTERMEDIATE,701 CHERAW STREET,BENNETTSVILLE,SC,29512,NOT AVAILABLE,(843) 479-5941
79105,450144000225,EDITH L. FRIERSON ELEMENTARY,6133 MAYBANK HIGHWAY,WADMALAW ISLAND,SC,29487,NOT AVAILABLE,(843) 559-1182
90943,450354001003,CANNONS ELEMENTARY,1315 OLD CONVERSE ROAD,SPARTANBURG,SC,29307,NOT AVAILABLE,(864) 279-6100
93903,450390201065,SUMTER HIGH,2580 MCCRAY'S MILL ROAD,SUMTER,SC,29154,NOT AVAILABLE,(803) 481-4480
97133,450381001422,HICKORY GROVE-SHARON ELEMENTARY,4901 HICKORY GROVE ROAD,HICKORY GROVE,SC,29717,NOT AVAILABLE,(803) 925-2116
99222,450231000572,SOUTHSIDE HIGH,6630 FRONTAGE AT WHITE HORSE ROAD,GREENVILLE,SC,29605,NOT AVAILABLE,(864) 355-8700
64961,450261000558,WATERLOO ELEMENTARY,10457 HIGHWAY 221 SOUTH,WATERLOO,SC,29384,NOT AVAILABLE,(864) 677-5610
67133,450270000014,SAXE GOTHA ELEMENTARY,100 BILL WILLIAMSON COURT,LEXINGTON,SC,29073,NOT AVAILABLE,(803) 821-4800
30575,450249000628,KINGSTON ELEMENTARY,4580 HIGHWAY 472,CONWAY,SC,29526,NOT AVAILABLE,(843) 365-3777
36412,450258001490,INDIAN LAND MIDDLE,8361 CHARLOTTE HIGHWAY,INDIAN LAND,SC,29707,NOT AVAILABLE,(803) 578-2500
36568,450234001338,ELEANOR S. RICE ELEMENTARY,1802 EAST DURST AVENUE,GREENWOOD,SC,29649,NOT AVAILABLE,(864) 941-5660
36925,450360000209,BEECH SPRINGS INTERMEDIATE,200 SOUTH DANZLER ROAD,DUNCAN,SC,29334,NOT AVAILABLE,(864) 949-7600
100135,450336000487,CARVER-LYON ELEMENTARY,2100 WAVERLY STREET,COLUMBIA,SC,29204,NOT AVAILABLE,(803) 343-2900
106124,450000101730,ALLENDALE HIGH,1057 REVOLUTIONARY RAOD,FAIRFAX,SC,29827,NOT AVAILABLE,(803) 737-3036
106165,450390901527,ODYSSEY ONLINE LEARNING,510 LEXINGTON AVE #102,CHAPIN,SC,29036,NOT AVAILABLE,(803) 735-9110
107278,450391000860,EDISTO PRIMARY,3239 CORDOVA ROAD,CORDOVA,SC,29039,NOT AVAILABLE,(803) 536-4782
107288,450391000877,ELLOREE ELEMENTARY,200 WARRIOR DRIVE,ELLOREE,SC,29047,NOT AVAILABLE,(803) 897-2233
20912,450231000532,TAYLORS ELEMENTARY,809 REID SCHOOL ROAD,TAYLORS,SC,29687,NOT AVAILABLE,(864) 355-7450
21515,450144001562,PINEHURST ELEMENTARY,7753 NORTHSIDE DRIVE,NORTH CHARLESTON,SC,29420,NOT AVAILABLE,(843) 824-8728
27105,450306000824,KEOWEE ELEMENTARY,7051 KEOWEE SCHOOL ROAD,SENECA,SC,29672,NOT AVAILABLE,(864) 886-4475
29200,450333000886,FOREST ACRES ELEMENTARY,401 MCALISTER ROAD,EASLEY,SC,29642,NOT AVAILABLE,(864) 397-1800
11287,450363001027,LONE OAK ELEMENTARY,7314 LONE OAK ROAD,SPARTANBURG,SC,29303,NOT AVAILABLE,(864) 503-9088
16674,450231000501,SARA COLLINS ELEMENTARY,1200 PARKINS MILL ROAD,GREENVILLE,SC,29607,NOT AVAILABLE,(864) 355-3200
17951,450201001447,WINDSOR HILL ARTS INFUSED ELEMENTARY,8600 WILLIAM MOULTRIE DRIVE,NORTH CHARLESTON,SC,29420,NOT AVAILABLE,(843) 760-9820
19658,450072001196,LEAVELLE MCCAMPBELL MIDDLE,1120 WELDON WAY,GRANITEVILLE,SC,29829,NOT AVAILABLE,(803) 663-4300
424,450160000328,F. E. DUBOSE CAREER CENTER,3351 SUMTER HIGHWAY,MANNING,SC,29102,NOT AVAILABLE,(803) 473-2531
1033,450117001556,BERKELEY COUNTY MIDDLE COLLEGE HIGH,1001 SOUTH LIVE OAK DRIVE,MONCKS CORNER,SC,29461,NOT AVAILABLE,(843) 899-8110
1445,450117001671,PHILIP SIMMONS ELEMENTARY,2095 SEVEN STICKS DRIVE,WANDO,SC,29492,NOT AVAILABLE,(843) 471-2580
6350,450306000842,WALHALLA HIGH,4701 NORTH HIGHWAY 11,WALHALLA,SC,29691,NOT AVAILABLE,(864) 886-4490
6889,450303000820,WHITMIRE COMMUNITY SCHOOL (HIGH),2597 SC HIGHWAY 66,WHITMIRE,SC,29178,NOT AVAILABLE,(803) 694-2320
7550,450144000202,MARY FORD EARLY CHILDHOOD LEARNING AND FAMILY CENTER,3180 THOMASINA MCPHERSON BOULEVARD,NORTH CHARLESTON,SC,29405,NOT AVAILABLE,(843) 745-7131
9777,450303000805,BOUNDARY ST. ELEMENTARY,1406 BOUNDARY STREET,NEWBERRY,SC,29108,NOT AVAILABLE,(803) 321-2616
60467,450249001037,ACADEMY FOR TECHNOLOGY AND ACADEMICS,5639 HIGHWAY 701 NORTH,CONWAY,SC,29526,NOT AVAILABLE,(843) 488-6600
65597,450201001488,WILLIAM M. REEVES ELEMENTARY,1003 DUBOSE SCHOOL ROAD,SUMMERVILLE,SC,29483,NOT AVAILABLE,(843) 695-2450
67358,450210000417,MCCROREY-LISTON SCHOOL OF TECHNOLOGY,1978 SC HIGHWAY 215 SOUTH,BLAIR,SC,29015,NOT AVAILABLE,(803) 635-9490
67433,450360001476,JAMES BYRNES FRESHMAN ACADEMY,100 ROWE STREET,DUNCAN,SC,29334,NOT AVAILABLE,(864) 949-2320
101671,450258000688,ANDREW JACKSON HIGH,6925 KERSHAW-CAMDEN HIGHWAY,KERSHAW,SC,29067,NOT AVAILABLE,(803) 475-2381
102805,450351001756,SUGAR RIDGE ELEMENTARY,2055 HANGING ROCK ROAD,BOILING SPRINGS,SC,29316,NOT AVAILABLE,(864) 578-2884
106128,450072001713,RIDGE SPRING MONETTA MIDDLE,1085 TROJAN ROAD,MONETTA,SC,29105,NOT AVAILABLE,(803) 685-2500
106136,450186001750,BAY ROAD ELEMENTARY,1251 BAY ROAD,HARTSVILLE,SC,29550,NOT AVAILABLE,(843) 398-6300
106146,450270001723,BEECHWOOD MIDDLE,1340 HIGHWAY 378,LEXINGTON,SC,29072,NOT AVAILABLE,(803) 821-5700
106153,450390101740,LEARN4LIFE- CHARLESTON,3710 LANDMARK DRIVE SUITE 201,COLUMBIA,SC,29204,NOT AVAILABLE,(803) 734-8322
106161,450390900684,HORSE CREEK ACADEMY,1200 TOOLEBECK ROAD,AIKEN,SC,29803,NOT AVAILABLE,(803) 226-0160
106168,450390901642,MIDLANDS STEM INSTITUTE,112 CRANE STREET,WINNSBORO,SC,29180,NOT AVAILABLE,(803) 815-1524
106171,450390901686,MEVERS SCHOOL OF EXCELLENCE,7750 HENRY E. BROWN JR. BOULEVARD,GOOSE CREEK,SC,29445,NOT AVAILABLE,(843) 806-5909
107270,450387001714,CHERRY PARK ELEMENTARY SCHOOL OF LANGUAGE IMMERSION,1835 EDEN TERRACE,ROCK HILL,SC,29730,NOT AVAILABLE,(803) 985-2255
107285,450391000873,ORANGEBURG WILKINSON HIGH,601 BRUIN PARKWAY,ORANGEBURG,SC,29118,NOT AVAILABLE,(803) 534-6180
70782,450237000599,WARE SHOALS PRIMARY,15269 INDIAN MOUND ROAD,WARE SHOALS,SC,29692,NOT AVAILABLE,(864) 861-2261
77616,450081001204,BELTON MIDDLE,102 CHEROKEE ROAD,BELTON,SC,29627,NOT AVAILABLE,(864) 369-4712
77652,450339001507,BRIDGE CREEK ELEMENTARY,121 BOMBING RANGE ROAD,ELGIN,SC,29045,NOT AVAILABLE,(803) 462-3900
78958,450000100939,MANNING HIGH,502 BECKMAN DRIVE,COLUMBIA,SC,29203,NOT AVAILABLE,(803) 935-7203
16033,450249000244,CAROLINA FOREST HIGH,700 GARDNER LACY ROAD,MYRTLE BEACH,SC,29579,NOT AVAILABLE,(843) 236-7997
5232,450174000321,DR. ROSE H. WILDER ELEMENTARY,9297 ALEX HARVIN HIGHWAY,SUMMERTON,SC,29148,NOT AVAILABLE,(803) 574-2150
6995,450390101545,LEAD ACADEMY,804 MAULDIN RD.,GREENVILLE,SC,29607,NOT AVAILABLE,(864) 916-1459
7055,450342001186,EVALUATION AND DETENTION CENTER,1731 SHIVERS ROAD,COLUMBIA,SC,29210,NOT AVAILABLE,(803) 896-9037
7277,450390200217,CRESTWOOD HIGH,2000 OSWEGO ROAD,SUMTER,SC,29153,NOT AVAILABLE,(803) 469-6200
23329,450339000927,KELLY MILL MIDDLE,1141 KELLY MILL ROAD,BLYTHEWOOD,SC,29016,NOT AVAILABLE,(803) 691-7210
26976,450201000715,FORT DORCHESTER ELEMENTARY,5201 OLD GLORY LANE,SUMMERVILLE,SC,29485,NOT AVAILABLE,(843) 832-5550
32582,450183000713,HENDERSONVILLE ELEMENTARY,6089 HENDERSONVILLE HIGHWAY,WALTERBORO,SC,29488,NOT AVAILABLE,(843) 782-0027
32798,450000100255,TYGER RIVER HIGH,200 PRISON ROAD,ENOREE,SC,29335,NOT AVAILABLE,(803) 896-3527
34065,450390200223,LAKEWOOD HIGH,350 OLD MANNING ROAD,SUMTER,SC,29150,NOT AVAILABLE,(803) 506-2700
35310,450111000942,HILTON HEAD ISLAND SCHOOL FOR THE CREATIVE ARTS,10 BUS DRIVE,HILTON HEAD ISLAND,SC,29926,NOT AVAILABLE,(843) 342-4380
35573,450231000540,WOODLAND ELEMENTARY,1730 GIBB SHOALS ROAD,GREER,SC,29650,NOT AVAILABLE,(864) 355-0400
36370,450363000349,ANDERSON MILL ELEMENTARY,1845 OLD ANDERSON MILL ROAD,MOORE,SC,29369,NOT AVAILABLE,(864) 576-6539
52571,450387001138,OAKDALE ELEMENTARY,1129 OAKDALE ROAD,ROCK HILL,SC,29730,NOT AVAILABLE,(803) 981-1585
89647,450390000368,GOLD HILL MIDDLE,1025 DAVE GIBSON BOULEVARD,TEGA CAY,SC,29708,NOT AVAILABLE,(803) 548-8300
90656,450090000102,SOUTH FANT SCHOOL OF EARLY EDUCATION,1700 SOUTH FANT STREET,ANDERSON,SC,29624,NOT AVAILABLE,(864) 260-5225
91375,450144000264,ST. JOHNS HIGH,1518 MAIN ROAD,JOHNS ISLAND,SC,29455,NOT AVAILABLE,(843) 559-6400
95134,450249000634,CONWAY MIDDLE,1104 ELM STREET,CONWAY,SC,29526,NOT AVAILABLE,(843) 488-6040
95369,450144001215,HAUT GAP MIDDLE,1861 BOHICKET ROAD,JOHNS ISLAND,SC,29449,NOT AVAILABLE,(843) 559-6418
42146,450192000384,STEWART HEIGHTS ELEMENTARY,1001 WEST CALHOUN STREET,DILLON,SC,29536,NOT AVAILABLE,(843) 774-1219
44747,450264000705,JOANNA WOODSON ELEMENTARY,510 SOUTH ELLIS STREET,JOANNA,SC,29351,NOT AVAILABLE,(864) 697-6480
45115,450072001323,SILVER BLUFF HIGH,64 DESOTO DRIVE,AIKEN,SC,29803,NOT AVAILABLE,(803) 652-8100
47476,450216001409,HANNAH-PAMPLICO ELEMENTARY/MIDDLE,2131 SOUTH PAMPLICO HIGHWAY,PAMPLICO,SC,29583,NOT AVAILABLE,(843) 493-5588
48426,450231001251,NORTHWEST MIDDLE,1606 GREER HIGHWAY,TRAVELERS REST,SC,29690,NOT AVAILABLE,(864) 355-6900
70243,450300000804,MCCORMICK HIGH,6981 SC HIGHWAY 28 SOUTH,MCCORMICK,SC,29835,NOT AVAILABLE,(864) 443-0040
70742,450072001199,NEW ELLENTON STEAM MAGNET MIDDLE,814 MAIN STREET SOUTH,NEW ELLENTON,SC,29809,NOT AVAILABLE,(803) 652-8200
78394,450117000003,MOUNT HOLLY ELEMENTARY,225 GARWOOD DRIVE,GOOSE CREEK,SC,29445,NOT AVAILABLE,(843) 820-4090
79570,450255000465,LESLIE M. STOVER MIDDLE,1649 SMYRNA ROAD,ELGIN,SC,29045,NOT AVAILABLE,(803) 438-7414
90942,450336000963,SAMUEL A. HEYWARD CAREER AND TECHNOLOGY CENTER,3560 LYNHAVEN DRIVE,COLUMBIA,SC,29204,NOT AVAILABLE,(803) 735-3343
91036,450078000074,PALMETTO MIDDLE,803 NORTH HAMILTON STREET,WILLIAMSTON,SC,29697,NOT AVAILABLE,(864) 847-4333
93425,450249000622,LORIS ELEMENTARY,901 HIGHWAY 9 BUSINESS EAST,LORIS,SC,29569,NOT AVAILABLE,(843) 390-6860
93519,450390800767,ACADEMY FOR CAREERS AND TECHNOLOGY,2697 EAST HIGHWAY 76,MULLINS,SC,29574,NOT AVAILABLE,(843) 423-1941
95739,450187000388,DILLON COUNTY APPLIED TECHNOLOGY CENTER,1630 EAST MAIN STREET,DILLON,SC,29536,NOT AVAILABLE,(843) 774-5143
96280,450150000273,CORINTH ELEMENTARY,128 CORINTH ROAD,GAFFNEY,SC,29340,NOT AVAILABLE,(864) 206-6600
99066,450150000297,NORTHWEST ELEMENTARY,840 GREEN RIVER ROAD,GAFFNEY,SC,29341,NOT AVAILABLE,(864) 206-6727
61463,450264001264,CLINTON MIDDLE,800 NORTH ADAIR STREET,CLINTON,SC,29325,NOT AVAILABLE,(864) 833-0807
64857,450144001217,LAING MIDDLE,2705 BULRUSH BASKET LANE,MOUNT PLEASANT,SC,29418,NOT AVAILABLE,(843) 849-2809
66771,450249000192,SEASIDE ELEMENTARY,1605 WOODLAND DRIVE,GARDEN CITY,SC,29576,NOT AVAILABLE,(843) 650-3490
67698,450360001016,DUNCAN ELEMENTARY SCHOOL OF THE ARTS,100 SOUTH DANZLER ROAD,DUNCAN,SC,29334,NOT AVAILABLE,(864) 949-2373
67753,450255000654,BARON DEKALB ELEMENTARY,2684 BARON DEKALB ROAD,CAMDEN,SC,29020,NOT AVAILABLE,(803) 432-2483
46547,450297000789,MCCOLL ELEMENTARY/MIDDLE,700 NORTH MAIN STREET,MCCOLL,SC,29570,NOT AVAILABLE,(843) 523-5371
80448,450339000971,L. B. NELSON ELEMENTARY,225 NORTH BRICKYARD ROAD,COLUMBIA,SC,29223,NOT AVAILABLE,(803) 736-8730
81243,450333000896,DACUSVILLE MIDDLE,899 THOMAS MILL ROAD,EASLEY,SC,29640,NOT AVAILABLE,(864) 397-3525
81773,450150000287,LIMESTONE-CENTRAL ELEMENTARY,727 PACOLET HIGHWAY,GAFFNEY,SC,29341,NOT AVAILABLE,(864) 206-6620
85880,450216000450,HANNAH PAMPLICO HIGH,2055 SOUTH PAMPLICO HIGHWAY,PAMPLICO,SC,29583,NOT AVAILABLE,(843) 493-5781
10898,450069001188,ABBEVILLE COUNTY CAREER CENTER,100 OLD CALHOUN FALLS HIGHWAY,ABBEVILLE,SC,29620,NOT AVAILABLE,(864) 366-9069
18705,450072000023,EAST AIKEN SCHOOL OF THE ARTS,223 OLD WAGENER ROAD,AIKEN,SC,29801,NOT AVAILABLE,(803) 641-2450
51392,450348000984,O. P. EARLE ELEMENTARY,100 REDLAND ROAD,LANDRUM,SC,29356,NOT AVAILABLE,(864) 457-3416
53024,450378001624,C. E. MURRAY MIDDLE,222-A C.E. MURRAY BOULEVARD,GREELEYVILLE,SC,29056,NOT AVAILABLE,(843) 426-2121
54891,450378001111,KINGSTREE SENIOR HIGH,615 MARTIN LUTHER KING AVENUE,KINGSTREE,SC,29556,NOT AVAILABLE,(843) 355-6525
55756,450387001136,LESSLIE ELEMENTARY,250 NEELY STORE ROAD,ROCK HILL,SC,29730,NOT AVAILABLE,(803) 981-1910
56509,450231000564,GREENVILLE SENIOR HIGH ACADEMY,1 VARDY STREET,GREENVILLE,SC,29601,NOT AVAILABLE,(864) 355-5500
56963,450069001379,WESTWOOD ELEMENTARY,124 HIGHWAY 28 BYPASS,ABBEVILLE,SC,29620,NOT AVAILABLE,(864) 366-9604
57173,450390101696,EAST LINK ACADEMY,78 GLOBAL DRIVE DRIVE,SUITE 200,SC,29607,NOT AVAILABLE,(864) 775-1733
28898,450366001049,CARVER MIDDLE,467 SOUTH CHURCH STREET,SPARTANBURG,SC,29306,NOT AVAILABLE,(864) 594-4435
30284,450255000660,MT. PISGAH ELEMENTARY,5160 MT. PISGAH ROAD,KERSHAW,SC,29067,NOT AVAILABLE,(803) 475-6791
33374,450174001494,SUMMERTON EARLY CHILDHOOD CENTER,8 SOUTH CHURCH STREET,SUMMERTON,SC,29148,NOT AVAILABLE,(803) 574-2102
34863,450273001271,NORTHSIDE MIDDLE,157 COUGAR DRIVE,WEST COLUMBIA,SC,29169,NOT AVAILABLE,(803) 739-4190
1795,450303001283,MID-CAROLINA MIDDLE,6794 US HIGHWAY 76,PROSPERITY,SC,29127,NOT AVAILABLE,(803) 364-3634
4882,450390101401,FELTON LABORATORY CHARTER SCHOOL,115 LANCE STREET,ORANGEBURG,SC,29117,NOT AVAILABLE,(803) 536-7034
5493,450390901701,THE MONTESSORI SCHOOL OF CAMDEN,2 MONTESSORI WAY,CAMDEN,SC,29020,NOT AVAILABLE,(803) 432-6828
5526,450186000098,DARLINGTON MIDDLE,150 PINEDALE DRIVE,DARLINGTON,SC,29532,NOT AVAILABLE,(843) 398-5088
6379,450303000820,WHITMIRE COMMUNITY SCHOOL (HIGH),2597 SC HIGHWAY 66,WHITMIRE,SC,29178,NOT AVAILABLE,(803) 694-2320
7152,450390101581,SC WHITMORE SCHOOL,501 COMMERCE DRIVE NE,COLUMBIA,SC,29223,NOT AVAILABLE,(803) 476-6416
8568,450144000240,CHARLESTON PROGRESSIVE,382 MEETING STREET,CHARLESTON,SC,29403,NOT AVAILABLE,(843) 720-2967
8737,450339000344,BOOKMAN ROAD ELEMENTARY,1245 BOOKMAN ROAD,ELGIN,SC,29045,NOT AVAILABLE,(803) 699-1724
100748,450000101731,KIRKLAND HIGH,4460 BROAD RIVER,COLUMBIA,SC,29827,NOT AVAILABLE,(803) 896-1583
100780,450390901527,ODYSSEY ONLINE LEARNING,510 LEXINGTON AVE SUITE 102,CHAPIN,SC,29036,NOT AVAILABLE,(803) 735-9110
100799,450351001558,RAINBOW LAKE MIDDLE,1951 RIVEROAK ROAD,CHESNEE,SC,29323,NOT AVAILABLE,(864) 253-5700
102813,450391101720,ANDERSON INSTITUTE OF TECHNOLOGY,315 PEARMAN DAIRY ROAD,ANDERSON,SC,29625,NOT AVAILABLE,(864) 222-4120
60263,450390001649,DOBY'S BRIDGE ELEMENTARY,1000 DRAGON WAY,FORT MILL,SC,29715,NOT AVAILABLE,(803) 835-5200
106127,450072001708,AIKEN SCHOLARS ACADEMY,471 UNIVERSITY PARKWAY BOX 12,AIKEN,SC,29801,NOT AVAILABLE,(803) 641-2428
106145,450258001712,VAN WYCK ELEMENTARY,4945 CHARLOTTE HIGHWAY,LANCASTER,SC,29720,NOT AVAILABLE,(803) 313-6650
63786,450186000353,LAMAR ELEMENTARY,214 NORTH DARLINGTON AVENUE,LAMAR,SC,29069,NOT AVAILABLE,(843) 326-7575
64766,450333000905,PICKENS COUNTY CAREER AND TECHNOLOGY CENTER,990 CHASTAIN ROAD,LIBERTY,SC,29657,NOT AVAILABLE,(864) 397-4500
65678,450144000231,ANGEL OAK ELEMENTARY,6134 CHISOLM ROAD,JOHNS ISLAND,SC,29455,NOT AVAILABLE,(843) 559-6412
66214,450354001005,COWPENS ELEMENTARY,341 FOSTER STREET,COWPENS,SC,29330,NOT AVAILABLE,(864) 279-6300
66936,450075000064,ALLENDALE FAIRFAX HIGH,3581 ALLENDALE-FAIRFAX HIGHWAY,FAIRFAX,SC,29827,NOT AVAILABLE,(803) 584-2311
66983,450150000278,B. D. LEE ELEMENTARY,401 OVERBROOK DRIVE,GAFFNEY,SC,29341,NOT AVAILABLE,(864) 206-6432
12025,450303001285,NEWBERRY HIGH,3113 MAIN STREET,NEWBERRY,SC,29018,NOT AVAILABLE,(803) 321-2621
12499,450249000640,MYRTLE BEACH HIGH,3302 ROBERT GRISSOM PARKWAY,MYRTLE BEACH,SC,29577,NOT AVAILABLE,(843) 839-7148
14970,450150000271,BLACKSBURG MIDDLE,101 LONDON STREET,BLACKSBURG,SC,29702,NOT AVAILABLE,(864) 206-6829
15165,450111000140,LADY'S ISLAND ELEMENTARY,73 CHOWAN CREEK BLUFF,BEAUFORT,SC,29907,NOT AVAILABLE,(843) 322-2240
15793,450390000062,GOLD HILL ELEMENTARY,1000 DAVE GIBSON BOULEVARD,TEGA CAY,SC,29708,NOT AVAILABLE,(803) 548-8250
15889,450231001524,RALPH CHANDLER MIDDLE,4231 FORK SHOALS ROAD,SIMPSONVILLE,SC,29680,NOT AVAILABLE,(864) 452-0300
19653,450339000975,SPRING VALLEY HIGH,120 SPARKLEBERRY LANE,COLUMBIA,SC,29229,NOT AVAILABLE,(803) 699-3500
43309,450219001647,RONALD E. MCNAIR JR. HIGH,311 CARVER STREET,LAKE CITY,SC,29560,NOT AVAILABLE,(843) 374-8651
46093,450390201069,MANCHESTER ELEMENTARY,200 EAST CLARK STREET,PINEWOOD,SC,29125,NOT AVAILABLE,(803) 452-5454
48759,450117000704,WESTVIEW PRIMARY,98 WESTVIEW BOULEVARD,GOOSE CREEK,SC,29445,NOT AVAILABLE,(843) 820-4082
48980,450072001200,OAKWOOD-WINDSOR ELEMENTARY,3773 CHARLESTON HIGHWAY,AIKEN,SC,29801,NOT AVAILABLE,(803) 641-2560
20232,450117001523,CANE BAY HIGH,1624 STATE ROAD,SUMMERVILLE,SC,29486,NOT AVAILABLE,(843) 899-8786
21325,450117001523,CANE BAY HIGH,1624 STATE ROAD,SUMMERVILLE,SC,29486,NOT AVAILABLE,(843) 899-8786
21799,450207001417,STROM THURMOND CAREER AND TECHNOLOGY CENTER,17 PAR DRIVE,JOHNSTON,SC,29832,NOT AVAILABLE,(803) 275-1767
23370,450387001151,APPLIED TECHNOLOGY CENTER,2399 WEST MAIN STREET,ROCK HILL,SC,29732,NOT AVAILABLE,(803) 981-1100
25753,450282000753,CHAPIN ELEMENTARY,940 OLD BUSH RIVER ROAD,CHAPIN,SC,29036,NOT AVAILABLE,(803) 575-5900
26371,450282000247,LAKE MURRAY ELEMENTARY,1531 THREE DOG ROAD,CHAPIN,SC,29036,NOT AVAILABLE,(803) 476-4600
27957,450207000411,MERRIWETHER ELEMENTARY,565 SPRING HAVEN DRIVE,NORTH AUGUSTA,SC,29860,NOT AVAILABLE,(803) 279-9993
28577,450387001149,NORTHWESTERN HIGH,2503 WEST MAIN STREET,ROCK HILL,SC,29732,NOT AVAILABLE,(803) 981-1200
73304,450078000545,HUNT MEADOWS ELEMENTARY,420 HUNT ROAD,EASLEY,SC,29642,NOT AVAILABLE,(864) 850-3987
73754,450186000354,NORTH HARTSVILLE ELEMENTARY,110 SCHOOL DRIVE,HARTSVILLE,SC,29550,NOT AVAILABLE,(843) 383-3115
78536,450303000059,WHITMIRE COMMUNITY SCHOOL (ELEMENTARY),2597 SC HIGHWAY 66,WHITMIRE,SC,29178,NOT AVAILABLE,(803) 694-2320
79516,450117000167,WESTVIEW ELEMENTARY,100 WESTVIEW BOULEVARD,GOOSE CREEK,SC,29445,NOT AVAILABLE,(843) 797-2992
79767,450111001165,BLUFFTON HIGH,12 H. E. MCCRACKEN CIRCLE,BLUFFTON,SC,29910,NOT AVAILABLE,(843) 706-8800
1126,450144000230,ST. ANDREW'S SCHOOL OF MATH AND SCIENCE,30 CHADWICK DRIVE,CHARLESTON,SC,29407,NOT AVAILABLE,(843) 763-1503
3702,450282001170,CHAPIN HIGH,300 COLUMBIA AVENUE,CHAPIN,SC,29036,NOT AVAILABLE,(803) 575-5400
5525,450087001492,MT. LEBANON ELEMENTARY,2850 LEBANON ROAD,PENDLETON,SC,29670,NOT AVAILABLE,(864) 403-2400
9314,450075001184,ALLENDALE ELEMENTARY,3305 ALLENDALE-FAIRFAX HIGHWAY,FAIRFAX,SC,29827,NOT AVAILABLE,(803) 584-3476
32955,450276001274,BATESBURG-LEESVILLE MIDDLE SCHOOL,425 SHEALY ROAD,BATESBURG-LEESVILLE,SC,29006,NOT AVAILABLE,(803) 532-3831
35102,450117000082,BERKELEY INTERMEDIATE,777 STONY LANDING ROAD,MONCKS CORNER,SC,29461,NOT AVAILABLE,(843) 899-8870
35174,450384001539,LARNE ELEMENTARY,3598 FILBERT HIGHWAY,CLOVER,SC,29710,NOT AVAILABLE,(803) 810-8600
35311,450228000480,WACCAMAW ELEMENTARY,1364 WAVERLY ROAD,PAWLEYS ISLAND,SC,29585,NOT AVAILABLE,(843) 237-4233
39102,450000101423,WATEREE RIVER HIGH,8200 STATE FARM ROAD,REMBERT,SC,29128,NOT AVAILABLE,(803) 896-3454
80952,450336000921,HORRELL HILL ELEMENTARY,517 HORRELL HILL ROAD,HOPKINS,SC,29061,NOT AVAILABLE,(803) 783-5545
91634,450336001301,HEYWARD GIBBES MIDDLE,500 SUMMERLEA DRIVE,COLUMBIA,SC,29203,NOT AVAILABLE,(803) 343-2942
92329,450144000227,PEPPERHILL ELEMENTARY,3300 CREOLA ROAD,NORTH CHARLESTON,SC,29420,NOT AVAILABLE,(843) 767-5905
92693,450222000723,TIMMONSVILLE HIGH,304 KEMPER STREET,TIMMONSVILLE,SC,29161,NOT AVAILABLE,(843) 346-3956
94694,450072001197,M. B. KENNEDY MIDDLE,274 EAST PINE LOG ROAD,AIKEN,SC,29803,NOT AVAILABLE,(803) 641-2470
95174,450261000700,LAURENS MIDDLE,1035 WEST MAIN STREET,LAURENS,SC,29360,NOT AVAILABLE,(864) 984-2400
97432,450186000364,WEST HARTSVILLE ELEMENTARY,214 CLYDE ROAD,HARTSVILLE,SC,29550,NOT AVAILABLE,(843) 857-3270
107283,450391000868,SHERIDAN ELEMENTARY,1139 HILLSBORO ROAD,ORANGEBURG,SC,29115,NOT AVAILABLE,(803) 534-7504
24805,450390001535,PLEASANT KNOLL ELEMENTARY,2346 PLEASANT ROAD,FORT MILL,SC,29708,NOT AVAILABLE,(803) 835-0090
25063,450228000473,KENSINGTON ELEMENTARY,86 KENSINGTON BOULEVARD,GEORGETOWN,SC,29440,NOT AVAILABLE,(843) 546-8511
28177,450231001254,TANGLEWOOD MIDDLE,44 MERRIWOODS DRIVE,GREENVILLE,SC,29611,NOT AVAILABLE,(864) 355-4500
29865,450153001172,CHESTER PARK ELEMENTARY SCHOOL OF LITERACY AND TECHNOLOGY,835-B LANCASTER HIGHWAY,CHESTER,SC,29706,NOT AVAILABLE,(803) 581-7275
5480,450144001691,CAMP ROAD MIDDLE,1484 CAMP ROAD,CHARLESTON,SC,29412,NOT AVAILABLE,(843) 762-2784
5670,450117000171,SEDGEFIELD MIDDLE,131 CHARLES B. GIBSON BOULEVARD,GOOSE CREEK,SC,29445,NOT AVAILABLE,(843) 797-2620
6178,450390101692,LAKES AND BRIDGES CHARTER SCHOOL,1600 E MAIN STREET,EASLEY,SC,29641,NOT AVAILABLE,(864) 442-5580
30768,450336000507,SOUTHEAST MIDDLE,731 HORRELL HILL ROAD,HOPKINS,SC,29061,NOT AVAILABLE,(803) 695-5700
31085,450144000830,JAMES ISLAND ELEMENTARY,1872 GRIMBALL ROAD,CHARLESTON,SC,29412,NOT AVAILABLE,(843) 762-8240
32958,450303001282,POMARIA-GARMANY ELEMENTARY,7288 US HIGHWAY 176,POMARIA,SC,29126,NOT AVAILABLE,(803) 321-2651
34001,450156000870,PAGELAND ELEMENTARY,715 WEST MCGREGOR STREET,PAGELAND,SC,29728,NOT AVAILABLE,(843) 672-2400
34755,450273000741,AIRPORT HIGH,1315 BOSTON AVENUE,WEST COLUMBIA,SC,29170,NOT AVAILABLE,(803) 822-5600
39313,450090001515,WEST MARKET SCHOOL OF EARLY EDUCATION,1909 DOBBINS BRIDGE ROAD,ANDERSON,SC,29626,NOT AVAILABLE,(864) 260-5200
11869,450273000736,HERBERT A. WOOD ELEMENTARY,737 PINE RIDGE DRIVE,WEST COLUMBIA,SC,29172,NOT AVAILABLE,(803) 755-7420
12023,450072000032,NORTH AUGUSTA ELEMENTARY,400 EAST SPRING GROVE AVENUE,NORTH AUGUSTA,SC,29841,NOT AVAILABLE,(803) 442-6280
12227,450144000206,HUNLEY PARK ELEMENTARY,1000 MICHIGAN AVENUE,NORTH CHARLESTON,SC,29404,NOT AVAILABLE,(843) 767-5914
14988,450231001243,GREENVILLE MIDDLE ACADEMY,339 LOWNDES AVENUE,GREENVILLE,SC,29607,NOT AVAILABLE,(864) 355-5600
15652,450348000989,LANDRUM HIGH,18818 ASHEVILLE HIGHWAY,CAMPOBELLO,SC,29322,NOT AVAILABLE,(864) 457-2606
16079,450069000066,DIAMOND HILL ELEMENTARY,104 LAKE SECESSION ROAD,ABBEVILLE,SC,29620,NOT AVAILABLE,(864) 446-2600
17496,450231001245,HILLCREST MIDDLE,510 GARRISON ROAD,SIMPSONVILLE,SC,29681,NOT AVAILABLE,(864) 355-6100
18163,450156000319,NEW HEIGHTS MIDDLE,5738 HIGHWAY 151,JEFFERSON,SC,29718,NOT AVAILABLE,(843) 658-6820
60535,450144000200,EDMUND A. BURNS ELEMENTARY,3750 DORCHESTER ROAD,NORTH CHARLESTON,SC,29405,NOT AVAILABLE,(843) 745-7113
63749,450153000036,CHESTER PARK SCHOOL ELEMENTARY OF INQUIRY,835-C LANCASTER HIGHWAY,CHESTER,SC,29706,NOT AVAILABLE,(803) 581-7282
67721,450177000551,MANNING EARLY CHILDHOOD CENTER,2759 RACCOON ROAD,MANNING,SC,29102,NOT AVAILABLE,(803) 473-4744
72045,450342001185,EMPOWERMENT AND ENRICHMENT ACADEMY,5000 BROAD RIVER ROAD,COLUMBIA,SC,29212,NOT AVAILABLE,(803) 896-9114
75295,450111001530,RIVERVIEW CHARTER SCHOOL,81 SAVANNAH HIGHWAY,BEAUFORT,SC,29906,NOT AVAILABLE,(843) 379-0133
76292,450201000242,GREGG MIDDLE,500 GREEN WAVE BOULEVARD,SUMMERVILLE,SC,29483,NOT AVAILABLE,(843) 871-3150
77474,450273001272,PINE RIDGE MIDDLE,735 PINE RIDGE DRIVE,WEST COLUMBIA,SC,29172,NOT AVAILABLE,(803) 755-7400
78392,450390101614,MIDLANDS MIDDLE COLLEGE,1260 LEXINGTON DRIVE,WEST COLUMBIA,SC,29170,NOT AVAILABLE,(803) 822-7042
41686,450273000730,CONGAREE ELEMENTARY,1221 RAMBLIN' ROAD,WEST COLUMBIA,SC,29172,NOT AVAILABLE,(803) 755-7430
42810,450237000598,WARE SHOALS ELEMENTARY MIDDLE,45 WEST MAIN STREET,WARE SHOALS,SC,29692,NOT AVAILABLE,(864) 456-2711
48495,450000100238,TURBEVILLE HIGH,1578 CLARENCE COKER HWY,TURBEVILLE,SC,29162,NOT AVAILABLE,(803) 896-3178
80400,450255000659,MIDWAY ELEMENTARY,1892 HIGHWAY 1 NORTH,CASSATT,SC,29032,NOT AVAILABLE,(803) 432-6122
84820,450072000050,PAUL KNOX MIDDLE,1804 WELLS ROAD,NORTH AUGUSTA,SC,29841,NOT AVAILABLE,(803) 442-6300
87430,450201001406,OAKBROOK MIDDLE,286 OLD FORT ROAD,LADSON,SC,29456,NOT AVAILABLE,(843) 873-9750
89699,450360001022,JAMES F. BYRNES HIGH,150 EAST MAIN STREET,DUNCAN,SC,29334,NOT AVAILABLE,(864) 949-2355
53397,450279000631,SANDHILLS PRIMARY,140 LEWIS RAST ROAD,SWANSEA,SC,29160,NOT AVAILABLE,(803) 490-7002
54029,450144001655,ALLEGRO CHARTER SCHOOL OF MUSIC,2731 GORDON STREET,NORTH CHARLESTON,SC,29405,NOT AVAILABLE,(843) 321-7104
54033,450213001657,CHILD DEVELOPMENT CENTER AT WOODS ROAD,1400 WOODS ROAD,FLORENCE,SC,29501,NOT AVAILABLE,(843) 799-6006
54306,450069001379,WESTWOOD ELEMENTARY,124 HIGHWAY 28 BYPASS,ABBEVILLE,SC,29620,NOT AVAILABLE,(864) 366-9604
56836,450267000718,LEE COUNTY CAREER AND TECHNOLOGY CENTER,1804 WISACKY HIGHWAY,BISHOPVILLE,SC,29010,NOT AVAILABLE,(803) 428-4633
90021,450081000078,BELTON ELEMENTARY,202 WATKINS STREET,BELTON,SC,29627,NOT AVAILABLE,(864) 338-7738
92019,450375001085,FOSTER PARK ELEMENTARY,901 ARTHUR BOULEVARD,UNION,SC,29379,NOT AVAILABLE,(864) 429-1737
99737,450228000478,ROSEMARY MIDDLE,12804 COUNTY LINE ROAD,ANDREWS,SC,29510,NOT AVAILABLE,(843) 264-9780
106144,450258001704,LANCASTER COUNTY SCHOOL DISTRICT CAREER CENTER,625 NORMANDY ROAD,LANCASTER,SC,29720,NOT AVAILABLE,(803) 289-4885
106194,450391001370,WILLIAM J. CLARK MIDDLE,919 BENNETT AVENUE,ORANGEBURG,SC,29115,NOT AVAILABLE,(803) 531-2200
61716,450255001257,CAMDEN MIDDLE,902 MCRAE ROAD,CAMDEN,SC,29020,NOT AVAILABLE,(803) 425-8975
65559,450279001548,LEXINGTON FOUR EARLY CHILDHOOD CENTER,135 LEWIS RAST ROAD,SWANSEA,SC,26160,NOT AVAILABLE,(803) 490-7001
10666,450231000573,TRAVELERS REST HIGH,301 NORTH MAIN STREET,TRAVELERS REST,SC,29690,NOT AVAILABLE,(864) 355-0000
15114,450144000236,MAMIE P. WHITESIDES ELEMENTARY,1565 RIFLE RANGE ROAD,MT. PLEASANT,SC,29464,NOT AVAILABLE,(843) 849-2838
15133,450144000197,CHICORA ELEMENTARY,3100 CARNER AVENUE,NORTH CHARLESTON,SC,29405,NOT AVAILABLE,(843) 746-2210
16653,450231000500,SUE CLEVELAND ELEMENTARY,375 WOODMONT SCHOOL ROAD,PIEDMONT,SC,29673,NOT AVAILABLE,(864) 355-4200
19119,450231001336,PLAIN ELEMENTARY,506 NEELY FERRY ROAD,SIMPSONVILLE,SC,29681,NOT AVAILABLE,(864) 355-7700
82068,450144000205,MINNIE HUGHES ELEMENTARY,8548 WILLTOWN ROAD,YONGES ISLAND,SC,29404,NOT AVAILABLE,(843) 889-2976
84488,450125000187,CALHOUN COUNTY HIGH,150 SAINTS AVENUE,ST. MATTHEWS,SC,29135,NOT AVAILABLE,(803) 874-3071
84762,450231001244,GREER MIDDLE,3032 EAST GAP CREEK ROAD,GREER,SC,29651,NOT AVAILABLE,(864) 355-5800
87315,450381000366,COTTON BELT ELEMENTARY,1176 BLACK HIGHWAY,YORK,SC,29745,NOT AVAILABLE,(803) 684-1947
89065,450231001035,THOMAS E. KERNS ELEMENTARY,6650 FRONTAGE ROAD AT WHITE HORSE ROAD,GREENVILLE,SC,29605,NOT AVAILABLE,(864) 355-1300
4964,450346000980,HOLLYWOOD ELEMENTARY,1261 HOLLYWOOD ROAD,SALUDA,SC,29138,NOT AVAILABLE,(864) 445-8333
6920,450249001561,PALMETTO ACADEMY OF LEARNING AND SUCCESS CHARTER,3021 FRED NASH BOULEVARD,MYRTLE BEACH,SC,29577,NOT AVAILABLE,(843) 293-1725
9249,450228000485,GEORGETOWN HIGH,2500 AUTHUAN MAYBANK DRIVE,GEORGETOWN,SC,29440,NOT AVAILABLE,(843) 546-8516
32751,450336000910,BRADLEY ELEMENTARY,3032 PINEBELT ROAD,COLUMBIA,SC,29204,NOT AVAILABLE,(803) 738-7200
32963,450282001054,OAK POINTE ELEMENTARY,1 RIVER BOTTOM ROAD,IRMO,SC,29063,NOT AVAILABLE,(803) 476-4100
34367,450000100255,TYGER RIVER HIGH,200 PRISON ROAD,ENOREE,SC,29335,NOT AVAILABLE,(803) 896-3527
35270,450117000162,HENRY E. BONNER ELEMENTARY,171 MACEDONIA FOXES CIRCLE,MONCKS CORNER,SC,29461,NOT AVAILABLE,(843) 899-8950
36604,450336000957,PENDERGRASS FAIRWOLD SCHOOL,5935 TOKEN STREET,COLUMBIA,SC,29203,NOT AVAILABLE,(803) 735-3435
37996,450213000428,GREENWOOD ELEMENTARY,2300 EAST HOWE SPRINGS ROAD,FLORENCE,SC,29505,NOT AVAILABLE,(843) 664-8451
43959,450264000703,CLINTON ELEMENTARY,800 CHESTNUT STREET,CLINTON,SC,29325,NOT AVAILABLE,(864) 833-0812
45825,450339001653,LAKE CAROLINA ELEMENTARY UPPER CAMPUS,1261 KELLY MILL ROAD,BLYTHEWOOD,SC,29016,NOT AVAILABLE,(803) 691-3360
46244,450390101639,HIGH POINT ACADEMY,6655 POTTERY ROAD,SPARTANBURG,SC,29303,NOT AVAILABLE,(864) 316-9788
46950,450201001384,CHARLES B. DUBOSE MIDDLE,1005 DUBOSE SCHOOL ROAD,SUMMERVILLE,SC,29483,NOT AVAILABLE,(843) 875-7012
49274,450306001288,WALHALLA MIDDLE,177 RAZORBACK LANE,WALHALLA,SC,29691,NOT AVAILABLE,(864) 886-4485
49460,450306000194,FAIR-OAK ELEMENTARY,1964 OAKWAY ROAD,WESTMINSTER,SC,29693,NOT AVAILABLE,(864) 886-4505
50237,450192000378,LAKE VIEW ELEMENTARY,1311 SCOTT STREET,LAKE VIEW,SC,29563,NOT AVAILABLE,(843) 759-3003
50703,450378001624,C. E. MURRAY MIDDLE,222-A C.E. MURRAY BOULEVARD,GREELEYVILLE,SC,29056,NOT AVAILABLE,(843) 426-2121
51463,450090001573,ROBERT ANDERSON MIDDLE,2302 DOBBINS BRIDGE ROAD,ANDERSON,SC,29625,NOT AVAILABLE,(864) 716-3890
54494,450111001666,MAY RIVER HIGH,601 NEW RIVERSIDE ROAD,BLUFFTON,SC,29910,NOT AVAILABLE,(843) 836-4900
55529,450270000724,LEXINGTON HIGH,2463 AUGUSTA HIGHWAY,LEXINGTON,SC,29072,NOT AVAILABLE,(803) 821-1300
58009,450363001314,FAIRFOREST MIDDLE,150 LINCOLN SCHOOL ROAD,SPARTANBURG,SC,29301,NOT AVAILABLE,(864) 576-1270
59964,450306001528,BLUE RIDGE ELEMENTARY,995 SOUTH OAK STREET,SENECA,SC,29678,NOT AVAILABLE,(864) 886-4550
70455,450144001457,ORANGE GROVE CHARTER SCHOOL,1225 ORANGE BRANCH ROAD,CHARLESTON,SC,29407,NOT AVAILABLE,(843) 763-1520
70598,450144001363,ASHLEY RIVER CREATIVE ARTS ELEMENTARY,1871 WALLACE SCHOOL ROAD,CHARLESTON,SC,29407,NOT AVAILABLE,(843) 763-1555
71114,450336001297,CAUGHMAN ROAD ELEMENTARY,7725 CAUGHMAN ROAD,COLUMBIA,SC,29209,NOT AVAILABLE,(803) 783-5534
71280,450072000054,NORTH AUGUSTA MIDDLE,725 OLD EDGEFIELD ROAD,NORTH AUGUSTA,SC,29841,NOT AVAILABLE,(803) 442-6200
76938,450072000056,RIDGE SPRING-MONETTA HIGH,1071 TROJAN ROAD,MONETTA,SC,29105,NOT AVAILABLE,(803) 685-2100
78346,450201000402,SUMMERVILLE HIGH,1101 BOONE HILL ROAD,SUMMERVILLE,SC,29483,NOT AVAILABLE,(843) 873-6460
78998,450249000632,LAKEWOOD ELEMENTARY,1675 HIGHWAY 396,MYRTLE BEACH,SC,29575,NOT AVAILABLE,(843) 650-6768
21332,450150000549,GAFFNEY MIDDLE,805 EAST FREDERICK STREET,GAFFNEY,SC,29340,NOT AVAILABLE,(864) 206-6129
22970,450279000749,FRANCES F. MACK INTERMEDIATE,161 GASTON STREET,GASTON,SC,29053,NOT AVAILABLE,(803) 490-7004
23287,450354001011,MIDDLE SCHOOL OF PACOLET,850 SUNNY ACRES ROAD,PACOLET,SC,29372,NOT AVAILABLE,(864) 279-6600
24648,450000100063,LEE HIGH,990 WISACKY HIGHWAY,BISHOPVILLE,SC,29010,NOT AVAILABLE,(803) 896-2531
25724,450001100991,H. B. SWOFFORD CAREER CENTER,5620 HIGHWAY 11,INMAN,SC,29349,NOT AVAILABLE,(864) 592-2790
27096,450384001129,CLOVER HIGH,1625 HIGHWAY 55 EAST,CLOVER,SC,29710,NOT AVAILABLE,(803) 810-8200
29048,450375001089,SIMS MIDDLE,2200 WHITMIRE HIGHWAY,UNION,SC,29379,NOT AVAILABLE,(864) 429-1755
29057,450231001240,BECK INTERNATIONAL ACADEMY,901 WOODRUFF ROAD,GREENVILLE,SC,29607,NOT AVAILABLE,(864) 355-1400
91867,450270000725,PELION HIGH,600 LYDIA DRIVE,PELION,SC,29123,NOT AVAILABLE,(803) 821-2200
107280,450391000862,EDISTO HIGH,500 R.M. FOSTER DRIVE,CORDOVA,SC,29039,NOT AVAILABLE,(803) 536-1553
