OBJECTID,NCESID,NAME,ADDRESS,CITY,STATE,ZIP,ZIP4,TELEPHONE
12654,490075000901,MCPOLIN SCHOOL,2270 KEARNS BLVD,PARK CITY,UT,84098,NOT AVAILABLE,(435) 645-5630
2394,490003001462,DRY CREEK SCHOOL,1301 W. 1450 S.,LEHI,UT,84043,NOT AVAILABLE,(801) 610-8730
5007,490099001535,SILVER SUMMIT SCHOOL,6407 N BUSINESS PARTK LOOP RD,PARK CITY,UT,84098,NOT AVAILABLE,(435) 640-6095
6010,490030000712,PANGUITCH MIDDLE,75 S 400 E,PANGUITCH,UT,84759,NOT AVAILABLE,(435) 676-8225
46910,490000501404,AMERICAN PREPARATORY ACADEMY - ACCELERATED SCHOOL,3636 W 3100 S,WEST VALLEY CITY,UT,84120,NOT AVAILABLE,(385) 351-3090
47220,490042000324,SOUTHLAND SCHOOL,12675 S 2700 W,RIVERTON,UT,84065,NOT AVAILABLE,(801) 254-8047
47950,490063001159,MAPLE MOUNTAIN HIGH,51 N 2550 E,SPANISH FORK,UT,84660,NOT AVAILABLE,(801) 794-6740
49140,490060000375,PARKSIDE SCHOOL,495 E 5175 S,MURRAY,UT,84107,NOT AVAILABLE,(801) 264-7434
49227,490003000672,HIGHLAND SCHOOL,10865 N 6000 W,HIGHLAND,UT,84003,NOT AVAILABLE,(801) 610-8710
66876,490036000272,WEST LAKE JR HIGH,3400 S 3450 W,WEST VALLEY CITY,UT,84119,NOT AVAILABLE,(385) 646-5254
69501,490087000509,MEADOWLARK SCHOOL,497 N MORTON DR,SALT LAKE CITY,UT,84116,NOT AVAILABLE,(801) 578-8529
69678,490114001132,CORAL CANYON SCHOOL,3435 CANYON CREST AVE,WASHINGTON,UT,84780,NOT AVAILABLE,(435) 652-4787
101088,490003000009,CHERRY HILL SCHOOL,250 E 1650 S,OREM,UT,84097,NOT AVAILABLE,(801) 610-8105
101303,490021000108,H C BURTON SCHOOL,827 E 200 S,KAYSVILLE,UT,84037,NOT AVAILABLE,(801) 402-3150
103046,490020201566,BRIDGE ELEMENTARY SCHOOL,4824 S MIDLAND DR,ROY,UT,84067,NOT AVAILABLE,(801) 499-5180
103050,490021001597,SUNBURST SCHOOL,2504 W SUNBURST DRIVE,LAYTON,UT,84041,NOT AVAILABLE,(801) 402-8750
103052,490021001620,CATALYST CENTER,1265 W SPORTSPLEX DRIVE,KAYSVILLE,UT,84037,NOT AVAILABLE,(801) 402-5336
103055,490039001562,LAUNCH HIGH,1975 W ROYAL HUNTE DR,CEDAR CITY,UT,84720,NOT AVAILABLE,(435) 865-3160
28282,490012000080,WHITE PINE SCHOOL,184 W 100 N,RICHMOND,UT,84333,NOT AVAILABLE,(435) 258-2344
29750,490003001113,RIDGELINE SCHOOL,6250 W 11800 N,HIGHLAND,UT,84003,NOT AVAILABLE,(801) 610-8715
86152,490012000674,MILLVILLE SCHOOL,67 S MAIN,MILLVILLE,UT,84326,NOT AVAILABLE,(435) 752-7162
86518,490001800905,SALT LAKE ARTS ACADEMY,844 S 200 E,SALT LAKE CITY,UT,84111,NOT AVAILABLE,(801) 531-1173
89482,490099000558,SOUTH SUMMIT SCHOOL,535 E 300 S,KAMAS,UT,84036,NOT AVAILABLE,(435) 783-4318
31650,490090000535,MONTICELLO HIGH,164 S 200 W,MONTICELLO,UT,84535,NOT AVAILABLE,(435) 678-1130
35053,490018000101,MANILA HIGH,160 W 200 N,MANILA,UT,84046,NOT AVAILABLE,(435) 784-3174
35123,490114000739,SANDSTONE SCHOOL,850 N 2450 E,ST GEORGE,UT,84790,NOT AVAILABLE,(435) 674-6460
35127,490006901138,NORTH REGION BLIND,742 HARRISON BLVD,OGDEN,UT,84404,NOT AVAILABLE,(801) 629-4735
36897,490063000380,BROOKSIDE SCHOOL,750 E 400 S,SPRINGVILLE,UT,84663,NOT AVAILABLE,(801) 489-2830
37040,490012201214,GATEWAY PREPARATORY ACADEMY,201 E THOROUGHBRED WAY,ENOCH,UT,84721,NOT AVAILABLE,(435) 867-5558
37283,490003000017,LEHI HIGH,180 N 500 E,LEHI,UT,84043,NOT AVAILABLE,(801) 610-8805
39465,490003000907,PONY EXPRESS SCHOOL,3985 E SMITH RANCH RD,EAGLE MOUNTAIN,UT,84005,NOT AVAILABLE,(801) 610-8714
39903,490015000098,WELLINGTON SCHOOL,250 W 200 N,WELLINGTON,UT,84542,NOT AVAILABLE,(435) 637-2570
92028,490024000162,DUCHESNE HIGH,155 W. MAIN STREET,DUCHESNE,UT,84021,NOT AVAILABLE,(435) 738-1260
94414,490066000662,FOUNTAIN GREEN SCHOOL,395 W 100 S,FOUNTAIN GREEN,UT,84632,NOT AVAILABLE,(435) 445-3316
51394,490036000232,JOHN C. FREMONT SCHOOL,4249 S 1425 W,TAYLORSVILLE,UT,84123,NOT AVAILABLE,(385) 646-4834
54875,490004901150,MONTICELLO ACADEMY,2782 S CORPORATE PARK DRIVE,WEST VALLEY CITY,UT,84120,NOT AVAILABLE,(801) 417-8040
54998,490019201514,TREESIDE CHARTER SCHOOL,1724 SOUTH STATE STREET,PROVO,UT,84606,NOT AVAILABLE,(385) 309-1668
55886,490019701517,REAL SALT LAKE ACADEMY HIGH SCHOOL,14750 SOUTH 3600 WEST,HERRIMAN,UT,84096,NOT AVAILABLE,(801) 597-3096
59107,490021000650,LAKESIDE SCHOOL,2941 W 800 N,WEST POINT,UT,84015,NOT AVAILABLE,(801) 402-2900
59947,490007301187,DUAL IMMERSION ACADEMY,1155 S GLENDALE DRIVE,SALT LAKE CITY,UT,84104,NOT AVAILABLE,(801) 972-1425
71820,490072001266,BONNEVILLE SCHOOL,490 GRAMERCY AVE,OGDEN,UT,84404,NOT AVAILABLE,(801) 737-8900
73410,490048000897,LAKE POWELL SCHOOL,1000 FERRY RD,LAKE POWELL,UT,84533,NOT AVAILABLE,(435) 684-2268
1050,490042001243,PRESCHOOL,2827 W 13400 S,RIVERTON,UT,84065,NOT AVAILABLE,(801) 412-2510
1435,490015000821,CREEKVIEW SCHOOL,590 W 500 S,PRICE,UT,84501,NOT AVAILABLE,(435) 637-0828
8333,490024000711,TABIONA HIGH,10 N MAIN,TABIONA,UT,84072,NOT AVAILABLE,(435) 738-1320
41588,490003001419,HORIZON SCHOOL,682 W 210 N,SARATOGA SPRINGS,UT,84045,NOT AVAILABLE,(801) 610-8728
43547,490017601463,UTAH MILITARY ACADEMY,5120 S. 1050 W.,RIVERDALE,UT,84405,NOT AVAILABLE,(801) 689-3013
43674,490036000208,COTTONWOOD SCHOOL,5205 HOLLADAY BLVD,SALT LAKE CITY,UT,84117,NOT AVAILABLE,(385) 646-4798
44276,490072001383,TAYLOR CANYON SCHOOL,2130 TAYLOR AVE,OGDEN,UT,84401,NOT AVAILABLE,(801) 737-8950
68190,490014201384,CANYONS TRANSITION ACADEMY,9361 S 300 E,SANDY,UT,84070,NOT AVAILABLE,(801) 826-5467
68978,490063001157,DIAMOND FORK JUNIOR HIGH,50 N 900 E,SPANISH FORK,UT,84660,NOT AVAILABLE,(801) 798-4052
50008,490057000364,MORGAN MIDDLE,115 E YOUNG ST,MORGAN,UT,84050,NOT AVAILABLE,(801) 829-3467
52340,490075001256,MC POLIN PRESCHOOL,2270 KEARNS BLVD,PARK CITY,UT,84060,NOT AVAILABLE,(435) 645-5630
54083,490003001435,POLARIS HIGH SCHOOL,1551 W 1000 S,OREM,UT,84058,NOT AVAILABLE,(801) 610-8180
54597,490027000173,BOOK CLIFF SCHOOL,205 S SOLOMON STREET,GREEN RIVER,UT,84525,NOT AVAILABLE,(435) 564-8102
56409,490099001534,SILVER SUMMIT ACADEMY,6407 N BUSINESS PARK LOOP RD.,PARK CITY,UT,84098,NOT AVAILABLE,(435) 901-1697
97435,490120001414,WEBER ONLINE K-6,5320 ADAMS AVENUE PARKWAY,OGDEN,UT,84405,NOT AVAILABLE,(801) 476-7877
98132,490042000722,WELBY SCHOOL,4130 W 9580 S,SOUTH JORDAN,UT,84009,NOT AVAILABLE,(801) 280-1456
80450,490039000282,CEDAR SOUTH SCHOOL,499 W 400 S,CEDAR CITY,UT,84720,NOT AVAILABLE,(435) 586-2850
103072,490072001606,OGDEN ONLINE ELEMENTARY,1950 MONROE BOULEVARD,OGDEN,UT,84401,NOT AVAILABLE,(801) 737-7300
33484,490033001236,C R SUNDWALL CENTER,190 E 100 N,MOAB,UT,84532,NOT AVAILABLE,(435) 259-5628
34982,490084000472,SOUTH RICH SCHOOL,25 S 100 W,RANDOLPH,UT,84064,NOT AVAILABLE,(435) 793-2135
35122,490114001161,UTAH ONLINE K8,121 W TABERNACLE,ST GEORGE,UT,84770,NOT AVAILABLE,(435) 986-5181
38642,490003001099,SARATOGA SHORES SCHOOL,1415 S PARKSIDE DRIVE,SARATOGA SPRINGS,UT,84045,NOT AVAILABLE,(801) 610-8716
71170,490093000495,RICHFIELD PRESCHOOL,80 W CENTER,RICHFIELD,UT,84701,NOT AVAILABLE,(435) 896-8776
71253,490042000508,ELK MEADOWS SCHOOL,3448 W 9800 S,SOUTH JORDAN,UT,84095,NOT AVAILABLE,(801) 446-3200
73412,490102000561,WEST DESERT SCHOOL,440 TROUT CREEK,TROUT CREEK,UT,84083,NOT AVAILABLE,(435) 693-3193
73833,490014601375,BEAR RIVER CHARTER SCHOOL,75 S 400 W,LOGAN,UT,84321,NOT AVAILABLE,(435) 753-8811
76019,490087000487,EDISON SCHOOL,466 CHEYENNE,SALT LAKE CITY,UT,84104,NOT AVAILABLE,(801) 974-8300
78550,490087000514,PARKVIEW SCHOOL,970 S EMERY ST,SALT LAKE CITY,UT,84104,NOT AVAILABLE,(801) 974-8304
78708,490021000169,FAIRFIELD JR HIGH,951 N FAIRFIELD RD,KAYSVILLE,UT,84037,NOT AVAILABLE,(801) 402-7000
21222,490093001465,SEVIER CAREER AND TECHNICAL EDUCATION CENTER,53 NORTH 400 WEST,RICHFIELD,UT,84701,NOT AVAILABLE,(435) 633-4989
72554,490066000412,NORTH SANPETE HIGH,390 E 700 S,MT PLEASANT,UT,84647,NOT AVAILABLE,(435) 462-2452
73411,490036000198,ARCADIA SCHOOL,3461 W 4850 S,TAYLORSVILLE,UT,84118,NOT AVAILABLE,(385) 646-4756
75077,490027000180,HUNTINGTON SCHOOL,90 E 100 N,HUNTINGTON,UT,84528,NOT AVAILABLE,(435) 687-9954
76036,490084000470,NORTH RICH SCHOOL,54 E 100 S,LAKETOWN,UT,84038,NOT AVAILABLE,(435) 946-3359
78711,490030000184,BRYCE VALLEY HIGH,721 W BRYCE WAY,TROPIC,UT,84776,NOT AVAILABLE,(435) 679-8835
78874,490021000750,MUELLER PARK JR HIGH,995 E 1800 S,BOUNTIFUL,UT,84010,NOT AVAILABLE,(801) 402-6300
90822,490006300993,NO. UT. ACAD. FOR MATH ENGINEERING & SCIENCE,2750 N UNIVERSITY PARK BLVD,LAYTON,UT,84041,NOT AVAILABLE,(801) 395-3350
91522,490009000046,BOX ELDER HIGH,380 S 600 W,BRIGHAM CITY,UT,84302,NOT AVAILABLE,(435) 734-4840
101082,490027000175,CASTLE DALE SCHOOL,195 E 600 N,CASTLE DALE,UT,84513,NOT AVAILABLE,(435) 381-5221
103027,490002301570,BEEHIVE SCIENCE & TECHNOLOGY ACADEMY ELEMENTARY,830 E 9400 SOUTH,SANDY,UT,84094,NOT AVAILABLE,(801) 576-0070
103059,490042001612,KELSEY PEAKS VIRTUAL MIDDLE,7905 SOUTH REDWOOD ROAD,WEST JORDAN,UT,84084,NOT AVAILABLE,(801) 567-8750
81259,490006901139,KENNETH BURDETT SCHOOL,742 HARRISON BLVD,OGDEN,UT,84404,NOT AVAILABLE,(801) 629-4700
81501,490042000310,MAJESTIC SCHOOL,7430 S 1700 W,WEST JORDAN,UT,84084,NOT AVAILABLE,(801) 565-7458
81682,490039000280,CEDAR MIDDLE,2215 WEST ROYAL HUNTE DR,CEDAR CITY,UT,84720,NOT AVAILABLE,(435) 586-2810
87302,490120000612,BATES SCHOOL,850 E 3100 N,OGDEN,UT,84414,NOT AVAILABLE,(801) 452-4580
88352,490051000352,MOUNT LOGAN MIDDLE,875 N 200 E,LOGAN,UT,84321,NOT AVAILABLE,(435) 755-2370
89119,490087000484,DILWORTH SCHOOL,1953 S 2100 E,SALT LAKE CITY,UT,84108,NOT AVAILABLE,(801) 481-4806
52487,490021000848,SYRACUSE JR HIGH,1450 S 2000 W,SYRACUSE,UT,84075,NOT AVAILABLE,(801) 402-6800
54818,490013301216,VENTURE ACADEMY,495 N 1500 W,MARRIOTT-SLATERVILLE CITY,UT,84404,NOT AVAILABLE,(801) 393-3900
56404,490006301528,NO. UT. ACAD. OF MATH ENGINEERING & SCIENCE OGDEN,1265 VILLAGE DR. DEPT. 4006,OGDEN,UT,84408,NOT AVAILABLE,(801) 513-4084
56723,490013601272,EXCELSIOR ACADEMY,124 E ERDA WAY,ERDA,UT,84074,NOT AVAILABLE,(435) 882-3062
20474,490003000032,VINEYARD SCHOOL,620 E HOLDAWAY RD,VINEYARD,UT,84058,NOT AVAILABLE,(801) 610-8122
23074,490021000133,MILLCREEK JR HIGH,245 E 1000 S,BOUNTIFUL,UT,84010,NOT AVAILABLE,(801) 402-6200
25197,490114000601,HURRICANE HIGH,345 W TIGER BLVD,HURRICANE,UT,84737,NOT AVAILABLE,(435) 635-3280
28956,490036001449,NEIL ARMSTRONG ACADEMY,5194 WEST HIGHBURY PARKWAY,WEST VALLEY,UT,84120,NOT AVAILABLE,(385) 646-5284
60219,490114000433,THREE FALLS SCHOOL,789 S 700 W,HURRICANE,UT,84737,NOT AVAILABLE,(435) 635-7229
60630,490036000764,TAYLORSVILLE HIGH,5225 S REDWOOD ROAD,TAYLORSVILLE,UT,84123,NOT AVAILABLE,(385) 646-5455
63161,490036000728,WEST VALLEY SCHOOL,6049 W BRUD DR,WEST VALLEY CITY,UT,84128,NOT AVAILABLE,(385) 646-5079
64797,490081000461,PROVOST SCHOOL,629 S 1000 E,PROVO,UT,84606,NOT AVAILABLE,(801) 374-4960
64939,490021000727,FAMILY ENRICHMENT CENTER,320 S 500 E,KAYSVILLE,UT,84037,NOT AVAILABLE,(801) 402-0650
69487,490105000776,WILLOW SCHOOL,439 S WILLOW ST,GRANTSVILLE,UT,84029,NOT AVAILABLE,(435) 884-4527
39361,490036000243,MILL CREEK SCHOOL,3761 S 1100 E,SALT LAKE CITY,UT,84106,NOT AVAILABLE,(385) 646-4912
10683,490114000805,DIXIE MIDDLE,825 S 100 E,ST GEORGE,UT,84770,NOT AVAILABLE,(435) 628-0441
44990,490111000594,WASATCH HIGH,930 S 500 E,HEBER CITY,UT,84032,NOT AVAILABLE,(435) 654-0640
47208,490042000721,RIVERSIDE SCHOOL,8737 S 1220 W,WEST JORDAN,UT,84088,NOT AVAILABLE,(801) 565-7484
621,490016501439,MANA ACADEMY CHARTER SCHOOL,2355 S TECHNOLOGY DRIVE,WEST VALLEY CITY,UT,84119,NOT AVAILABLE,(801) 972-6262
4991,490000501520,AMERICAN PREPARATORY ACADEMY - SALEM,1195 S ELK RIDGE DRIVE,SALEM,UT,84653,NOT AVAILABLE,(801) 465-4434
6267,490014200875,DRAPER PARK MIDDLE,13133 SOUTH 1300 EAST,DRAPER,UT,84020,NOT AVAILABLE,(801) 826-6900
7529,490003000025,PLEASANT GROVE JR HIGH,810 N 100 E,PLEASANT GROVE,UT,84062,NOT AVAILABLE,(801) 610-8146
93042,490036000196,ACADEMY PARK SCHOOL,4580 WESTPOINT DR,WEST VALLEY CITY,UT,84120,NOT AVAILABLE,(385) 646-4750
97234,490036000207,COTTONWOOD HIGH,5715 S 1300 E,SALT LAKE CITY,UT,84121,NOT AVAILABLE,(385) 646-5264
97346,490009000044,BEAR RIVER MIDDLE,300 E 1500 S,GARLAND,UT,84312,NOT AVAILABLE,(435) 257-2540
97459,490114001290,DESERT HILLS HIGH,828 E DESERT HILLS DRIVE,SAINT GEORGE,UT,84790,NOT AVAILABLE,(435) 674-0885
60342,490036000680,CALVIN S. SMITH SCHOOL,2150 W 6200 S,TAYLORSVILLE,UT,84118,NOT AVAILABLE,(385) 646-5020
62587,490060000377,VIEWMONT SCHOOL,745 W 5720 S,MURRAY,UT,84123,NOT AVAILABLE,(801) 264-7438
63501,490036000852,SILVER HILLS SCHOOL,5770 W 5100 S,KEARNS,UT,84118,NOT AVAILABLE,(385) 646-5014
66971,490087000498,HILLSIDE MIDDLE,1825 S NEVADA,SALT LAKE CITY,UT,84108,NOT AVAILABLE,(801) 481-4828
81013,490036000829,HUNTER JR HIGH,6131 W 3785 S,WEST VALLEY CITY,UT,84120,NOT AVAILABLE,(385) 646-5184
86131,490003601072,EAST HOLLYWOOD HIGH,2185 S 3600 W,WEST VALLEY CITY,UT,84119,NOT AVAILABLE,(801) 886-8181
88438,490014200333,WILLOW CANYON SCHOOL,9650 S 1700 E,SANDY,UT,84092,NOT AVAILABLE,(801) 826-9625
88540,490114001076,FOSSIL RIDGE INTERMEDIATE,383 S MALL DR,ST. GEORGE,UT,84790,NOT AVAILABLE,(435) 652-4706
52238,490120000646,WEST WEBER SCHOOL,1033 N 1200 W,OGDEN,UT,84404,NOT AVAILABLE,(801) 452-4280
53661,490015901406,PACIFIC HERITAGE ACADEMY,1755 W 1100 N,SALT LAKE CITY,UT,84116,NOT AVAILABLE,(801) 363-1892
54447,490042000331,WESTVALE SCHOOL,2300 W 8660 S,WEST JORDAN,UT,84088,NOT AVAILABLE,(801) 565-7510
54511,490014200319,RIDGECREST SCHOOL,1800 E 7200 S,COTTONWOOD HEIGHTS,UT,84121,NOT AVAILABLE,(801) 826-9250
55814,490021000147,SYRACUSE SCHOOL,1503 S 2000 W,SYRACUSE,UT,84075,NOT AVAILABLE,(801) 402-2600
57737,490042001540,MOUNTAIN CREEK MIDDLE SCHOOL,5325 W BINGHAM RIM ROAD,SOUTH JORDAN,UT,84009,NOT AVAILABLE,(801) 567-8750
59408,490003000444,EAGLECREST SCHOOL,2760 N 300 W,LEHI,UT,84043,NOT AVAILABLE,(801) 610-8703
43258,490036000238,LINCOLN SCHOOL,450 E 3700 S,SALT LAKE CITY,UT,84115,NOT AVAILABLE,(385) 646-4894
44919,490078001262,OSCARSON PRESCHOOL,160 W SEVIER AVE,MARYSVALE,UT,84750,NOT AVAILABLE,(435) 326-4341
47357,490013201218,QUEST ACADEMY,4862 W 4000 S,WEST HAVEN,UT,84401,NOT AVAILABLE,(801) 731-9859
47929,490105001263,CLARKE N. JOHNSEN JR HIGH,2152 N 400 W,TOOELE,UT,84074,NOT AVAILABLE,(435) 833-1939
71172,490114001226,DESERT HILLS MIDDLE,936 E DESERT HILLS DRIVE,SAINT GEORGE,UT,84790,NOT AVAILABLE,(435) 628-0001
72181,490114001371,OUT OF STATE SCHOOL,121 W TABERNACLE,ST GEORGE,UT,84770,NOT AVAILABLE,(435) 673-3553
75128,490030000184,BRYCE VALLEY HIGH,721 W BRYCE WAY,TROPIC,UT,84776,NOT AVAILABLE,(435) 679-8835
78148,490066000414,SPRING CITY SCHOOL,100 N 453 E,SPRING CITY,UT,84662,NOT AVAILABLE,(435) 462-2169
78823,490090001426,TSE'BII'NIDZISGAI SCHOOL,101 W MEDICAL DR,MONUMENT VALLEY,UT,84536,NOT AVAILABLE,(435) 678-1286
30412,490021000112,CLEARFIELD HIGH,931 S 1000 E,CLEARFIELD,UT,84015,NOT AVAILABLE,(801) 402-8200
31860,490114000602,HURRICANE SCHOOL,948 W 325 N,HURRICANE,UT,84737,NOT AVAILABLE,(435) 635-4668
32867,490014200311,MIDVALE MIDDLE,11150 S. 300 E.,SANDY,UT,84070,NOT AVAILABLE,(801) 826-7300
35313,490120000640,UINTAH SCHOOL,6115 S 2250 E,OGDEN,UT,84403,NOT AVAILABLE,(801) 452-4980
38481,490004601147,GEORGE WASHINGTON ACADEMY,2277 S 3000 E,ST GEORGE,UT,84790,NOT AVAILABLE,(435) 673-2232
15667,490005101152,MOUNTAINVILLE ACADEMY,195 S MAIN,ALPINE,UT,84004,NOT AVAILABLE,(801) 756-9805
16175,490012000085,SUMMIT SCHOOL,80 W CENTER,SMITHFIELD,UT,84335,NOT AVAILABLE,(435) 563-6269
17016,490012000081,PROVIDENCE SCHOOL,91 E CENTER,PROVIDENCE,UT,84332,NOT AVAILABLE,(435) 752-6010
19397,490063000431,MT. LOAFER SCHOOL,1025 S 250 W,SALEM,UT,84653,NOT AVAILABLE,(801) 423-2705
1324,490081000467,WASATCH SCHOOL,1080 N 900 E,PROVO,UT,84604,NOT AVAILABLE,(801) 374-4910
3481,490114000347,BLOOMINGTON HILLS SCHOOL,919 E BRIGHAM RD,ST GEORGE,UT,84790,NOT AVAILABLE,(435) 674-6495
7567,490054000359,FILLMORE SCHOOL,555 W 400 S,FILLMORE,UT,84631,NOT AVAILABLE,(435) 743-5670
22425,490117000610,WAYNE HIGH,265 N 400 W,BICKNELL,UT,84715,NOT AVAILABLE,(435) 425-3411
25339,490072001271,OGDEN HIGH,2828 HARRISON BLVD,OGDEN,UT,84403,NOT AVAILABLE,(801) 737-8673
103070,490063001564,DIAMOND FORK MIDDLE,50 N 900 EAST,SPANISH FORK,UT,84660,NOT AVAILABLE,(801) 798-4052
103076,490105001601,DIGITAL EDUCATION CENTER,211 S TOOELE BLVD,TOOELE,UT,84074,NOT AVAILABLE,(435) 833-8710
90423,490072001273,ODYSSEY SCHOOL,375 GODDARD STREET,OGDEN,UT,84403,NOT AVAILABLE,(801) 737-8400
96034,490114001466,WATER CANYON SCHOOL,250 W NEWEL AVENUE,HILDALE,UT,84784,NOT AVAILABLE,(435) 668-2847
98853,490021000107,BOUNTIFUL SCHOOL,1620 S 50 W,BOUNTIFUL,UT,84010,NOT AVAILABLE,(801) 402-1350
99743,490021000823,MOUNTAIN HIGH,490 S 500 E,KAYSVILLE,UT,84037,NOT AVAILABLE,(801) 402-0450
30628,490108000588,UINTAH MIDDLE SCHOOL,161 N 1000 W,VERNAL,UT,84078,NOT AVAILABLE,(435) 781-3130
36139,490014200304,GRANITE SCHOOL,9760 S 3100 E,SANDY,UT,84092,NOT AVAILABLE,(801) 826-8575
38881,490102000560,TINTIC HIGH,525 E MAIN,EUREKA,UT,84628,NOT AVAILABLE,(435) 433-6939
17922,490007001176,EDITH BOWEN LABORATORY SCHOOL,6700 OLD MAIN HILL,LOGAN,UT,84322,NOT AVAILABLE,(435) 797-3085
20133,490120000818,MIDLAND SCHOOL,3100 W 4800 S,ROY,UT,84067,NOT AVAILABLE,(801) 476-5400
50064,490081000465,TIMPANOGOS SCHOOL,449 N 500 W,PROVO,UT,84601,NOT AVAILABLE,(801) 374-4955
51395,490063000403,SPRINGVILLE JR HIGH,165 S 700 E,SPRINGVILLE,UT,84663,NOT AVAILABLE,(801) 489-2880
52204,490036000215,EISENHOWER JR HIGH,4351 S REDWOOD RD,TAYLORSVILLE,UT,84123,NOT AVAILABLE,(385) 646-5154
54502,490019401509,IGNITE ENTREPRENEURSHIP ACADEMY,1650 WEST TRAVERSE TERRACE,LEHI,UT,84043,NOT AVAILABLE,(801) 901-8520
57733,490042001543,MOUNTAIN POINT ELEMENTARY,15345 S 1200 W,BLUFFDALE,UT,84065,NOT AVAILABLE,(801) 567-8750
61529,490003001461,BLACK RIDGE SCHOOL,9358 N. SUNSET DRIVE,EAGLE MOUNTAIN,UT,84005,NOT AVAILABLE,(801) 610-8729
66049,490014200659,ALTA HIGH,11055 SOUTH HAWK HWY,SANDY,UT,84094,NOT AVAILABLE,(801) 826-5600
70703,490003000001,ALPINE SCHOOL,400 E 300 N,ALPINE,UT,84004,NOT AVAILABLE,(801) 610-8700
70912,490021000127,KAYSVILLE SCHOOL,50 N 100 E,KAYSVILLE,UT,84037,NOT AVAILABLE,(801) 402-3400
73431,490036000253,PIONEER SCHOOL,3860 S 3380 W,WEST VALLEY CITY,UT,84119,NOT AVAILABLE,(385) 646-4966
76043,490036000223,GRANITE PARK JR HIGH,3031 S 200 E,SALT LAKE CITY,UT,84115,NOT AVAILABLE,(385) 646-5174
78208,490021000145,SUNSET JR HIGH,1610 N 250 W,SUNSET,UT,84015,NOT AVAILABLE,(801) 402-6700
42375,490045000336,RED CLIFF SCHOOL,1199 S MAIN,NEPHI,UT,84648,NOT AVAILABLE,(435) 623-0328
45280,490042000428,WEST HILLS MIDDLE,8270 SO 5290 W,WEST JORDAN,UT,84081,NOT AVAILABLE,(801) 412-2300
46081,490099000557,SOUTH SUMMIT HIGH,45 S 300 E,KAMAS,UT,84036,NOT AVAILABLE,(435) 783-4313
48332,490036000826,JIM BRIDGER SCHOOL,5368 W CYCLAMEN WAY,WEST JORDAN,UT,84084,NOT AVAILABLE,(385) 646-4780
48571,490014200286,ALTA VIEW SCHOOL,10333 S 865 E,SANDY,UT,84094,NOT AVAILABLE,(801) 826-7600
48772,490063000689,BARNETT SCHOOL,456 N 300 E,PAYSON,UT,84651,NOT AVAILABLE,(801) 465-6000
1488,490021001505,KAY'S CREEK ELEMENTARY,2260 W ISLAND DR.,KAYSVILLE,UT,84037,NOT AVAILABLE,(801) 402-0050
3620,490024000166,NEOLA SCHOOL,8709 N STATE RD 121,NEOLA,UT,84053,NOT AVAILABLE,(435) 725-4715
5698,490021000649,BLUFF RIDGE SCHOOL,2680 S 775 W,SYRACUSE,UT,84075,NOT AVAILABLE,(801) 402-2850
9315,490120000621,LOMOND VIEW SCHOOL,3644 N 900 W,OGDEN,UT,84414,NOT AVAILABLE,(801) 452-4780
82525,490004201137,SPECTRUM ACADEMY - NSL,575 N CUTLER DR,NORTH SALT LAKE,UT,84054,NOT AVAILABLE,(801) 936-0318
84268,490001600830,TIMPANOGOS ACADEMY,70 S 100 E,LINDON,UT,84042,NOT AVAILABLE,(801) 785-4979
86187,490036000226,HILLSDALE SCHOOL,3275 W 3100 S,WEST VALLEY CITY,UT,84119,NOT AVAILABLE,(385) 646-4864
88961,490024000158,ALTAMONT HIGH,200 W MAIN,ALTAMONT,UT,84001,NOT AVAILABLE,(435) 738-1345
100477,490081000459,PROVO HIGH,1199 NORTH LAKESHORE DR,PROVO,UT,84601,NOT AVAILABLE,(801) 373-6550
102415,490087001170,SALT LAKE TECHNOLOGY CENTER,1560 S 200 E,SALT LAKE CITY,UT,84115,NOT AVAILABLE,(801) 481-4946
21856,490012000078,NORTH CACHE MIDDLE SCHOOL,157 W 600 S,RICHMOND,UT,84333,NOT AVAILABLE,(435) 258-2452
23611,490036000230,JACKLING SCHOOL,3760 S 4610 W,WEST VALLEY CITY,UT,84120,NOT AVAILABLE,(385) 646-4882
60051,490048000340,KANAB SCHOOL,41 W 100 N,KANAB,UT,84741,NOT AVAILABLE,(435) 644-2329
60728,490039001240,IRON COUNTY PRESCHOOL,638 W 500 S,CEDAR CITY,UT,84720,NOT AVAILABLE,(435) 586-2801
68030,490021001369,FOXBORO SCHOOL,487 N FOXBORO DRIVE,NORTH SALT LAKE,UT,84054,NOT AVAILABLE,(801) 402-5050
1051,490021000759,HERITAGE SCHOOL,1354 W WEAVER LN,LAYTON,UT,84041,NOT AVAILABLE,(801) 402-1200
5624,490036000854,PLEASANT GREEN SCHOOL,8201 W 2700 S,MAGNA,UT,84044,NOT AVAILABLE,(385) 646-4972
9285,490001700904,ACADEMY FOR MATH ENGINEERING & SCIENCE,5715 S 1300 E,SALT LAKE CITY,UT,84121,NOT AVAILABLE,(801) 278-9460
43673,490021000106,BOUNTIFUL JR HIGH,30 W 400 N,BOUNTIFUL,UT,84010,NOT AVAILABLE,(801) 402-6000
44089,490042001411,FOX HOLLOW SCHOOL,6020 W 8200 S,WEST JORDAN,UT,84081,NOT AVAILABLE,(801) 282-1818
44983,490063000383,GOSHEN SCHOOL,60 N CENTER,GOSHEN,UT,84633,NOT AVAILABLE,(801) 667-3361
46161,490018201467,LUMEN SCHOLAR INSTITUTE,1353 W 760 N,OREM,UT,84057,NOT AVAILABLE,(801) 987-9497
47665,490009000053,GARLAND SCHOOL,450 S. 100 W.,GARLAND,UT,84312,NOT AVAILABLE,(435) 257-2600
90015,490030000187,ESCALANTE SCHOOL,50 N 300 E,ESCALANTE,UT,84726,NOT AVAILABLE,(435) 826-4247
92785,490006000037,BELKNAP SCHOOL,510 N. 650 E.,BEAVER,UT,84713,NOT AVAILABLE,(435) 438-2281
93712,490027000174,CANYON VIEW MIDDLE SCHOOL,CANYON RD,HUNTINGTON,UT,84528,NOT AVAILABLE,(435) 687-2265
98599,490021000120,FARMINGTON SCHOOL,50 W 200 S,FARMINGTON,UT,84025,NOT AVAILABLE,(801) 402-2950
98782,490003000016,LAKERIDGE JR HIGH,951 S 400 W,OREM,UT,84058,NOT AVAILABLE,(801) 610-8134
98785,490120000573,MAJESTIC SCHOOL,425 W 2550 N,OGDEN,UT,84414,NOT AVAILABLE,(801) 452-4260
50959,490017501455,MOUNTAIN WEST MONTESSORI ACADEMY,4125 W FOXVIEW DR.,SOUTH JORDAN,UT,84009,NOT AVAILABLE,(801) 566-6962
52139,490120000781,FREEDOM SCHOOL,4555 W 5500 S,HOOPER,UT,84315,NOT AVAILABLE,(801) 452-4100
53533,490013701493,HAWTHORN ACADEMY SOUTH JORDAN,1437 W 11400 S,SOUTH JORDAN,UT,84095,NOT AVAILABLE,(801) 260-3040
54741,490003000011,GENEVA SCHOOL,400 N 665 W,OREM,UT,84057,NOT AVAILABLE,(801) 610-8108
57940,490120000643,WAHLQUIST JR HIGH,2656 N 2400 W,FARR WEST,UT,84404,NOT AVAILABLE,(801) 452-4640
84490,490105000575,TOOELE JR HIGH,411 W VINE ST,TOOELE,UT,84074,NOT AVAILABLE,(435) 833-1921
85103,490014200815,ALBION MIDDLE,2755 E 8890 S,SANDY,UT,84093,NOT AVAILABLE,(801) 826-6700
85456,490072001297,LINCOLN SCHOOL,1235 N CANFIELD DR,OGDEN,UT,84404,NOT AVAILABLE,(801) 737-7650
86175,490084000471,RICH HIGH,140 W CHURCH,RANDOLPH,UT,84064,NOT AVAILABLE,(435) 793-2365
86561,490014200296,COPPERVIEW SCHOOL,8449 S 150 W,MIDVALE,UT,84047,NOT AVAILABLE,(801) 826-8125
100399,490072001294,HIGHLAND JUNIOR HIGH,325 GRAMERCY AVE,OGDEN,UT,84404,NOT AVAILABLE,(801) 737-7700
100752,490001300671,UINTAH RIVER HIGH,998 E 7500 S,FORT DUCHESNE,UT,84026,NOT AVAILABLE,(435) 725-4088
103051,490021001598,DAVIS CONNECT 7-12,369 W GENTILE ST,LAYTON,UT,84041,NOT AVAILABLE,(801) 402-5266
103082,490120001548,HORIZON ACADEMY,955 W 12TH STREET,OGDEN,UT,84404,NOT AVAILABLE,(801) 476-3924
12094,490114000841,BLOOMINGTON SCHOOL,425 MAN OF WAR RD,ST GEORGE,UT,84790,NOT AVAILABLE,(435) 673-6266
13552,490024000164,EAST SCHOOL,700 E 400 N (107-10),ROOSEVELT,UT,84066,NOT AVAILABLE,(435) 725-4665
18678,490090000537,SAN JUAN HIGH,311 N 100 E,BLANDING,UT,84511,NOT AVAILABLE,(435) 678-1301
35130,490006500995,DAVINCI ACADEMY,2033 GRANT AVE,OGDEN,UT,84401,NOT AVAILABLE,(801) 409-0700
36885,490003001099,SARATOGA SHORES SCHOOL,1415 S PARKSIDE DRIVE,SARATOGA SPRINGS,UT,84045,NOT AVAILABLE,(801) 610-8716
74222,490120000624,MUNICIPAL SCHOOL,5775 S 2200 W,ROY,UT,84067,NOT AVAILABLE,(801) 452-4120
90813,490087000515,RILEY SCHOOL,1410 S 800 W,SALT LAKE CITY,UT,84104,NOT AVAILABLE,(801) 974-8310
93730,490021000134,EAGLE BAY SCHOOL,100 N 1933 W,FARMINGTON,UT,84025,NOT AVAILABLE,(801) 402-3800
96637,490017401453,ASCENT ACADEMIES OF UTAH FARMINGTON,22 SOUTH 650 WEST,FARMINGTON,UT,84025,NOT AVAILABLE,(385) 220-2200
98874,490014200718,ALTARA SCHOOL,800 E 11000 S,SANDY,UT,84094,NOT AVAILABLE,(801) 826-7675
74008,490051000343,ADAMS SCHOOL,415 E 500 N,LOGAN,UT,84321,NOT AVAILABLE,(435) 755-2320
75665,490087000476,BONNEVILLE SCHOOL,1145 S 1900 E,SALT LAKE CITY,UT,84108,NOT AVAILABLE,(801) 584-2913
83424,490001200673,TUACAHN HIGH SCHOOL FOR THE PERFORMING ARTS,1100 TUACAHN DR,IVINS,UT,84738,NOT AVAILABLE,(435) 652-3201
85780,490021000103,ADELAIDE SCHOOL,731 W 3600 S,BOUNTIFUL,UT,84010,NOT AVAILABLE,(801) 402-1250
101783,490000800629,PINNACLE CANYON ACADEMY,210 N 600 E,PRICE,UT,84501,NOT AVAILABLE,(435) 613-8102
102123,490072001265,GEORGE WASHINGTON HIGH,455 28TH STREET,OGDEN,UT,84401,NOT AVAILABLE,(801) 737-7400
103031,490003001573,CENTENNIAL ELEMENTARY,450 S. 400 EAST,OREM,UT,84097,NOT AVAILABLE,(801) 610-8400
103071,490072001550,MALAN'S PEAK SECONDARY,790 W 12TH ST,OGDEN,UT,84404,NOT AVAILABLE,(801) 334-0271
103077,490114001549,CRIMSON CLIFFS MIDDLE,4280 S CRIMSON CLIFFS WAY,WASHINGTON,UT,84780,NOT AVAILABLE,(435) 634-7010
12599,490000500801,AMERICAN PREPARATORY ACADEMY - DRAPER #1,12892 S PONY EXPRESS RD,DRAPER,UT,84020,NOT AVAILABLE,(801) 553-8500
12993,490014200317,OAKDALE SCHOOL,1900 E 8100 S,SANDY,UT,84093,NOT AVAILABLE,(801) 826-8950
15058,490036000277,WOODSTOCK SCHOOL,6015 S 1300 E,SALT LAKE CITY,UT,84121,NOT AVAILABLE,(385) 646-5108
34836,490087000486,EAST HIGH,840 S 1300 E,SALT LAKE CITY,UT,84102,NOT AVAILABLE,(801) 583-1661
35047,490006000912,MINERSVILLE SCHOOL,450 S 200 W,MINERSVILLE,UT,84752,NOT AVAILABLE,(435) 386-2382
35404,490009000054,GROUSE CREEK ELEMENTARY,1 W BUCKAROO BLVD,GROUSE CREEK,UT,84313,NOT AVAILABLE,(435) 747-7321
37198,490042000308,RIVERS EDGE SCHOOL,319 W 11000 S,SOUTH JORDAN,UT,84095,NOT AVAILABLE,(801) 565-7584
39351,490006200992,FREEDOM PREPARATORY ACADEMY,1190 W 900 N,PROVO,UT,84604,NOT AVAILABLE,(801) 437-3100
53660,490015101386,UTAH CONNECTIONS ACADEMY,675 E. 2100 SOUTH,SALT LAKE CITY,UT,84106,NOT AVAILABLE,(801) 298-6660
54007,490018801485,ST. GEORGE ACADEMY,380 E. 3090 S.,WASHINGTON,UT,84780,NOT AVAILABLE,(435) 319-0105
59612,490036000233,JOHN F. KENNEDY JR HIGH,4495 S 4800 W,WEST VALLEY CITY,UT,84120,NOT AVAILABLE,(385) 646-5214
23744,490006000038,MILFORD HIGH,62 N 300 W,MILFORD,UT,84751,NOT AVAILABLE,(435) 387-2751
23786,490018101473,ATHENIAN EACADEMY,765 E 340 S SUITE 203,AMERICAN FORK,UT,84003,NOT AVAILABLE,(385) 715-5400
24699,490014200288,BELLA VISTA SCHOOL,2131 E 7000 S,SALT LAKE CITY,UT,84121,NOT AVAILABLE,(801) 826-7825
24973,490021000149,VAE VIEW SCHOOL,1750 W 1600 N,LAYTON,UT,84041,NOT AVAILABLE,(801) 402-2800
25959,490014200288,BELLA VISTA SCHOOL,2131 E 7000 S,SALT LAKE CITY,UT,84121,NOT AVAILABLE,(801) 826-7825
29049,490036000219,GRANGER SCHOOL,3702 S 1950 W,WEST VALLEY CITY,UT,84119,NOT AVAILABLE,(385) 646-4852
63180,490042000195,ELK RIDGE MIDDLE,3659 W 9800 S,SOUTH JORDAN,UT,84009,NOT AVAILABLE,(801) 412-2800
67410,490111000499,HEBER VALLEY SCHOOL,730 S 600 W,HEBER CITY,UT,84032,NOT AVAILABLE,(435) 654-0112
69549,490004101437,ENTHEOS ACADEMY MAGNA,2606 S 7200 W,MAGNA,UT,84044,NOT AVAILABLE,(801) 250-5233
43527,490003001419,HORIZON SCHOOL,682 W 210 N,SARATOGA SPRINGS,UT,84045,NOT AVAILABLE,(801) 610-8728
92,490006601499,SUMMIT ACADEMY - BLUFFDALE,1940 W. 14400 S.,BLUFFDALE,UT,84065,NOT AVAILABLE,(801) 254-9488
1450,490002301060,BEEHIVE SCIENCE & TECHNOLOGY ACADEMY,830 E 9400 S,SANDY,UT,84094,NOT AVAILABLE,(801) 576-0070
1592,490003701101,SUCCESS SUU,351 W UNIVERSITY BLVD,CEDAR CITY,UT,84720,NOT AVAILABLE,(435) 865-8790
3980,490120000613,BONNEVILLE HIGH,251 E 4800 S,OGDEN,UT,84405,NOT AVAILABLE,(801) 452-4050
11303,490021000155,WEST POINT SCHOOL,3788 W 300 N,WEST POINT,UT,84015,NOT AVAILABLE,(801) 402-2750
12446,490009000057,LAKE VIEW SCHOOL,851 S 200 W,BRIGHAM CITY,UT,84302,NOT AVAILABLE,(435) 734-4922
16561,490063001390,SALEM JUNIOR HIGH,598 NORTH MAIN,SALEM,UT,84653,NOT AVAILABLE,(801) 423-6558
19371,490063001126,FOOTHILLS SCHOOL,412 S 810 E,SALEM,UT,84653,NOT AVAILABLE,(801) 423-9172
1043,490019601516,LEADERSHIP ACADEMY OF UTAH,1366 S. LEGEND HILLS DR. STE.,CLEARFIELD,UT,84015,NOT AVAILABLE,(800) 200-6869
2626,490021000677,MORGAN SCHOOL,1065 THORNFIELD RD,KAYSVILLE,UT,84037,NOT AVAILABLE,(801) 402-3450
5004,490114001521,WATER CANYON HIGH,880 N. CARLING ST.,HILDALE,UT,84784,NOT AVAILABLE,(435) 874-1182
9229,490021001205,SYRACUSE HIGH,665 S 2000 W,SYRACUSE,UT,84075,NOT AVAILABLE,(801) 402-7900
21135,490039001120,IRON SPRINGS SCHOOL,235 N 4050 W,CEDAR CITY,UT,84720,NOT AVAILABLE,(435) 586-9485
25635,490042000770,WEST JORDAN SCHOOL,7220 S 2370 W,WEST JORDAN,UT,84084,NOT AVAILABLE,(801) 565-7506
27805,490014200856,LONE PEAK SCHOOL,11515 S 2220 E,SANDY,UT,84092,NOT AVAILABLE,(801) 826-8650
28235,490120000619,KANESVILLE SCHOOL,3112 S 3500 W,WEST HAVEN,UT,84401,NOT AVAILABLE,(801) 452-4680
45108,490042000721,RIVERSIDE SCHOOL,8737 S 1220 W,WEST JORDAN,UT,84088,NOT AVAILABLE,(801) 565-7484
45673,490017901476,TERRA ACADEMY,267 AGGIE BLVD.,VERNAL,UT,84078,NOT AVAILABLE,(844) 322-6562
45920,490030000186,ESCALANTE HIGH,800 E HIGHWAY 12,ESCALANTE,UT,84726,NOT AVAILABLE,(435) 826-4205
37166,490081000789,SPRING CREEK SCHOOL,1740 S NEVADA AVE,PROVO,UT,84606,NOT AVAILABLE,(801) 370-4650
39466,490114001198,TONAQUINT INTERMEDIATE,1210 W CURLY HOLLOW DRIVE,SAINT GEORGE,UT,84770,NOT AVAILABLE,(435) 688-2238
91011,490108001222,UINTAH ONLINE SCHOOL,635 W 200 S,VERNAL,UT,84078,NOT AVAILABLE,(435) 781-3100
91834,490060000988,MURRAY ADULT TRANSITION,147 E 5065 S,MURRAY,UT,84107,NOT AVAILABLE,(801) 957-4693
96298,490087000510,NEWMAN SCHOOL,1269 N COLORADO ST,SALT LAKE CITY,UT,84116,NOT AVAILABLE,(801) 578-8537
97096,490021000148,TOLMAN SCHOOL,300 E 1200 N,BOUNTIFUL,UT,84010,NOT AVAILABLE,(801) 402-1900
98778,490006000040,MINERSVILLE SCHOOL,450 S 200 W,MINERSVILLE,UT,84752,NOT AVAILABLE,(435) 386-2382
71947,490066001431,PLEASANT CREEK HIGH SCHOOL,55 E 100 SOUTH,MOUNT PLEASANT,UT,84647,NOT AVAILABLE,(435) 462-2817
64835,490036000231,JAMES E. MOSS SCHOOL,4399 S 500 E,SALT LAKE CITY,UT,84107,NOT AVAILABLE,(385) 646-4930
65283,490120000642,VALLEY VIEW SCHOOL,2465 W 4500 S,ROY,UT,84067,NOT AVAILABLE,(801) 476-5200
68447,490003201095,REAGAN ACADEMY,1143 W CENTER,SPRINGVILLE,UT,84663,NOT AVAILABLE,(801) 489-7828
68637,490036000898,HUNTER HIGH,4200 S 5600 W,WEST VALLEY CITY,UT,84120,NOT AVAILABLE,(385) 646-5360
69956,490006901143,ELIZABETH DELONG SCHOOL OF THE DEAF,424 S 350 E,OREM,UT,84058,NOT AVAILABLE,(801) 224-6590
80195,490063000482,SPANISH FORK JR HIGH,600 S 820 E,SPANISH FORK,UT,84660,NOT AVAILABLE,(801) 798-4075
80654,490114000701,SANTA CLARA SCHOOL,2950 W CRESTVIEW DR,SANTA CLARA,UT,84765,NOT AVAILABLE,(435) 628-2624
85715,490000501446,AMERICAN PREPARATORY ACADEMY - DRAPER #2,11938 SOUTH LONE PEAK PARKWAY,DRAPER,UT,84020,NOT AVAILABLE,(801) 810-3590
50074,490096000550,GUNNISON VALLEY HIGH,35 E 600 S,GUNNISON,UT,84634,NOT AVAILABLE,(435) 528-7256
54020,490063001500,MEADOW BROOK SCHOOL,748 S. 950 W.,SPRINGVILLE,UT,84663,NOT AVAILABLE,(801) 489-2897
58994,490120000967,ORION JR HIGH,370 W 2000 N,HARRISVILLE,UT,84414,NOT AVAILABLE,(801) 452-4700
103035,490003001614,HARBOR POINT ELEMENTARY,4189 S SCHOONER DRIVE,SARATOGA SPRINGS,UT,84045,NOT AVAILABLE,(801) 610-8400
103037,490003001619,VIEWPOINT MIDDLE,3950 N. MAPLE HOLLOW BLVD.,LEHI,UT,84043,NOT AVAILABLE,(801) 610-8400
10752,490036000276,WOODROW WILSON SCHOOL,2567 S MAIN STREET,SALT LAKE CITY,UT,84115,NOT AVAILABLE,(385) 646-5102
11014,490021001114,PARKSIDE SCHOOL,2262 N 1500 W,CLINTON,UT,84015,NOT AVAILABLE,(801) 402-1150
18567,490021000870,WEST CLINTON SCHOOL,2826 W 1800 N,CLINTON,UT,84015,NOT AVAILABLE,(801) 402-2700
18715,490048000796,KANAB MIDDLE,690 S COWBOY WAY,KANAB,UT,84741,NOT AVAILABLE,(435) 644-5809
18996,490021001403,CENTENNIAL JR HIGH,740 S SUNSET DR,KAYSVILLE,UT,84037,NOT AVAILABLE,(801) 402-0100
82082,490014201380,GOLDMINER'S DAUGHTER,GOLDMINER'S DAUGHTER LODGE,ALTA,UT,84092,NOT AVAILABLE,(801) 826-8575
84503,490042000720,OQUIRRH HILLS MIDDLE,12949 S 2700 W,RIVERTON,UT,84065,NOT AVAILABLE,(801) 412-2350
84965,490021000109,CENTERVILLE JR HIGH,625 S MAIN,CENTERVILLE,UT,84014,NOT AVAILABLE,(801) 402-6100
85469,490036000717,HUNTER SCHOOL,4351 S 5400 W,WEST VALLEY CITY,UT,84120,NOT AVAILABLE,(385) 646-4876
88229,490033000192,GRAND COUNTY MIDDLE,439 S 100 E,MOAB,UT,84532,NOT AVAILABLE,(435) 259-7158
89675,490081000730,WESTRIDGE SCHOOL,1720 W 1460 N,PROVO,UT,84604,NOT AVAILABLE,(801) 374-4870
624,490012001227,MOUNTAINSIDE SCHOOL,235 E 125 N,MENDON,UT,84325,NOT AVAILABLE,(435) 792-7688
1461,490057001260,MORGAN PRESCHOOL,240 E YOUNG ST,MORGAN,UT,84050,NOT AVAILABLE,(801) 829-3411
2156,490003000074,MOUNTAIN RIDGE JR HIGH,5525 W 10400 N,HIGHLAND,UT,84003,NOT AVAILABLE,(801) 610-8758
2386,490105000697,STANSBURY PARK SCHOOL,485 COUNTRY CLUB DR,STANSBURY PARK,UT,84074,NOT AVAILABLE,(435) 833-1968
3019,490114001432,UTAH ONLINE 7-12,121 W. TABERNACLE,SAINT GEORGE,UT,84770,NOT AVAILABLE,(435) 673-3553
3937,490013101220,MERIT COLLEGE PREPARATORY ACADEMY,1440 W CENTER STREET,SPRINGVILLE,UT,84663,NOT AVAILABLE,(801) 491-7600
5003,490105001519,OLD MILL SCHOOL,92 S LODESTONE WAY,TOOELE,UT,84074,NOT AVAILABLE,(435) 833-1900
43979,490021000923,WEST POINT JR HIGH,2775 W 550 N,WEST POINT,UT,84015,NOT AVAILABLE,(801) 402-8100
44041,490099000557,SOUTH SUMMIT HIGH,45 S 300 E,KAMAS,UT,84036,NOT AVAILABLE,(435) 783-4313
44917,490002401107,WASATCH PEAK ACADEMY,414 N CUTLER DRIVE,NORTH SALT LAKE,UT,84054,NOT AVAILABLE,(801) 936-3066
45805,490036000275,WILLIAM PENN SCHOOL,1670 SIGGARD DR,SALT LAKE CITY,UT,84106,NOT AVAILABLE,(385) 646-4960
90735,490048001258,KANE PRESCHOOL,746 S 175 E,KANAB,UT,84741,NOT AVAILABLE,(435) 644-2555
96345,490042001427,SOUTHPOINTE ADULT HIGH,9301 S WIGHTS FORT RD,WEST JORDAN,UT,84084,NOT AVAILABLE,(801) 256-5952
97376,490042000346,COPPER HILLS HIGH,5445 W 7800 S,WEST JORDAN,UT,84081,NOT AVAILABLE,(801) 256-5300
98780,490045000951,NEBO VIEW SCHOOL,380 E 200 N,NEPHI,UT,84648,NOT AVAILABLE,(435) 623-1812
98850,490045000334,JUAB HIGH,802 N 650 E,NEPHI,UT,84648,NOT AVAILABLE,(435) 623-1764
103053,490024001618,BASIN ONLINE SCHOOL,1091 E LAGOON ST,ROOSEVELT,UT,84066,NOT AVAILABLE,(435) 725-4491
103069,490063001563,MT. NEBO MIDDLE,851 W. 450 SOUTH,PAYSON,UT,84651,NOT AVAILABLE,(801) 465-6040
103073,490072001607,OGDEN ONLINE SECONDARY,1950 MONROE BOULEVARD,OGDEN,UT,84401,NOT AVAILABLE,(801) 737-7300
103080,490114001602,SOUTH MESA ELEMENTARY,2969 S 3300 EAST,SAINT GEORGE,UT,84790,NOT AVAILABLE,(435) 634-7030
50565,490036000245,MORNINGSIDE SCHOOL,4170 S 3000 E,SALT LAKE CITY,UT,84124,NOT AVAILABLE,(385) 646-4924
50915,490009000069,WILLARD SCHOOL,40 W 50 S,WILLARD,UT,84340,NOT AVAILABLE,(435) 734-4934
55888,490111001533,TIMPANOGOS MIDDLE SCHOOL,1441 EAST 980 SOUTH,HEBER CITY,UT,84032,NOT AVAILABLE,(435) 654-0550
56503,490108001270,EAGLE VIEW SCHOOL,301 NORTH 5750 EAST,ROOSEVELT,UT,84066,NOT AVAILABLE,(435) 722-2247
58511,490036000828,WESTBROOK SCHOOL,3451 W 6200 S,TAYLORSVILLE,UT,84118,NOT AVAILABLE,(385) 646-5085
35070,490069001254,NORTH SUMMIT PRESCHOOL,65 S MAIN,COALVILLE,UT,84017,NOT AVAILABLE,(435) 336-5654
20741,490012000078,NORTH CACHE MIDDLE SCHOOL,157 W 600 S,RICHMOND,UT,84333,NOT AVAILABLE,(435) 258-2452
21220,490000501471,AMERICAN PREPARATORY ACADEMY - DRAPER #3,11938 LONE PEAK PARKWAY,DRAPER,UT,84020,NOT AVAILABLE,(801) 810-3590
28469,490021000709,HOLT SCHOOL,448 N 1000 W,CLEARFIELD,UT,84015,NOT AVAILABLE,(801) 402-2400
70836,490006800998,NORTH DAVIS PREPARATORY ACADEMY,1765 W HILLFIELD RD,LAYTON,UT,84041,NOT AVAILABLE,(801) 547-1809
76075,490021000710,KNOWLTON SCHOOL,801 SHEPARD LANE,FARMINGTON,UT,84025,NOT AVAILABLE,(801) 402-3000
78301,490111000738,ROCKY MOUNTAIN MIDDLE,800 W SCHOOL HOUSE WAY,HEBER CITY,UT,84032,NOT AVAILABLE,(435) 654-9350
79301,490108000582,MAESER SCHOOL,2670 W 1000 N,VERNAL,UT,84078,NOT AVAILABLE,(435) 781-3160
66082,490120000669,SNOWCREST JR HIGH,2755 N HIGHWAY 162,EDEN,UT,84310,NOT AVAILABLE,(801) 476-5360
67222,490075001423,JEREMY RANCH PRESCHOOL,3050 RASMUSSEN RD,PARK CITY,UT,84098,NOT AVAILABLE,(435) 645-5670
67421,490005800989,OGDEN PREPARATORY ACADEMY,1415 LINCOLN AVE,OGDEN,UT,84404,NOT AVAILABLE,(801) 627-2066
31178,490014200294,BUTLER SCHOOL,2700 E 7000 S,SALT LAKE CITY,UT,84121,NOT AVAILABLE,(801) 826-7975
33485,490060000374,MURRAY HIGH,5440 S STATE,MURRAY,UT,84107,NOT AVAILABLE,(801) 264-7460
35405,490036000199,BENNION SCHOOL,5775 S SIERRA GRANDE DR,SALT LAKE CITY,UT,84118,NOT AVAILABLE,(385) 646-4774
38288,490075001255,MPES PRESCHOOL,2700 KEARNS BLVD.,PARK CITY,UT,84060,NOT AVAILABLE,(435) 645-5600
595,490003001436,EAST SHORE ONLINE,1551 W 1000 S,OREM,UT,84058,NOT AVAILABLE,(801) 227-2440
2448,490021000242,WINDRIDGE SCHOOL,1300 S 700 E,KAYSVILLE,UT,84037,NOT AVAILABLE,(801) 402-3550
6243,490021001537,FARMINGTON HIGH,548 W GLOVERS LANGE,FARMINGTON,UT,84025,NOT AVAILABLE,(801) 402-9050
6640,490003001538,CEDAR VALLEY HIGH,5000 N. PONY EXPRESS PARKWAY,EAGLE MOUNTAIN,UT,84005,NOT AVAILABLE,(801) 610-8400
8245,490012000082,RIVER HEIGHTS SCHOOL,780 E 600 S,LOGAN,UT,84321,NOT AVAILABLE,(435) 753-4948
23761,490072001280,HERITAGE SCHOOL,373 S 150 W,OGDEN,UT,84404,NOT AVAILABLE,(801) 737-8000
25156,490051000348,ELLIS SCHOOL,348 W 300 N,LOGAN,UT,84321,NOT AVAILABLE,(435) 755-2330
26955,490021000154,WEST BOUNTIFUL SCHOOL,500 N 800 WEST,WEST BOUNTIFUL,UT,84087,NOT AVAILABLE,(801) 402-2000
28760,490003001154,ALPINE ONLINE SCHOOL,575 N 100 E,AMERICAN FORK,UT,84003,NOT AVAILABLE,(801) 756-8400
29748,490021001195,ELLISON PARK SCHOOL,800 N COLDCREEK WAY,LAYTON,UT,84041,NOT AVAILABLE,(801) 402-7300
18498,490013701298,HAWTHORN ACADEMY WEST JORDAN,9062 S 2200 W,WEST JORDAN,UT,84088,NOT AVAILABLE,(801) 282-9066
71384,490075001410,TRAILSIDE PRESCHOOL,5700 TRAILSIDE DR,PARK CITY,UT,84098,NOT AVAILABLE,(435) 645-5680
74974,490087000514,PARKVIEW SCHOOL,970 S EMERY ST,SALT LAKE CITY,UT,84104,NOT AVAILABLE,(801) 974-8304
76903,490084001264,RICH PRESCHOOL,BOX 67,RANDOLPH,UT,84064,NOT AVAILABLE,(435) 793-2135
78553,490014200326,SUNRISE SCHOOL,1520 E 11265 S,SANDY,UT,84092,NOT AVAILABLE,(801) 826-9550
79416,490081000462,ROCK CANYON SCHOOL,435 EAST 2320 NORTH,PROVO,UT,84604,NOT AVAILABLE,(801) 374-4935
45285,490021000126,KAYSVILLE JR HIGH,100 E 350 S,KAYSVILLE,UT,84037,NOT AVAILABLE,(801) 402-7200
46477,490075000447,PARK CITY HIGH,1750 KEARNS BLVD,PARK CITY,UT,84060,NOT AVAILABLE,(435) 645-5650
49730,490039000283,ESCALANTE VALLEY SCHOOL,202 N BERYL HWY,BERYL,UT,84714,NOT AVAILABLE,(435) 439-5550
80004,490003001112,HARVEST SCHOOL,2105 N PROVIDENCE DRIVE,SARATOGA SPRINGS,UT,84043,NOT AVAILABLE,(801) 610-8709
84458,490081000858,SLATE CANYON,1991 S STATE,PROVO,UT,84606,NOT AVAILABLE,(801) 374-4830
84466,490014200333,WILLOW CANYON SCHOOL,9650 S 1700 E,SANDY,UT,84092,NOT AVAILABLE,(801) 826-9625
85959,490042001069,DAYBREAK SCHOOL,4544 W HARVEST MOON DR,SOUTH JORDAN,UT,84009,NOT AVAILABLE,(801) 302-0553
86365,490003000909,TIMBERLINE MIDDLE,500 W CANYON CREST,ALPINE,UT,84004,NOT AVAILABLE,(801) 610-8765
88116,490081000463,SUNSET VIEW SCHOOL,1520 WEST 600 SOUTH,PROVO,UT,84601,NOT AVAILABLE,(801) 374-4950
88476,490042000720,OQUIRRH HILLS MIDDLE,12949 S 2700 W,RIVERTON,UT,84065,NOT AVAILABLE,(801) 412-2350
89819,490087000494,HAWTHORNE SCHOOL,1675 S 600 E,SALT LAKE CITY,UT,84105,NOT AVAILABLE,(801) 481-4824
51435,490036000274,WHITTIER SCHOOL,3585 S 6000 W,WEST VALLEY CITY,UT,84128,NOT AVAILABLE,(385) 646-5096
53813,490114001526,MAJESTIC FIELDS SCHOOL,675 EAST MAJESTIC DR.,WASHINGTON,UT,84780,NOT AVAILABLE,(435) 634-7005
56405,490019901527,CAPSTONE CLASSICAL ACADEMY,3885 NORTH RT 89,PLEASANT VIEW,UT,84414,NOT AVAILABLE,(801) 896-4562
59189,490081001074,PROVO PEAKS SCHOOL,665 E CENTER ST,PROVO,UT,84606,NOT AVAILABLE,(801) 374-4940
94716,490063001127,MAPLETON JUNIOR HIGH,362 E 1200 N,MAPLETON,UT,84664,NOT AVAILABLE,(801) 489-2892
96313,490042000886,MOUNTAIN SHADOWS SCHOOL,5255 W 7000 S,WEST JORDAN,UT,84084,NOT AVAILABLE,(801) 963-0291
98779,490021000921,DAVIS CONNECT K-6,45 E STATE ST,FARMINGTON,UT,84025,NOT AVAILABLE,(801) 402-5261
65414,490120001249,CANYON VIEW PRESCHOOL,1100 ORCHARD AVE,OGDEN,UT,84404,NOT AVAILABLE,(801) 626-2516
68238,490114000605,LEGACY SCHOOL,280 E 100 S,ST GEORGE,UT,84770,NOT AVAILABLE,(435) 673-6191
69109,490012000079,NORTH PARK SCHOOL,2800 N 800 E,NORTH LOGAN,UT,84341,NOT AVAILABLE,(435) 752-5121
69482,490027000182,SAN RAFAEL MIDDLE SCHOOL,420 W 500 S,FERRON,UT,84523,NOT AVAILABLE,(435) 384-2335
69565,490060000368,GRANT SCHOOL,662 W 6140 S,MURRAY,UT,84123,NOT AVAILABLE,(801) 264-7416
69971,490042001123,BUTTERFIELD CANYON SCHOOL,6860 W MARY LEIZAN LANE,HERRIMAN,UT,84096,NOT AVAILABLE,(801) 254-0737
103041,490006201610,FREEDOM PREPARATORY ACADEMY WASHINGTON,5600 SO CARNELIAN PARKWAY,SAINT GEORGE,UT,84790,NOT AVAILABLE,(801) 437-3100
40224,490042001459,COPPER MOUNTAIN MIDDLE,12106 ANTHEM PARK BLVD,HERRIMAN,UT,84096,NOT AVAILABLE,(801) 412-1200
43912,490033000191,GRAND COUNTY HIGH,608 S 400 E,MOAB,UT,84532,NOT AVAILABLE,(435) 259-8931
44696,490003000228,LEGACY SCHOOL,28 E 1340 N,AMERICAN FORK,UT,84003,NOT AVAILABLE,(801) 610-8711
46428,490014200286,ALTA VIEW SCHOOL,10333 S 865 E,SANDY,UT,84094,NOT AVAILABLE,(801) 826-7600
48169,490009000062,NORTH PARK SCHOOL,50 E 700 N,TREMONTON,UT,84337,NOT AVAILABLE,(435) 257-2580
32778,490114000500,DIAMOND VALLEY SCHOOL,1411 W DIAMOND VALLEY DR,ST GEORGE,UT,84770,NOT AVAILABLE,(435) 574-2009
33248,490039000872,SOUTHWEST EDUCATIONAL ACADEMY,510 W 800 S,CEDAR CITY,UT,84720,NOT AVAILABLE,(435) 586-2870
35131,490120000626,NORTH OGDEN SCHOOL,530 E 2650 N,OGDEN,UT,84414,NOT AVAILABLE,(801) 452-4300
36574,490021000749,FARMINGTON JR HIGH,150 S 200 W,FARMINGTON,UT,84025,NOT AVAILABLE,(801) 402-6900
38368,490036000203,CARL SANDBURG SCHOOL,3900 S 5325 W,WEST VALLEY CITY,UT,84120,NOT AVAILABLE,(385) 646-5008
39614,490045000952,JUAB JR HIGH,555 E 800 N,NEPHI,UT,84648,NOT AVAILABLE,(435) 623-1541
53531,490006201492,FREEDOM PREPARATORY ACADEMY - VINEYARD,426 NORTH 100 WEST,VINEYARD,UT,84058,NOT AVAILABLE,(801) 437-3100
53532,490004401494,SYRACUSE ARTS ACADEMY - NORTH,357 S. 1550 W.,SYRACUSE,UT,84075,NOT AVAILABLE,(801) 827-0540
54001,490017601501,UTAH MILITARY ACADEMY - CAMP WILLIAMS,3901 WEST WATERBERRY DRIVE,LEHI,UT,84043,NOT AVAILABLE,(385) 498-6167
57844,490120000641,VALLEY SCHOOL,5821 E 1900 N,EDEN,UT,84310,NOT AVAILABLE,(801) 452-4180
58958,490003000024,PLEASANT GROVE HIGH,700 E 200 S,PLEASANT GROVE,UT,84062,NOT AVAILABLE,(801) 610-8170
21490,490036000250,OQUIRRH HILLS SCHOOL,5241 S 4280 W,KEARNS,UT,84118,NOT AVAILABLE,(385) 646-4948
24433,490051000351,LOGAN HIGH,162 W 100 S,LOGAN,UT,84321,NOT AVAILABLE,(435) 755-2380
25064,490093000547,SOUTH SEVIER HIGH,430 W 100 S,MONROE,UT,84754,NOT AVAILABLE,(435) 527-4651
25417,490003001381,MOUNTAIN TRAILS SCHOOL,3951 NORTH WOOD ROAD,EAGLE MOUNTAIN,UT,84005,NOT AVAILABLE,(801) 610-8724
26433,490021000135,NORTH DAVIS JR HIGH,835 S STATE,CLEARFIELD,UT,84015,NOT AVAILABLE,(801) 402-6500
29326,490003000035,WINDSOR SCHOOL,1315 N MAIN,OREM,UT,84057,NOT AVAILABLE,(801) 610-8124
29660,490003000031,VALLEY VIEW SCHOOL,941 ORCHARD DR,PLEASANT GROVE,UT,84062,NOT AVAILABLE,(801) 610-8121
82007,490003000019,LEHI SCHOOL,765 N CENTER,LEHI,UT,84043,NOT AVAILABLE,(801) 610-8712
83854,490036000257,ROBERT FROST SCHOOL,3444 W 4400 S,WEST VALLEY CITY,UT,84119,NOT AVAILABLE,(385) 646-4840
85681,490039000278,CEDAR CITY HIGH,703 W 600 S,CEDAR CITY,UT,84720,NOT AVAILABLE,(435) 586-2820
87202,490036000220,GRANITE CONNECTION HIGH,501 E 3900 S,SALT LAKE CITY,UT,84107,NOT AVAILABLE,(385) 646-5435
88920,490063001125,EAST MEADOWS SCHOOL,1287 S 2130 E,SPANISH FORK,UT,84660,NOT AVAILABLE,(801) 798-4015
89584,490003000349,ROCKY MOUNTAIN SCHOOL,55 S 500 E,LINDON,UT,84042,NOT AVAILABLE,(801) 610-8117
89595,490111000592,MIDWAY SCHOOL,225 S 100 E,MIDWAY,UT,84049,NOT AVAILABLE,(435) 654-0472
64478,490003000844,SUNCREST SCHOOL,668 W 150 N,OREM,UT,84057,NOT AVAILABLE,(801) 610-8120
69846,490004501146,LEGACY PREPARATORY ACADEMY,1375 W CENTER STREET,NORTH SALT LAKE,UT,84054,NOT AVAILABLE,(801) 936-0555
91053,490072000977,CONTRACTED SPECIAL EDUCATION,1950 MONROE BLVD,OGDEN,UT,84401,NOT AVAILABLE,(801) 737-7300
94630,490005601175,KARL G. MAESER PREPARATORY ACADEMY,320 W 600 S,LINDON,UT,84042,NOT AVAILABLE,(801) 235-9000
95271,490120000627,NORTH PARK SCHOOL,4046 S 2175 W,ROY,UT,84067,NOT AVAILABLE,(801) 452-4340
95526,490018000100,FLAMING GORGE SCHOOL,5TH AVENUE,DUTCH JOHN,UT,84023,NOT AVAILABLE,(435) 885-3112
71274,490015000092,HELPER MIDDLE,151 UINTAH ST,HELPER,UT,84526,NOT AVAILABLE,(435) 472-5441
71802,490006000039,MILFORD SCHOOL,450 S 700 W,MILFORD,UT,84751,NOT AVAILABLE,(435) 387-2841
75298,490075001409,PARLEY'S PARK PRESCHOOL,4600 SILVER SPRINGS DR,PARK CITY,UT,84098,NOT AVAILABLE,(435) 645-5620
75707,490003000757,DEERFIELD SCHOOL,4353 W HARVEY BLVD,CEDAR HILLS,UT,84062,NOT AVAILABLE,(801) 610-8106
79474,490075000751,TRAILSIDE SCHOOL,5700 TRAILSIDE DR,PARK CITY,UT,84098,NOT AVAILABLE,(435) 645-5680
103048,490021001569,SHORELINE JUNIOR HIGH,1150 S WESTSIDE DRIVE,LAYTON,UT,84041,NOT AVAILABLE,(801) 402-7700
103056,490042001551,ANTELOPE CANYON ELEMENTARY,8800 SOUTH 6400 WEST,WEST JORDAN,UT,84081,NOT AVAILABLE,(801) 567-8750
103085,490120001604,NEW HIGH WEBER,5320 S ADAMS AVE PARKWAY,OGDEN,UT,84405,NOT AVAILABLE,(801) 476-7800
1052,490021000129,LAYTON SCHOOL,369 W GENTILE,LAYTON,UT,84041,NOT AVAILABLE,(801) 402-3500
5771,490054000360,GARRISON SCHOOL,100 SCHOOLHOUSE ROAD,GARRISON,UT,84728,NOT AVAILABLE,(435) 855-2321
6980,490036000260,ROSECREST SCHOOL,2420 FISHER LN,SALT LAKE CITY,UT,84109,NOT AVAILABLE,(385) 646-5002
5000,490017401523,ASCENT ACADEMIES OF UTAH - WEST VALLEY,5685 WEST CILMA DRIVE,WEST VALLEY CITY,UT,84128,NOT AVAILABLE,(801) 685-0228
9197,490021000136,NORTH LAYTON JR HIGH,1100 W 2000 N,LAYTON,UT,84041,NOT AVAILABLE,(801) 402-6600
61314,490087001422,INNOVATIONS HIGH SCHOOL,1700 SOUTH STATE STREET,SALT LAKE CITY,UT,84115,NOT AVAILABLE,(801) 481-4946
61337,490016001442,VOYAGE ACADEMY,1891 N. 1500 W.,CLINTON,UT,84015,NOT AVAILABLE,(801) 776-4900
62873,490090000527,BLANDING SCHOOL,302 S 100 W,BLANDING,UT,84511,NOT AVAILABLE,(435) 678-1871
64230,490009000915,GROUSE CREEK SECONDARY,1 W BUCKAROO BLVD,GROUSE CREEK,UT,84313,NOT AVAILABLE,(435) 747-7321
64776,490016101440,ESPERANZA SCHOOL,4956 W 3500 S,WEST VALLEY CITY,UT,84120,NOT AVAILABLE,(801) 305-1450
66151,490045000795,MONA SCHOOL,260 E 200 S,MONA,UT,84645,NOT AVAILABLE,(435) 623-2082
66672,490048000954,LAKE POWELL HIGH SCHOOL,1000 FERRY RD,LAKE POWELL,UT,84533,NOT AVAILABLE,(435) 684-2268
11857,490042000323,SOUTH VALLEY SCHOOL,8400 S 1700 W,WEST JORDAN,UT,84088,NOT AVAILABLE,(801) 565-7592
12512,490036000211,DAVID GOURLEY SCHOOL,4905 S 4300 W,KEARNS,UT,84118,NOT AVAILABLE,(385) 646-4846
12598,490021000115,DAVIS HIGH,325 S MAIN,KAYSVILLE,UT,84037,NOT AVAILABLE,(801) 402-8800
19697,490066000411,MT. PLEASANT SCHOOL,579 S 400 E,MT PLEASANT,UT,84647,NOT AVAILABLE,(435) 462-2077
44918,490021000157,WOODS CROSS HIGH,600 W 2200 S,WOODS CROSS,UT,84087,NOT AVAILABLE,(801) 402-4500
47522,490021000143,SOUTH WEBER SCHOOL,1285 E LESTER,SOUTH WEBER,UT,84405,NOT AVAILABLE,(801) 402-3750
30933,490014501378,WEILENMANN SCHOOL OF DISCOVERY,4199 W KILBY ROAD,PARK CITY,UT,84098,NOT AVAILABLE,(435) 575-5411
32096,490009000065,THREE MILE CREEK SCHOOL,1030 W 2625 S,PERRY,UT,84302,NOT AVAILABLE,(435) 734-4930
33016,490021000146,SUNSET SCHOOL,2014 N 250 W,SUNSET,UT,84015,NOT AVAILABLE,(801) 402-2550
36469,490114000881,MILLCREEK HIGH,2410 E RIVERSIDE DR,ST GEORGE,UT,84790,NOT AVAILABLE,(435) 628-2462
37490,490014200301,EAST SANDY SCHOOL,8295 S 870 E,SANDY,UT,84094,NOT AVAILABLE,(801) 826-8425
54000,490017401490,ASCENT ACADEMIES OF UTAH LEHI,2199 W 900 N,LEHI,UT,84043,NOT AVAILABLE,(385) 374-9641
54812,490003000791,ORCHARD SCHOOL,1035 N 800 E,OREM,UT,84097,NOT AVAILABLE,(801) 610-8115
59569,490099001244,SOUTH SUMMIT PRESCHOOL,375 E 300 S,KAMAS,UT,84036,NOT AVAILABLE,(435) 783-4301
94428,490030000825,BOULDER SCHOOL,50 SCH HOUSE LN,BOULDER,UT,84716,NOT AVAILABLE,(435) 335-7322
94477,490003000004,BARRATT SCHOOL,168 N 900 E,AMERICAN FORK,UT,84003,NOT AVAILABLE,(801) 610-8701
95261,490036000271,WEST KEARNS SCHOOL,4900 S 4620 W,KEARNS,UT,84118,NOT AVAILABLE,(385) 646-5073
20046,490039001120,IRON SPRINGS SCHOOL,235 N 4050 W,CEDAR CITY,UT,84720,NOT AVAILABLE,(435) 586-9485
20934,490015701416,PROMONTORY SCHOOL OF EXPEDITIONARY LEARNING,1051 W 2700 S,PERRY,UT,84302,NOT AVAILABLE,(435) 919-1900
21329,490036000247,OAKWOOD SCHOOL,5815 S HIGHLAND DR,SALT LAKE CITY,UT,84121,NOT AVAILABLE,(385) 646-4942
23177,490014200309,JORDAN VALLEY SCHOOL,7501 S 1000 E,MIDVALE,UT,84047,NOT AVAILABLE,(801) 826-1200
24259,490021000138,ORCHARD SCHOOL,205 E CENTER STREET,NORTH SALT LAKE,UT,84054,NOT AVAILABLE,(801) 402-1700
27089,490081000452,DIXON MIDDLE,750 W 200 N,PROVO,UT,84601,NOT AVAILABLE,(801) 374-4980
81647,490015001209,BRUIN POINT SCHOOL,100 VIKING BLVD,SUNNYSIDE,UT,84539,NOT AVAILABLE,(435) 888-4474
82514,490014200950,SOUTH PARK ACADEMY,14425 S PONY EXPRESS RD,DRAPER,UT,84020,NOT AVAILABLE,(801) 576-8235
86465,490078001261,CIRCLEVILLE PRESCHOOL,300 S CENTER,CIRCLEVILLE,UT,84723,NOT AVAILABLE,(435) 577-2551
89552,490027000174,CANYON VIEW JR HIGH,CANYON RD,HUNTINGTON,UT,84528,NOT AVAILABLE,(435) 687-2265
70640,490105000569,IBAPAH SCHOOL,116 EAGLES NEST,IBAPAH,UT,84034,NOT AVAILABLE,(435) 234-1113
101085,490102000735,WEST DESERT HIGH SCHOOL,440 TROUT CREEK,TROUT CREEK,UT,84083,NOT AVAILABLE,(435) 693-3112
103043,490017401600,ASCENT ACADEMIES OF UTAH SARATOGA SPRINGS,1150 WEST 1600 BORTH,SARATOGA SPRINGS,UT,84045,NOT AVAILABLE,(385) 275-0909
103066,490063001558,SPRING CANYON MIDDLE,599 W 700 SOUTH,SPRINGVILLE,UT,84663,NOT AVAILABLE,(801) 609-2400
31357,490042001336,KAURI SUE HAMILTON,2827 W 13400 S,RIVERTON,UT,84065,NOT AVAILABLE,(801) 567-8500
31503,490021000146,SUNSET SCHOOL,2014 N 250 W,SUNSET,UT,84015,NOT AVAILABLE,(801) 402-2550
34785,490003301056,AMERICAN LEADERSHIP ACADEMY,898 W 1100 S,SPANISH FORK,UT,84660,NOT AVAILABLE,(801) 794-2226
35048,490009000050,CORINNE EARLY LEARNING CENTER,2275 N 3900 W,CORINNE,UT,84307,NOT AVAILABLE,(435) 744-2468
36978,490009000042,CENTURY SCHOOL,5820 N 4800 W,BEAR RIVER CITY,UT,84301,NOT AVAILABLE,(435) 279-2651
37351,490015501407,ENDEAVOR HALL,2614 S DECKER LAKE LANE,WEST VALLEY CITY,UT,84119,NOT AVAILABLE,(801) 972-1153
39383,490120000637,SAND RIDGE JR HIGH,2075 W 4600 S,ROY,UT,84067,NOT AVAILABLE,(801) 476-5320
10317,490117000611,WAYNE MIDDLE,75 NORTH CENTER,BICKNELL,UT,84715,NOT AVAILABLE,(435) 425-3421
14163,490021000708,EAST LAYTON SCHOOL,2470 E CHERRY LANE,EAST LAYTON,UT,84041,NOT AVAILABLE,(801) 402-3250
15966,490003000366,SUMMIT HIGH,1581 W 1000 S,OREM,UT,84058,NOT AVAILABLE,(801) 610-8183
61036,490016701447,WEBER STATE UNIVERSITY CHARTER ACADEMY,1351 EDVALSON STREET,OGDEN,UT,84408,NOT AVAILABLE,(801) 626-6343
66535,490014200300,EAST MIDVALE SCHOOL,6990 S 300 E,MIDVALE,UT,84047,NOT AVAILABLE,(801) 826-8350
68031,490014200316,MT. JORDAN MIDDLE,9351 S. MOUNTAINEER LN.,SANDY,UT,84070,NOT AVAILABLE,(801) 826-7400
69017,490014200299,DRAPER SCHOOL,1080 E 12660 S,DRAPER,UT,84020,NOT AVAILABLE,(801) 826-8275
20292,490066000408,FAIRVIEW SCHOOL,651 E 150 N,FAIRVIEW,UT,84629,NOT AVAILABLE,(435) 427-9204
23986,490069000724,NORTH SUMMIT MIDDLE,76 S 100 E,COALVILLE,UT,84017,NOT AVAILABLE,(435) 336-5678
24217,490093000839,RED HILLS MIDDLE,400 S 600 W,RICHFIELD,UT,84701,NOT AVAILABLE,(435) 896-6421
24247,490001500820,THOMAS EDISON - NORTH,180 E 2600 N,NORTH LOGAN,UT,84341,NOT AVAILABLE,(435) 787-2820
93205,490021000121,FREMONT SCHOOL,2525 N 160 W,SUNSET,UT,84015,NOT AVAILABLE,(801) 402-2300
95005,490063000397,SANTAQUIN SCHOOL,25 S 400 W,SANTAQUIN,UT,84655,NOT AVAILABLE,(801) 754-3611
96072,490017801477,ROOTS CHARTER HIGH SCHOOL,2250 SOUTH 1300 WEST,WEST VALLEY CITY,UT,84119,NOT AVAILABLE,(801) 573-8719
99310,490012000076,LEWISTON SCHOOL,181 S 200 E,LEWISTON,UT,84320,NOT AVAILABLE,(435) 258-2923
52106,490114000880,PINE VIEW MIDDLE,2145 E 130 N,ST GEORGE,UT,84790,NOT AVAILABLE,(435) 628-7915
56410,490114001526,MAJESTIC FIELDS SCHOOL,675 EAST MAJESTIC DR.,WASHINGTON,UT,84780,NOT AVAILABLE,(435) 634-7005
58430,490002501089,NORTH STAR ACADEMY,2920 W 14000 S,BLUFFDALE,UT,84065,NOT AVAILABLE,(801) 302-9579
80670,490108000804,LAPOINT SCHOOL,10752 E 6900 N,LA POINT,UT,84039,NOT AVAILABLE,(435) 247-2637
80892,490003000008,CENTRAL SCHOOL,95 N 400 E,PLEASANT GROVE,UT,84062,NOT AVAILABLE,(801) 610-8104
83402,490017101460,UTAH CAREER PATH HIGH SCHOOL,550 E 300 S RM 2025,KAYSVILLE,UT,84037,NOT AVAILABLE,(801) 593-2440
83850,490042001103,SUNSET RIDGE MIDDLE,6881 W 8200 S,WEST JORDAN,UT,84081,NOT AVAILABLE,(801) 412-2475
87556,490003000696,MOUNT MAHOGANY SCHOOL,618 N 1300 W,PLEASANT GROVE,UT,84062,NOT AVAILABLE,(801) 610-8113
87761,490114000600,ENTERPRISE SCHOOL,216 S 100 E,ENTERPRISE,UT,84725,NOT AVAILABLE,(435) 878-2236
70018,490042001186,JORDAN ACADEMY FOR TECHNOLOGY AND CAREERS - NORTH,9301 S 3400 W,WEST JORDAN,UT,84088,NOT AVAILABLE,(801) 256-5900
70998,490105001068,COPPER CANYON SCHOOL,1600 N BROADWAY,TOOELE,UT,84074,NOT AVAILABLE,(435) 843-3820
71704,490003000027,SEGO LILY SCHOOL,550 E 900 N,LEHI,UT,84043,NOT AVAILABLE,(801) 610-8717
76547,490087000496,HIGHLAND HIGH,2166 S 1700 E,SALT LAKE CITY,UT,84106,NOT AVAILABLE,(801) 484-4343
77649,490006001257,BEAVER PRESCHOOL,290 N MAIN,BEAVER,UT,84713,NOT AVAILABLE,(435) 438-2291
544,490018401489,WALLACE STEGNER ACADEMY,980 S. BENDING RIVER CT.,SALT LAKE CITY,UT,84104,NOT AVAILABLE,(801) 456-9570
5380,490012001392,BIRCH CREEK SCHOOL,675 W 220 N,SMITHFIELD,UT,84335,NOT AVAILABLE,(435) 792-7692
41397,490042000657,HERRIMAN SCHOOL,13170 S 6000 W,HERRIMAN,UT,84096,NOT AVAILABLE,(801) 446-3215
42900,490021000252,MOUNTAIN VIEW SCHOOL,2025 E 3100 N,LAYTON,UT,84040,NOT AVAILABLE,(801) 402-3700
45165,490081000453,EDGEMONT SCHOOL,566 E 3650 N,PROVO,UT,84604,NOT AVAILABLE,(801) 221-9984
100671,490114000702,HURRICANE MIDDLE,395 N 200 W,HURRICANE,UT,84737,NOT AVAILABLE,(435) 635-4634
101023,490012001379,HERITAGE SCHOOL,925 W 3200 S,NIBLEY,UT,84321,NOT AVAILABLE,(435) 792-7696
101322,490120000817,FARR WEST SCHOOL,2190 W 2700 N,OGDEN,UT,84404,NOT AVAILABLE,(801) 452-4360
103039,490003701611,ACADEMY OF COMPUTERS AND ENGINEERING,435 SOUTH 600 EAST,SAINT GEORGE,UT,84770,NOT AVAILABLE,(435) 879-4716
103058,490042001599,NEW HERRIMAN ELEMENTARY,6930 W 12900 SOUTH,HERRIMAN,UT,84096,NOT AVAILABLE,(801) 567-9750
82465,490036001119,GRANITE TECHNICAL INSTITUTE,2500 S STATE,SALT LAKE CITY,UT,84115,NOT AVAILABLE,(385) 646-4350
83042,490114000597,DIXIE HIGH,350 E 700 S,ST GEORGE,UT,84770,NOT AVAILABLE,(435) 673-4682
84320,490003001111,FOX HOLLOW SCHOOL,1450 W 3200 N,LEHI,UT,84043,NOT AVAILABLE,(801) 610-8706
85829,490114000903,PARADISE CANYON,1795 W 1230 N,ST GEORGE,UT,84770,NOT AVAILABLE,(435) 673-8978
88695,490081000466,TIMPVIEW HIGH,3570 N 650 E,PROVO,UT,84604,NOT AVAILABLE,(801) 221-9720
92798,490006000036,BEAVER HIGH,195 E CENTER,BEAVER,UT,84713,NOT AVAILABLE,(435) 438-2301
94745,490003000440,CEDAR RIDGE SCHOOL,4501 W CEDAR HILLS DR,CEDAR HILLS,UT,84062,NOT AVAILABLE,(801) 610-8103
96354,490105000562,NORTHLAKE SCHOOL,268 N COLEMAN,TOOELE,UT,84074,NOT AVAILABLE,(435) 833-1940
102231,490016901452,DIXIE MONTESSORI ACADEMY,1160 N. 645 W.,WASHINGTON,UT,84780,NOT AVAILABLE,(435) 251-8539
103032,490003001574,LIBERTY HILLS ELEMENTARY,3501 WEST 2450 NORTH,LEHI,UT,84043,NOT AVAILABLE,(801) 610-8400
103036,490003001617,TRAILSIDE ELEMENTARY,452 N VINEYARD LOOP ROAD,VINEYARD,UT,84058,NOT AVAILABLE,(801) 610-8400
53277,490021000147,SYRACUSE SCHOOL,1503 S 2000 W,SYRACUSE,UT,84075,NOT AVAILABLE,(801) 402-2600
54002,490018501491,WASATCH WALDORF CHARTER SCHOOL,1458 EAST MURRAY-HOLLADAY ROAD,HOLLADAY,UT,84117,NOT AVAILABLE,(801) 871-3950
55154,490036000229,HOWARD R. DRIGGS SCHOOL,4340 S 2700 E,SALT LAKE CITY,UT,84124,NOT AVAILABLE,(385) 646-4810
55259,490063000391,PAYSON JR HIGH,1025 S HIGHWAY 198,PAYSON,UT,84651,NOT AVAILABLE,(801) 465-6015
56171,490120000967,ORION JR HIGH,370 W 2000 N,HARRISVILLE,UT,84414,NOT AVAILABLE,(801) 452-4700
59170,490021000130,MUIR SCHOOL,2275 S DAVIS BLVD,BOUNTIFUL,UT,84010,NOT AVAILABLE,(801) 402-1550
94,490003001481,RIVER ROCK SCHOOL,520 NORTH 1700 WEST,LEHI,UT,84043,NOT AVAILABLE,(801) 610-8731
550,490042001495,JORDAN ACADEMY FOR TECHNOLOGY & CAREERS SOUTH,12723 SOUTH PARK AVENUE,RIVERTON,UT,84065,NOT AVAILABLE,(801) 256-5900
563,490120001482,WEBER INNOVATION HIGH SCHOOL,1007 W 12TH STREET,OGDEN,UT,84404,NOT AVAILABLE,(801) 476-6500
745,490054000955,GARRISON 7 & 8TH,1000 CIRCLE DR,GARRISON,UT,84728,NOT AVAILABLE,(435) 855-2148
4993,490006901531,BLIND SOUTH,424 SOUTH 350 EAST,OREM,UT,84058,NOT AVAILABLE,(801) 629-4718
4997,490014201529,CANYONS VIRTUAL HIGH SCHOOL,9361 S 300 E,SANDY,UT,84070,NOT AVAILABLE,(801) 826-5220
5194,490105001177,STANSBURY HIGH,5300 N ABERDEEN LANE,STANSBURY PARK,UT,84074,NOT AVAILABLE,(435) 882-2479
6764,490014200875,DRAPER PARK MIDDLE,13133 SOUTH 1300 EAST,DRAPER,UT,84020,NOT AVAILABLE,(801) 826-6900
8082,490108000585,UINTAH HIGH,1880 W 500 N,VERNAL,UT,84078,NOT AVAILABLE,(435) 781-3110
35124,490114001096,RIVERSIDE SCHOOL,2500 S HARVEST LANE,WASHINGTON,UT,84780,NOT AVAILABLE,(435) 652-4760
36209,490078000449,OSCARSON SCHOOL,160 W SEVIER AVE,MARYSVALE,UT,84750,NOT AVAILABLE,(435) 326-4341
37231,490105000775,OVERLAKE SCHOOL,2052 N 170 W,TOOELE,UT,84074,NOT AVAILABLE,(435) 843-3805
37679,490012001064,CANYON SCHOOL,270 S 1300 E,HYRUM,UT,84319,NOT AVAILABLE,(435) 792-7684
60221,490021000104,BOULTON SCHOOL,2611 S ORCHARD DR,BOUNTIFUL,UT,84010,NOT AVAILABLE,(801) 402-1300
64921,490003000704,WESTFIELD SCHOOL,380 S LONG DR,ALPINE,UT,84004,NOT AVAILABLE,(801) 610-8720
66029,490063001158,MT. NEBO JUNIOR HIGH,851 W 450 S,PAYSON,UT,84651,NOT AVAILABLE,(801) 465-6040
66488,490114000778,WASHINGTON PRESCHOOL,951 BRIGHAM RD,ST GEORGE,UT,84770,NOT AVAILABLE,(435) 652-4709
69328,490105000578,ANNA SMITH SCHOOL,731 NORTH ARIA,WENDOVER,UT,84083,NOT AVAILABLE,(435) 665-0470
69847,490087000511,NIBLEY PARK SCHOOL,2785 S 800 E,SALT LAKE CITY,UT,84106,NOT AVAILABLE,(801) 481-4842
21965,490024000159,ALTAMONT SCHOOL,190 W MAIN,ALTAMONT,UT,84001,NOT AVAILABLE,(435) 738-1375
24889,490051000350,HILLCREST SCHOOL,960 N 1400 E,LOGAN,UT,84321,NOT AVAILABLE,(435) 755-2360
27711,490036000200,BONNEVILLE JR HIGH,5330 S 1660 E,SALT LAKE CITY,UT,84117,NOT AVAILABLE,(385) 646-5124
29016,490021000122,HILL FIELD SCHOOL,389 S 1000 E,CLEARFIELD,UT,84015,NOT AVAILABLE,(801) 402-2350
12464,490033000893,HELEN M. KNIGHT SCHOOL,505 N MIVIDA DR,MOAB,UT,84532,NOT AVAILABLE,(435) 259-7350
14343,490007401190,C.S. LEWIS ACADEMY,354 N SR-198,SANTAQUIN,UT,84655,NOT AVAILABLE,(801) 754-3376
16904,490042001075,FORT HERRIMAN MIDDLE,14050 S MIRABELLA DR,HERRIMAN,UT,84065,NOT AVAILABLE,(801) 412-2450
71321,490096001425,SOUTH SANPETE EDUCATION SUPPORT CENTER,39 S MAIN ST,MANTI,UT,84642,NOT AVAILABLE,(435) 835-2261
72975,490114000806,LAVERKIN SCHOOL,51 W CENTER,LA VERKIN,UT,84745,NOT AVAILABLE,(435) 635-4619
73337,490042001123,BUTTERFIELD CANYON SCHOOL,6860 W MARY LEIZAN LANE,HERRIMAN,UT,84096,NOT AVAILABLE,(801) 254-0737
73363,490114000607,WASHINGTON SCHOOL,300 N 300 E,WASHINGTON,UT,84780,NOT AVAILABLE,(435) 673-3012
73736,490014401374,MARIA MONTESSORI ACADEMY,2505 N 200 E,OGDEN,UT,84414,NOT AVAILABLE,(801) 827-0150
76074,490009000061,MOUNTAIN VIEW SCHOOL,650 E 700 S,BRIGHAM CITY,UT,84302,NOT AVAILABLE,(435) 734-4926
79493,490048000342,VALLEY SCHOOL,110 E STATE,ORDERVILLE,UT,84758,NOT AVAILABLE,(435) 648-2277
43406,490006400994,RANCHES ACADEMY,7789 TAWNY OWL CIR,EAGLE MOUNTAIN,UT,84005,NOT AVAILABLE,(801) 789-4000
43942,490003901129,INTECH COLLEGIATE ACADEMY,1787 N RESEARCH PARKWAY,NORTH LOGAN,UT,84341,NOT AVAILABLE,(435) 753-7377
44584,490007201174,GUADALUPE SCHOOL,1385 N 1200 W,SALT LAKE CITY,UT,84116,NOT AVAILABLE,(801) 531-6100
48170,490021000141,SOUTH CLEARFIELD SCHOOL,990 E 700 S,CLEARFIELD,UT,84015,NOT AVAILABLE,(801) 402-2500
48214,490036000653,DOUGLAS T. ORCHARD SCHOOL,6744 W 3800 S,WEST VALLEY CITY,UT,84128,NOT AVAILABLE,(385) 646-4954
17485,490090000532,LA SAL SCHOOL,STATE HIGHWAY #46,LA SAL,UT,84530,NOT AVAILABLE,(435) 678-1292
18172,490036000266,UPLAND TERRACE SCHOOL,3700 S 2860 E,SALT LAKE CITY,UT,84109,NOT AVAILABLE,(385) 646-5055
1504,490072001506,NEW BRIDGE SCHOOL,2150 JEFFERSON AVE.,OGDEN,UT,84401,NOT AVAILABLE,(801) 737-8100
4998,490016201522,LEADERSHIP LEARNING ACADEMY - OGDEN,1111 2ND STREET,OGDEN,UT,84404,NOT AVAILABLE,(801) 784-5170
7359,490042000332,WESTLAND SCHOOL,2925 W 7180 S,WEST JORDAN,UT,84084,NOT AVAILABLE,(801) 565-7508
92165,490042001067,COPPER CANYON SCHOOL,8917 S COPPERWOOD DR,WEST JORDAN,UT,84081,NOT AVAILABLE,(801) 260-0222
94534,490072001291,POLK SCHOOL,2615 POLK AVE,OGDEN,UT,84401,NOT AVAILABLE,(801) 737-8300
94750,490063001253,CHERRY CREEK SCHOOL,484 S 200 E,SPRINGVILLE,UT,84663,NOT AVAILABLE,(801) 489-2810
97598,490081000860,PROVO ADULT EDUCATION,636 N INDEPENDENCE AVE,PROVO,UT,84601,NOT AVAILABLE,(801) 374-4840
80458,490039000281,CEDAR NORTH SCHOOL,550 W 200 N,CEDAR CITY,UT,84720,NOT AVAILABLE,(435) 586-2845
83715,490021000118,DOXEY SCHOOL,944 N 250 W,SUNSET,UT,84015,NOT AVAILABLE,(801) 402-2250
84425,490066000413,NORTH SANPETE MIDDLE,655 E 100 S,MORONI,UT,84646,NOT AVAILABLE,(435) 436-8206
84659,490081000468,OAK SPRINGS SCHOOL,1300 E CENTER,PROVO,UT,84601,NOT AVAILABLE,(801) 374-4858
72107,490003000911,SERV BY APPT,575 N 100 E,AMERICAN FORK,UT,84003,NOT AVAILABLE,(801) 756-8400
73413,490108000736,DISCOVERY SCHOOL,650 W 1200 S,VERNAL,UT,84078,NOT AVAILABLE,(435) 781-3146
78916,490001501284,THOMAS EDISON - SOUTH,1275 W 2350 S,NIBLEY,UT,84321,NOT AVAILABLE,(435) 752-0123
79018,490105000566,GRANTSVILLE HIGH,155 E CHERRY ST,GRANTSVILLE,UT,84029,NOT AVAILABLE,(435) 884-4500
50098,490021000125,TAYLOR SCHOOL,293 E PAGES LN,CENTERVILLE,UT,84014,NOT AVAILABLE,(801) 402-1500
50753,490003000026,SCERA PARK,450 S 400 E,OREM,UT,84097,NOT AVAILABLE,(801) 610-8118
54109,490105001401,TOOELE COMMUNITY LEARNING CENTER,211 S TOOELE BLVD,TOOELE,UT,84074,NOT AVAILABLE,(435) 833-8700
57736,490042001542,RIDGE VIEW ELEMENTARY,14120 S GREENFORD LN.,HERRIMAN,UT,84096,NOT AVAILABLE,(801) 567-8750
35059,490057000365,MORGAN SCHOOL,344 E YOUNG ST,MORGAN,UT,84050,NOT AVAILABLE,(801) 829-3438
35125,490114001057,ARROWHEAD SCHOOL,545 ARROWHEAD TRAIL,SANTA CLARA,UT,84765,NOT AVAILABLE,(435) 674-2027
38024,490021000748,COLUMBIA SCHOOL,378 S 50 W,KAYSVILLE,UT,84037,NOT AVAILABLE,(801) 402-3350
62201,490027000181,FERRON SCHOOL,115 W MILL RD,FERRON,UT,84523,NOT AVAILABLE,(435) 384-2383
62761,490009000043,BEAR RIVER HIGH,1450 S MAIN,GARLAND,UT,84312,NOT AVAILABLE,(435) 257-2500
63918,490111000788,J.R. SMITH SCHOOL,235 E 500 N,HEBER CITY,UT,84032,NOT AVAILABLE,(435) 654-2201
64163,490003000706,MOUNTAIN VIEW HIGH,665 W CENTER,OREM,UT,84057,NOT AVAILABLE,(801) 610-8160
65349,490114000604,SPRINGDALE SCHOOL,898 ZION PARK BLVD,SPRINGDALE,UT,84767,NOT AVAILABLE,(435) 772-3279
67375,490014201309,SPECIAL ED PRESCHOOL,9361 S 300 E,SANDY,UT,84070,NOT AVAILABLE,(801) 501-1067
20067,490015000093,MONT HARMON MIDDLE,60 W 400 N,PRICE,UT,84501,NOT AVAILABLE,(435) 637-0510
21505,490021000132,MEADOWBROOK SCHOOL,700 N 325 W,BOUNTIFUL,UT,84010,NOT AVAILABLE,(801) 402-1600
22020,490042000523,JORDAN HILLS SCHOOL,8892 S 4800 W,WEST JORDAN,UT,84088,NOT AVAILABLE,(801) 280-0238
22437,490036000230,JACKLING SCHOOL,3760 S 4610 W,WEST VALLEY CITY,UT,84120,NOT AVAILABLE,(385) 646-4882
23184,490036001478,GRANITE PRESCHOOL,2500 S STATE ST.,SALT LAKE CITY,UT,84115,NOT AVAILABLE,(385) 646-4672
27680,490003001413,THUNDER RIDGE SCHOOL,264 N. 750 W.,SARATOGA SPRINGS,UT,84045,NOT AVAILABLE,(801) 610-8727
46952,490003000013,GROVECREST SCHOOL,200 E 1100 N,PLEASANT GROVE,UT,84062,NOT AVAILABLE,(801) 610-8109
49929,490087000512,NORTHWEST MIDDLE,1730 W 1700 N,SALT LAKE CITY,UT,84116,NOT AVAILABLE,(801) 578-8547
103049,490021001571,DAVIS CONNECT 7-8,45 E STATE STREET,FARMINGTON,UT,84025,NOT AVAILABLE,(801) 402-0588
103084,490120001603,WEBER HQ PRESCHOOL,5320 ADAMS AVENUE,OGDEN,UT,84405,NOT AVAILABLE,(801) 476-7870
93,490012001487,RIDGELINE HIGH SCHOOL,180 NORTH 300 WEST,MILLVILLE,UT,84326,NOT AVAILABLE,(435) 792-7780
1395,490054001354,DELTA SOUTH SCHOOL,450 S CENTER,DELTA,UT,84624,NOT AVAILABLE,(435) 864-5670
1947,490004801149,NOAH WEBSTER ACADEMY,205 E 400 S,OREM,UT,84058,NOT AVAILABLE,(801) 426-6624
4068,490003000819,CANYON VIEW JR HIGH,625 E 950 N,OREM,UT,84097,NOT AVAILABLE,(801) 610-8130
5612,490081000799,CANYON CREST SCHOOL,4664 N CANYON RD,PROVO,UT,84604,NOT AVAILABLE,(801) 221-9873
7756,490042000314,MONTE VISTA SCHOOL,11121 S 2700 W,SOUTH JORDAN,UT,84095,NOT AVAILABLE,(801) 254-8040
8663,490003000744,MEADOW SCHOOL,176 S 500 W,LEHI,UT,84043,NOT AVAILABLE,(801) 610-8713
9499,490021000648,CREEKSIDE SCHOOL,275 W MUTTON HOLLOW RD,KAYSVILLE,UT,84037,NOT AVAILABLE,(801) 402-3650
75385,490114001451,CRIMSON VIEW SCHOOL,2835 EAST 2000 SOUTH,ST GEORGE,UT,84790,NOT AVAILABLE,(435) 634-7000
77371,490014200325,SPRUCEWOOD SCHOOL,12025 S 1000 E,SANDY,UT,84094,NOT AVAILABLE,(801) 826-9475
77476,490042000330,WEST JORDAN MIDDLE,7550 S 1700 W,WEST JORDAN,UT,84084,NOT AVAILABLE,(801) 412-2100
79465,490013801285,MOUNTAIN HEIGHTS ACADEMY,9067 S 1300 W SUITE 204,WEST JORDAN,UT,84088,NOT AVAILABLE,(801) 721-6329
81897,490087000477,SALT LAKE CENTER FOR SCIENCE EDUCATION BRYANT,40 S 800 E,SALT LAKE CITY,UT,84102,NOT AVAILABLE,(801) 578-8118
83024,490090000526,ALBERT R. LYMAN MIDDLE,535 N 100 E,BLANDING,UT,84511,NOT AVAILABLE,(435) 678-1398
83041,490093000900,CEDAR RIDGE HIGH,555 W 100 N,RICHFIELD,UT,84701,NOT AVAILABLE,(435) 896-9464
84199,490030000188,PANGUITCH HIGH,390 E 100 S,PANGUITCH,UT,84759,NOT AVAILABLE,(435) 676-8805
87292,490093000542,NORTH SEVIER HIGH,350 W 400 N,SALINA,UT,84654,NOT AVAILABLE,(435) 529-3717
30178,490014200312,MIDVALE SCHOOL,7830 CHAPEL STREET,MIDVALE,UT,84047,NOT AVAILABLE,(801) 826-8725
30614,490063000387,LANDMARK HIGH,612 S MAIN,SPANISH FORK,UT,84660,NOT AVAILABLE,(801) 798-4030
34879,490072001269,HORACE MANN SCHOOL,1300 - 9TH STREET,OGDEN,UT,84404,NOT AVAILABLE,(801) 737-7600
35061,490087000493,MOUNTAIN VIEW SCHOOL,1380 S NAVAJO,SALT LAKE CITY,UT,84104,NOT AVAILABLE,(801) 974-8315
39363,490003001293,WESTLAKE HIGH,99 N 200 W,SARATOGA SPRINGS,UT,84045,NOT AVAILABLE,(801) 610-8815
61239,490114000501,CORAL CLIFFS SCHOOL,2040 W 2000 N,ST GEORGE,UT,84770,NOT AVAILABLE,(435) 652-4712
61456,490003001320,SAGE HILLS SCHOOL,3033 SWAINSON AVE,SARATOGA SPRINGS,UT,84045,NOT AVAILABLE,(801) 610-8723
61932,490015000097,SALLY MAURO SCHOOL,20 - 2ND AVE,HELPER,UT,84526,NOT AVAILABLE,(435) 472-5311
62190,490015000088,CASTLE VALLEY CENTER,755 N CEDAR HILLS DR,PRICE,UT,84501,NOT AVAILABLE,(435) 637-9150
67240,490003000010,FORBES SCHOOL,281 N 200 E,AMERICAN FORK,UT,84003,NOT AVAILABLE,(801) 610-8705
21857,490018000102,MANILA SCHOOL,125 W 200 N,MANILA,UT,84046,NOT AVAILABLE,(435) 784-3174
21861,490093000540,KOOSHAREM SCHOOL,75 E CENTER,KOOSHAREM,UT,84744,NOT AVAILABLE,(435) 638-7303
23760,490042001480,BLACKRIDGE SCHOOL,14131 SOUTH ROSECREST ROAD,HERRIMAN,UT,84096,NOT AVAILABLE,(801) 254-0326
24271,490042000530,ROSE CREEK SCHOOL,12812 S 3600 W,RIVERTON,UT,84065,NOT AVAILABLE,(801) 254-8082
28734,490012000084,SOUTH CACHE MIDDLE SCHOOL,10 S 480 W,HYRUM,UT,84319,NOT AVAILABLE,(435) 245-6433
29017,490036000254,PLYMOUTH SCHOOL,5220 S 1470 W,SALT LAKE CITY,UT,84123,NOT AVAILABLE,(385) 646-4978
90815,490105000784,GRANTSVILLE JR HIGH,318 S HALE,GRANTSVILLE,UT,84029,NOT AVAILABLE,(435) 884-4510
91174,490003000445,LONE PEAK HIGH,10189 N 4800 W,HIGHLAND,UT,84003,NOT AVAILABLE,(801) 610-8810
91549,490087001448,INNOVATIONS K-8,1700 SOUTH STATE STREET,SALT LAKE CITY,UT,84115,NOT AVAILABLE,(801) 481-4951
95628,490009000052,FOOTHILL SCHOOL,820 N 100 E,BRIGHAM CITY,UT,84302,NOT AVAILABLE,(435) 734-4916
97247,490000800629,PINNACLE CANYON ACADEMY,210 N 600 E,PRICE,UT,84501,NOT AVAILABLE,(435) 613-8102
43517,490063000405,TAYLOR SCHOOL,92 S 500 W,PAYSON,UT,84651,NOT AVAILABLE,(801) 465-6050
46745,490114001083,LITTLE VALLEY SCHOOL,2330 E HORSEMAN PARK DR (3000,ST GEORGE,UT,84790,NOT AVAILABLE,(435) 652-4771
54021,490105001497,STERLING SCHOOL,251 N. 1ST ST.,TOOELE,UT,84074,NOT AVAILABLE,(435) 833-1961
54950,490014201189,CANYONS TECHNICAL EDUCATION CENTER,825 E 9085 S,SANDY,UT,84094,NOT AVAILABLE,(801) 826-6600
55217,490102000559,EUREKA SCHOOL,55 E MAIN,EUREKA,UT,84628,NOT AVAILABLE,(435) 433-6927
55671,490063000956,HOBBLE CREEK SCHOOL,1145 E 1200 N,MAPLETON,UT,84664,NOT AVAILABLE,(801) 489-2863
57734,490042001541,HIDDEN VALLEY MIDDLE,15410 S HARMON DAY DR.,BLUFFDALE,UT,84065,NOT AVAILABLE,(801) 567-8750
59281,490072001288,MOUNT OGDEN JUNIOR HIGH,3260 HARRISON BLVD,OGDEN,UT,84403,NOT AVAILABLE,(801) 737-8600
14728,490087000732,HORIZONTE INSTRUCTION & TRAINING CENTER,1234 S MAIN,SALT LAKE CITY,UT,84101,NOT AVAILABLE,(801) 578-8574
43878,490120000644,WASHINGTON TERRACE SCHOOL,20 E 4600 S,OGDEN,UT,84405,NOT AVAILABLE,(801) 452-4200
49279,490042000874,JORDAN RIDGE SCHOOL,2636 W 9800 S,SOUTH JORDAN,UT,84095,NOT AVAILABLE,(801) 254-8025
54805,490105001508,DUGWAY,5010 E SCHOOL STREET,DUGWAY,UT,84022,NOT AVAILABLE,(435) 831-4090
54996,490003001515,SPRINGSIDE SCHOOL,694 SOUTH HIGHPOINT DRIVE,SARATOGA SPRINGS,UT,84045,NOT AVAILABLE,(801) 610-8732
57187,490048000340,KANAB SCHOOL,41 W 100 N,KANAB,UT,84741,NOT AVAILABLE,(435) 644-2329
30286,490087001230,SALT LAKE HEAD START,1240 AMERICAN BEAUTY DRI,SALT LAKE CITY,UT,84116,NOT AVAILABLE,(801) 578-8173
32691,490072001317,SHADOW VALLEY SCHOOL,4911 S 1500 E,OGDEN,UT,84403,NOT AVAILABLE,(801) 737-8150
95,490003001486,SKYRIDGE HIGH SCHOOL,3000 NORTH CENTER STREET,LEHI,UT,84043,NOT AVAILABLE,(801) 610-8820
508,490042001502,GOLDEN FIELDS SCHOOL,10252 S. SPLIT ROCK DRIVE,SOUTH JORDAN,UT,84009,NOT AVAILABLE,(801) 567-8910
3029,490009000047,BOX ELDER MIDDLE,18 S 500 E,BRIGHAM CITY,UT,84302,NOT AVAILABLE,(435) 734-4880
7205,490060000373,MCMILLAN SCHOOL,315 E 5900 S,MURRAY,UT,84107,NOT AVAILABLE,(801) 264-7430
21464,490003000014,DAN W. PETERSON,169 N 1100 E,AMERICAN FORK,UT,84003,NOT AVAILABLE,(801) 756-8551
22046,490021000124,HOLBROOK SCHOOL,1018 E 250 N,BOUNTIFUL,UT,84010,NOT AVAILABLE,(801) 402-1450
25174,490093000541,MONROE SCHOOL,40 W CENTER ST,MONROE,UT,84754,NOT AVAILABLE,(435) 527-4691
26442,490090000802,MONUMENT VALLEY HIGH,US STATE HIGHWAY #163,MONUMENT VALLEY,UT,84536,NOT AVAILABLE,(435) 678-1208
27532,490003401088,NAVIGATOR POINTE ACADEMY,6844 S NAVIGATOR RD,WEST JORDAN,UT,84084,NOT AVAILABLE,(801) 840-1210
11739,490005201153,PARADIGM HIGH SCHOOL,11577 S 3600 W,SOUTH JORDAN,UT,84095,NOT AVAILABLE,(801) 676-1018
19442,490003001200,HIDDEN HOLLOW SCHOOL,2546 E PONY EXPRESS PARKWAY,EAGLE MOUNTAIN,UT,84005,NOT AVAILABLE,(801) 610-8721
91523,490063001156,RIVERVIEW SCHOOL,628 S WEST PARK DRIVE,SPANISH FORK,UT,84660,NOT AVAILABLE,(801) 798-4050
91848,490072001287,JAMES MADISON SCHOOL,2563 MONROE BLVD,OGDEN,UT,84401,NOT AVAILABLE,(801) 737-8200
93644,490003000022,OREM JR HIGH,765 N 600 W,OREM,UT,84057,NOT AVAILABLE,(801) 610-8142
96667,490120000616,GREEN ACRES SCHOOL,640 E 1900 N,OGDEN,UT,84414,NOT AVAILABLE,(801) 452-4420
96768,490063000747,SPANISH OAKS SCHOOL,2701 E CANYON CREST DR,SPANISH FORK,UT,84660,NOT AVAILABLE,(801) 798-7411
99689,490003001385,TRAVERSE MOUNTAIN SCHOOL,2500 W CHAPEL RIDGE RD,LEHI,UT,84043,NOT AVAILABLE,(801) 610-8725
99812,490036000755,THOMAS W. BACCHUS SCHOOL,5925 S 5975 W,KEARNS,UT,84118,NOT AVAILABLE,(385) 646-4762
70881,490075000485,ECKER HILL MIDDLE,2465 W KILBY RD,PARK CITY,UT,84098,NOT AVAILABLE,(435) 645-5610
77110,490003000029,SHELLEY SCHOOL,602 N 200 W,AMERICAN FORK,UT,84003,NOT AVAILABLE,(801) 610-8718
77290,490093000538,ASHMAN SCHOOL,70 N 200 W,RICHFIELD,UT,84701,NOT AVAILABLE,(435) 896-8415
79475,490003000003,AMERICAN FORK JR HIGH,20 W 1120 N,AMERICAN FORK,UT,84003,NOT AVAILABLE,(801) 610-8750
63344,490036000680,CALVIN S. SMITH SCHOOL,2150 W 6200 S,TAYLORSVILLE,UT,84118,NOT AVAILABLE,(385) 646-5020
65562,490042000816,JOEL P. JENSEN MIDDLE,8105 S 3200 W,WEST JORDAN,UT,84088,NOT AVAILABLE,(801) 412-2850
69168,490042000949,FOOTHILLS SCHOOL,13717 S SHAGGY PEAK,RIVERTON,UT,84096,NOT AVAILABLE,(801) 302-8599
84204,490016801444,WINTER SPORTS SCHOOL,4251 SHADOW MOUNTAIN DRIVE,PARK CITY,UT,84098,NOT AVAILABLE,(435) 649-8760
101688,490120000972,TWO RIVERS HIGH,955 W 12TH STREET,OGDEN,UT,84404,NOT AVAILABLE,(801) 476-3920
103042,490006901572,USD ONLINE,742 HARRISON BLVD,MS CITY,UT,84404,NOT AVAILABLE,(801) 629-4700
103075,490087001616,SALT LAKE VIRTUAL ELEMENTARY,440 E 100 SOUTH,SALT LAKE CITY,UT,84111,NOT AVAILABLE,(801) 578-8599
20358,490009000051,FIELDING SCHOOL,98 W MAIN,FIELDING,UT,84311,NOT AVAILABLE,(435) 458-2700
20703,490014200328,UNION MIDDLE,615 E 8000 S,SANDY,UT,84070,NOT AVAILABLE,(801) 826-1500
24215,490024000850,KINGS PEAK SCHOOL,437 N 300 W (425-2),ROOSEVELT,UT,84066,NOT AVAILABLE,(435) 725-4630
24270,490021000133,MILLCREEK JR HIGH,245 E 1000 S,BOUNTIFUL,UT,84010,NOT AVAILABLE,(801) 402-6200
24878,490042000320,RIVERTON SCHOOL,13150 S 1830 W,RIVERTON,UT,84065,NOT AVAILABLE,(801) 254-8050
25935,490014200307,JORDAN HIGH,95 E 9825 S,SANDY,UT,84070,NOT AVAILABLE,(801) 826-6200
27227,490003000006,CASCADE SCHOOL,160 N 800 E,OREM,UT,84097,NOT AVAILABLE,(801) 610-8102
546,490018601483,AMERICAN ACADEMY OF INNOVATION,5410 W SOUTH JORDAN PARKWAY,SOUTH JORDAN,UT,84009,NOT AVAILABLE,(801) 810-4786
572,490042001502,GOLDEN FIELDS SCHOOL,10252 S. SPLIT ROCK DRIVE,SOUTH JORDAN,UT,84009,NOT AVAILABLE,(801) 567-8910
1503,490021001511,CANYON CREEK SCHOOL,755 S. 11 W.,FARMINGTON,UT,84025,NOT AVAILABLE,(801) 402-0300
4576,490120000632,RIVERDALE SCHOOL,1160 W 4400 S,OGDEN,UT,84405,NOT AVAILABLE,(801) 452-4540
7063,490014200719,INDIAN HILLS MIDDLE,1180 E 11600 S,SANDY,UT,84094,NOT AVAILABLE,(801) 826-7100
10725,490009000060,MCKINLEY SCHOOL,120 W 500 S,TREMONTON,UT,84337,NOT AVAILABLE,(435) 257-2590
14582,490003000740,ASPEN SCHOOL,945 W 2000 N,OREM,UT,84057,NOT AVAILABLE,(801) 610-8100
18923,490060000369,HILLCREST JR HIGH,178 E. 5300 S.,MURRAY,UT,84107,NOT AVAILABLE,(801) 264-7442
19396,490060000371,LONGVIEW SCHOOL,6240 S 560 E,MURRAY,UT,84107,NOT AVAILABLE,(801) 264-7428
103038,490003001621,PARKSIDE ELEMENTARY,658 W 150 NORTH,OREM,UT,84057,NOT AVAILABLE,(801) 610-8120
103040,490004901556,MONTICELLO ACADEMY WEST POINT,3110 W 300 N,WEST POINT,UT,84015,NOT AVAILABLE,(801) 417-8040
103047,490020301565,MOUNTAIN SUNRISE ACADEMY,1802 EAST 145 NORTH,SARATOGA SPRINGS,UT,84043,NOT AVAILABLE,(801) 882-2525
103065,490057001623,MORGAN ONLINE,67 N. 200 EAST,MORGAN,UT,84050,NOT AVAILABLE,(801) 829-3411
103078,490114001555,WASHINGTON FIELDS INTERMEDIATE,322 WEST 3090 SOUTH,WASHINGTON,UT,84780,NOT AVAILABLE,(435) 634-7015
51396,490063000388,PARK SCHOOL,90 N 600 E,SPANISH FORK,UT,84660,NOT AVAILABLE,(801) 798-4045
54008,490024001496,CENTENNIAL SCHOOL,940 S 500 ROOSEVELT,ROOSEVELT,UT,84066,NOT AVAILABLE,(435) 725-4450
55305,490030000189,PANGUITCH SCHOOL,110 S 100 W,PANGUITCH,UT,84759,NOT AVAILABLE,(435) 676-8847
57231,490072001286,GRAMERCY SCHOOL,1270 GRAMERCY AVE,OGDEN,UT,84404,NOT AVAILABLE,(801) 737-7500
59948,490014200768,QUAIL HOLLOW SCHOOL,2625 E 9070 S,SANDY,UT,84093,NOT AVAILABLE,(801) 826-9175
80963,490006901141,CENTRAL REGION DEAF,1655 EAST 3300 SOUTH,SALT LAKE CITY,UT,84106,NOT AVAILABLE,(801) 464-0840
82609,490081001267,LAKEVIEW SCHOOL,2899 W 1390 N,PROVO,UT,84601,NOT AVAILABLE,(801) 374-4990
83683,490021000128,LAYTON HIGH,440 LANCER LN,LAYTON,UT,84041,NOT AVAILABLE,(801) 402-4800
85259,490004101136,ENTHEOS ACADEMY KEARNS,4710 W 6200 S,KEARNS,UT,84118,NOT AVAILABLE,(801) 417-5444
85909,490012000077,LINCOLN SCHOOL,90 S CENTER,HYRUM,UT,84319,NOT AVAILABLE,(435) 245-6442
88493,490051000354,WILSON SCHOOL,89 S 500 E,LOGAN,UT,84321,NOT AVAILABLE,(435) 755-2340
94179,490021000156,WHITESIDES SCHOOL,233 N COLONIAL AVE,LAYTON,UT,84041,NOT AVAILABLE,(801) 402-3600
95348,490015000089,CARBON HIGH,750 E 400 N,PRICE,UT,84501,NOT AVAILABLE,(435) 637-2463
95656,490012000086,WELLSVILLE SCHOOL,525 N. 200 W.,WELLSVILLE,UT,84339,NOT AVAILABLE,(435) 245-3764
97543,490114000606,HERITAGE SCHOOL,747 E RIVERSIDE DR,SAINT GEORGE,UT,84790,NOT AVAILABLE,(435) 628-4427
99395,490120000620,LAKEVIEW SCHOOL,2025 W 5000 S,ROY,UT,84067,NOT AVAILABLE,(801) 452-4380
40300,490105000774,MIDDLE CANYON SCHOOL,751 E 1000 N,TOOELE,UT,84074,NOT AVAILABLE,(435) 833-1906
44976,490036000656,HARRY S. TRUMAN SCHOOL,4639 S 3200 W,WEST VALLEY CITY,UT,84119,NOT AVAILABLE,(385) 646-5044
48587,490014200292,BROOKWOOD SCHOOL,8640 S 2565 E,SANDY,UT,84093,NOT AVAILABLE,(801) 826-7900
30413,490024000165,MYTON SCHOOL,400 E MAIN,MYTON,UT,84052,NOT AVAILABLE,(435) 725-4735
35115,490002001106,UTAH COUNTY ACADEMY OF SCIENCE,940 W 800 S,OREM,UT,84058,NOT AVAILABLE,(801) 863-2222
35663,490087000525,WHITTIER SCHOOL,1600 S 300 E,SALT LAKE CITY,UT,84115,NOT AVAILABLE,(801) 481-4846
39462,490003000002,AMERICAN FORK HIGH,510 N 600 E,AMERICAN FORK,UT,84003,NOT AVAILABLE,(801) 610-8800
60140,490069000415,NORTH SUMMIT HIGH,53 S 100 E,COALVILLE,UT,84017,NOT AVAILABLE,(435) 336-5656
63228,490087000695,NORTH STAR SCHOOL,1545 N MORTON DR,SALT LAKE CITY,UT,84116,NOT AVAILABLE,(801) 578-8448
64001,490013901289,JEFFERSON ACADEMY,1425 S ANGEL ST,KAYSVILLE,UT,84037,NOT AVAILABLE,(801) 593-8200
64671,490081000438,CENTENNIAL MIDDLE,305 E 2320 N,PROVO,UT,84604,NOT AVAILABLE,(801) 370-4621
73201,490036000262,SOUTH KEARNS SCHOOL,4430 W 5570 S,KEARNS,UT,84118,NOT AVAILABLE,(385) 646-5026
74161,490063000396,SALEM SCHOOL,140 W 100 S,SALEM,UT,84653,NOT AVAILABLE,(801) 423-1182
76623,490042000289,BINGHAM HIGH,2160 W 10400 S,SOUTH JORDAN,UT,84095,NOT AVAILABLE,(801) 256-5100
14589,490021000151,VIEWMONT HIGH,120 W 1000 N,BOUNTIFUL,UT,84010,NOT AVAILABLE,(801) 402-4200
15151,490009000123,DISCOVERY SCHOOL,810 N 500 W,BRIGHAM CITY,UT,84302,NOT AVAILABLE,(435) 734-4910
15807,490018001252,DAGGETT PRESCHOOL,2ND N 2ND W,MANILA,UT,84046,NOT AVAILABLE,(435) 784-3174
17763,490014200313,MIDVALLEY SCHOOL,217 E 7800 S,MIDVALE,UT,84047,NOT AVAILABLE,(801) 826-8800
53583,590009400139,ANETH COMMUNITY SCHOOL,EAST HIGHWAY 162 SAN JUAN COUNTY RD 466,MONTEZUMA CREEK,UT,84534,NOT AVAILABLE,(435) 651-3271
54816,490093000544,RICHFIELD HIGH,495 WEST CENTER,RICHFIELD,UT,84701,NOT AVAILABLE,(435) 896-8247
59981,490039000285,PAROWAN SCHOOL,128 W 100 N,PAROWAN,UT,84761,NOT AVAILABLE,(435) 477-3368
43259,490063000395,SAGE CREEK SCHOOL,1050 S 700 E,SPRINGVILLE,UT,84663,NOT AVAILABLE,(801) 489-2860
547,490018701488,FRANKLIN DISCOVERY ACADEMY,320 E. GAMMON ROAD,VINEYARD,UT,84058,NOT AVAILABLE,(801) 785-6500
625,490012401202,PROVIDENCE HALL,4795 W PATRIOT RIDGE DRIVE,HERRIMAN,UT,84096,NOT AVAILABLE,(801) 727-8260
61711,490015601415,HIGHMARK CHARTER SCHOOL,2467 EAST SOUTH WEBER DRIVE,SOUTH WEBER,UT,84405,NOT AVAILABLE,(801) 476-4627
62363,490017401472,ASCENT ACADEMIES OF UTAH WEST JORDAN,5662 W 8200 S,WEST JORDAN,UT,84081,NOT AVAILABLE,(385) 275-0909
62502,490051001234,RIVERSIDE PRESCHOOL,1075 SUMAC DR,LOGAN,UT,84321,NOT AVAILABLE,(435) 755-2337
65702,490009000239,HARRIS INTERMEDIATE,515 N 800 W,TREMONTON,UT,84337,NOT AVAILABLE,(435) 257-2560
65936,490090000534,MONTEZUMA CREEK SCHOOL,STATE HIGHWAY #262,MONTEZUMA CREEK,UT,84534,NOT AVAILABLE,(435) 678-1261
69313,490036000209,CRESTVIEW SCHOOL,2100 E LINCOLN LANE,SALT LAKE CITY,UT,84124,NOT AVAILABLE,(385) 646-4804
69483,490030000183,ANTIMONY SCHOOL,140 N HIGHWAY 22,ANTIMONY,UT,84712,NOT AVAILABLE,(435) 624-3221
21905,490001400811,JOHN HANCOCK CHARTER SCHOOL,125 N 100 E,PLEASANT GROVE,UT,84062,NOT AVAILABLE,(801) 796-5646
26999,490003000028,SHARON SCHOOL,525 N 400 E,OREM,UT,84097,NOT AVAILABLE,(801) 610-8119
27906,490016601433,UTAH INTERNATIONAL CHARTER SCHOOL,350 E BAIRD CIRCLE (3605 SOUTH,SOUTH SALT LAKE,UT,84115,NOT AVAILABLE,(385) 290-1306
32462,490075000773,TREASURE MTN. JUNIOR HIGH SCHOOL,2530 KEARNS BLVD,PARK CITY,UT,84060,NOT AVAILABLE,(435) 645-5640
32485,490105000567,GRANTSVILLE SCHOOL,50 S PARK ST,GRANTSVILLE,UT,84029,NOT AVAILABLE,(435) 884-9991
35260,490060000370,LIBERTY SCHOOL,140 W 6100 S,MURRAY,UT,84107,NOT AVAILABLE,(801) 264-7424
35964,490042000329,VALLEY HIGH SCHOOL,325 W 11000 S,SOUTH JORDAN,UT,84095,NOT AVAILABLE,(801) 572-7035
36665,490036000244,MONROE SCHOOL,4450 W 3100 S,WEST VALLEY CITY,UT,84120,NOT AVAILABLE,(385) 646-4918
38103,490108001247,UINTAH SPECIALIZED PRESCHOOL,250 S VERNAL AVE,VERNAL,UT,84078,NOT AVAILABLE,(435) 781-3125
38785,490060001248,EARLY CHILDHOOD CENTER,73 W 6100 S,MURRAY,UT,84107,NOT AVAILABLE,(801) 264-7404
90056,490063000660,ART CITY SCHOOL,121 N 900 E,SPRINGVILLE,UT,84663,NOT AVAILABLE,(801) 489-2820
90630,490036001279,DIAMOND RIDGE SCHOOL,6034 W MILL VALLEY LANE,SALT LAKE CITY,UT,84118,NOT AVAILABLE,(385) 646-4858
92944,490015000809,CASTLE HEIGHTS SCHOOL,750 N HOMESTEAD BLVD,PRICE,UT,84501,NOT AVAILABLE,(435) 637-7177
97014,490120000634,ROY HIGH,2150 W 4800 S,ROY,UT,84067,NOT AVAILABLE,(801) 476-3600
98178,490021000150,VALLEY VIEW SCHOOL,1395 S 600 E,BOUNTIFUL,UT,84010,NOT AVAILABLE,(801) 402-2050
72988,490021001221,BUFFALO POINT SCHOOL,1924 SOUTH DORAL DRIVE,SYRACUSE,UT,84075,NOT AVAILABLE,(801) 402-8400
76577,490108000803,DAVIS SCHOOL,4101 S 2500 E,VERNAL,UT,84078,NOT AVAILABLE,(435) 781-3155
77707,490036000269,WASATCH JR HIGH,3750 S 3100 E,SALT LAKE CITY,UT,84109,NOT AVAILABLE,(385) 646-5244
78709,490021000045,NORTHRIDGE HIGH,2430 N HILLFIELD RD,LAYTON,UT,84041,NOT AVAILABLE,(801) 402-8500
79760,490021000793,ADAMS SCHOOL,2200 E 2500 N,LAYTON,UT,84041,NOT AVAILABLE,(801) 402-3100
80088,490120000625,NORTH OGDEN JR HIGH,575 E 2900 N,OGDEN,UT,84414,NOT AVAILABLE,(801) 452-4800
81758,490014200529,OAK HOLLOW SCHOOL,14400 S 884 E,DRAPER,UT,84020,NOT AVAILABLE,(801) 826-8875
81968,490021000651,STEWART SCHOOL,1155 N MAIN,CENTERVILLE,UT,84014,NOT AVAILABLE,(801) 402-1850
83127,490036000258,ROLLING MEADOWS SCHOOL,2950 WHITEHALL DR,WEST VALLEY CITY,UT,84119,NOT AVAILABLE,(385) 646-4990
84545,490114001300,SUNRISE RIDGE INTERMEDIATE,3167 S 2350 E,SAINT GEORGE,UT,84790,NOT AVAILABLE,(435) 652-4772
86202,490001900906,FAST FORWARD HIGH,875 W 1400 N,LOGAN,UT,84321,NOT AVAILABLE,(435) 713-4255
103060,490042001613,ROCKY PEAKS VIRTUAL SCHOOL,7905 SOUTH REDWOOD ROAD,WEST JORDAN,UT,84084,NOT AVAILABLE,(801) 567-8750
103079,490114001559,CRIMSON CLIFFS HIGH,4430 S CRIMSON CLIFFS WAY,WASHINGTON,UT,84780,NOT AVAILABLE,(435) 634-7015
103083,490120001552,SILVER RIDGE ELEMENTARY,3400 N. 3000 W,FARR WEST,UT,84404,NOT AVAILABLE,(801) 476-7800
42374,490027000179,GREEN RIVER HIGH,400 N 455 W,GREEN RIVER,UT,84525,NOT AVAILABLE,(435) 564-3461
51984,490027000176,CLEVELAND SCHOOL,30 S 100 W,CLEVELAND,UT,84518,NOT AVAILABLE,(435) 653-2235
52684,490014200318,PERUVIAN PARK SCHOOL,1545 E 8425 S,SANDY,UT,84093,NOT AVAILABLE,(801) 826-9100
54748,490087000488,EMERSON SCHOOL,1017 E 1370 S,SALT LAKE CITY,UT,84105,NOT AVAILABLE,(801) 481-4819
32705,490096000548,EPHRAIM MIDDLE,555 S 100 E,EPHRAIM,UT,84627,NOT AVAILABLE,(435) 283-4037
35117,490003000018,LEHI JR HIGH,700 E CEDAR HOLLOW RD,LEHI,UT,84043,NOT AVAILABLE,(801) 610-8754
35119,490003000020,LINDON SCHOOL,30 N MAIN,LINDON,UT,84042,NOT AVAILABLE,(801) 610-8111
35788,490063001160,SALEM HILLS HIGH,150 N SKYHAWK BLVD,SALEM,UT,84653,NOT AVAILABLE,(801) 423-3200
21859,490039001238,THREE PEAKS PRE SCHOOL,1521 W MIDVALLEY ROAD,CEDAR CITY,UT,84720,NOT AVAILABLE,(435) 867-4288
23183,490021001474,ODYSSEY SCHOOL,2050 S 1955 W,WOODS CROSS,UT,84087,NOT AVAILABLE,(801) 402-0200
28388,490012301208,SALT LAKE CENTER FOR SCIENCE EDUCATION,1400 W GOODWIN AVE,SALT LAKE CITY,UT,84116,NOT AVAILABLE,(801) 578-8226
28471,490087000480,CLAYTON MIDDLE,1470 S 1900 E,SALT LAKE CITY,UT,84108,NOT AVAILABLE,(801) 481-4810
29983,490036001412,ELK RUN ELEMENTARY,3550 S HELEN DR,MAGNA,UT,84044,NOT AVAILABLE,(385) 646-4786
63029,490014201428,CORNER CANYON HIGH,12943 S. 700 E.,DRAPER,UT,84020,NOT AVAILABLE,(801) 826-6401
97012,490069000416,NORTH SUMMIT SCHOOL,240 S BEACON DR,COALVILLE,UT,84017,NOT AVAILABLE,(435) 336-2101
98161,490003000021,OREM HIGH,175 S 400 E,OREM,UT,84097,NOT AVAILABLE,(801) 610-8165
8638,490042000322,SOUTH JORDAN SCHOOL,11205 S BLACK CHERRY WAY,SOUTH JORDAN,UT,84095,NOT AVAILABLE,(801) 254-8000
13733,490012000041,CACHE HIGH,265 W 1400 N,LOGAN,UT,84341,NOT AVAILABLE,(435) 755-0716
18798,490063000390,PAYSON HIGH,1050 S MAIN,PAYSON,UT,84651,NOT AVAILABLE,(801) 465-6025
70135,490014200295,CANYON VIEW SCHOOL,3050 E 7800 S,SALT LAKE CITY,UT,84121,NOT AVAILABLE,(801) 826-8050
71909,490000501372,AMERICAN PREPARATORY ACADEMY - THE SCHOOL FOR NEW AMERICANS,1255 W CRYSTAL AVE.,WEST VALLEY CITY,UT,84119,NOT AVAILABLE,(801) 839-3613
77182,490114000963,POST HS SELF-CONT,121 W TABERNACLE,ST GEORGE,UT,84770,NOT AVAILABLE,(435) 673-3553
79986,490036000679,FOX HILLS SCHOOL,3775 W 6020 S,SALT LAKE CITY,UT,84118,NOT AVAILABLE,(385) 646-4828
84891,490087000503,MARY W. JACKSON SCHOOL,750 W 200 N,SALT LAKE CITY,UT,84116,NOT AVAILABLE,(801) 578-8165
85192,490087000665,M. LYNN BENNION SCHOOL,429 S 800 E,SALT LAKE CITY,UT,84102,NOT AVAILABLE,(801) 578-8108
88669,490039000284,PAROWAN HIGH,50 W 100 N,PAROWAN,UT,84761,NOT AVAILABLE,(435) 477-3366
89390,490003501085,MOAB CHARTER SCHOOL,358 E 300 S,MOAB,UT,84532,NOT AVAILABLE,(435) 259-2277
100585,490063000379,BROCKBANK SCHOOL,340 W 500 N,SPANISH FORK,UT,84660,NOT AVAILABLE,(801) 798-4025
103029,490003001547,BROOKHAVEN SCHOOL,7082 NORTH SEEDLING DRIVE,EAGLE MOUNTAIN,UT,84005,NOT AVAILABLE,(801) 610-8733
103062,490051001608,LCSD CENTER FOR HOME LEARNING,101 W CENTER STREET,LOGAN,UT,84321,NOT AVAILABLE,(435) 755-2300
81837,490042000338,BLUFFDALE SCHOOL,14323 S 2700 W,BLUFFDALE,UT,84065,NOT AVAILABLE,(801) 254-8090
82014,490111000738,ROCKY MOUNTAIN MIDDLE,800 W SCHOOL HOUSE WAY,HEBER CITY,UT,84032,NOT AVAILABLE,(435) 654-9350
84595,490087000478,CHILDREN BEHAVIOR THERAPY UNIT,780 S GAURDSMAN WAY,SALT LAKE CITY,UT,84108,NOT AVAILABLE,(801) 481-4957
84930,490063001391,SIERRA BONITA ELEMENTARY,53 S 1800 E,SPANISH FORK,UT,84660,NOT AVAILABLE,(801) 798-4480
85594,490060000771,HORIZON SCHOOL,5180 S 700 W,MURRAY,UT,84123,NOT AVAILABLE,(801) 264-7420
86880,490081000584,AMELIA EARHART SCHOOL,2585 W 200 S,PROVO,UT,84601,NOT AVAILABLE,(801) 370-4630
102143,490036000248,OLYMPUS HIGH,4055 S 2300 E,SALT LAKE CITY,UT,84124,NOT AVAILABLE,(385) 646-5400
103034,490003001596,SILVER LAKE ELEMENTARY,5069 GOLDEN EAGLE ROAD,EAGLE MOUNTAIN,UT,84005,NOT AVAILABLE,(801) 640-8400
103063,490057001554,MOUNTAIN GREEN MIDDLE,67 N. 200 E,MORGAN,UT,84050,NOT AVAILABLE,(801) 829-3411
103067,490063001560,MAPLE GROVE MIDDLE,1578 W 400 SOUTH,MAPLETON,UT,84664,NOT AVAILABLE,(801) 609-2395
103068,490063001561,VALLEY VIEW MIDDLE,1044 E 340 S,SALEM,UT,84653,NOT AVAILABLE,(801) 609-2795
25440,490111001420,WASATCH LEARNING ACADEMY,101 E 200 N,HEBER CITY,UT,84032,NOT AVAILABLE,(435) 654-6700
27153,490013001196,UTAH VIRTUAL ACADEMY,310 E 4500 S,MURRAY,UT,84107,NOT AVAILABLE,(801) 262-4922
29791,490012301208,SALT LAKE CENTER FOR SCIENCE EDUCATION,1400 W GOODWIN AVE,SALT LAKE CITY,UT,84116,NOT AVAILABLE,(801) 578-8226
70102,490048000887,BIG WATER SCHOOL,AARON BURR RD,BIG WATER,UT,84741,NOT AVAILABLE,(435) 675-5821
70648,490036000216,EVERGREEN JR HIGH,3401 S 2000 E,SALT LAKE CITY,UT,84109,NOT AVAILABLE,(385) 646-5164
70856,490105000574,TOOELE HIGH,301 W VINE,TOOELE,UT,84074,NOT AVAILABLE,(435) 833-1978
77379,490014701389,GOOD FOUNDATIONS ACADEMY,5101 S 1050 W,RIVERDALE,UT,84405,NOT AVAILABLE,(801) 393-2950
61225,490014200302,EASTMONT MIDDLE,10100 S 1300 E,SANDY,UT,84094,NOT AVAILABLE,(801) 826-7000
61482,490014200658,SILVER MESA SCHOOL,8920 S 1700 E,SANDY,UT,84093,NOT AVAILABLE,(801) 826-9400
61878,490063000394,REES SCHOOL,574 N REES AVE,SPANISH FORK,UT,84660,NOT AVAILABLE,(801) 798-4055
62158,490078000448,CIRCLEVILLE SCHOOL,300 S CENTER,CIRCLEVILLE,UT,84723,NOT AVAILABLE,(435) 577-2912
65654,490036001115,GEARLD WRIGHT SCHOOL,6760 W 3100 S,SALT LAKE CITY,UT,84128,NOT AVAILABLE,(801) 646-5480
65782,490063001157,DIAMOND FORK JUNIOR HIGH,50 N 900 E,SPANISH FORK,UT,84660,NOT AVAILABLE,(801) 798-4052
68448,490014200303,EDGEMONT SCHOOL,1085 E 9800 S,SANDY,UT,84094,NOT AVAILABLE,(801) 826-8500
11651,490120000221,FREMONT HIGH,1900 N 4700 W,PLAIN CITY,UT,84404,NOT AVAILABLE,(801) 452-4000
12186,490072001281,BEN LOMOND HIGH,1080 9TH STREET,OGDEN,UT,84404,NOT AVAILABLE,(801) 737-7900
12600,490081001349,PROVO ESCHOOL,280 W 940 N,PROVO,UT,84604,NOT AVAILABLE,(801) 374-4814
15204,490003001071,EAGLE VALLEY SCHOOL,4475 N HERITAGE DR,EAGLE MOUNTAIN,UT,84043,NOT AVAILABLE,(801) 610-8704
16176,490027000177,COTTONWOOD SCHOOL,55 E 200 S,ORANGEVILLE,UT,84537,NOT AVAILABLE,(435) 748-2481
17740,490048000796,KANAB MIDDLE,690 S COWBOY WAY,KANAB,UT,84741,NOT AVAILABLE,(435) 644-5809
34708,490042000661,RIVERTON HIGH,12476 S SILVERWOLF WAY (2700 W,RIVERTON,UT,84065,NOT AVAILABLE,(801) 256-5800
35114,490108000786,VERNAL MIDDLE,721 W 100 S,VERNAL,UT,84078,NOT AVAILABLE,(435) 781-3140
38916,490087000787,ESCALANTE SCHOOL,1810 W 900 N,SALT LAKE CITY,UT,84116,NOT AVAILABLE,(801) 578-8496
42775,490003000034,WESTMORE SCHOOL,1150 S MAIN,OREM,UT,84058,NOT AVAILABLE,(801) 610-8123
45368,490036000240,MAGNA SCHOOL,8500 W 3100 S,MAGNA,UT,84044,NOT AVAILABLE,(385) 646-4900
54509,490042000327,TERRA LINDA SCHOOL,8400 S 3400 W,WEST JORDAN,UT,84088,NOT AVAILABLE,(801) 282-8036
56408,490019801524,ADVANTAGE ARTS ACADEMY,6171 W. 11800 S,HERRIMAN,UT,84096,NOT AVAILABLE,(801) 878-8622
59908,490096000668,GUNNISON VALLEY MIDDLE,271 E 600 S,GUNNISON,UT,84634,NOT AVAILABLE,(435) 528-5337
634,490057001259,MOUNTAIN GREEN SCHOOL,6064 N SILVER LEAF DR,MOUNTAIN GREEN,UT,84050,NOT AVAILABLE,(801) 876-3041
2198,490003001462,DRY CREEK SCHOOL,1301 W. 1450 S.,LEHI,UT,84043,NOT AVAILABLE,(801) 610-8730
2839,490003000593,FOOTHILL SCHOOL,921 N 1240 E,OREM,UT,84097,NOT AVAILABLE,(801) 610-8107
5427,490004001130,CHANNING HALL,13515 S 150 E,DRAPER,UT,84020,NOT AVAILABLE,(801) 572-2709
8702,490036000273,WESTERN HILLS SCHOOL,5190 S HEATH AVE,KEARNS,UT,84118,NOT AVAILABLE,(385) 646-5091
9547,490039000279,CEDAR EAST SCHOOL,255 E COLLEGE AVE,CEDAR CITY,UT,84720,NOT AVAILABLE,(435) 586-2840
9718,490021000131,LINCOLN SCHOOL,591 W 2000 N,LAYTON,UT,84041,NOT AVAILABLE,(801) 402-2450
97312,490015000809,CASTLE HEIGHTS SCHOOL,750 N HOMESTEAD BLVD,PRICE,UT,84501,NOT AVAILABLE,(435) 637-7177
542,490014201504,DIAMOND RIDGE HIGH SCHOOL,825 EAST 9085 SOUTH,SANDY,UT,84094,NOT AVAILABLE,(801) 826-9900
1047,490019301513,THE CENTER FOR CREATIVITY INNOVATION AND DISCOVERY,170 WEST SPRING CREEK PARKWAY,PROVIDENCE,UT,84332,NOT AVAILABLE,(435) 258-7097
1769,490078000450,PIUTE HIGH,550 N 100 W,JUNCTION,UT,84740,NOT AVAILABLE,(855) 577-2912
4266,490021000113,CLINTON SCHOOL,1101 W 1800 N,CLINTON,UT,84015,NOT AVAILABLE,(801) 402-2150
7255,490087000666,LIBERTY SCHOOL,1090 S ROBERTA ST,SALT LAKE CITY,UT,84111,NOT AVAILABLE,(801) 578-8180
45426,490039000682,ENOCH SCHOOL,4701 N WAGON WHEEL DR,ENOCH,UT,84721,NOT AVAILABLE,(435) 586-2855
74247,490001100587,SOLDIER HOLLOW CHARTER SCHOOL,3444 WEST 3000 SOUTH,HEBER CITY,UT,84032,NOT AVAILABLE,(435) 654-1347
75714,490042000813,COLUMBIA SCHOOL,3505 W 7800 S,WEST JORDAN,UT,84088,NOT AVAILABLE,(801) 280-3279
76000,490093000782,NORTH SEVIER MIDDLE,135 N 100 W,SALINA,UT,84654,NOT AVAILABLE,(435) 529-3841
79576,490003000362,TIMPANOGOS HIGH,1450 N 200 E,OREM,UT,84057,NOT AVAILABLE,(801) 610-8175
50534,490021001382,ENDEAVOUR SCHOOL,1870 S 25 W,KAYSVILLE,UT,84037,NOT AVAILABLE,(801) 402-0400
52181,490003001109,WILLOWCREEK MIDDLE,2275 W 300 N,LEHI,UT,84043,NOT AVAILABLE,(801) 766-5273
54600,490036000214,EASTWOOD SCHOOL,3305 WASATCH BLVD,SALT LAKE CITY,UT,84109,NOT AVAILABLE,(385) 646-4816
56495,490006901377,JEAN MASSIEU SCHOOL FOR THE DEAF,1655 E 3300 S,SALT LAKE CITY,UT,84106,NOT AVAILABLE,(801) 302-1900
87642,490003000007,CEDAR VALLEY SCHOOL,40 E CENTER,CEDAR FORT,UT,84013,NOT AVAILABLE,(801) 610-8702
10171,490087000520,UINTAH SCHOOL,1571 E 1300 S,SALT LAKE CITY,UT,84105,NOT AVAILABLE,(801) 584-2940
10684,490114000842,SUNSET SCHOOL,495 N WESTRIDGE DR,ST GEORGE,UT,84770,NOT AVAILABLE,(435) 673-5669
10693,490014200767,CRESCENT SCHOOL,11100 S 230 E,SANDY,UT,84070,NOT AVAILABLE,(801) 826-8200
11740,490024000163,DUCHESNE SCHOOL,198 W 300 N,DUCHESNE,UT,84021,NOT AVAILABLE,(435) 738-1290
13174,490114000779,LAVA RIDGE INTERMEDIATE,2425 RACHEL DR,SANTA CLARA,UT,84765,NOT AVAILABLE,(435) 652-4742
14416,490105001097,ROSE SPRINGS SCHOOL,5349 N INSBROOK PLACE,STANSBURY PARK,UT,84074,NOT AVAILABLE,(435) 833-9015
15085,490120000645,WEBER HIGH,430 W WEBER HIGH DR,OGDEN,UT,84414,NOT AVAILABLE,(801) 476-3700
19786,490042000896,SOUTH JORDAN MIDDLE,10245 S 2700 W,SOUTH JORDAN,UT,84095,NOT AVAILABLE,(801) 412-2900
90320,490036000756,COPPER HILLS SCHOOL,7635 W 3715 S,MAGNA,UT,84044,NOT AVAILABLE,(385) 646-4792
92210,490021000869,ANTELOPE SCHOOL,1810 S MAIN,CLEARFIELD,UT,84015,NOT AVAILABLE,(801) 402-2100
95964,490015801421,VALLEY ACADEMY,539 N 870 W,HURRICANE,UT,84737,NOT AVAILABLE,(435) 635-0772
96073,490063001479,MAPLE RIDGE SCHOOL,2340 WEST HARVEST PARKWAY,MAPLETON,UT,84664,NOT AVAILABLE,(801) 489-1800
96854,490036000715,BENNION JR HIGH,6055 S 2700 W,TAYLORSVILLE,UT,84118,NOT AVAILABLE,(385) 646-5114
97724,490014301376,CANYON GROVE ACADEMY,588 W 3300 N,PLEASANT GROVE,UT,84062,NOT AVAILABLE,(801) 785-9300
61531,490017701468,GREENWOOD CHARTER SCHOOL,840 NORTH HIGHWAY 89,OGDEN,UT,84404,NOT AVAILABLE,(801) 590-2972
62590,490036000812,HILLSIDE SCHOOL,4283 S 6000 W,WEST VALLEY CITY,UT,84128,NOT AVAILABLE,(385) 646-4870
69312,490024000160,CON AMORE SCHOOL,325 E MAIN,MYTON,UT,84052,NOT AVAILABLE,(435) 725-4750
69833,490036000871,THOMAS JEFFERSON JR HIGH,5850 S 5600 W,KEARNS,UT,84118,NOT AVAILABLE,(385) 646-5194
21140,490114001134,HURRICANE INTERMEDIATE,1325 S 700 W,HURRICANE,UT,84737,NOT AVAILABLE,(435) 635-8931
24272,490120000618,HOOPER SCHOOL,5500 S 5900 W,HOOPER,UT,84315,NOT AVAILABLE,(801) 452-4320
27635,490014201124,WILLOW SPRINGS SCHOOL,13288 S LONE PEAK DRIVE,DRAPER,UT,84020,NOT AVAILABLE,(801) 826-9700
28906,490003000012,GREENWOOD SCHOOL,50 E 200 S,AMERICAN FORK,UT,84003,NOT AVAILABLE,(801) 610-8708
31750,490039001122,CANYON VIEW MIDDLE,1865 N MAIN,CEDAR CITY,UT,84721,NOT AVAILABLE,(435) 586-2830
31957,490087000516,ROSE PARK SCHOOL,1105 W 1000 N,SALT LAKE CITY,UT,84116,NOT AVAILABLE,(801) 578-8554
35271,490120000212,ROCKY MOUNTAIN JR HIGH,4350 W 4800 S,WEST HAVEN CITY,UT,84401,NOT AVAILABLE,(801) 476-5220
37441,490063000389,PARK VIEW SCHOOL,360 S 100 E,PAYSON,UT,84651,NOT AVAILABLE,(801) 465-6010
37680,490003000743,MANILA SCHOOL,1726 N 600 W,PLEASANT GROVE,UT,84062,NOT AVAILABLE,(801) 610-8112
38645,490054001337,DELTA NORTH SCHOOL,50 N 100 E,DELTA,UT,84624,NOT AVAILABLE,(435) 864-5680
38882,490114000599,ENTERPRISE HIGH,565 S 200 E,ENTERPRISE,UT,84725,NOT AVAILABLE,(435) 878-2248
39230,490014200685,PARK LANE SCHOOL,9955 S 2300 E,SANDY,UT,84092,NOT AVAILABLE,(801) 826-9025
39360,490014201368,ENTRADA,825 E 9085 S,SANDY,UT,84094,NOT AVAILABLE,(801) 826-6670
101657,490004301144,LAKEVIEW ACADEMY,527 W 400 N,SARATOGA SPRINGS,UT,84045,NOT AVAILABLE,(801) 331-6788
103044,490018401609,WALLACE STEGNER ACADEMY WEST VALLEY,5990 WEST PARKWAY BOULEVARD,WEST VALLEY CITY,UT,84120,NOT AVAILABLE,(801) 456-9570
50495,490120000630,PIONEER SCHOOL,250 N 1600 W,OGDEN,UT,84404,NOT AVAILABLE,(801) 452-4560
52404,490060000376,RIVERVIEW JR HIGH,751 W TRIPP LANE,MURRAY,UT,84123,NOT AVAILABLE,(801) 264-7446
54084,490009000064,PARK VALLEY ELEMENTARY,788 EDUCATION DR,PARK VALLEY,UT,84329,NOT AVAILABLE,(435) 871-4411
58291,490042000655,HAYDEN PEAK SCHOOL,5120 W HAYDEN PEAK DR,WEST JORDAN,UT,84081,NOT AVAILABLE,(801) 280-0722
59041,490036000255,REDWOOD SCHOOL,2650 S REDWOOD RD,WEST VALLEY CITY,UT,84119,NOT AVAILABLE,(385) 646-4984
48500,490042001223,MIDAS CREEK SCHOOL,11901 S PARK HAVEN LANE,RIVERTON,UT,84096,NOT AVAILABLE,(801) 254-7407
48539,490003000026,SCERA PARK,450 S 400 E,OREM,UT,84097,NOT AVAILABLE,(801) 610-8118
48641,490063000407,WILSON SCHOOL,590 W 500 S,PAYSON,UT,84651,NOT AVAILABLE,(801) 465-6060
80417,490087000474,BACKMAN SCHOOL,601 N 1500 W,SALT LAKE CITY,UT,84116,NOT AVAILABLE,(801) 578-8100
80970,490009000916,PARK VALLEY SECONDARY,788 EDUCATION DR,PARK VALLEY,UT,84329,NOT AVAILABLE,(435) 871-4411
80992,490108001302,ASHLEY VALLEY EDUC. CTR.,559 N 1700 W,VERNAL,UT,84078,NOT AVAILABLE,(435) 781-4675
83053,490087000490,FRANKLIN SCHOOL,1115 W 300 S,SALT LAKE CITY,UT,84104,NOT AVAILABLE,(801) 578-8158
72174,490063001458,NEBO ADVANCED LEARNING CENTER,570 S MAIN,SPRINGVILLE,UT,84663,NOT AVAILABLE,(801) 489-2833
77703,490063000396,SALEM SCHOOL,140 W 100 S,SALEM,UT,84653,NOT AVAILABLE,(801) 423-1182
78706,490021001098,SAND SPRINGS SCHOOL,242 N 3200 W,LAYTON,UT,84041,NOT AVAILABLE,(801) 402-3850
90809,490030000185,BRYCE VALLEY SCHOOL,500 W CENTER,TROPIC,UT,84776,NOT AVAILABLE,(435) 679-8619
98197,490063000479,CANYON SCHOOL,1492 E 1240 S,SPANISH FORK,UT,84660,NOT AVAILABLE,(801) 798-4610
61350,490102001245,TINTIC PRESCHOOL,55 E MAIN,EUREKA,UT,84628,NOT AVAILABLE,(435) 433-6363
61530,490003701470,SUCCESS DSU,225 SOUTH 700 EAST,ST GEORGE,UT,84770,NOT AVAILABLE,(435) 652-7830
62258,490054000798,FILLMORE MIDDLE,435 S 500 W,FILLMORE,UT,84631,NOT AVAILABLE,(435) 743-5660
64551,490036000827,VALLEY CREST SCHOOL,5240 W 3100 S,WEST VALLEY CITY,UT,84120,NOT AVAILABLE,(385) 646-5061
64856,490042000873,HEARTLAND SCHOOL,1451 W 7000 S,WEST JORDAN,UT,84084,NOT AVAILABLE,(801) 565-7533
69486,490087000524,WEST HIGH,241 N 300 W,SALT LAKE CITY,UT,84103,NOT AVAILABLE,(801) 578-8500
35129,490072001232,OGDEN PRESCHOOL,1950 MONROE BLVD,OGDEN,UT,84401,NOT AVAILABLE,(801) 737-7300
37410,490048000953,BIG WATER HIGH,AARON BURR RD,BIG WATER,UT,84741,NOT AVAILABLE,(435) 675-5821
102214,490087000522,WASHINGTON SCHOOL,420 N 200 W,SALT LAKE CITY,UT,84103,NOT AVAILABLE,(801) 578-8140
103033,490003001575,LAKE MOUNTAIN MIDDLE,1058 SOUTH OLD FARM ROAD,SARATOGA SPRINGS,UT,84045,NOT AVAILABLE,(801) 610-8400
103045,490020101557,UTAH MOUNTAIN,3885 US HWY 89,PLEASANT VIEW,UT,84414,NOT AVAILABLE,(385) 743-0090
20990,490105000698,BLUE PEAK HIGH,211 S TOOELE BLVD,TOOELE,UT,84074,NOT AVAILABLE,(435) 833-8700
21428,490003000023,OREM SCHOOL,450 W 400 S,OREM,UT,84058,NOT AVAILABLE,(801) 610-8116
23288,490087000489,ENSIGN SCHOOL,775 - 12TH AVE,SALT LAKE CITY,UT,84103,NOT AVAILABLE,(801) 578-8150
25166,490090000667,WHITEHORSE HIGH,STATE HIGHWAY #262,MONTEZUMA CREEK,UT,84534,NOT AVAILABLE,(435) 678-1209
25327,490120000703,COUNTRY VIEW SCHOOL,4650 W 4800 S,WEST HAVEN CITY,UT,84401,NOT AVAILABLE,(801) 452-4400
29077,490105000579,WEST SCHOOL,451 W 300 S,TOOELE,UT,84074,NOT AVAILABLE,(435) 833-1931
12169,490012000598,NIBLEY SCHOOL,2545 S 660 W,NIBLEY,UT,84321,NOT AVAILABLE,(435) 752-8303
12375,490003001405,RIVERVIEW SCHOOL,273 W ASPEN HILLS BLVD,SARATOGA SPRINGS,UT,84045,NOT AVAILABLE,(801) 610-8726
4151,490111001162,OLD MILL SCHOOL,1600 E 980 S,HEBER CITY,UT,84032,NOT AVAILABLE,(435) 657-3130
7955,490021000119,KING SCHOOL,601 E 1000 N,LAYTON,UT,84041,NOT AVAILABLE,(801) 402-3300
9092,490036000268,VISTA SCHOOL,4925 S 2200 W,TAYLORSVILLE,UT,84118,NOT AVAILABLE,(385) 646-5067
9862,490036000210,CYPRUS HIGH,8623 W 3000 S,MAGNA,UT,84044,NOT AVAILABLE,(385) 646-5300
62169,490014200305,HILLCREST HIGH,7350 S 900 E,MIDVALE,UT,84047,NOT AVAILABLE,(801) 826-6000
64587,490000900742,CITY ACADEMY,555 E 200 S,SALT LAKE CITY,UT,84102,NOT AVAILABLE,(801) 596-8489
65937,490090000491,NAVAJO MOUNTAIN HIGH,RESERVATION RD #16,NAVAJO MT,UT,84510,NOT AVAILABLE,(435) 678-1287
67165,490042000814,ROSAMOND SCHOOL,12195 S 1975 W,RIVERTON,UT,84065,NOT AVAILABLE,(801) 254-8043
67548,490105001246,EARLY LEARNING CENTER,555 E VINE,TOOELE,UT,84074,NOT AVAILABLE,(435) 833-1966
101083,490027000178,EMERY HIGH,975 N CENTER,CASTLE DALE,UT,84513,NOT AVAILABLE,(435) 381-2689
70804,490066000409,MORONI SCHOOL,98 N 200 W,MORONI,UT,84646,NOT AVAILABLE,(435) 436-8291
71760,490081000836,INDEPENDENCE HIGH,636 N INDEPENDENCE AVE,PROVO,UT,84601,NOT AVAILABLE,(801) 374-4920
74603,490036000763,SCOTT M MATHESON JR HIGH,3650 S MONTCLAIR ST,MAGNA,UT,84044,NOT AVAILABLE,(385) 646-5290
76082,490017001456,SCHOLAR ACADEMY,928 N 100 E,TOOELE,UT,84074,NOT AVAILABLE,(435) 566-6957
76534,490036000853,BEEHIVE SCHOOL,5655 S 5220 W,KEARNS,UT,84118,NOT AVAILABLE,(385) 646-4768
79494,490114001133,HORIZON SCHOOL,1970 S ARABIAN WAY,WASHINGTON,UT,84780,NOT AVAILABLE,(435) 652-4781
10995,490006600996,SUMMIT ACADEMY - DRAPER CAMPUS,1285 E 13200 S,DRAPER,UT,84020,NOT AVAILABLE,(801) 572-4166
11590,490036000224,HARTVIGSEN SCHOOL,1510 W 5400 S,TAYLORSVILLE,UT,84123,NOT AVAILABLE,(385) 646-4585
14353,490114000063,SNOW CANYON MIDDLE,1215 N LAVA FLOW DR,ST GEORGE,UT,84770,NOT AVAILABLE,(435) 674-6474
632,490054000746,ESKDALE HIGH,1000 CIRCLE DR,ESKDALE,UT,84728,NOT AVAILABLE,(435) 855-2148
1298,490057000363,MORGAN HIGH,55 N 200 E,MORGAN,UT,84050,NOT AVAILABLE,(801) 829-3418
5001,490063001518,APPLE VALLEY SCHOOL,105 E 770 N,SANTAQUIN,UT,84655,NOT AVAILABLE,(801) 354-7400
5795,490120000633,ROOSEVELT SCHOOL,190 W 5100 S,OGDEN,UT,84405,NOT AVAILABLE,(801) 452-4520
22852,490120000617,H GUY CHILD SCHOOL,655 E 5500 S,OGDEN,UT,84405,NOT AVAILABLE,(801) 452-4140
24216,490024000167,ROOSEVELT JR HIGH,350 W 200 S,ROOSEVELT,UT,84066,NOT AVAILABLE,(435) 725-4585
26173,490096000551,GUNNISON VALLEY SCHOOL,550 S 100 E,GUNNISON,UT,84634,NOT AVAILABLE,(435) 528-7880
27259,490063000386,MAPLETON SCHOOL,120 W MAPLE,MAPLETON,UT,84664,NOT AVAILABLE,(801) 489-2850
32649,490063001424,BRIDGES NEBO TRANSITION CENTER,165 S. 700 E.,SPRINGVILLE,UT,84663,NOT AVAILABLE,(801) 798-4006
33462,490072001274,THOMAS O. SMITH SCHOOL,3295 GRAMERCY AVE,OGDEN,UT,84403,NOT AVAILABLE,(801) 737-8350
36089,490036001116,SPRING LANE SCHOOL,5315 S 1700 E,SALT LAKE CITY,UT,84117,NOT AVAILABLE,(385) 646-4906
36501,490036000234,KEARNS HIGH,5525 S COUGAR LN,KEARNS,UT,84118,NOT AVAILABLE,(385) 646-5380
39004,490105000775,OVERLAKE SCHOOL,2052 N 170 W,TOOELE,UT,84074,NOT AVAILABLE,(435) 843-3805
39947,490036001237,HEADSTART PRESCHOOL SPECIAL EDUCATION,2500 S STATE ST,SALT LAKE CITY,UT,84115,NOT AVAILABLE,(385) 646-4672
51700,490012000846,SPRING CREEK MIDDLE SCHOOL,350 W 100 N,PROVIDENCE,UT,84332,NOT AVAILABLE,(435) 753-6200
51867,490021000111,CENTRAL DAVIS JR HIGH,663 CHURCH ST,LAYTON,UT,84041,NOT AVAILABLE,(801) 402-7100
54082,490012501199,ROCKWELL CHARTER HIGH SCHOOL,3435 E STONEBRIDGE LANE,EAGLE MOUNTAIN,UT,84005,NOT AVAILABLE,(801) 789-7625
54938,490014200293,BUTLER MIDDLE,7530 S 2700 E,SALT LAKE CITY,UT,84121,NOT AVAILABLE,(801) 826-6500
56407,490042001525,MOUNTAIN RIDGE HIGH,14100 S SENTINEL RIDGE BLVD,HERRIMAN,UT,84096,NOT AVAILABLE,(801) 537-8750
81144,490036000264,TAYLORSVILLE SCHOOL,2010 W 4230 S,SALT LAKE CITY,UT,84119,NOT AVAILABLE,(385) 646-5038
81285,490042001338,HERRIMAN HIGH,11917 S 6000 W,HERRIMAN,UT,84096,NOT AVAILABLE,(801) 567-8530
81540,490021000306,RENAISSANCE ACADEMY,264 S 500 E,KAYSVILLE,UT,84037,NOT AVAILABLE,(801) 402-0350
85392,490042001353,SILVER CREST SCHOOL,12937 S ELEMENTARY DR,HERRIMAN,UT,84096,NOT AVAILABLE,(801) 253-1034
89013,490051000355,WOODRUFF SCHOOL,950 W 600 S,LOGAN,UT,84321,NOT AVAILABLE,(435) 755-2350
96289,490036000236,LAKE RIDGE SCHOOL,7400 W 3400 S,MAGNA,UT,84044,NOT AVAILABLE,(385) 646-4888
99529,490087000481,COLUMBUS COMMUNITY CENTER,3495 S WEST TEMPLE,SALT LAKE CITY,UT,84115,NOT AVAILABLE,(801) 262-1552
42376,490054000361,MILLARD HIGH,200 W EAGLE AVE,FILLMORE,UT,84631,NOT AVAILABLE,(435) 743-5610
43933,490114000206,SNOW CANYON HIGH,1385 N LAVA FLOW DR,ST GEORGE,UT,84770,NOT AVAILABLE,(435) 634-1967
46666,490093000543,PAHVANT SCHOOL,520 N 300 W,RICHFIELD,UT,84701,NOT AVAILABLE,(435) 896-4403
75120,490093000783,SOUTH SEVIER MIDDLE,300 E CENTER,MONROE,UT,84754,NOT AVAILABLE,(435) 527-4607
77576,490096000553,MANTI HIGH,100 W 500 N,MANTI,UT,84642,NOT AVAILABLE,(435) 835-2281
77692,490014801396,SUMMIT ACADEMY HIGH SCHOOL,14942 S 560 W,BLUFFDALE,UT,84065,NOT AVAILABLE,(801) 495-3272
95277,490021000823,MOUNTAIN HIGH,490 S 500 E,KAYSVILLE,UT,84037,NOT AVAILABLE,(801) 402-0450
95800,490018301475,VANGUARD ACADEMY,2650 SOUTH DECKER LAKE LANE,WEST VALLEY CITY,UT,84119,NOT AVAILABLE,(801) 327-8724
96255,490004201464,SPECTRUM ACADEMY - PLEASANT GROVE,867 SOUTH 800 WEST,PLEASANT GROVE,UT,84062,NOT AVAILABLE,(801) 785-9019
97516,490042000531,SOUTH HILLS MIDDLE,13508 S 4000 W,RIVERTON,UT,84065,NOT AVAILABLE,(801) 412-2400
61713,490007101178,CANYON RIM ACADEMY,3005 S 2900 E,SALT LAKE CITY,UT,84109,NOT AVAILABLE,(801) 474-2066
65478,490039000794,FIDDLERS CANYON SCHOOL,475 E 1935 N,CEDAR CITY,UT,84721,NOT AVAILABLE,(435) 586-2860
68163,490063000766,SPRING LAKE SCHOOL,1750 S 500 W,PAYSON,UT,84651,NOT AVAILABLE,(801) 465-6070
49184,490036000205,CHURCHILL JR HIGH,3450 E 4275 S,SALT LAKE CITY,UT,84124,NOT AVAILABLE,(385) 646-5144
86949,490054000357,DELTA MIDDLE,251 E 300 N,DELTA,UT,84624,NOT AVAILABLE,(435) 864-5660
88545,490039000473,CANYON VIEW HIGH,166 W 1925 N,CEDAR CITY,UT,84721,NOT AVAILABLE,(435) 586-2813
10827,490012000882,SUNRISE SCHOOL,225 S 455 E,SMITHFIELD,UT,84335,NOT AVAILABLE,(435) 563-3866
14809,490003001299,NORTH POINT SCHOOL,2300 W 1900 N,LEHI,UT,84043,NOT AVAILABLE,(801) 610-8722
19456,490009000067,SNOWVILLE SCHOOL,160 N STONE RD,SNOWVILLE,UT,84336,NOT AVAILABLE,(435) 872-2771
50139,490021000137,OAK HILLS SCHOOL,1235 E 600 S,BOUNTIFUL,UT,84010,NOT AVAILABLE,(801) 402-1650
52637,490036000229,HOWARD R. DRIGGS SCHOOL,4340 S 2700 E,SALT LAKE CITY,UT,84124,NOT AVAILABLE,(385) 646-4810
55394,490006100991,WALDEN SCHOOL OF LIBERAL ARTS,4230 N UNIVERSITY AVE,PROVO,UT,84604,NOT AVAILABLE,(801) 374-1545
55610,490003001387,VISTA HEIGHTS MIDDLE,484 W PONY EXPRESS PARKWAY,SARATOGA SPRINGS,UT,84045,NOT AVAILABLE,(801) 610-8770
57735,490004301544,LAKEVIEW ACADEMY CAMPUS 2,TEMP: 527 W 400 N,SARATOGA SPRINGS,UT,84045,NOT AVAILABLE,(801) 331-6788
58046,490036001399,YOUTH EDUCATIONAL SUPPORT SCHOOL,450 EAST 3700 SOUTH,SALT LAKE CITY,UT,84115,NOT AVAILABLE,(385) 646-4682
58630,490012001251,CACHE PRESCHOOL,84 EAST 2400 NORTH,NORTH LOGAN,UT,84341,NOT AVAILABLE,(435) 752-3925
20353,490072001276,WASATCH SCHOOL,3370 POLK AVE,OGDEN,UT,84403,NOT AVAILABLE,(801) 737-8450
20489,490108000583,NAPLES SCHOOL,1640 E 1900 S,VERNAL,UT,84078,NOT AVAILABLE,(435) 781-3150
26435,490051001063,BRIDGER SCHOOL,1261 N 400 W,LOGAN,UT,84341,NOT AVAILABLE,(435) 755-2345
26808,490006601469,SUMMIT ACADEMY - INDEPENDENCE,15327 S. NOELL NELSON DRIVE,BLUFFDALE,UT,84065,NOT AVAILABLE,(801) 987-8755
27420,490021000676,COOK SCHOOL,1175 W 1350 S,SYRACUSE,UT,84075,NOT AVAILABLE,(801) 402-2200
30233,490006700997,ITINERIS EARLY COLLEGE HIGH,8714 ROY DEL CIRCLE,WEST JORDAN,UT,84088,NOT AVAILABLE,(385) 800-2140
33342,490009000367,YOUNG INTERMEDIATE,830 LAW DR,BRIGHAM CITY,UT,84302,NOT AVAILABLE,(435) 734-4940
34865,490096000549,EPHRAIM SCHOOL,570 S 300 EAST,EPHRAIM,UT,84627,NOT AVAILABLE,(435) 283-4171
7521,490036000260,ROSECREST SCHOOL,2420 FISHER LN,SALT LAKE CITY,UT,84109,NOT AVAILABLE,(385) 646-5002
101645,490084000838,RICH MIDDLE SCHOOL,54 E 100 S,LAKETOWN,UT,84038,NOT AVAILABLE,(435) 946-3359
103030,490003001553,POLARIS WEST HIGH,690 SOUTH 500 EAST,AMERICAN FORK,UT,84003,NOT AVAILABLE,(801) 610-8400
103064,490057001567,MOUNTAIN GREEN PRESCHOOL,6064 N. SILVER LEAF DRIVE,MORGAN,UT,84050,NOT AVAILABLE,(801) 876-3041
61081,490042001090,OAKCREST SCHOOL,8462 S HILLTOP OAK DR,WEST JORDAN,UT,84088,NOT AVAILABLE,(801) 280-7243
64056,490004401145,SYRACUSE ARTS ACADEMY - ANTELOPE,2893 W 1700 S,SYRACUSE,UT,84075,NOT AVAILABLE,(801) 779-2066
64543,490036000249,OLYMPUS JR HIGH,2217 E 4800 S,SALT LAKE CITY,UT,84117,NOT AVAILABLE,(385) 646-5224
66264,490012000139,GREENVILLE SCHOOL,2450 N 400 E,NORTH LOGAN,UT,84341,NOT AVAILABLE,(435) 750-7888
16880,490096000554,MANTI SCHOOL,150 W 100 S,MANTI,UT,84642,NOT AVAILABLE,(435) 835-2271
44218,490120000638,SOUTH OGDEN JR HIGH,650 E PLEASANT VALLEY DR,OGDEN,UT,84405,NOT AVAILABLE,(801) 452-4460
49226,490021000114,CRESTVIEW SCHOOL,185 W GOLDEN AVE,LAYTON,UT,84041,NOT AVAILABLE,(801) 402-3200
23987,490075000197,JEREMY RANCH SCHOOL,3050 RASMUSSEN RD,PARK CITY,UT,84098,NOT AVAILABLE,(435) 645-5670
24374,490014200309,JORDAN VALLEY SCHOOL,7501 S 1000 E,MIDVALE,UT,84047,NOT AVAILABLE,(801) 826-1200
27064,490014200287,BELL VIEW SCHOOL,9800 S 800 E,SANDY,UT,84094,NOT AVAILABLE,(801) 826-7750
27403,490036000251,PHILO T. FARNSWORTH SCHOOL,3751 S 4225 W,WEST VALLEY CITY,UT,84120,NOT AVAILABLE,(385) 646-4822
27949,490003000075,OAK CANYON JR HIGH,111 S 725 E,LINDON,UT,84042,NOT AVAILABLE,(801) 610-8138
73943,490072001295,MOUND FORT JUNIOR HIGH,1400 MOUND FORT DR,OGDEN,UT,84404,NOT AVAILABLE,(801) 737-7800
74242,490006800998,NORTH DAVIS PREPARATORY ACADEMY,1765 W HILLFIELD RD,LAYTON,UT,84041,NOT AVAILABLE,(801) 547-1809
78344,490021000142,SOUTH DAVIS JR HIGH,298 W 2600 S,BOUNTIFUL,UT,84010,NOT AVAILABLE,(801) 402-6400
78504,490021001275,LEGACY JR HIGH,411 N 3200 W,LAYTON,UT,84041,NOT AVAILABLE,(801) 402-4700
735,490016201438,LEADERSHIP LEARNING ACADEMY,100 WEST 2675 NORTH,LAYTON,UT,84041,NOT AVAILABLE,(801) 593-9552
1490,490019501507,BONNEVILLE ACADEMY,800 W MONTAUK LANE,STANSBURY PARK,UT,84074,NOT AVAILABLE,(435) 315-2080
4994,490012001536,CEDAR RIDGE SCHOOL,65 N 200 W,HYDE PARK,UT,84318,NOT AVAILABLE,(435) 563-6229
9719,490036000268,VISTA SCHOOL,4925 S 2200 W,TAYLORSVILLE,UT,84118,NOT AVAILABLE,(385) 646-5067
30823,490087000521,WASATCH SCHOOL,30 R STREET,SALT LAKE CITY,UT,84103,NOT AVAILABLE,(801) 578-8564
31275,490114000500,DIAMOND VALLEY SCHOOL,1411 W DIAMOND VALLEY DR,ST GEORGE,UT,84770,NOT AVAILABLE,(435) 574-2009
32402,490063000406,WESTSIDE SCHOOL,740 W CENTER,SPRINGVILLE,UT,84663,NOT AVAILABLE,(801) 489-2800
33344,490014001268,EARLY LIGHT ACADEMY AT DAYBREAK,11709 VADANIA DR,SOUTH JORDAN,UT,84009,NOT AVAILABLE,(801) 302-5988
35128,490117000608,HANKSVILLE SCHOOL,50 S CENTER,HANKSVILLE,UT,84734,NOT AVAILABLE,(435) 542-3291
36979,490063000399,SPANISH FORK HIGH,99 N 300 W,SPANISH FORK,UT,84660,NOT AVAILABLE,(801) 798-4060
53228,490003001454,FRONTIER MIDDLE SCHOOL,1427 EAST MID VALLEY ROAD,EAGLE MOUNTAIN,UT,84005,NOT AVAILABLE,(801) 610-8777
55686,490072000978,SPEC. EDUC. ATC,1950 MONROE BLVD,OGDEN,UT,84401,NOT AVAILABLE,(801) 625-8700
82281,490084000471,RICH HIGH,140 W CHURCH,RANDOLPH,UT,84064,NOT AVAILABLE,(435) 793-2365
86603,490014200321,SANDY SCHOOL,8725 S 280 E,SANDY,UT,84070,NOT AVAILABLE,(801) 826-9325
86775,490003000005,BONNEVILLE SCHOOL,1245 N 800 W,OREM,UT,84057,NOT AVAILABLE,(801) 610-8101
88005,490021000105,BOUNTIFUL HIGH,695 S ORCHARD DR,BOUNTIFUL,UT,84010,NOT AVAILABLE,(801) 402-3900
91950,490004201464,SPECTRUM ACADEMY - PLEASANT GROVE,867 SOUTH 800 WEST,PLEASANT GROVE,UT,84062,NOT AVAILABLE,(801) 785-9019
92201,490042000769,WEST JORDAN HIGH,8136 S 2700 W,WEST JORDAN,UT,84088,NOT AVAILABLE,(801) 256-5600
96653,490036000218,GRANGER HIGH,3690 S 3600 W,WEST VALLEY CITY,UT,84119,NOT AVAILABLE,(385) 646-5320
98781,490090000528,BLUFF SCHOOL,OLD MAIN HIGHWAY,BLUFF,UT,84512,NOT AVAILABLE,(435) 678-1296
103028,490003001545,BELMONT SCHOOL,4051 NORTH MAPLE HOLLOW BLVD,LEHI,UT,84043,NOT AVAILABLE,(801) 610-8734
103057,490042001568,ASPEN ELEMENTARY,11189 S. WILLOW WALK RD,SOUTH JORDAN,UT,84009,NOT AVAILABLE,(801) 567-8750
26441,490090000667,WHITEHORSE HIGH,STATE HIGHWAY #262,MONTEZUMA CREEK,UT,84534,NOT AVAILABLE,(435) 678-1209
26580,490021000152,WASATCH SCHOOL,270 E CENTER,CLEARFIELD,UT,84015,NOT AVAILABLE,(801) 402-2650
28592,490003000006,CASCADE SCHOOL,160 N 800 E,OREM,UT,84097,NOT AVAILABLE,(801) 610-8102
1492,490012001512,GREEN CANYON HIGH SCHOOL,2960 N. WOLF PACK WAY,NORTH LOGAN,UT,84341,NOT AVAILABLE,(435) 792-9300
4452,490021000110,CENTERVILLE SCHOOL,350 N 100 E,CENTERVILLE,UT,84014,NOT AVAILABLE,(801) 402-1400
7167,490003000647,NORTHRIDGE SCHOOL,1660 N 50 E,OREM,UT,84057,NOT AVAILABLE,(801) 610-8114
31790,490072001282,HILLCREST SCHOOL,130 N ECCLES AVE,OGDEN,UT,84404,NOT AVAILABLE,(801) 737-7550
31859,490012000792,MOUNTAIN CREST HIGH,255 S 800 E,HYRUM,UT,84319,NOT AVAILABLE,(435) 245-6093
31892,490009000707,SUNRISE HIGH SCHOOL,230 W 200 S,BRIGHAM CITY,UT,84302,NOT AVAILABLE,(435) 734-4834
33387,490084000472,SOUTH RICH SCHOOL,25 S 100 W,RANDOLPH,UT,84064,NOT AVAILABLE,(435) 793-2135
34269,490096000548,EPHRAIM MIDDLE,555 S 100 E,EPHRAIM,UT,84627,NOT AVAILABLE,(435) 283-4037
35058,490039001121,THREE PEAKS SCHOOL,1685 W MIDVALLEY ROAD,CEDAR CITY,UT,84721,NOT AVAILABLE,(435) 586-8871
35064,490021000761,STAR TRANSITION,97 S 200 EAST,FARMINGTON,UT,84025,NOT AVAILABLE,(801) 402-5975
35848,490042001225,EASTLAKE SCHOOL,4389 W ISLA DAYBREAK ROAD,SOUTH JORDAN,UT,84009,NOT AVAILABLE,(801) 446-0778
11345,490114001306,SOUTHWEST HIGH,16 S 300 W,SAINT GEORGE,UT,84770,NOT AVAILABLE,(435) 652-4709
12232,490093000546,SALINA SCHOOL,210 W 300 N,SALINA,UT,84654,NOT AVAILABLE,(435) 529-7462
12683,490114000570,RED MOUNTAIN SCHOOL,263 E 200 S,IVINS,UT,84738,NOT AVAILABLE,(435) 656-3802
12843,490014200291,BRIGHTON HIGH,2220 E 7695 S,SALT LAKE CITY,UT,84121,NOT AVAILABLE,(801) 826-5800
15316,490021000810,READING SCHOOL,360 W 2025 N,CENTERVILLE,UT,84014,NOT AVAILABLE,(801) 402-1750
61908,490120000636,ROY SCHOOL,2888 W 5600 S,ROY,UT,84067,NOT AVAILABLE,(801) 452-4160
68381,490003000908,FREEDOM SCHOOL,10326 N 6800 W,HIGHLAND,UT,84003,NOT AVAILABLE,(801) 610-8707
68784,490003000911,SERV BY APPT,575 N 100 E,AMERICAN FORK,UT,84003,NOT AVAILABLE,(801) 756-8400
69865,490036000235,KEARNS JR HIGH,4040 WEST SAM'S BLVD,KEARNS,UT,84118,NOT AVAILABLE,(385) 646-5204
70587,490012000083,SKY VIEW HIGH,520 S 250 E,SMITHFIELD,UT,84335,NOT AVAILABLE,(435) 563-6273
73063,490011801135,OPEN CLASSROOM,134 D STREET,SALT LAKE CITY,UT,84103,NOT AVAILABLE,(801) 578-8144
73384,490042001186,JORDAN ACADEMY FOR TECHNOLOGY AND CAREERS - NORTH,9301 S 3400 W,WEST JORDAN,UT,84088,NOT AVAILABLE,(801) 256-5900
73924,490054000356,DELTA HIGH,50 W 300 N,DELTA,UT,84624,NOT AVAILABLE,(435) 864-5610
75455,490036000263,STANSBURY SCHOOL,3050 S 2700 W,WEST VALLEY CITY,UT,84119,NOT AVAILABLE,(385) 646-5032
78715,490120000635,ROY JR HIGH,5400 S 2100 W,ROY,UT,84067,NOT AVAILABLE,(801) 476-5260
41416,490036000265,TWIN PEAKS SCHOOL,5325 S 1045 E,SALT LAKE CITY,UT,84117,NOT AVAILABLE,(385) 646-5049
43998,490036000267,VALLEY JR HIGH,4195 S 3200 W,WEST VALLEY CITY,UT,84119,NOT AVAILABLE,(385) 646-5234
45579,490105000576,VERNON SCHOOL,70 N MAIN,VERNON,UT,84080,NOT AVAILABLE,(435) 839-3433
48359,490120000631,PLAIN CITY SCHOOL,2335 N 3600 W,PLAIN CITY,UT,84404,NOT AVAILABLE,(801) 452-4220
58244,490105000577,WENDOVER HIGH,110 WILDCAT BLVD,WENDOVER,UT,84083,NOT AVAILABLE,(435) 665-2343
58338,490090000536,MONTICELLO SCHOOL,197 N 200 W,MONTICELLO,UT,84535,NOT AVAILABLE,(435) 678-1180
93462,490087000497,HIGHLAND PARK SCHOOL,1738 E 2700 S,SALT LAKE CITY,UT,84106,NOT AVAILABLE,(801) 481-4833
96790,490120000817,FARR WEST SCHOOL,2190 W 2700 N,OGDEN,UT,84404,NOT AVAILABLE,(801) 452-4360
99999,490018000100,FLAMING GORGE SCHOOL,5TH AVENUE,DUTCH JOHN,UT,84023,NOT AVAILABLE,(435) 885-3112
100639,490036000259,OLENE WALKER ELEMENTARY,3225 S 800 E,SALT LAKE CITY,UT,84106,NOT AVAILABLE,(385) 646-4996
103054,490030001622,GARFIELD ONLINE,145 EAST CENTER,PANGUITCH,UT,84759,NOT AVAILABLE,(435) 676-8821
103074,490087001605,SALT LAKE VIRTUAL SCHOOL,440 E 100 SOUTH,SALT LAKE CITY,UT,84111,NOT AVAILABLE,(801) 578-8599
103081,490120001546,ORCHARD SPRINGS,3200 N 975 W,PLEASANT VIEW,UT,84414,NOT AVAILABLE,(801) 476-7800
63498,490075000726,PARLEYS PARK SCHOOL,4600 SILVERSPRINGS DR,PARK CITY,UT,84068,NOT AVAILABLE,(435) 645-5620
13611,490087000502,INDIAN HILLS SCHOOL,2496 ST. MARY'S DRIVE,SALT LAKE CITY,UT,84108,NOT AVAILABLE,(801) 584-2908
15152,490108000580,ASHLEY SCHOOL,350 N 1150 W,VERNAL,UT,84078,NOT AVAILABLE,(435) 781-3170
17755,490002201082,LINCOLN ACADEMY,1582 W 3300 N,PLEASANT GROVE,UT,84062,NOT AVAILABLE,(801) 756-2039
84621,490003000699,SNOW SPRINGS SCHOOL,850 S 1700 W,LEHI,UT,84043,NOT AVAILABLE,(801) 610-8719
87608,490021000140,WOODS CROSS SCHOOL,745 W 1100 S,WOODS CROSS,UT,84087,NOT AVAILABLE,(801) 402-1800
88006,490114000807,PINE VIEW HIGH,2850 E 750 N,ST GEORGE,UT,84790,NOT AVAILABLE,(435) 628-5255
89537,490081001233,SUNRISE PRESCHOOL,87 N. 700 E.,PROVO,UT,84606,NOT AVAILABLE,(801) 374-4915
107,490014101296,VISTA SCHOOL,585 E CENTER STREET,IVINS,UT,84738,NOT AVAILABLE,(435) 673-4110
549,490018901503,ATHLOS ACADEMY OF UTAH,12309 SOUTH MUSTANG TRAIL WAY,HERRIMAN,UT,84096,NOT AVAILABLE,(801) 438-4619
552,490042001498,BASTIAN SCHOOL,5692 W. BIG BEND PARK DRIVE,HERRIMAN,UT,84096,NOT AVAILABLE,(801) 567-8920
564,490120001484,BURCH CREEK SCHOOL,4300 MADISON AVE.,OGDEN,UT,84405,NOT AVAILABLE,(801) 476-5300
4423,490111001532,DANIELS CANYON SCHOOL,688 EAST WHEELER RD,HEBER CITY,UT,84032,NOT AVAILABLE,(435) 654-6900
9431,490048000339,KANAB HIGH,59 E COWBOY DR,KANAB,UT,84741,NOT AVAILABLE,(435) 644-5821
9458,490120000639,T.H. BELL JR HIGH,165 W 5100 S,OGDEN,UT,84405,NOT AVAILABLE,(801) 452-4600
34513,490036000261,SKYLINE HIGH,3251 E 3760 S,SALT LAKE CITY,UT,84109,NOT AVAILABLE,(385) 646-5420
35065,490042001213,FALCON RIDGE SCHOOL,6111 W 7000 S,WEST JORDAN,UT,84081,NOT AVAILABLE,(801) 282-2437
35079,490036000246,OAKRIDGE SCHOOL,4325 S JUPITER DR,SALT LAKE CITY,UT,84124,NOT AVAILABLE,(385) 646-4936
36132,490120001108,WEST HAVEN SCHOOL,4385 S 3900 W,WEST HAVEN,UT,84401,NOT AVAILABLE,(801) 452-4960
36208,490048000341,VALLEY HIGH,150 N CENTER,ORDERVILLE,UT,84758,NOT AVAILABLE,(435) 648-2278
36847,490005001151,SALT LAKE SCHOOL FOR THE PERFORMING ARTS,2291 S 2000 E,SALT LAKE CITY,UT,84106,NOT AVAILABLE,(801) 466-6700
37965,490099000733,SOUTH SUMMIT MIDDLE,355 E 300 S,KAMAS,UT,84036,NOT AVAILABLE,(435) 783-4341
41251,490002101092,ODYSSEY CHARTER SCHOOL,738 E QUALITY DR,AMERICAN FORK,UT,84003,NOT AVAILABLE,(801) 492-8105
46190,490063000402,SPRINGVILLE HIGH,1205 E 900 S,SPRINGVILLE,UT,84663,NOT AVAILABLE,(801) 489-2870
49642,490063000690,LARSEN SCHOOL,1175 E FLONETTE DR,SPANISH FORK,UT,84660,NOT AVAILABLE,(801) 798-4035
56406,490051001530,LOGAN EARLY CHILDHOOD CENTER,325 W 400 S,LOGAN,UT,84321,NOT AVAILABLE,(435) 755-2395
74568,490024000171,UNION HIGH,850 EAST LAGOON STREET,ROOSEVELT,UT,84066,NOT AVAILABLE,(435) 725-4525
76562,490011801135,OPEN CLASSROOM,134 D STREET,SALT LAKE CITY,UT,84103,NOT AVAILABLE,(801) 578-8144
76946,490003801128,RENAISSANCE ACADEMY,3435 N 1120 E,LEHI,UT,84043,NOT AVAILABLE,(801) 768-4202
78707,490021001206,SNOW HORSE SCHOOL,1095 W SMITH LANE,KAYSVILLE,UT,84037,NOT AVAILABLE,(801) 402-7350
27784,490042000684,OQUIRRH SCHOOL,7165 S 3285 W,WEST JORDAN,UT,84084,NOT AVAILABLE,(801) 565-7474
91025,490114000866,PANORAMA SCHOOL,301 N 2200 E,ST GEORGE,UT,84790,NOT AVAILABLE,(435) 628-6881
95447,490117000609,LOA SCHOOL,50 S 100 E,LOA,UT,84747,NOT AVAILABLE,(435) 836-2851
97734,490063001155,ORCHARD HILLS SCHOOL,168 E 610 S,SANTAQUIN,UT,84655,NOT AVAILABLE,(801) 754-5106
98041,490087000492,GLENDALE MIDDLE,1430 W ANDREW AVE,SALT LAKE CITY,UT,84104,NOT AVAILABLE,(801) 974-8320
98042,490105001179,SETTLEMENT CANYON SCHOOL,935 WEST TIMPIE ROAD,TOOELE,UT,84074,NOT AVAILABLE,(435) 882-4597
100070,490024000170,TABIONA SCHOOL,10 N MAIN,TABIONA,UT,84072,NOT AVAILABLE,(435) 738-1320
100189,490087000475,BEACON HEIGHTS SCHOOL,1850 S 2500 E,SALT LAKE CITY,UT,84108,NOT AVAILABLE,(801) 481-4814
101136,490081000455,FRANKLIN SCHOOL,350 S 600 W,PROVO,UT,84601,NOT AVAILABLE,(801) 374-4925
102265,490006901140,BLIND REGION 2,1655 EAST 3300,SALT LAKE CITY,UT,84106,NOT AVAILABLE,(801) 464-0840
103061,490042001615,KINGS PEAK VIRTUAL HIGH,7905 SOUTH REDWOOD ROAD,WEST JORDAN,UT,84084,NOT AVAILABLE,(801) 567-8750
