OBJECTID,NCESID,NAME,ADDRESS,CITY,STATE,ZIP,ZIP4,TELEPHONE
10468,10138000849,THE ETOWAH COUNTY REFOCUS CENTER,106 BURKE AVE SE,ATTALLA,AL,35954,NOT AVAILABLE,(256) 538-8431
10814,10087000345,EVERGREEN ELEMENTARY SCHOOL,821 WEST FRONT STREET,EVERGREEN,AL,36401,2933,(251) 578-2576
11877,10114000422,PLAINVIEW SCHOOL,76 CHAVIES RD,RAINSVILLE,AL,35986,4670,(256) 638-3510
12849,10000700337,BERRY MIDDLE SCHOOL,4500 JAGUAR DR,HOOVER,AL,35242,4698,(205) 439-2000
14691,10036000669,BIBB COUNTY CAREER ACADEMY,17191 HIGHWAY 5,WEST BLOCTON,AL,35184,3638,(205) 938-7434
15447,10237001414,HUTCHENS ELEMENTARY SCHOOL,10005 WEST LAKE RD,MOBILE,AL,36695,NOT AVAILABLE,(251) 221-1420
15477,10210001454,CREEKSIDE ELEMENTARY SCHOOL,15983 SANDERSON RD,HARVEST,AL,35749,7064,(256) 233-6452
19166,10054001747,ALEXANDRIA ELEMENTARY SCHOOL,2525 ALEXANDRIAWELLINGTON RD,ALEXANDRIA,AL,36250,NOT AVAILABLE,(256) 741-4300
1314,10114000423,RUHUMA JUNIOR HIGH SCHOOL,3371 COUNTY ROAD 81,FT PAYNE,AL,35967,6047,(256) 845-3377
2108,10240001094,MONROE COUNTY CAREERTECHNICAL CENTER,230 TIGER DR,MONROEVILLE,AL,36460,NOT AVAILABLE,(251) 575-4381
3644,10024000587,AUTAUGA COUNTY ALTERNATIVE SCHOOL,816 CARDINAL LN,PRATTVILLE,AL,36067,NOT AVAILABLE,(334) 361-3833
4436,10066002437,JEMISON INTERMEDIATE SCHOOL,1491 COUNTY ROAD 44,JEMISON,AL,35085,NOT AVAILABLE,(205) 280-4840
4439,10210002422,TANNER ELEMENTARY SCHOOL,12067 DOWD STREET,TANNER,AL,35671,NOT AVAILABLE,(256) 998-5266
5165,10243001027,MACMILLAN INTERNATIONAL AT MCKEE,4015 MCINNIS ROAD,MONTGOMERY,AL,36116,5509,(334) 284-7137
6288,10210002436,ALABAMA CONNECTIONS ACADEMY,21465 AL HWY 99,ATHENS,AL,35614,NOT AVAILABLE,(256) 233-6463
6877,10132001867,ENTERPRISE EARLY EDUCATION CENTER,6500 BOLL WEEVIL CIRCLE,ENTERPRISE,AL,36330,NOT AVAILABLE,(334) 393-9542
42688,10204000785,MOULTON ELEMENTARY SCHOOL,412 MAIN ST,MOULTON,AL,35650,NOT AVAILABLE,(256) 905-2450
43747,10078000318,CLEBURNE COUNTY HIGH SCHOOL,520 EVANS BRIDGE RD,HEFLIN,AL,36264,2235,(256) 463-2012
45603,10192000718,IRONDALE COMMUNITY SCHOOL,225 16TH ST S,IRONDALE,AL,35210,1647,(205) 379-4200
46144,10171000588,HALE COUNTY HIGH SCHOOL,50 WILDCAT WAY,MOUNDVILLE,AL,35474,0188,(205) 371-2514
49431,10162000552,LITCHFIELD MIDDLE SCHOOL,1109 HOKE ST,GADSDEN,AL,35903,2063,(256) 492-6793
61676,10309001195,YORK WEST END JUNIOR HIGH SCHOOL,515 LINCOLN ST,YORK,AL,36925,NOT AVAILABLE,(205) 392-5901
62345,10036001426,WEST BLOCTON MIDDLE SCHOOL,4721 TRUMAN ALDRICH PKWY,WEST BLOCTON,AL,35184,NOT AVAILABLE,(205) 938-2451
62657,10207000795,SMITHS STATION HIGH SCHOOL,4228 LEE ROAD 430,SMITHS STATION,AL,36877,3744,(334) 664-4060
66796,10166001772,SAMSON MIDDLE SCHOOL,209 N BROAD ST,SAMSON,AL,36477,NOT AVAILABLE,(334) 898-2371
100829,10231000861,BRILLIANT SCHOOL,10180 STATE HIGHWAY 129,BRILLIANT,AL,35548,NOT AVAILABLE,(205) 465-2323
103181,10003502105,LEARNING TREE INC TALLASSEE,100 S DUBOIS ST,TALLASSEE,AL,36078,NOT AVAILABLE,(334) 252-0025
106978,10020302470,LEAD ACADEMY,2897 EASTERN BLVD,MONTGOMERY,AL,36116,1021,(334) 451-3127
22482,10282001119,RANDOLPH COUNTY HIGH SCHOOL,465 WOODLAND AVE,WEDOWEE,AL,36278,0490,(256) 357-4751
22952,10312002100,NICHOLSLAWSON MIDDLE SCHOOL,1550 TALLADEGA HIGHWAY,SYLACAUGA,AL,35150,NOT AVAILABLE,(256) 245-4376
28034,10248001044,FALKVILLE HIGH SCHOOL,43 CLARK DR,FALKVILLE,AL,35622,0388,(256) 784-5248
81763,10231000869,PHILLIPS HIGH SCHOOL,142 SCHOOL AVENUE,BEAR CREEK,AL,35543,4720,(205) 486-3737
81877,10048000222,UNION SPRINGS ELEMENTARY SCHOOL,211 CONECUH AVENUE WEST,UNION SPRINGS,AL,36089,1314,(334) 651-8968
84153,10102000387,WEST POINT HIGH SCHOOL,4314 COUNTY ROAD 1141,CULLMAN,AL,35057,6651,(256) 734-5375
88368,10342001299,R E THOMPSON INTERMEDIATE SCHOOL,829 FRANKFORT RD,TUSCUMBIA,AL,35674,3518,(256) 389-2930
30666,10351001419,WILCOX COUNTY ALTERNATIVE SCHOOL,30 CLAIBORNE STREET,CAMDEN,AL,36726,0160,(334) 682-5074
30708,10030000074,BARBOUR COUNTY HIGH SCHOOL,165 S MIDWAY,CLAYTON,AL,36016,NOT AVAILABLE,(334) 775-3545
31115,10345001703,CURRY MIDDLE SCHOOL,115 YELLOW JACKET DR,JASPER,AL,35503,NOT AVAILABLE,(205) 384-3441
32196,10030000074,BARBOUR COUNTY HIGH SCHOOL,165 S MIDWAY,CLAYTON,AL,36016,NOT AVAILABLE,(334) 775-3545
32338,10216000816,CENTRAL ELEMENTARY SCHOOL,141 MAIN ST,HAYNEVILLE,AL,36040,NOT AVAILABLE,(334) 563-7319
32598,10054000240,OHATCHEE HIGH SCHOOL,100 CHEROKEE TRL,OHATCHEE,AL,36271,NOT AVAILABLE,(256) 741-4900
34289,10114000832,DEKALB TECHNICAL CENTER,409 MAIN ST E,RAINSVILLE,AL,35986,4552,(256) 638-4421
37577,10033000090,WESTHILLS ELEMENTARY SCHOOL,710 GLENN RD,BESSEMER,AL,35022,NOT AVAILABLE,(205) 432-3500
39520,10237001595,DR ROBERT W GILLIARD ELEMENTARY,2757 DAUPHIN ISLAND PARKWAY,MOBILE,AL,36605,NOT AVAILABLE,(251) 221-1820
97286,10240000983,MONROEVILLE MIDDLE SCHOOL,201 YORK STREET,MONROEVILLE,AL,36460,NOT AVAILABLE,(251) 575-4121
97819,10173000598,HARTSELLE JUNIOR HIGH SCHOOL,904 SPARKMAN STREET,HARTSELLE,AL,35640,3299,(256) 773-5426
99757,10288001441,RUSSELL COUNTY MIDDLE SCHOOL,4716 OLD SEALE HIGHWAY,SEALE,AL,36875,NOT AVAILABLE,(334) 468-5604
99774,10339001274,BROOKWOOD HIGH SCHOOL,12250 GEORGE RICHMOND PARKWAY,BROOKWOOD,AL,35444,3714,(205) 342-2777
51983,10081000323,KINSTON SCHOOL,201 COLLEGE STREET,KINSTON,AL,36453,NOT AVAILABLE,(334) 565-3016
54605,10117001728,JULIAN HARRIS ELEMENTARY SCHOOL,1922 MCAULIFFE DR SW,DECATUR,AL,35603,1051,(256) 552-3096
55899,10282002438,WOODLAND ELEMENTARY SCHOOL,24654 HWY 48,WOODLAND,AL,36280,NOT AVAILABLE,(256) 610-9589
57286,10138000498,GLENCOE HIGH SCHOOL,803 LONESOME BEND RD,GLENCOE,AL,35905,NOT AVAILABLE,(256) 492-2250
57433,10141002439,ALABAMA VIRTUAL ACADEMY AT EUFAULA CITY SCHOOLS,831 WEST WASHINGTON STREET,EUFAULA,AL,36027,NOT AVAILABLE,(334) 689-5059
57979,10306201372,MOODY MIDDLE SCHOOL,696 HIGH SCHOOL DRIVE,MOODY,AL,35004,2307,(205) 640-2190
71440,10132000474,COPPINVILLE SCHOOL,4641 BOLL WEEVIL CIRCLE,ENTERPRISE,AL,36330,4000,(334) 347-2215
72765,10195001720,SOUTH LAMAR SCHOOL,300 SLS ROAD,MILLPORT,AL,35576,0309,(205) 662-4411
74575,10177000611,ASHFORD HIGH SCHOOL,607 CHURCH ST,ASHFORD,AL,36312,4525,(334) 899-5411
75915,10129002147,AIRPORT ROAD INTERMEDIATE SCHOOL,384 BLACKMON FARM LANE,COOSADA,AL,36020,NOT AVAILABLE,(334) 285-2115
77790,10001201781,BOAZ ELEMENTARY SCHOOL,362 COLLIER ST,BOAZ,AL,35957,NOT AVAILABLE,(256) 593-3481
79486,10291001142,RUSSELLVILLE HIGH SCHOOL,1865 WATERLOO RD,RUSSELLVILLE,AL,35653,NOT AVAILABLE,(256) 331-2110
1810,10237000970,WILMER ELEMENTARY SCHOOL,7456 WILMERGEORGETOWN RD,WILMER,AL,36587,NOT AVAILABLE,(251) 221-1780
3246,10024001408,AUTAUGAVILLE SCHOOL,2708 DUTCH BEND ST,AUTAUGAVILLE,AL,36003,NOT AVAILABLE,(334) 365-8329
3352,10237001435,BERNICE J CAUSEY MIDDLE SCHOOL,2205 MCFARLAND RD,MOBILE,AL,36695,NOT AVAILABLE,(251) 221-2060
8639,10222000836,HAZEL GREEN HIGH SCHOOL,14380 HIGHWAY 231431 N,HAZEL GREEN,AL,35750,NOT AVAILABLE,(256) 851-3220
43268,10018000035,ATTALLA ELEMENTARY SCHOOL,300 CULLMAN AVENUE,ATTALLA,AL,35954,NOT AVAILABLE,(256) 538-7266
46966,10204000776,R A HUBBARD HIGH SCHOOL,12905 JESSE JACKSON PKWY,COURTLAND,AL,35618,3417,(256) 637-3010
49036,10243001105,MORRIS ELEMENTARY SCHOOL,801 HILL ST,MONTGOMERY,AL,36108,NOT AVAILABLE,(334) 223-6920
49065,10027001710,FAIRHOPE EAST ELEMENTARY,2 N BISHOP RD,FAIRHOPE,AL,36532,3657,(251) 928-7841
60899,10243000993,BELLINGRATH MIDDLE SCHOOL,3350 S COURT ST,MONTGOMERY,AL,36105,1699,(334) 269-3623
66785,10297001153,SCHOOL OF DISCOVERY GENESIS CENTER,400 WASHINGTON ST,SELMA,AL,36701,4456,(334) 874-1670
67206,10093000360,FLORALA HIGH SCHOOL,22114 BEGONIA ST,FLORALA,AL,36442,NOT AVAILABLE,(334) 858-3765
67943,10249001057,MOUNTAIN BROOK JUNIOR HIGH SCHOOL,205 OVERBROOK DR,MOUNTAIN BROOK,AL,35213,NOT AVAILABLE,(205) 871-3516
68183,10237001732,SAINT ELMO ELEMENTARY SCHOOL,8666 MCDONALD RD,IRVINGTON,AL,36544,NOT AVAILABLE,(251) 957-6314
50509,10237001619,MEADOWLAKE ELEMENTARY,8251 THREE NOTCH RD,MOBILE,AL,36619,NOT AVAILABLE,(251) 221-1529
53486,10159001869,THARPTOWN HIGH SCHOOL,255 HIGHWAY 80,RUSSELLVILLE,AL,35654,NOT AVAILABLE,(256) 332-6485
54601,10018500952,SARALAND ELEMENTARY SCHOOL,229 MCKEOUGH AVE,SARALAND,AL,36571,3214,(251) 679-5739
55094,10001301498,PAINE ELEMENTARY SCHOOL,7600 GADSDEN HIGHWAY,TRUSSVILLE,AL,35173,2636,(205) 228-3200
58540,10039000139,HUDSON KEIGHT SCHOOL,3300 F L SHUTTLESWORTH DR,BIRMINGHAM,AL,35207,3758,(205) 231-3000
59396,10027002072,DAPHNE EAST ELEMENTARY SCHOOL,26651 COUNTY ROAD 13,DAPHNE,AL,36526,NOT AVAILABLE,(251) 626-1663
91762,10303001186,VINCENT ELEMENTARY SCHOOL,40800 HIGHWAY 25,VINCENT,AL,35178,NOT AVAILABLE,(205) 682-7320
93131,10042000670,ALLGOOD ALTERNATIVE SCHOOL,45 COMMUNITY RD,ONEONTA,AL,35121,NOT AVAILABLE,(205) 775-1960
93899,10018802193,CHICKASAW CITY ELEMENTARY SCHOOL,80 GRANT STREET,CHICKASAW,AL,36611,2700,(251) 452-6452
98214,10180001774,CHALLENGER MIDDLE SCHOOL,13555 CHANEY THOMPSON RD,HUNTSVILLE,AL,35803,NOT AVAILABLE,(256) 428-7620
98369,10330001248,THOMASVILLE HIGH SCHOOL,777 GATES DR,THOMASVILLE,AL,36784,NOT AVAILABLE,(334) 636-4451
98609,10084000341,NEW BETHEL ELEMENTARY SCHOOL,900 NEW BETHEL ROAD,TUSCUMBIA,AL,35674,NOT AVAILABLE,(256) 383-6471
81331,10309001192,LIVINGSTON JUNIOR HIGH SCHOOL,1351 NORTH WASHINGTON STREET,LIVINGSTON,AL,35470,NOT AVAILABLE,(205) 652-2125
82502,10273001103,GORDO ELEMENTARY SCHOOL,535 4TH ST NW,GORDO,AL,35466,NOT AVAILABLE,(205) 364-8480
84378,10000500871,ALBERTVILLE HIGH SCHOOL,402 E MCCORD AVE,ALBERTVILLE,AL,35950,2322,(256) 894-5000
86027,10288002192,MT OLIVE PRIMARY SCHOOL,454 STATE HIGHWAY 165,FT MITCHELL,AL,36856,NOT AVAILABLE,(334) 468-5100
87829,10012001472,ATHENS HIGH SCHOOL,655 HWY 31 NORTH,ATHENS,AL,35611,NOT AVAILABLE,(256) 233-6613
89767,10306201378,STEELE JUNIOR HIGH SCHOOL,105 MCHUGH ST,STEELE,AL,35987,0367,(256) 538-5489
103184,10003701848,BAYPOINTE RESIDENTIALALTAPOINTE HEALTH SYSTEMS,5800 SOUTHLAND DR,MOBILE,AL,36693,NOT AVAILABLE,(251) 661-0153
103206,10123002480,DOTHAN PREPARATORY ACADEMY,1236 SOUTH OATES STREET,DOTHAN,AL,36031,NOT AVAILABLE,(334) 794-1400
106977,10020202473,GULF SHORES HIGH SCHOOL,600 EAST 15TH AVE,GULF SHORES,AL,36547,NOT AVAILABLE,(251) 968-4747
12033,10027000056,W J CARROLL INTERMEDIATE SCHOOL,1000 MAIN ST,DAPHNE,AL,36526,NOT AVAILABLE,(251) 626-0277
12719,10060000256,LAFAYETTE EASTSIDE ELEMENTARY SCHOOL,300 AVE A SE,LAFAYETTE,AL,36862,2700,(334) 864-8274
13918,10027001712,FOLEY ELEMENTARY SCHOOL,450 N CEDAR STREET,FOLEY,AL,36535,4602,(251) 943-8861
16092,10027000665,SOUTH BALDWIN CENTER FOR TECHNOLOGY,19200 CAROLINA STREET,ROBERTSDALE,AL,36567,NOT AVAILABLE,(251) 947-5041
16664,10027001715,PINE GROVE ELEMENTARY SCHOOL,43980 PINE GROVE RD,BAY MINETTE,AL,36507,NOT AVAILABLE,(251) 937-0453
16931,10237001689,HL SONNY CALLAHAN SCHOOL FOR THE DEAF AND BLIND,3980 BURMA ROAD,MOBILE,AL,36693,NOT AVAILABLE,(251) 221-5454
19140,10183001533,STEVENSON ELEMENTARY SCHOOL,930 OLD MT CARMEL RD,STEVENSON,AL,35772,NOT AVAILABLE,(256) 437-2203
19198,10312001594,INDIAN VALLEY ELEMENTARY SCHOOL,1099 OLDFIELD RD,SYLACAUGA,AL,35150,8192,(256) 249-0397
19668,10093000280,STRAUGHN ELEMENTARY SCHOOL,29324 STRAUGHN SCHOOL ROAD,ANDALUSIA,AL,36421,NOT AVAILABLE,(334) 427-1311
32604,10051000228,GREENVILLE MIDDLE SCHOOL,300 OVERLOOK RD,GREENVILLE,AL,36037,NOT AVAILABLE,(334) 382-3450
34953,10237000969,LILLIE B WILLIAMSON HIGH SCHOOL,1567 E DUBLIN ST,MOBILE,AL,36605,1796,(251) 221-3411
37939,10000600986,MARSHALL ALTERNATIVE SCHOOL,140 CLAYSVILLE SCHOOL RD,GUNTERSVILLE,AL,35976,NOT AVAILABLE,(256) 582-7554
39306,10192000704,FULTONDALE HIGH SCHOOL,1450 CARSON RD N,BIRMINGHAM,AL,35217,NOT AVAILABLE,(205) 379-3500
71492,10075000307,ASHLAND ELEMENTARY SCHOOL,223 3RD STREET SW,ASHLAND,AL,36251,NOT AVAILABLE,(256) 396-1466
71676,10248000202,DANVILLENEEL ELEMENTARY SCHOOL,8688 DANVILLE RD,DANVILLE,AL,35619,6419,(256) 773-7183
74330,10072001450,JACKSON INTERMEDIATE SCHOOL,2950 HIGHWAY 43,JACKSON,AL,36545,2437,(251) 246-1599
75339,10018802194,CHICKASAW CITY HIGH SCHOOL,50 12TH AVE,CHICKASAW,AL,36611,2700,(251) 380-8120
21880,10336001266,UNIVERSITY PLACE ELEMENTARY SCHOOL,2000 FIRST AVENUE,TUSCALOOSA,AL,35401,3922,(205) 759-3664
25089,10129001769,HOLTVILLE ELEMENTARY SCHOOL,287 WHATLEY RD,DEATSVILLE,AL,36022,NOT AVAILABLE,(334) 569-2925
25090,10303001174,SHELBY COUNTY HIGH SCHOOL,101 WASHINGTON ST,COLUMBIANA,AL,35051,NOT AVAILABLE,(205) 682-6600
26259,10114000830,DEKALB ANNEX SCHOOL,409 E MAIN ST,RAINSVILLE,AL,35986,4552,(256) 638-4131
27006,10135000484,ESCAMBIA COUNTY HIGH SCHOOL,1215 S PRESLEY ST,ATMORE,AL,36502,NOT AVAILABLE,(251) 368-9181
27581,10144000515,DONALD ELEMENTARY SCHOOL,715 VALLEY RD,FAIRFIELD,AL,35064,NOT AVAILABLE,(205) 783-6823
27804,10153000528,FLORENCE HIGH SCHOOL,1201 BRADSHAW DR,FLORENCE,AL,35630,NOT AVAILABLE,(256) 768-2200
74018,10177000614,HOUSTON COUNTY HIGH SCHOOL,200 W CHURCH ST,COLUMBIA,AL,36319,3522,(334) 696-2221
74193,10003000003,BENJAMIN RUSSELL HIGH SCHOOL,225 HEARD BLVD,ALEXANDER CITY,AL,35010,2702,(256) 234-8611
74341,10180001530,MOUNTAIN GAP MIDDLE SCHOOL,821 MT GAP RD,HUNTSVILLE,AL,35803,NOT AVAILABLE,(256) 428-7720
75068,10180000632,HUNTSVILLE JUNIOR HIGH SCHOOL,817 ADAMS ST SE,HUNTSVILLE,AL,35801,NOT AVAILABLE,(256) 428-7700
75715,10138000505,SARDIS HIGH SCHOOL,1420 CHURCH ST,SARDIS CITY,AL,35956,NOT AVAILABLE,(256) 593-5221
75934,10243001010,DUNBARRAMER SCHOOL,56 NAFTEL RAMER RD,RAMER,AL,36069,9131,(334) 562-3250
77619,10021000039,CARY WOODS ELEMENTARY SCHOOL,715 SANDERS ST,AUBURN,AL,36830,3035,(334) 887-4940
78329,10063000276,CENTRE MIDDLE SCHOOL,1920 EAST MAIN STREET,CENTRE,AL,35960,NOT AVAILABLE,(256) 927-5656
92770,10019001460,MEADOW VIEW ELEMENTARY SCHOOL,2800 SMOKEY RD,ALABASTER,AL,35007,NOT AVAILABLE,(205) 685-4300
93294,10216000817,CENTRAL HIGH SCHOOL,145 MAIN ST,HAYNEVILLE,AL,36040,NOT AVAILABLE,(334) 563-7311
96973,10039002187,WEST END ACADEMY,1840 PEARSON AVENUE SW,BIRMINGHAM,AL,35211,NOT AVAILABLE,(205) 231-1742
102313,10003501846,LEARNING TREE INC WEBB,6344 ROY WEBB RD,PEIDMONT,AL,36272,0908,(205) 447-9349
102325,10018302114,ALABAMA CLINICAL SCHOOLS,1221 ALTON DR,BIRMINGHAM,AL,35210,4308,(205) 836-9923
102430,10108002497,DALEVILLE MIDDLE SCHOOL,626 N DALEVILLE AVE,DALEVILE,AL,36322,NOT AVAILABLE,(334) 598-4463
102435,10138002453,GASTON ELEMENTARY SCHOOL,4550 US HIGHWAY 411,GADSDEN,AL,35901,NOT AVAILABLE,(256) 547-8828
106973,10020002463,EAST ALABAMA MEDICAL CENTER,2000 PEPPERELL PKWY,OPELIKA,AL,35601,NOT AVAILABLE,(334) 528-1010
81700,10177000616,WEBB ELEMENTARY SCHOOL,178 DEPOT ST,WEBB,AL,36376,NOT AVAILABLE,(334) 792-5744
82243,10027000648,MAGNOLIA SCHOOL,1 JAGUAR LOOP,FOLEY,AL,36535,NOT AVAILABLE,(251) 965-6200
82499,10001201630,BOAZ INTERMEDIATE SCHOOL,11 NEWT PARKER DRIVE,BOAZ,AL,35957,NOT AVAILABLE,(256) 593-9211
83257,10000600883,KATE D SMITH DAR HIGH SCHOOL,6077 MAIN ST,GRANT,AL,35747,NOT AVAILABLE,(256) 728-4238
88935,10222001412,SPARKMAN MIDDLE SCHOOL,2697 CARTERS GIN RD,TONEY,AL,35773,NOT AVAILABLE,(256) 851-4610
89930,10054000708,CALHOUN COUNTY CAREER TECHNICAL CENTER,1200 CHURCH ST SE,JACKSONVILLE,AL,36265,NOT AVAILABLE,(256) 741-4600
51853,10123000443,CARVER SCHOOL OF MATHEMATICS SCIENCE AND TECHNOLOGY,1001 WEBB RD,DOTHAN,AL,36303,3791,(334) 794-1440
54988,10019502441,PIKE ROAD HIGH SCHOOL,696 GEORGIA WASHINGTON RD,PIKE ROAD,AL,36064,NOT AVAILABLE,(334) 420-5380
56984,10123001449,MORRIS SLINGLUFF ELEMENTARY SCHOOL,4130 WESTGATE PARKWAY,DOTHAN,AL,36303,NOT AVAILABLE,(334) 794-1479
23160,10000802133,MILL CREEK ELEMENTARY SCHOOL,847 MILL ROAD,MADISON,AL,35758,NOT AVAILABLE,(256) 774-4690
24925,10180001529,MORRIS ELEMENTARY SCHOOL,4801 BOB WALLACE AVE SW,HUNTSVILLE,AL,35805,NOT AVAILABLE,(256) 428-7340
25319,10243001101,KING ELEMENTARY,4655 GATEWAY DR,MONTGOMERY,AL,36108,NOT AVAILABLE,(334) 284-8080
25805,10129000465,HOLTVILLE HIGH SCHOOL,10425 HOLTVILLE RD,DEATSVILLE,AL,36022,NOT AVAILABLE,(334) 569-3034
25918,10162000553,GADSDEN MIDDLE SCHOOL,612 TRACY ST,GADSDEN,AL,35901,4127,(256) 547-6341
27758,10039000196,WILKERSON MIDDLE SCHOOL,116 11TH CT W,BIRMINGHAM,AL,35204,2404,(205) 231-2740
60781,10001200874,BOAZ HIGH SCHOOL,907 BROWN ST,BOAZ,AL,35957,NOT AVAILABLE,(256) 593-2401
62321,10180000635,LAKEWOOD ELEMENTARY SCHOOL,3501 KENWOOD DR,HUNTSVILLE,AL,35810,NOT AVAILABLE,(256) 428-7240
62808,10111000397,DALLAS COUNTY HIGH SCHOOL,335 5TH AVE,PLANTERSVILLE,AL,36758,NOT AVAILABLE,(334) 366-2232
63009,10000601812,DOUGLAS MIDDLE SCHOOL,HIGHWAY 75,DOUGLAS,AL,35964,NOT AVAILABLE,(256) 593-1240
32191,10162000555,EURA BROWN ELEMENTARY SCHOOL,1231 ALCOTT RD,GADSDEN,AL,35901,5513,(256) 546-0011
32779,10345001320,OAKMAN HIGH SCHOOL,10699 MAIN ST,OAKMAN,AL,35579,NOT AVAILABLE,(205) 622-3381
33902,10117000432,BANKSCADDELL ELEMENTARY SCHOOL,211 GORDON DR SE,DECATUR,AL,35601,2527,(256) 552-3040
37120,10240001087,C P CARMICHAEL ALTERNATIVE SCHOOL,1323 VETERANS DRIVE,MONROEVILLE,AL,36460,NOT AVAILABLE,(251) 575-4189
37683,10183000656,BRYANT SCHOOL,6645 AL HIGHWAY 73,BRYANT,AL,35958,NOT AVAILABLE,(256) 597-2203
11796,10138000496,GASTON HIGH SCHOOL,4550 US HIGHWAY 411,GADSDEN,AL,35901,NOT AVAILABLE,(256) 547-8828
12034,10132001719,HARRAND CREEK ELEMENTARY SCHOOL,216 MORGAN LN,ENTERPRISE,AL,36330,NOT AVAILABLE,(334) 347-5383
14067,10012001471,ATHENS ELEMENTARY SCHOOL,601 S CLINTON STREET,ATHENS,AL,35611,3505,(256) 233-6609
14068,10192000736,PLEASANT GROVE ELEMENTARY SCHOOL,601 PARK RD,PLEASANT GROVE,AL,35127,NOT AVAILABLE,(205) 379-5200
17956,10183000658,FLAT ROCK SCHOOL,788 COUNTY ROAD 326,FLAT ROCK,AL,35966,5204,(256) 632-2323
18822,10102000380,HANCEVILLE HIGH SCHOOL,801 COMMERCIAL ST,HANCEVILLE,AL,35077,5523,(256) 352-6111
40388,10270001093,SHERWOOD ELEMENTARY SCHOOL,706 IDLE HOUR DR,PHENIX CITY,AL,36867,2747,(334) 298-7097
42657,10111000404,SALEM ELEMENTARY SCHOOL,3486 DALLAS ROAD 3,ORRVILLE,AL,36767,2532,(334) 996-8636
43314,10084000338,LEIGHTON ELEMENTARY SCHOOL,8100 OLD HIGHWAY 20,LEIGHTON,AL,35646,NOT AVAILABLE,(256) 446-8351
43783,10210001549,ELKMONT HIGH SCHOOL,25630 EVANS AVE,ELKMONT,AL,35620,5530,(256) 732-4291
47076,10201000774,WATERLOO HIGH SCHOOL,311 SCHOOLHOUSE LN,WATERLOO,AL,35677,NOT AVAILABLE,(256) 766-3100
553,10351001809,CAMDEN SCHOOL OF ARTS TECHNOLOGY,303 BROAD ST,CAMDEN,AL,36726,0698,(334) 682-4514
4435,10018802428,CHICKASAW MIDDLE SCHOOL,50 CHIEFTAIN WAY,CHICKASAW,AL,36611,NOT AVAILABLE,(251) 452-2256
4441,10291002435,RUSSELLVILLE CITY CAREER TECH CENTER,1865 WATERLOO ROAD,RUSSELLVILLE,AL,35653,NOT AVAILABLE,(256) 331-2110
6492,10343001425,LIBERTY PARK ELEMENTARY,17051 LIBERTY PKWY,VESTAVIA HILLS,AL,35242,7539,(205) 402-5400
7018,10018000034,ETOWAH MIDDLE SCHOOL,316 JONES STREET,ATTALLA,AL,35954,NOT AVAILABLE,(256) 538-3236
90028,10105000281,GW LONG ELEMENTARY SCHOOL,2567 CO RD 60,SKIPPERVILLE,AL,36374,NOT AVAILABLE,(334) 774-0021
96294,10321001234,REELTOWN HIGH SCHOOL,4090 AL HIGHWAY 120,NOTASULGA,AL,36866,NOT AVAILABLE,(334) 257-1670
99667,10303001173,COLUMBIANA MIDDLE SCHOOL,222 JOINERTOWN ROAD,COLUMBIANA,AL,35051,NOT AVAILABLE,(205) 682-6610
60097,10039000108,BUSH K8,1832 CENTER WAY S,BIRMINGHAM,AL,35205,6348,(205) 231-7190
60771,10135000485,ESCAMBIA COUNTY MIDDLE SCHOOL,1565 HIGHWAY 21,ATMORE,AL,36502,NOT AVAILABLE,(251) 368-9105
61257,10060000263,LAFAYETTE HIGH SCHOOL,214 1ST AVE SE,LAFAYETTE,AL,36862,NOT AVAILABLE,(334) 864-9881
61901,10192000469,CLAYCHALKVILLE HIGH SCHOOL,6623 ROE CHANDLER RD,PINSON,AL,35126,NOT AVAILABLE,(205) 379-3050
62255,10189000675,MEMORIAL PARK ELEMENTARY SCHOOL,800 10TH AVE,JASPER,AL,35501,NOT AVAILABLE,(205) 384-6461
62635,10093000363,STRAUGHN HIGH SCHOOL,29448 STRAUGHN SCHOOL ROAD,ANDALUSIA,AL,36421,NOT AVAILABLE,(334) 222-2511
65984,10204000787,MOUNT HOPE,8455 COUNTY ROAD 23,MT HOPE,AL,35651,3101,(256) 905-2470
66501,10306201877,ODENVILLE INTERMEDIATE SCHOOL,300 BURGESS DRIVE,ODENVILLE,AL,35120,NOT AVAILABLE,(205) 629-2246
66942,10258000349,NORTHSIDE SCHOOL,601 N 5TH ST,OPELIKA,AL,36801,NOT AVAILABLE,(334) 745-9731
68639,10033000082,GREENWOOD ELEMENTARY SCHOOL,5012 ROSELYN ROAD SOUTHEAST,BESSEMER,AL,35022,NOT AVAILABLE,(205) 432-3201
81444,10093002167,RED LEVEL ELEMENTARY SCHOOL,28551 BARROW ROAD,RED LEVEL,AL,36474,0040,(334) 469-5315
84354,10166001791,GENEVA COUNTY ELEMENTARY SCHOOL,819 S 6TH AVE,HARTFORD,AL,36344,NOT AVAILABLE,(334) 588-2923
85997,10042000210,LOCUST FORK HIGH SCHOOL,77 SCHOOL RD,LOCUST FORK,AL,35097,NOT AVAILABLE,(205) 681-7846
54990,10192002421,JEFFERSON COUNTY INTERNATIONAL BACCALAUREATE SCHOOL,805 7TH AVE,PLEASANT GROVE,AL,35127,1601,(205) 379-5280
55408,10237000928,INDIAN SPRINGS ELEMENTARY SCHOOL,4550 HIGHPOINT BLVD,EIGHT MILE,AL,36613,NOT AVAILABLE,(251) 221-1436
55604,10222002178,RIVERTON INTERMEDIATE SCHOOL,399 HOMER NANCE ROAD,HUNTSVILLE,AL,35811,NOT AVAILABLE,(256) 851-4640
40307,10237001556,GEORGE HALL ELEMENTARY SCHOOL,1108 ANTWERP ST,MOBILE,AL,36605,4899,(251) 221-1345
42425,10192000687,MINOR MIDDLE SCHOOL,400 HILLCREST RD,ADAMSVILLE,AL,35005,NOT AVAILABLE,(205) 379-2550
44420,10039002185,HUFFMAN ACADEMY,1212 CHEYENNE BOULEVARD,BIRMINGHAM,AL,35215,NOT AVAILABLE,(205) 231-5800
45086,10027001784,FOLEY HIGH SCHOOL,1 PRIDE PL,FOLEY,AL,36535,NOT AVAILABLE,(251) 943-2221
48534,10000701422,ROBERT F BUMPUS MIDDLE SCHOOL,6055 FLEMMING PARKWAY,HOOVER,AL,35244,4590,(205) 439-2200
49556,10204000780,HATTON HIGH SCHOOL,6909 AL HIGHWAY 101,TOWN CREEK,AL,35672,6715,(256) 685-4010
70071,10144000519,ROBINSON ELEMENTARY SCHOOL,301 61ST ST,FAIRFIELD,AL,35064,NOT AVAILABLE,(205) 783-6827
71568,10180000623,MARTIN LUTHER KING JR ELEMENTARY SCHOOL,3112 MERIDIAN ST N,HUNTSVILLE,AL,35811,1539,(256) 428-7100
76232,10339001280,HILLCREST MIDDLE SCHOOL,401 HILLCREST SCHOOL RD,TUSCALOOSA,AL,35405,NOT AVAILABLE,(205) 342-2820
76372,10166001771,SAMSON ELEMENTARY SCHOOL,823 NORTH STATE HWY 87,SAMSON,AL,36477,NOT AVAILABLE,(334) 898-7439
77918,10180000640,MONTVIEW ELEMENTARY SCHOOL,2600 GARVIN RD NW,HUNTSVILLE,AL,35810,NOT AVAILABLE,(256) 428-7320
79200,10258000093,WEST FOREST INTERMEDIATE SCHOOL,2801 WAVERLY PKWY,OPELIKA,AL,36801,NOT AVAILABLE,(334) 745-9737
79741,10248001051,UNION HILL SCHOOL,2221 UNION HILL RD,SOMERVILLE,AL,35670,6619,(256) 498-2431
31527,10099000326,CULLMAN CITY PRIMARY SCHOOL,900 HOEHN DRIVE NE,CULLMAN,AL,35055,NOT AVAILABLE,(256) 775-0234
38141,10166000570,GENEVA COUNTY HIGH SCHOOL,301 LILY ST,HARTFORD,AL,36344,NOT AVAILABLE,(334) 588-2943
10382,10204000777,THE JUDY JESTER LEARNING CENTER,371 SCHOOL STREET,MOULTON,AL,35674,NOT AVAILABLE,(256) 627-4769
13926,10324001601,TALLASSEE ELEMENTARY SCHOOL,850 FRIENDSHIP RD,TALLASSEE,AL,36078,NOT AVAILABLE,(334) 283-5001
14317,10243001008,DAVIS ELEMENTARY SCHOOL,3605 ROSA PARKS DR,MONTGOMERY,AL,36105,2099,(334) 269-3662
17187,10042001481,SUSAN MOORE ELEMENTARY SCHOOL,3996 SUSAN MOORE RD,BLOUNTSVILLE,AL,35031,NOT AVAILABLE,(205) 775-2070
17188,10222001820,LEGACY ELEMENTARY SCHOOL,165 PINE GROVE ROAD,MADISON,AL,35757,8035,(256) 851-4630
17945,10019001815,CREEK VIEW ELEMENTARY SCHOOL,8568 HIGHWAY 17,MAYLENE,AL,35114,NOT AVAILABLE,(205) 685-6100
18205,10135000841,ESCAMBIABREWTON CAREER TECHNICAL CENTER,2824 PEA RIDGE RD,BREWTON,AL,36426,NOT AVAILABLE,(251) 867-7829
4442,10321002433,REELTOWN ELEMENTARY SCHOOL,4085 AL HWY 120,NOTASULGA,AL,36866,NOT AVAILABLE,(334) 257-3784
9432,10321002364,EDWARD BELL CAREER TECHNICAL CENTER,251 MLK STREET,CAMP HILL,AL,36850,NOT AVAILABLE,(256) 896-0160
22455,10001200123,BOAZ MIDDLE SCHOOL,140 NEWT PARKER DR,BOAZ,AL,35957,NOT AVAILABLE,(256) 593-0799
22891,10342001300,G W TRENHOLM PRIMARY SCHOOL,601 JOE WHEELER HWY,TUSCUMBIA,AL,35674,4528,(256) 389-2940
24379,10099000370,CULLMAN HIGH SCHOOL,510 13TH ST NE,CULLMAN,AL,35055,NOT AVAILABLE,(256) 734-3923
27086,10021000042,WRIGHTS MILL ROAD ELEMENTARY SCHOOL,807 WRIGHTS MILL RD,AUBURN,AL,36830,6801,(334) 887-1990
27322,10138000503,HIGHLAND ELEMENTARY SCHOOL,3156 TABOR RD,GADSDEN,AL,35904,NOT AVAILABLE,(256) 546-7409
27918,10123001500,HONEYSUCKLE MIDDLE SCHOOL,1665 HONEYSUCKLE RD,DOTHAN,AL,36305,1911,(334) 794-1420
101690,10039000198,WOODLAWN HIGH SCHOOLMAGNET,5620 FIRST AVE N,BIRMINGHAM,AL,35212,NOT AVAILABLE,(205) 231-8000
102300,10000901404,ALABAMA SCHOOL FOR BLIND,705 E SOUTH STREET,TALLADEGA,AL,35160,NOT AVAILABLE,(256) 761-3259
102423,10019302341,ST MARYS HOME,4350 MOFFETT ROAD,MOBILE,AL,36618,NOT AVAILABLE,(251) 344-7733
106970,10003501845,LEARNING TREE INC SEMMES,4979 LOTT RD,EIGHT MILE,AL,36575,1306,(334) 649-4420
90972,10164000567,GENEVA HIGH SCHOOL,505 PANTHER DR,GENEVA,AL,36340,1407,(334) 684-9379
91658,10336002143,TUSCALOOSA MAGNET SCHOOL MIDDLE,315 MCFARLAND BLVD E,TUSCALOOSA,AL,35404,NOT AVAILABLE,(205) 759-3653
92049,10123001331,PASS ACADEMY,201 E WILSON STREET,DOTHAN,AL,36303,5826,(334) 671-1474
92142,10222000837,MADISON COUNTY ELEMENTARY SCHOOL,173 WOOD ST,GURLEY,AL,35748,NOT AVAILABLE,(256) 851-3290
93574,10288001155,ALTERNATIVE LEARNING CENTER,91 POORHOUSE RD,SEALE,AL,36875,NOT AVAILABLE,(334) 408-4986
94161,10105000390,GEORGE W LONG HIGH SCHOOL,2565 CO RD 60,SKIPPERVILLE,AL,36374,NOT AVAILABLE,(334) 774-2380
97763,10237000930,JOHN WILL ELEMENTARY SCHOOL,5750 SUMMIT AVE,MOBILE,AL,36608,NOT AVAILABLE,(251) 221-1750
38853,10237001516,J E TURNER ELEMENTARY,8361 LOTT ROAD,WILMER,AL,36587,NOT AVAILABLE,(251) 221-1285
39620,10135001661,RACHEL PATTERSON ELEMENTARY SCHOOL,1102 W CRAIG ST,ATMORE,AL,36502,NOT AVAILABLE,(251) 368-4860
10226,10321000038,HORSESHOE BEND HIGH SCHOOL,10684 HIGHWAY 22 E,NEW SITE,AL,36256,NOT AVAILABLE,(256) 329-9110
12834,10282001122,ROCK MILLS JUNIOR HIGH SCHOOL,415 COUNTY ROAD 75,ROANOKE,AL,36274,NOT AVAILABLE,(334) 885-6823
14820,10180001374,NEW CENTURY TECHNOLOGY HIGH SCHOOL,2500 MERIDIAN STREET NW,HUNTSVILLE,AL,35811,NOT AVAILABLE,(256) 428-7800
16342,10297001156,KNOX ELEMENTARY SCHOOL,1002 MABRY ST,SELMA,AL,36701,NOT AVAILABLE,(334) 874-1650
18875,10114002357,CROSSVILLE MIDDLE SCHOOL,63 JUSTICE STREET,CROSSVILLE,AL,35962,3485,(256) 528-7859
19170,10235000891,MIDFIELD HIGH SCHOOL,1600 HIGH SCHOOL RD,MIDFIELD,AL,35228,1699,(205) 923-2834
20576,10177002358,HOPE HIGH SCHOOL,1971 REEVES ST SUITE 21,DOTHAN,AL,36303,NOT AVAILABLE,(334) 702-4168
23429,10138000845,ETOWAH COUNTY SPECIAL EDUCATION LEARNING CENTER,209A GRAND AVE W,RAINBOW CITY,AL,35906,NOT AVAILABLE,(256) 442-1050
28692,10138000503,HIGHLAND ELEMENTARY SCHOOL,3156 TABOR RD,GADSDEN,AL,35904,NOT AVAILABLE,(256) 546-7409
29193,10054001489,WELLBORN HIGH SCHOOL,135 PINSON RD,ANNISTON,AL,36201,5855,(256) 741-7603
50551,10000602209,ASBURY ELEMENTARY SCHOOL,1966 ASBURY ROAD,ALBERTVILLE,AL,35951,NOT AVAILABLE,(256) 878-6221
52770,10192000703,FULTONDALE ELEMENTARY SCHOOL,950 CENTRAL AVE,FULTONDALE,AL,35068,1600,(205) 379-3450
55713,10237002083,BREITLING ELEMENTARY SCHOOL,8350 GRAND BAY WILMER RD,GRAND BAY,AL,36541,NOT AVAILABLE,(251) 865-0900
55830,10135001506,W S NEAL MIDDLE SCHOOL,703 WILLIAMSON ST,EAST BREWTON,AL,36426,NOT AVAILABLE,(251) 867-5035
56705,10207002197,SMITH STATION FRESHMAN CENTER,1150 LEE ROAD 298,SMITHS STATION,AL,36877,2338,(334) 664-4063
58030,10001300714,HEWITTTRUSSVILLE MIDDLE SCHOOL,5275 TRUSSVILLE CLAY ROAD,TRUSSVILLE,AL,35173,1510,(205) 228-3700
62098,10168002181,GREENE COUNTY CAREER CENTER,14223 U S HIGHWAY 11 SOUTH,EUTAW,AL,35462,0711,(205) 372-4904
64214,10237000956,KATE SHEPARD ELEMENTARY SCHOOL,3980B BURMA RD,MOBILE,AL,36693,2808,(251) 221-1645
65866,10066002190,CHILTON COUNTY ALTERNATIVE SCHOOL,102 1ST AVE N,CLANTON,AL,35045,NOT AVAILABLE,(205) 280-2919
69470,10204001546,EAST LAWRENCE HIGH SCHOOL,55 COUNTY ROAD 370,TRINITY,AL,35673,3314,(256) 905-2430
70227,10358001243,WINSTON COUNTY TECHNICAL CENTER,1122 COUNTY ROAD 24,DOUBLE SPRINGS,AL,35553,NOT AVAILABLE,(205) 717-3364
74200,10273001098,ALICEVILLE HIGH SCHOOL,417 3RD ST SE,ALICEVILLE,AL,35442,NOT AVAILABLE,(205) 373-6378
76238,10339000052,HILLCREST HIGH SCHOOL,300 PATRIOT PKWY,TUSCALOOSA,AL,35405,NOT AVAILABLE,(205) 342-2800
77714,10270002179,LAKEWOOD PRIMARY SCHOOL,18 EXPLORER ROAD,PHENIX CITY,AL,36867,NOT AVAILABLE,(334) 664-9955
40673,10192000750,WEST JEFFERSON ELEMENTARY SCHOOL,4880 FREEWILL DR,QUINTON,AL,35130,NOT AVAILABLE,(205) 379-5550
41352,10114001860,CROSSVILLE HIGH SCHOOL,5405 CO ROAD 28,CROSSVILLE,AL,35962,3348,(256) 528-7858
43102,10306200322,ASHVILLE MIDDLE SCHOOL,33221 HIGHWAY 231,ASHVILLE,AL,35953,NOT AVAILABLE,(205) 594-7044
43397,10270002140,CENTRAL FRESHMAN ACADEMY,2800 DOBBS DRIVE,PHENIX CITY,AL,36870,NOT AVAILABLE,(334) 448-8780
46500,10330001247,THOMASVILLE ELEMENTARY SCHOOL,300 QUINCY INGRAM ST,THOMASVILLE,AL,36784,NOT AVAILABLE,(334) 636-0063
49395,10192000710,MCCALLA ELEMENTARY SCHOOL,2020 MCCALLA SCHOOL ROAD,BESSEMER,AL,35022,6471,(205) 379-3750
134,10270002414,SUCCESS ACADEMY,1700 17TH AVENUE,PHENIX CITY,AL,36867,NOT AVAILABLE,(334) 298-9876
2141,10192000733,PINSON ELEMENTARY SCHOOL,4200 SCHOOL DR,PINSON,AL,35126,NOT AVAILABLE,(205) 379-5050
2402,10135001505,W S NEAL ELEMENTARY SCHOOL,701 WILLIAMSON ST,EAST BREWTON,AL,36426,2471,(251) 867-7674
6627,10183000659,HOLLYWOOD ELEMENTARY SCHOOL,6369 COUNTY ROAD 33,HOLLYWOOD,AL,35752,NOT AVAILABLE,(256) 574-2054
7206,10336001271,MARTIN L KING JR ELEMENTARY SCHOOL,2430 MARTIN L KING JR BLVD,TUSCALOOSA,AL,35401,NOT AVAILABLE,(205) 759-3619
7727,10153000535,WEEDEN ELEMENTARY SCHOOL,400 BALDWIN STREET,FLORENCE,AL,35630,2664,(256) 768-2900
8723,10306202170,MARGARET ELEMENTARY,200 MUSTANG DRIVE,MARGARET,AL,35112,NOT AVAILABLE,(205) 629-5034
81270,10039000141,HUFFMAN HIGH SCHOOLMAGNET,900 SPRINGVILLE RD,BIRMINGHAM,AL,35215,7506,(205) 231-5000
82535,10297001161,THE RBHUDSON STEAM ACADEMY,1701 SUMMERFIELD RD,SELMA,AL,36701,NOT AVAILABLE,(334) 874-1675
83306,10201000762,ALLEN THORNTON CAREER TECHNICAL CENTER,7275 HIGHWAY 72,KILLEN,AL,35645,7916,(256) 757-2101
85529,10102000413,GOOD HOPE MIDDLE SCHOOL,216 GOOD HOPE SCHOOL RD,CULLMAN,AL,35057,0120,(256) 734-9600
87324,10312001200,SYLACAUGA HIGH SCHOOL,701 N BROADWAY,SYLACAUGA,AL,35150,NOT AVAILABLE,(256) 249-0911
88465,10180000629,VIRGIL GRISSOM HIGH SCHOOL,1001 HAYSLAND ROAD,HUNTSVILLE,AL,35802,NOT AVAILABLE,(256) 428-8000
102326,10018402115,EXCEL INSTITUTE,1147 WALNUT ST,GADSDEN,AL,35901,NOT AVAILABLE,(256) 546-9176
106982,10021002454,CREEKSIDE ELEMENTARY SCHOOL,1800 RICHLAND ROAD,AUBURN,AL,36832,3538,(334) 887-0070
20158,10243002152,CARR MIDDLE SCHOOL,1610 RAY THORINGTON ROAD,MONTGOMERY,AL,36117,8487,(334) 244-4005
22945,10024000051,PRATTVILLE PRIMARY SCHOOL,216 WETUMPKA ST,PRATTVILLE,AL,36067,NOT AVAILABLE,(334) 365-6277
24046,10039000106,BARRETT ELEMENTARY SCHOOL,7601 DIVISION AVE,BIRMINGHAM,AL,35206,4212,(205) 231-8130
25997,10027000058,ELSANOR SCHOOL,23440 US HIGHWAY 90,ROBERTSDALE,AL,36567,NOT AVAILABLE,(251) 947-5401
27737,10343001301,PIZITZ MIDDLE SCHOOL,2826 COLUMBIANA ROAD,VESTAVIA,AL,35216,3798,(205) 402-5350
61044,10169000581,GUNTERSVILLE ELEMENTARY SCHOOL,1800 LUSK,GUNTERSVILLE,AL,35976,NOT AVAILABLE,(256) 582-3364
61518,10019402395,PELHAM OAKS,2200 HIGHWAY 33,PELHAM,AL,35124,1804,(205) 624-3703
62296,10192000749,WARRIOR ELEMENTARY SCHOOL,300 MONTGOMERY ST,WARRIOR,AL,35180,1581,(205) 379-5450
63025,10102000396,FAIRVIEW ELEMENTARY SCHOOL,700 WESLEY AVE N,CULLMAN,AL,35058,4407,(256) 796-6304
63140,10093000361,PLEASANT HOME SCHOOL,12548 FALCO ROAD,ANDALUSIA,AL,36420,NOT AVAILABLE,(334) 222-1315
63860,10039001765,HOMEBOUND HIGH SCHOOL,2015 PARK PLACE N,BIRMINGHAM,AL,35203,NOT AVAILABLE,(205) 231-4777
64854,10252001062,MUSCLE SHOALS HIGH SCHOOL,1900 E AVALON AVE,MUSCLE SHOALS,AL,35661,NOT AVAILABLE,(256) 389-2682
65639,10192000705,GARDENDALE ELEMENTARY SCHOOL,860 BAUERS LN,GARDENDALE,AL,35071,2698,(205) 379-3550
67344,10039002204,BUSH HILLS STEAM ACADEMY,900 16TH STREET WEST,BIRMINGHAM,AL,35208,NOT AVAILABLE,(205) 231-6370
67585,10138001508,RAINBOW MIDDLE SCHOOL,454 LUMBLEY RD,RAINBOW CITY,AL,35906,9015,(256) 442-1095
1280,10072000302,GROVE HILL ELEMENTARY SCHOOL,450 WEST COBB STREET,GROVE HILL,AL,36451,NOT AVAILABLE,(251) 250-2150
1482,10189002434,JASPER JUNIOR HIGH SCHOOL,1501 VIKING DRIVE,JASPER,AL,35501,4999,(205) 221-9277
2771,10204000788,SPEAKE,7323 ALABAMA HIGHWAY 36,DANVILLE,AL,35619,2000,(256) 974-9201
8212,10132000479,HOLLY HILL ELEMENTARY SCHOOL,201 PINEVIEW,ENTERPRISE,AL,36330,NOT AVAILABLE,(334) 347-9700
8213,10027000070,SWIFT ELEMENTARY SCHOOL,6330 BON SECOUR HWY,BON SECOUR,AL,36511,3217,(251) 949-6422
8628,10342001297,DESHLER HIGH SCHOOL,200 N COMMONS EAST,TUSCUMBIA,AL,35674,1299,(256) 389-2910
44388,10144001363,FAIRFIELD AREA VOCATIONAL SCHOOL,610 VALLEY RD,FAIRFIELD,AL,35064,NOT AVAILABLE,(205) 783-6850
44528,10351001344,J E HOBBS ELEMENTARY SCHOOL,30 CLAIBORNE ST,CAMDEN,AL,36726,0578,(334) 682-9310
48656,10207000793,SANFORD MIDDLE SCHOOL,1500 LEE ROAD 11,OPELIKA,AL,36804,8907,(334) 705-6040
90699,10237001560,SEMMES ELEMENTARY SCHOOL,10100 BLACKWELL NURSERY RD S,SEMMES,AL,36575,NOT AVAILABLE,(251) 221-1630
95606,10237000949,WD ROBBINS ELEMENTARY SCHOOL,2416 W MAIN ST,PRICHARD,AL,36610,2727,(251) 221-1600
97869,10258001067,CARVER PRIMARY SCHOOL,307 CARVER AVE,OPELIKA,AL,36801,NOT AVAILABLE,(334) 745-9712
52779,10156001365,WILLS VALLEY ELEMENTARY SCHOOL,4111 WILLIAMS AVE NE,FORT PAYNE,AL,35967,NOT AVAILABLE,(256) 845-3201
53177,10237002083,BREITLING ELEMENTARY SCHOOL,8350 GRAND BAY WILMER RD,GRAND BAY,AL,36541,NOT AVAILABLE,(251) 865-0900
58796,10248001041,COTACO SCHOOL,100 COTACO SCHOOL RD,SOMERVILLE,AL,35670,5329,(256) 778-8153
59867,10192000744,SHADES VALLEY HIGH SCHOOL,6100 OLD LEEDS RD,IRONDALE,AL,35210,NOT AVAILABLE,(205) 379-5350
80277,10039001762,SUN VALLEY ELEMENTARY SCHOOL,1010 18TH AVE NW,BIRMINGHAM,AL,35215,4154,(205) 231-5740
80386,10027000550,ROCKWELL ELEMENTARY SCHOOL,10183 US HIGHWAY 31,SPANISH FORT,AL,36527,NOT AVAILABLE,(251) 626-5528
90000,10225000857,SWEET WATER HIGH SCHOOL,440 MAIN STREET,SWEET WATER,AL,36782,NOT AVAILABLE,(334) 994-4263
102311,10003302125,DANIEL HOUSE,150 GLENWOOD LANE,BIRMINGHAM,AL,35242,NOT AVAILABLE,(205) 969-2880
103191,10017602466,STATON CORRECTIONAL FACILITY,2690 MARION SPILLWAY ROAD,ELMORE,AL,36025,0056,(334) 567-2221
103215,10330002499,THOMASVILLE MIDDLE SCHOOL,781 GATES DR,THOMASVILLE,AL,36784,NOT AVAILABLE,(334) 636-4928
13564,10237000906,CITRONELLE HIGH SCHOOL,8200 LEBARON AVE,CITRONELLE,AL,36522,NOT AVAILABLE,(251) 221-3444
14564,10192002174,CORNER MIDDLE SCHOOL,10005 CORNER SCHOOL ROAD,WARRIOR,AL,35180,NOT AVAILABLE,(205) 379-3230
17915,10180002173,GOLDSMITHSCHIFFMAN ELEMENTARY,1210 TAYLOR ROAD,BIG COVE,AL,35763,NOT AVAILABLE,(256) 428-7150
32195,10027000066,SILVERHILL SCHOOL,15800 4TH AVE,SILVERHILL,AL,36576,NOT AVAILABLE,(251) 945-5188
32348,10111000402,KEITH MIDDLEHIGH SCHOOL,1166 DALLAS ROAD 115,ORRVILLE,AL,36767,2634,(334) 875-4155
35390,10192000717,HUEYTOWN HIGH SCHOOL,4881 15TH STREET ROAD,HUEYTOWN,AL,35023,NOT AVAILABLE,(205) 379-4150
36479,10039000156,MINOR ELEMENTARY SCHOOL,2425 AVE SENSLEY,BIRMINGHAM,AL,35218,2835,(205) 231-6555
37449,10060000272,W F BURNS MIDDLE SCHOOL,292 JOHNSON ST,VALLEY,AL,36854,NOT AVAILABLE,(334) 756-3567
38511,10336001632,VERNER ELEMENTARY SCHOOL,2701 NORTHRIDGE RD,TUSCALOOSA,AL,35406,1618,(205) 759-3667
72785,10263501383,OXFORD MIDDLE SCHOOL,1750 HIGHWAY 78 W,OXFORD,AL,36203,4015,(256) 241-3816
73209,10171000875,COLLEGE AND CAREER ACADEMY,19875 AL HWY 69 N,GREENSBORO,AL,36744,NOT AVAILABLE,(334) 624-3691
75283,10027002073,SPANISH FORT HIGH SCHOOL,ONE PLAZA DE TOROS,SPANISH FORT,AL,36527,NOT AVAILABLE,(251) 621-6629
75457,10270001547,LAKEWOOD ELEMENTARY SCHOOL,24 EXPLORER DRIVE,PHENIX CITY,AL,36867,1647,(334) 732-1173
76588,10072000305,JOE M GILLMORE ELEMENTARY SCHOOL,133 MAYTON DR,JACKSON,AL,36545,NOT AVAILABLE,(251) 246-2525
78131,10117002175,DECATUR HIGH DEVELOPMENTAL,910 SOMERVILLE ROAD SE,DECATUR,AL,35601,3229,(256) 552-3008
90240,10102000373,PARKSIDE ELEMENTARY SCHOOL,12431 AL HIGHWAY 69 N,BAILEYTON,AL,35019,8373,(256) 796-5568
90647,10033000087,BESSEMER CITY HIGH SCHOOL,4950 PREMIERE PARKWAY,BESSEMER,AL,35022,NOT AVAILABLE,(205) 432-3700
91364,10042000209,JB PENNINGTON HIGH SCHOOL,81 COLLEGE ST,BLOUNTSVILLE,AL,35031,NOT AVAILABLE,(205) 775-2050
95688,10237000934,MARY G MONTGOMERY HIGH SCHOOL,4275 SNOW RD,SEMMES,AL,36575,NOT AVAILABLE,(251) 221-3153
96716,10000600872,ASBURY HIGH SCHOOL,1990 ASBURY RD,ALBERTVILLE,AL,35951,NOT AVAILABLE,(256) 878-4068
97252,10345001307,CORDOVA ELEMENTARY SCHOOL,35 NORTH ST,CORDOVA,AL,35550,NOT AVAILABLE,(205) 483-7666
97637,10033001267,BESSEMER CENTER FOR TECHNOLOGY,4940 PREMIERE PARKWAY,BESSEMER,AL,35022,NOT AVAILABLE,(205) 432-3805
99272,10285001127,HANDLEY MIDDLE SCHOOL,251 GILHAM RD,ROANOKE,AL,36274,2722,(334) 539-5265
71638,10231001552,HAMILTON ELEMENTARY SCHOOL,784 10TH AVE SW,HAMILTON,AL,35570,NOT AVAILABLE,(205) 921-2145
72931,10225000852,AMELIA L JOHNSON HIGH SCHOOL,COATES ST,THOMASTON,AL,36783,NOT AVAILABLE,(334) 627-3364
73111,10303001175,HELENA ELEMENTARY SCHOOL,187 THIRD ST,HELENA,AL,35080,3216,(205) 682-5540
73659,10339001279,FLATWOODS ELEMENTARY SCHOOL,3800 66TH AVE,NORTHPORT,AL,35473,2210,(205) 342-2648
74329,10111000407,SOUTHSIDE PRIMARY SCHOOL,3104 OLD MONTGOMERY HWY,SELMA,AL,36701,8100,(334) 874-9566
74374,10270001088,CENTRAL HIGH SCHOOL,2400 DOBBS DR,PHENIX CITY,AL,36870,NOT AVAILABLE,(334) 298-3626
81453,10282002171,WEDOWEE ELEMENTARY SCHOOL,940 WOODLAND AVE WEST,WEDOWEE,AL,36278,NOT AVAILABLE,(256) 357-4588
82466,10141001510,EUFAULA ELEMENTARY SCHOOL,422 SANFORD AVE,EUFAULA,AL,36027,1450,(334) 687-1134
82872,10339001295,WESTWOOD ELEMENTARY SCHOOL,11629 WESTWOOD SCHOOL RD,COKER,AL,35452,NOT AVAILABLE,(205) 342-2666
87797,10123001817,KELLY SPRINGS ELEMENTARY SCHOOL,1124 KELLY SPRINGS RD,DOTHAN,AL,36303,6553,(334) 983-6565
87854,10114000419,IDER SCHOOL,1064 CRABAPPLE LN,IDER,AL,35981,4644,(256) 632-2302
88498,10129000102,WETUMPKA MIDDLE SCHOOL,1000 MICANOPY ST,WETUMPKA,AL,36092,NOT AVAILABLE,(334) 567-1413
89186,10210000806,PINEY CHAPEL ELEMENTARY SCHOOL,20835 ELKTON RD,ATHENS,AL,35614,6644,(256) 233-6674
89575,10321001229,DADEVILLE HIGH SCHOOL,227 WELDON ST,DADEVILLE,AL,36853,NOT AVAILABLE,(256) 825-7848
101835,10270001090,PHENIX CITY INTERMEDIATE SCHOOL,2401 S RAILROAD ST,PHENIX CITY,AL,36867,NOT AVAILABLE,(334) 298-8744
102303,10001502118,MAC SIM BUTLER MONTGOMERY COUNTY DETENTION FACILITY,225 S MCDONOUGH ST,MONTGOMERY,AL,36104,NOT AVAILABLE,(334) 832-1386
102304,10001502121,SAFETY NET ACADEMY MONTGOMERY,5906 CARMICHAEL PLACE,MONTGOMERY,AL,36117,NOT AVAILABLE,(334) 277-1334
102308,10001901830,UNITED ABILITY,120 OSLO CIRCLE,BIRMINGHAM,AL,35211,3107,(205) 944-3905
102312,10003302130,GLENWOOD WILDERNESS,150 GLENWOOD LANE,BIRMINGHAM,AL,35242,NOT AVAILABLE,(205) 969-2880
102322,10017802113,HIGDON HILL SCHOOL,6869 5TH AVE S,BIRMINGHAM,AL,35212,NOT AVAILABLE,(205) 838-4031
102428,10039002489,RICHARD ARRINGTON ELEMENTARY,2101 JEFFERSON AVENUE SW,BIRMINGHAM,AL,35211,NOT AVAILABLE,(205) 231-1130
103179,10000702487,RIVERCHASE CAREER CONNECTION CENTER,853 WILLOW OAK DRIVE,HOOVER,AL,35244,NOT AVAILABLE,(205) 439-1900
103180,10002101832,BREWERPORCH CHILDRENS CENTER,2501 WOODLAND RD,TUSCALOOSA,AL,35404,NOT AVAILABLE,(205) 348-7236
103182,10003502370,THE LEARNING TREE BIRMINGHAM,421 OPELIKA RD,AUBURN,AL,36830,NOT AVAILABLE,(334) 649-4420
103187,10004201853,LAUREL OAKS BEHAVIORAL HEALTH CENTER,700 E COTTONWOOD RD,DOTHAN,AL,36301,NOT AVAILABLE,(334) 794-7373
103204,10021102505,MAGIC CITY ACCEPTANCE ACADEMY,205 32ND ST S,BIRMINGHAM,AL,35233,NOT AVAILABLE,(205) 903-1187
10348,10021001254,OGLETREE ELEMENTARY SCHOOL,737 OGLETREE RD,AUBURN,AL,36830,NOT AVAILABLE,(334) 887-4920
11316,10243001034,PINTLALA ELEMENTARY SCHOOL,215 FEDERAL RD,HOPE HULL,AL,36043,NOT AVAILABLE,(334) 288-9523
14984,10168001520,ROBERT BROWN MIDDLE SCHOOL,623 MESPOTAMIA STREET,EUTAW,AL,35462,NOT AVAILABLE,(205) 372-3269
15903,10166001793,SLOCOMB ELEMENTARY SCHOOL,108 S HEMBY STREET,SLOCOMB,AL,36375,0307,(334) 886-2132
15963,10243001015,CARVER SENIOR HIGH SCHOOL,2001 W FAIRVIEW AVE,MONTGOMERY,AL,36108,4199,(334) 269-3636
16636,10192002079,NORTH JEFFERSON MIDDLE SCHOOL,8350 WARRIORKIMBERLY RD,KIMBERLY,AL,35091,NOT AVAILABLE,(205) 379-4000
33597,10066000265,MAPLESVILLE HIGH SCHOOL,1256 AL HIGHWAY 139,MAPLESVILLE,AL,36750,NOT AVAILABLE,(205) 280-4904
36185,10084000335,COLBERT HEIGHTS HIGH SCHOOL,6825 WOODMONT DR,TUSCUMBIA,AL,35674,NOT AVAILABLE,(256) 383-7875
36578,10164000568,MULKEY ELEMENTARY SCHOOL,800 W MEADOW AVE,GENEVA,AL,36340,NOT AVAILABLE,(334) 684-2294
36760,10336001632,VERNER ELEMENTARY SCHOOL,2701 NORTHRIDGE RD,TUSCALOOSA,AL,35406,1618,(205) 759-3667
50537,10204000783,LAWRENCE COUNTY HIGH SCHOOL,102 COLLEGE ST,MOULTON,AL,35650,1415,(256) 905-2440
52652,10273001104,GORDO HIGH SCHOOL,630 4TH ST NW,GORDO,AL,35466,NOT AVAILABLE,(205) 364-7353
58294,10009000021,TENTH STREET ELEMENTARY SCHOOL,1525 E 10TH ST,ANNISTON,AL,36207,NOT AVAILABLE,(256) 231-5090
59117,10180001379,HUNTSVILLE CENTER FOR TECHNOLOGY,2800 DRAKE AVE SW,HUNTSVILLE,AL,35805,NOT AVAILABLE,(256) 428-7810
20554,10039000187,TUGGLE ELEMENTARY SCHOOL,412 12TH CT N,BIRMINGHAM,AL,35204,2533,(205) 231-2675
22108,10000701740,GWIN ELEMENTARY SCHOOL,1580 PATTON CHAPEL ROAD,HOOVER,AL,35226,2258,(205) 439-2600
24951,10237000968,WHITLEY ELEMENTARY SCHOOL,528 CAPT LEON C ROBERTS,PRICHARD,AL,36610,NOT AVAILABLE,(251) 221-1737
27614,10027000664,NORTH BALDWIN CENTER FOR TECHNOLOGY,505 DR MARTIN LUTHER KING BLVD,BAY MINETTE,AL,36507,NOT AVAILABLE,(251) 937-6751
28229,10237000895,PETER F ALBA MIDDLE SCHOOL,14180 S WINTZELL AVE,BAYOU LA BATRE,AL,36509,2498,(251) 824-4134
60607,10138000499,HOKES BLUFF ELEMENTARY SCHOOL,5375 MAIN STREET,HOKES BLUFF,AL,35903,NOT AVAILABLE,(256) 492-5571
62246,10010000025,ARAB PRIMARY SCHOOL,121 MIMOSA ST NE,ARAB,AL,35016,NOT AVAILABLE,(256) 586-6005
62516,10138000508,WEST END ELEMENTARY SCHOOL,6795 HIGHWAY 132,ALTOONA,AL,35952,NOT AVAILABLE,(256) 622-1085
63675,10000600880,BRINDLEE MOUNTAIN ELEMENTARY SCHOOL,2233 SHOAL CREEK RD,ARAB,AL,35016,NOT AVAILABLE,(256) 753-2246
65031,10237000920,ELIZABETH FONDE ELEMENTARY SCHOOL,3956 COTTAGE HILL RD,MOBILE,AL,36609,NOT AVAILABLE,(251) 221-1240
65577,10216000821,JACKSONSTEELE ELEMENTARY SCHOOL,570 FREEDOM RD,HAYNEVILLE,AL,36040,NOT AVAILABLE,(334) 872-0758
65706,10276001108,PIEDMONT HIGH SCHOOL,750 TOM BIBLE MEM HWY,PIEDMONT,AL,36272,1579,(256) 447-2829
69012,10243001439,NIXON ELEMENTARY SCHOOL,1000 EDGAR D NIXON AVE,MONTGOMERY,AL,36104,4838,(334) 269-3012
43742,10123000456,FAINE ELEMENTARY SCHOOL,1901 STRINGER ST,DOTHAN,AL,36303,3798,(334) 794-1455
45266,10102000400,FAIRVIEW MIDDLE SCHOOL,841 WELCOME RD,CULLMAN,AL,35058,1212,(256) 796-0883
45406,10117000081,AUSTIN MIDDLE SCHOOL,2715 DANVILLE RD SW,DECATUR,AL,35603,4265,(256) 552-4622
45542,10138000497,GLENCOE ELEMENTARY SCHOOL,207 N COLLEGE ST,GLENCOE,AL,35905,NOT AVAILABLE,(256) 492-4709
9416,10000802198,JAMES CLEMENS HIGH SCHOOL,11306 COUNTY LINE ROAD,MADISON,AL,35756,NOT AVAILABLE,(256) 216-5313
10182,10042000676,BLOUNT COUNTY LEARNING CENTER,189 HORTON LN,CLEVELAND,AL,35049,NOT AVAILABLE,(205) 775-1980
12236,10235000892,RUTLEDGE SCHOOL,1221 8TH ST,MIDFIELD,AL,35228,3155,(205) 780-8647
14065,10000501616,ALBERTVILLE KINDERGARTEN AND PREK,257 COUNTRY CLUB RD,ALBERTVILLE,AL,35951,3927,(256) 878-7922
15291,10237000938,GRAND BAY MIDDLE SCHOOL,12800 CUNNINGHAM RD,GRAND BAY,AL,36541,4938,(251) 865-6511
15904,10138000493,CARLISLE ELEMENTARY SCHOOL,8025 US HIGHWAY 431,BOAZ,AL,35956,NOT AVAILABLE,(256) 622-1115
16323,10066001431,CLANTON INTERMEDIATE SCHOOL,825 TEMPLE ROAD,CLANTON,AL,35045,NOT AVAILABLE,(205) 280-2790
18739,10265001569,COOSA VALLEY ELEMENTARY SCHOOL,3609 MARTIN ST S,CROPWELL,AL,35054,3919,(205) 338-7713
1539,10279002155,PIKE COUNTY ALTERNATIVE LEARNING CENTER,101 WEST LOVE STREET,TROY,AL,36081,NOT AVAILABLE,(334) 566-1850
20601,10060000269,JOHN P POWELL MIDDLE SCHOOL,700 MARTIN LUTHER KING DRIVE,LAFAYETTE,AL,36862,NOT AVAILABLE,(334) 864-8876
22780,10102000403,GOOD HOPE ELEMENTARY SCHOOL,204 GOOD HOPE SCHOOL RD,CULLMAN,AL,35057,0120,(256) 734-3824
25422,10243001111,SOUTHLAWN MIDDLE SCHOOL,5333 MOBILE HWY,MONTGOMERY,AL,36108,NOT AVAILABLE,(334) 284-8086
40403,10297001149,BYRD FIRST CLASS EARLY LEARNING CENTER,625 LAPSLEY ST,SELMA,AL,36701,5699,(334) 874-1620
41900,10000600987,MARSHALL TECHNICAL SCHOOL,12312 US HIGHWAY 431 S,GUNTERSVILLE,AL,35976,9351,(256) 582-5629
41983,10087001766,HILLCREST HIGH SCHOOL,1989 JAGUAR RD,EVERGREEN,AL,36401,2700,(251) 578-1126
43107,10306201172,ODENVILLE MIDDLE SCHOOL,100 FIRST AVENUE,ODENVILLE,AL,35120,NOT AVAILABLE,(205) 629-2280
43329,10263501075,OXFORD HIGH SCHOOL,1 YELLOW JACKET DRIVE,OXFORD,AL,36203,2182,(256) 241-3166
47174,10090001749,CENTRAL HIGH SCHOOL,97 COOSA COUNTY ROAD 75,ROCKFORD,AL,35136,3710,(256) 377-4384
47311,10348001333,CHATOM ELEMENTARY SCHOOL,592 RAY COAKER RD,CHATOM,AL,36518,1209,(251) 847-2946
34251,10102000381,HOLLY POND HIGH SCHOOL,160 NEW HOPE ROAD,HOLLY POND,AL,35083,6440,(256) 796-5169
34870,10192000727,MINOR COMMUNITY SCHOOL,3006 CORA AVENUE,BIRMINGHAM,AL,35224,NOT AVAILABLE,(205) 379-4800
35243,10042001427,LOCUST FORK ELEMENTARY,155 SCHOOL RD,LOCUST FORK,AL,35097,NOT AVAILABLE,(205) 681-9512
35332,10162001368,C I T Y PROGRAM,435 E CHESTNUT,GADSDEN,AL,35903,NOT AVAILABLE,(256) 543-2489
36641,10180000624,ACADEMY FOR SCIENCE FOREIGN LANGUAGE,3221 MASTIN LAKE RD,HUNTSVILLE,AL,35801,NOT AVAILABLE,(256) 428-7000
37206,10000701739,GREEN VALLEY ELEMENTARY SCHOOL,3200 OLD COLUMBIANA RD,HOOVER,AL,35226,3398,(205) 439-2500
37285,10039000201,WYLAM ELEMENTARY SCHOOL,701 ERIE STREET,BIRMINGHAM,AL,35224,2655,(205) 231-6800
90070,10042000205,BLOUNTSVILLE ELEMENTARY SCHOOL,260 PAGE ST,BLOUNTSVILLE,AL,35031,NOT AVAILABLE,(205) 429-2458
90207,10237000904,CALCEDEAVER ELEMENTARY SCHOOL,20500 PATILLO ROAD,MOUNT VERNON,AL,36560,NOT AVAILABLE,(251) 221-1092
93077,10117001631,LONG TERM CASE,406 2ND AVE SE,DECATUR,AL,35601,2468,(256) 308-2308
94344,10237000572,ALLENTOWN ELEMENTARY SCHOOL,10330 HOWELLS FERRY RD,SEMMES,AL,36575,NOT AVAILABLE,(251) 221-1000
94440,10162000564,W E STRIPLIN ELEMENTARY SCHOOL,600 CLEVELAND AVE,GADSDEN,AL,35901,4154,(256) 546-8616
94774,10138002351,SARDIS MIDDLE SCHOOL,1415 SARDIS DRIVE,SARDIS CITY,AL,35956,NOT AVAILABLE,(256) 622-1120
95237,10348001335,WASHINGTON COUNTY HIGH SCHOOL,HIGHWAY 56,CHATOM,AL,36518,NOT AVAILABLE,(251) 847-2851
95813,10019402399,PELHAM HIGH SCHOOL,2500 PANTHER CIR,PELHAM,AL,35124,1670,(205) 624-3701
98223,10102000458,WEST POINT ELEMENTARY SCHOOL,4300 COUNTY ROAD 1141,CULLMAN,AL,35057,6651,(256) 775-6178
98370,10263501865,DE ARMANVILLE ELEMENTARY SCHOOL,170 SCHOOL ROAD,ANNISTON,AL,36207,1048,(256) 241-3918
70526,10024000049,PRATTVILLE JUNIOR HIGH SCHOOL,1089 N CHESTNUT,PRATTVILLE,AL,36067,NOT AVAILABLE,(334) 365-6697
72180,10303001169,CALERA ELEMENTARY,855 10TH ST,CALERA,AL,35040,NOT AVAILABLE,(205) 682-6120
75261,10222002163,BUCKHORN MIDDLE SCHOOL,4185 WINCHESTER ROAD,NEW MARKET,AL,35761,NOT AVAILABLE,(256) 851-3230
76762,10222000835,HARVEST SCHOOL,8845 WALL TRIANA HIGHWAY,HARVEST,AL,35749,NOT AVAILABLE,(256) 851-4590
76770,10000600193,KATE DUNCAN SMITH DAR MIDDLE,6077 MAIN ST,GRANT,AL,35747,NOT AVAILABLE,(256) 728-5950
78132,10358001466,MEEK ELEMENTARY SCHOOL,6613 COUNTY RD 41,ARLEY,AL,35541,NOT AVAILABLE,(205) 221-9425
79781,10027001713,FLORENCE B MATHIS ELEMENTARY,600 9TH AVE,FOLEY,AL,36535,1117,(251) 943-1244
66896,10192000725,MCADORY HIGH SCHOOL,4800 MCADORY SCHOOL RD,MCCALLA,AL,35111,3438,(205) 379-4700
67622,10210000810,WEST LIMESTONE HIGH SCHOOL,10945 SCHOOL HOUSE RD,LESTER,AL,35647,3635,(256) 233-6687
68255,10138000500,HOKES BLUFF MIDDLE SCHOOL,3121 APPALACHIAN HWY,HOKES BLUFF,AL,35930,4737,(256) 492-1963
69054,10021000053,AUBURN EARLY EDUCATION CENTER,721 E UNIVERSITY DR,AUBURN,AL,36830,6146,(334) 887-4950
81762,10222002082,RIVERTON ELEMENTARY SCHOOL,2615 WINCHESTER ROAD,HUNTSVILLE,AL,35811,NOT AVAILABLE,(256) 851-4650
81898,10111000814,WILLIAM R MARTIN MIDDLE SCHOOL,2863 COUNTY ROAD 81,VALLEY GRANDE,AL,36703,9013,(334) 872-6417
85798,10054000249,WELLBORN ELEMENTARY SCHOOL,525 COOPER CIR,ANNISTON,AL,36201,5801,(256) 741-7500
85978,10180000636,LEE HIGH SCHOOL,2500 MERIDIAN ST,HUNTSVILLE,AL,35811,1892,(256) 428-8150
86668,10027000067,SPANISH FORT ELEMENTARY SCHOOL,30900 STATE HIGHWAY 225,SPANISH FORT,AL,36527,NOT AVAILABLE,(251) 626-9751
50429,10237001620,PEARL HASKEW ELEMENTARY,7001 WHITE OAK DRIVE,IRVINGTON,AL,36544,NOT AVAILABLE,(251) 221-1850
53150,10009001725,ANNISTON MIDDLE SCHOOL,4800 MCCLELLAN BLVD,ANNISTON,AL,36206,NOT AVAILABLE,(256) 231-5020
53304,10243001009,DOZIER ELEMENTARY SCHOOL,200 EASTERN BLVD,MONTGOMERY,AL,36117,2092,(334) 260-1012
54455,10336002102,NORTHRIDGE HIGH SCHOOL,2901 NORTHRIDGE RD,TUSCALOOSA,AL,35406,NOT AVAILABLE,(205) 759-3590
54989,10019702432,ACCELERATION DAY AND EVENING ACADEMY,3100 COTTAGE HILL RD,MOBILE,AL,36606,NOT AVAILABLE,(251) 301-0050
58202,10195000757,VERNON ELEMENTARY SCHOOL,9700 HWY 18 W,VERNON,AL,35592,NOT AVAILABLE,(205) 695-9728
59610,10315001203,GRAHAM ELEMENTARY SCHOOL,403 CEDAR ST,TALLADEGA,AL,35160,NOT AVAILABLE,(256) 315-5777
100137,10009000017,GOLDEN SPRINGS ELEMENTARY SCHOOL,100 FEARY DR,ANNISTON,AL,36207,NOT AVAILABLE,(256) 231-5050
103188,10004301854,SOUTHEASTERN PSYCHIARIC MANAGEMENT INC,3001 SCENIC HWY,GADSDEN,AL,35904,NOT AVAILABLE,(256) 546-9265
103195,10018602335,FATHER PURCELL MEMORIAL EXCEPTIONAL CHILDRENS CENTER,1820 OAK ST,MONTGOMERY,AL,36108,NOT AVAILABLE,(334) 834-5590
103196,10018802514,ALABAMA DESTINATIONS CAREER ACADEMY,50 12TH AVE,CHICKASAW,AL,36611,2700,(251) 452-6452
103201,10020702502,LIFE ACADEMY AT HISTORIC ST JUDE EDUCATIONAL INSTITUTE,2048 WEST FAIRVIEW AVENUE,MONTGOMERY,AL,36108,NOT AVAILABLE,(646) 462-8633
106979,10020302516,LEAD ACADEMY BUILDING B,2897 EASTERN BLVD,MONTGOMERY,AL,36116,1021,(334) 451-3127
106986,10177002511,ASHFORD MIDDLE SCHOOL,607 CHURCH ST,ASHFORD,AL,36312,4525,(334) 899-5411
11035,10075002205,CENTRAL JR HIGH SCHOOL OF CLAY COUNTY,1 BOB RILEY DRIVE,LINEVILLE,AL,36266,NOT AVAILABLE,(256) 396-1401
15044,10248001440,PRICEVILLE ELEMENTARY SCHOOL,438 CAVE SPRINGS ROAD,PRICEVILLE,AL,35603,6036,(256) 341-9202
15656,10129000471,WETUMPKA HIGH SCHOOL,1251 COOSA RIVER PKWY,WETUMPKA,AL,36092,NOT AVAILABLE,(334) 567-5158
15765,10339001276,COTTONDALE ELEMENTARY SCHOOL,2301 COTTONDALE LN,COTTONDALE,AL,35453,NOT AVAILABLE,(205) 342-2642
17176,10219001811,BOOKER T WASHINGTON HIGH,3803 M L K HIGHWAY,TUSKEGEE,AL,36083,NOT AVAILABLE,(334) 727-0073
17630,10303000031,CHELSEA MIDDLE SCHOOL,2321 HIGHWAY 39,CHELSEA,AL,35043,NOT AVAILABLE,(205) 682-7210
19202,10192000466,JEFFERSON COUNTY COUNSELING LEARNING CENTEREAST,50 LONG ST,BIRMINGHAM,AL,35217,NOT AVAILABLE,(205) 379-4250
19556,10180000643,RIDGECREST ELEMENTARY SCHOOL,3505 CERRO VISTA ST SW,HUNTSVILLE,AL,35805,4903,(256) 428-7380
80975,10036000094,CENTREVILLE MIDDLE SCHOOL,1621 MONTGOMERY HWY,CENTREVILLE,AL,35042,NOT AVAILABLE,(205) 926-9861
81350,10066000745,JEMISON MIDDLE SCHOOL,25095 US HWY 31,JEMISON,AL,35085,NOT AVAILABLE,(205) 280-4840
83784,10159000541,BELGREEN HIGH SCHOOL,14220 HIGHWAY 187,RUSSELLVILLE,AL,35653,NOT AVAILABLE,(256) 332-1376
84477,10343001304,VESTAVIA HILLS HIGH SCHOOL,2235 LIME ROCK RD,VESTAVIA HILLS,AL,35216,3399,(205) 402-5250
84518,10345001311,DORA HIGH SCHOOL,330 GLENN C GANT CIR,DORA,AL,35062,4412,(205) 648-6863
85079,10243002084,BLOUNT ELEMENTARY SCHOOL,1650 RAY THORINGTON ROAD,MONTGOMERY,AL,36117,8487,(334) 244-0078
121,10231001455,PHILLIPS ELEMENTARY SCHOOL,160 SCHOOL AVE,BEAR CREEK,AL,35543,NOT AVAILABLE,(205) 486-5062
1485,10105002426,OPPORTUNITY ACADEMY,1044 ANDREWS AVE,OZARK,AL,36360,NOT AVAILABLE,(334) 774-5197
4355,10306201180,EDEN AREA TECHNICAL CENTER,45 COUNTY ROAD 33,ASHVILLE,AL,35953,NOT AVAILABLE,(205) 594-7055
4437,10180002425,SONNIE HEREFORD ELEMENTARY SCHOOL,2755 WILSON DRIVE,HUNTSVILLE,AL,35816,NOT AVAILABLE,(256) 428-7440
42840,10021000041,DRAKE MIDDLE SCHOOL,655 N DONAHUE DR,AUBURN,AL,36832,2905,(334) 887-1940
46773,10263502099,COLDWATER ELEMENTARY SCHOOL,530 TAYLORS CHAPEL ROAD,ANNISTON,AL,36201,7044,(256) 241-3870
48461,10265001541,DURAN SOUTH,813 16TH ST S,PELL CITY,AL,35128,2037,(205) 884-7957
93714,10303001189,OAK MOUNTAIN HIGH SCHOOL,5476 CALDWELL MILL RD,BIRMINGHAM,AL,35242,NOT AVAILABLE,(205) 682-5200
93738,10303001621,INVERNESS ELEMENTARY SCHOOL,5251 VALLEYDALE RD,BIRMINGHAM,AL,35242,4632,(205) 682-5240
97811,10017502112,POINTE ACADEMY LLC,461 DONALD STREET,MOBILE,AL,36617,3282,(334) 470-1798
99080,10231002160,HACKLEBURG ELEMENTARY SCHOOL,185 SCHOOL STREET,HACKLEBURG,AL,35564,4066,(205) 935-5156
102306,10001502131,PERRY VARNER EDUCATIONAL AND TREATMENT FACILITY,1002 SELFIELD RD,SELMA,AL,36703,NOT AVAILABLE,(334) 877-0629
102307,10001601828,DMH ADOLESCENT EDUCATION PROGRAM UAB,CPM C433 1717 6TH AVENUE SOUTH,BIRMINGHAM,AL,35294,0001,(205) 996-2741
102314,10003801849,PATHWAY INC,109 PRIVATE RD 1202,NEW BROCKTON,AL,36351,NOT AVAILABLE,(334) 894-6322
102315,10004001851,BRANTWOOD CHILDRENS HOME,1309 UPPER WETUMPKA RD,MONTGOMERY,AL,36107,NOT AVAILABLE,(334) 265-0784
106972,10019802450,SEQUEL TSI MONTGOMERY LLC,135 MILDRED ST,MONTGOMERY,AL,36104,NOT AVAILABLE,(334) 647-1780
51073,10126000460,ELBA ELEMENTARY SCHOOL,145 TIGER DR,ELBA,AL,36323,4019,(334) 897-2814
53120,10243001014,FOREST AVENUE ELEMENTARY SCHOOL,1700 W 5TH ST,MONTGOMERY,AL,36106,1587,(334) 269-3673
53482,10039001764,HOMEBOUND ELEMENTARY SCHOOL,2015 PARK PLACE,BIRMINGHAM,AL,35203,NOT AVAILABLE,(205) 231-4777
54142,10030001478,BARBOUR COUNTY PRIMARY SCHOOL,168 WESTERN BYPASS,CLAYTON,AL,36016,NOT AVAILABLE,(334) 775-3404
30679,10318001215,TALLADEGA COUNTY CENTRAL HIGH,5104 HOWELL COVE RD,TALLADEGA,AL,35160,5342,(256) 315-5340
33693,10235001381,MIDFIELD AREA VOCATIONAL DEPARTMENT,1600 HIGH SCHOOL DR,MIDFIELD,AL,35228,NOT AVAILABLE,(205) 923-2833
34573,10243001001,CHISHOLM ELEMENTARY SCHOOL,307 E VANDIVER BLVD,MONTGOMERY,AL,36110,1800,(334) 269-3643
37509,10192000694,CENTER POINT ELEMENTARY SCHOOL,4801 INDIAN TRAIL,BIRMINGHAM,AL,35215,NOT AVAILABLE,(205) 379-2900
37578,10237000922,FOREST HILL ELEMENTARY SCHOOL,4501 MOFFETT RD,MOBILE,AL,36618,NOT AVAILABLE,(251) 221-1270
39215,10207002188,WACOOCHEE ELEMENTARY SCHOOL,125 LEE ROAD 254,SALEM,AL,36874,3309,(334) 664-4072
20547,10039000133,GREEN ACRES MIDDLE SCHOOL,1220 67TH STREET WEST,BIRMINGHAM,AL,35228,NOT AVAILABLE,(205) 231-1370
20984,10000701740,GWIN ELEMENTARY SCHOOL,1580 PATTON CHAPEL ROAD,HOOVER,AL,35226,2258,(205) 439-2600
26475,10210000800,EAST LIMESTONE HIGH SCHOOL,15641 E LIMESTONE RD,ATHENS,AL,35613,NOT AVAILABLE,(256) 233-6660
26610,10263501076,OXFORD ELEMENTARY SCHOOL,1401 CAFFEY DR,OXFORD,AL,36203,2511,(256) 241-3844
27081,10192001539,GRANTSWOOD COMMUNITY SCHOOL,1979 GRANTSWOOD SCHOOL RD,BIRMINGHAM,AL,35210,NOT AVAILABLE,(205) 379-3700
27810,10054001489,WELLBORN HIGH SCHOOL,135 PINSON RD,ANNISTON,AL,36201,5855,(256) 741-7603
28768,10207000794,WEST SMITHS STATION ELEMENTARY SCHOOL,150 LEE ROAD 295,SMITHS STATION,AL,36877,NOT AVAILABLE,(334) 664-4050
73338,10192000699,CRUMLY CHAPEL ELEMENTARY SCHOOL,2201 PERSHING RD,BIRMINGHAM,AL,35214,NOT AVAILABLE,(205) 379-3250
73904,10132000480,PINEDALE ELEMENTARY SCHOOL,207 PLAZA DR,ENTERPRISE,AL,36330,NOT AVAILABLE,(334) 347-5460
75666,10243000504,BOOKER T WASHINGTON MAGNET HIGH SCHOOL,3315 HAYNEVILLE ROAD,MONTGOMERY,AL,36108,3902,(334) 269-3617
79077,10336001608,CENTRAL HIGH SCHOOL,905 15TH STREET,TUSCALOOSA,AL,35401,NOT AVAILABLE,(205) 759-3720
79779,10237000935,MARY W BURROUGHS ELEMENTARY SCHOOL,6875 BURROUGHS LN,THEODORE,AL,36582,NOT AVAILABLE,(251) 221-1077
61302,10019402396,PELHAM RIDGE,251 APPLEGATE PARKWAY,PELHAM,AL,35124,2951,(205) 624-3704
63575,10102000414,HANCEVILLE ELEMENTARY SCHOOL,799 COMMERCIAL STREET SE,HANCEVILLE,AL,35077,5522,(256) 352-9196
64421,10147000523,FAYETTE MIDDLE SCHOOL,418 3RD AVE NE,FAYETTE,AL,35555,NOT AVAILABLE,(205) 932-7660
69110,10147000521,BERRY HIGH SCHOOL,18242 HIGHWAY 18 E,BERRY,AL,35546,NOT AVAILABLE,(205) 689-4467
32532,10129000470,WETUMPKA ELEMENTARY SCHOOL,510 MICANOPY ST,WETUMPKA,AL,36092,NOT AVAILABLE,(334) 567-4323
33086,10054000243,SAKS HIGH SCHOOL,4401 SAKS RD,ANNISTON,AL,36206,NOT AVAILABLE,(256) 741-7000
33586,10237001605,MOBILE MENTAL HEALTH CENTER,5800 SOUTHLAND DRIVE,MOBILE,AL,36693,3316,(251) 661-0153
37724,10042000682,BLOUNT COUNTY CAREER TECHNICAL CENTER,61500 US HIGHWAY 231,CLEVELAND,AL,35049,NOT AVAILABLE,(205) 775-2080
38151,10102001679,WEST POINT INTERMEDIATE SCHOOL,4541 COUNTY ROAD 1141,VINEMONT,AL,35179,8799,(256) 734-8019
39314,10021001879,RICHLAND ELEMENTARY SCHOOL,770 S YARBROUGH FARMS BOULEVARD,AUBURN,AL,36830,5405,(334) 887-1980
4278,10303001176,MONTEVALLO ELEMENTARY SCHOOL,171 JETER CIR,MONTEVALLO,AL,35115,NOT AVAILABLE,(205) 682-6420
7287,10172000594,HALEYVILLE HIGH SCHOOL,2001 20TH ST,HALEYVILLE,AL,35565,NOT AVAILABLE,(205) 486-3122
8648,10192000715,HILLVIEW ELEMENTARY SCHOOL,1520 CHERRY AVE,BIRMINGHAM,AL,35214,NOT AVAILABLE,(205) 379-4050
20530,10174000603,HEADLAND ELEMENTARY SCHOOL,305 MITCHELL ST,HEADLAND,AL,36345,NOT AVAILABLE,(334) 585-7080
22272,10243001563,BREWBAKER MIDDLE SCHOOL,4425 BREWBAKER DR,MONTGOMERY,AL,36116,4298,(334) 284-8008
22336,10180001796,WILLIAMS ELEMENTARY SCHOOL,155 BARREN FORK BLVD,HUNTSVILLE,AL,35824,NOT AVAILABLE,(256) 428-7540
22454,10198001544,W O LANCE ELEMENTARY,200 S 8TH AVE,LANETT,AL,36863,NOT AVAILABLE,(334) 644-5915
25599,10324001236,SOUTHSIDE MIDDLE SCHOOL,901 E B PAYNE SR DR,TALLASSEE,AL,36078,1738,(334) 283-2151
26638,10201000767,LAUDERDALE COUNTY HIGH SCHOOL,201 CEDAR STREET,ROGERSVILLE,AL,35652,NOT AVAILABLE,(256) 247-3414
27219,10339001273,BROOKWOOD ELEMENTARY SCHOOL,16049 HIGHWAY 216,BROOKWOOD,AL,35444,NOT AVAILABLE,(205) 342-2668
27491,10336001889,NORTHRIDGE MIDDLE SCHOOL,3811 NORTHRIDGE ROAD,TUSCALOOSA,AL,35406,2856,(205) 759-3578
27669,10198000760,LANETT JUNIOR HIGH SCHOOL,1301 SOUTH 8TH AVENUE,LANETT,AL,36863,NOT AVAILABLE,(334) 644-5950
28635,10147001514,FAYETTE ELEMENTARY SCHOOL,509 2ND ST NE,FAYETTE,AL,35555,2644,(205) 932-3161
10786,10123001499,BEVERLYE INTERMEDIATE SCHOOL,1025 S BEVERLYE RD,DOTHAN,AL,36301,4899,(334) 794-1432
15629,10006001467,ANDALUSIA ELEMENTARY SCHOOL,1501 WEST BYPASS,ANDALUSIA,AL,36474,NOT AVAILABLE,(334) 222-1224
17674,10051000231,WO PARMER ELEMENTARY SCHOOL,100 BUTLER CIRCLE,GREENVILLE,AL,36037,NOT AVAILABLE,(334) 382-8720
17925,10243001035,LEE HIGH SCHOOL,225 ANN ST,MONTGOMERY,AL,36107,2599,(334) 269-3742
18268,10336001252,CENTRAL ELEMENTARY SCHOOL,1510 DINAH WASHINGTON AVE,TUSCALOOSA,AL,35401,4213,(205) 759-3570
70084,10207000790,BEAUREGARD HIGH SCHOOL,7343 AL HIGHWAY 51,OPELIKA,AL,36804,2664,(334) 705-6010
72449,10333001602,CHARLES HENDERSON HIGH SCHOOL,150 GEORGE WALLACE DR,TROY,AL,36081,1006,(334) 566-3510
72914,10138000853,CAREER TECHNICAL CENTER,105 BURKE AVE SE,ATTALLA,AL,35954,NOT AVAILABLE,(256) 538-3312
75220,10339001887,LAKE VIEW ELEMENTARY SCHOOL,21610 YOUNGBLOOD PARKWAY,MCCALLA,AL,35111,NOT AVAILABLE,(205) 342-2951
76634,10210002081,CEDAR HILL ELEMENTARY SCHOOL,27905 CEDAR HILL RD,ARDMORE,AL,35739,NOT AVAILABLE,(256) 423-5950
78001,10039000113,CHRISTIAN SCHOOL,725 MOUNTAIN DR,BIRMINGHAM,AL,35206,NOT AVAILABLE,(205) 231-5249
79052,10000800839,MADISON ELEMENTARY SCHOOL,17 COLLEGE ST,MADISON,AL,35758,NOT AVAILABLE,(256) 772-9255
79640,10129000463,ELMORE COUNTY HIGH SCHOOL,155 N COLLEGE ST,ECLECTIC,AL,36024,6271,(334) 541-3661
40400,10237001028,GRANT ELEMENTARY SCHOOL,535 EASTERLING ST,PRICHARD,AL,36610,4203,(251) 221-1319
40455,10117000438,WOODMEADE ELEMENTARY SCHOOL,1400 19TH AVE SW,DECATUR,AL,35601,4651,(256) 552-3023
41183,10237001436,ELSIE COLLIER ELEMENTARY SCHOOL,601 SNOW ROAD NORTH,MOBILE,AL,36608,9768,(251) 221-1120
44938,10045000214,BREWTON ELEMENTARY SCHOOL,901 DOUGLAS AVE,BREWTON,AL,36426,1523,(251) 867-8410
47371,10336001269,WOODLAND FORREST ELEMENTARY SCHOOL,6001 E HARGROVE RD E,TUSCALOOSA,AL,35405,NOT AVAILABLE,(205) 759-3675
49341,10248001042,DANVILLE HIGH SCHOOL,9235 DANVILLE RD,DANVILLE,AL,35619,6432,(256) 773-9909
81330,10288001134,MOUNT OLIVE INTERMEDIATE SCHOOL,456 STATE HIGHWAY 165,FORT MITCHELL,AL,36856,NOT AVAILABLE,(334) 468-5002
86219,10222000838,MADISON CROSS ROADS ELEMENTARY SCHOOL,11548 PULASKI PIKE,TONEY,AL,35773,NOT AVAILABLE,(256) 851-4600
86264,10180000631,HUNTSVILLE HIGH SCHOOL,2304 BILLIE WATKINS SW,HUNTSVILLE,AL,35801,NOT AVAILABLE,(256) 428-8050
86918,10027001711,FAIRHOPE WEST ELEMENTARY,408 N SECTION STREET,FAIRHOPE,AL,36532,NOT AVAILABLE,(251) 928-8400
87233,10102000446,VINEMONT ELEMENTARY SCHOOL,105 HIGH SCHOOL ROAD,VINEMONT,AL,35179,NOT AVAILABLE,(256) 734-0314
52211,10237001617,HOLLOWAY ELEMENTARY,625 STANTON RD,MOBILE,AL,36617,2226,(251) 221-1391
53342,10342001656,DESHLER ALTERNATIVE SCHOOL,200 NORTH COMMONS EAST,TUSCUMBIA,AL,35674,NOT AVAILABLE,(256) 389-2900
53665,10039000165,PARKER HIGH SCHOOL,400 ABRAHAM WOODS JR BLVD,BIRMINGHAM,AL,35204,3746,(205) 231-2370
54911,10318001214,LINCOLN HIGH SCHOOL,78989 AL HWY 77,LINCOLN,AL,35096,7194,(256) 315-5295
54981,10001102430,LEEDS PRIMARY SCHOOL,991 PARK DRIVE,LEEDS,AL,35094,NOT AVAILABLE,(205) 702-4206
55291,10192000703,FULTONDALE ELEMENTARY SCHOOL,950 CENTRAL AVE,FULTONDALE,AL,35068,1600,(205) 379-3450
55574,10162000559,SANSOM MIDDLE SCHOOL,2210 W MEIGHAN BLVD,GADSDEN,AL,35904,1706,(256) 546-4992
56496,10177000885,HOUSTON COUNTY AREA VOCATIONAL CENTER,662 WEST MAIN,DOTHAN,AL,36301,1558,(334) 899-3308
57924,10168000576,GREENE COUNTY HIGH SCHOOL,14221 HIGHWAY 11 SOUTH,EUTAW,AL,35462,NOT AVAILABLE,(205) 372-2052
58643,10135001506,W S NEAL MIDDLE SCHOOL,703 WILLIAMSON ST,EAST BREWTON,AL,36426,NOT AVAILABLE,(251) 867-5035
90439,10339001462,ECHOLS MIDDLE SCHOOL,2701 ECHOLS AVE,NORTHPORT,AL,35476,NOT AVAILABLE,(205) 342-2884
93100,10306201622,ASHVILLE ELEMENTARY SCHOOL,33225 HIGHWAY 231,ASHVILLE,AL,35953,5841,(205) 594-5242
93748,10084000336,HATTON ELEMENTARY SCHOOL,2130 HATTON SCHOOL RD,LEIGHTON,AL,35646,NOT AVAILABLE,(256) 446-5679
94463,10243001753,BREWBAKER PRIMARY SCHOOL,4445 BREWBAKER DR,MONTGOMERY,AL,36116,4299,(334) 284-8005
95814,10219002353,MACON COUNTY AREA VOCATIONAL SCHOOL,1902 TAYLOR STREET,TUSKEGEE INST,AL,36083,NOT AVAILABLE,(334) 727-1600
98727,10263501384,OXFORD AREA VOCATIONAL SCHOOL,1 YELLOW JACKET DRIVE,OXFORD,AL,36203,2182,(256) 241-3166
61275,10054001430,WHITE PLAINS ELEMENTARY SCHOOL,5600 ALABAMA HWY 9,ANNISTON,AL,36207,NOT AVAILABLE,(256) 741-7700
65462,10237000899,BAKER HIGH SCHOOL,8901 AIRPORT BLVD,MOBILE,AL,36608,9503,(251) 221-3000
67230,10153001644,FLORENCE LEARNING CENTER,610 W COLLEGE ST,FLORENCE,AL,35630,NOT AVAILABLE,(256) 768-3022
68322,10132000478,HILLCREST ELEMENTARY SCHOOL,400 EAST WATTS AVENUE,ENTERPRISE,AL,36330,1861,(334) 347-6858
69099,10009000020,RANDOLPH PARK ELEMENTARY SCHOOL,2200 W 17TH ST,ANNISTON,AL,36201,3421,(256) 231-5080
69893,10027001783,DELTA ELEMENTARY SCHOOL,10251 WHITE HOUSE FORK RD,BAY MINETTE,AL,36507,NOT AVAILABLE,(251) 937-3657
100208,10135000487,FLOMATON HIGH SCHOOL,21200 HIGHWAY 31,FLOMATON,AL,36441,NOT AVAILABLE,(251) 296-2627
101803,10096000368,LUVERNE HIGH SCHOOL,194 FIRST AVE,LUVERNE,AL,36049,NOT AVAILABLE,(334) 335-3331
103205,10117002456,AUSTIN JUNIOR HIGH SCHOOL,1625 DANVILLE ROAD SW,DECATUR,AL,35601,NOT AVAILABLE,(256) 552-3060
106981,10020402510,I3 ACADEMY PHASE 2,7901 1ST AVENUE NORTH,BIRMINGHAM,AL,35206,NOT AVAILABLE,(205) 403-5777
42683,10024001550,LOUISE M SMITH DEVELOPMENT CENTER,298 JAY STREET,PRATTVILLE,AL,36066,NOT AVAILABLE,(334) 365-4054
49057,10066001491,CHILTON COUNTY HIGH SCHOOL,1214 7TH ST S,CLANTON,AL,35045,NOT AVAILABLE,(205) 280-2710
31590,10144000516,FAIRFIELD HIGH PREPARATORY SCHOOL,610 VALLEY RD,FAIRFIELD,AL,35064,NOT AVAILABLE,(205) 785-5176
32169,10054000242,SAKS ELEMENTARY SCHOOL,31 WATSON,ANNISTON,AL,36206,NOT AVAILABLE,(256) 741-6800
32354,10027000062,PERDIDO ELEMENTARY SCHOOL,23589 COUNTY ROAD 47,PERDIDO,AL,36562,NOT AVAILABLE,(251) 937-8456
36218,10231000865,GUIN ELEMENTARY SCHOOL,7980 U S HIGHWAY 43,GUIN,AL,35563,NOT AVAILABLE,(205) 468-3433
39016,10312001199,PINECREST ELEMENTARY SCHOOL,615 COALING RD,SYLACAUGA,AL,35150,NOT AVAILABLE,(256) 245-5700
50751,10243002207,MCKEE PREK CENTER,4015 MCINNIS RD,MONTGOMERY,AL,36116,5509,(334) 223-6801
55414,10090002074,CENTRAL ELEMENTARY SCHOOL,95 COOSA COUNTY RD 75,ROCKFORD,AL,35136,9500,(256) 377-1456
55666,10039000142,INGLENOOK SCHOOL,4120 INGLENOOK STREET,BIRMINGHAM,AL,35217,3806,(205) 231-3310
20930,10204002211,LAWRENCE COUNTY DEVELOPMENTAL,55 COUNTY ROAD 370,TRINITY,AL,35673,3314,(256) 905-2430
24822,10063000275,CENTRE ELEMENTARY SCHOOL,199 ARMORY ROAD,CENTRE,AL,35960,NOT AVAILABLE,(256) 927-3302
27401,10285001126,HANDLEY HIGH SCHOOL,100 TIGER CIRCLE,ROANOKE,AL,36274,1634,(334) 539-5266
27509,10129001432,ECLECTIC MIDDLE SCHOOL,170 SOUTH ANN ST,ECLECTIC,AL,36024,NOT AVAILABLE,(334) 541-2131
29113,10000802097,COLUMBIA ELEMENTARY SCHOOL,667 BALCH ROAD,MADISON,AL,35758,NOT AVAILABLE,(256) 430-2751
83870,10192000730,HUEYTOWN PRIMARY SCHOOL,1921 PRIMARY SCHOOL DRIVE,HUEYTOWN,AL,35023,3199,(205) 379-4950
85465,10237002168,DAWES INTERMEDIATE SCHOOL,10451 WEST LAKE ROAD,MOBILE,AL,36695,NOT AVAILABLE,(251) 221-1485
85799,10222001683,BUCKHORN HIGH SCHOOL,4123 WINCHESTER RD,NEW MARKET,AL,35761,NOT AVAILABLE,(256) 851-3300
86961,10117000426,AUSTIN HIGH SCHOOL,3004 MODAUS ROAD,DECATUR,AL,35601,5498,(256) 552-3060
89026,10042000211,SOUTHEASTERN SCHOOL,18770 STATE HIGHWAY 75,REMLAP,AL,35133,NOT AVAILABLE,(205) 681-3964
60705,10279001113,GOSHEN ELEMENTARY SCHOOL,23 COUNTY ROAD 2238,GOSHEN,AL,36035,NOT AVAILABLE,(334) 566-1851
63035,10243001392,BREWBAKER INTERMEDIATE SCHOOL,4455 BREWBAKER DR,MONTGOMERY,AL,36116,4299,(334) 284-8006
63139,10054001429,PLEASANT VALLEY ELEMENTARY SCHOOL,265 MARK GREEN ROAD,JACKSONVILLE,AL,36265,NOT AVAILABLE,(256) 741-6600
63720,10066000262,JEMISON HIGH SCHOOL,25195 US HIGHWAY 31,JEMISON,AL,35085,NOT AVAILABLE,(205) 280-4860
66326,10248001121,MORGAN COUNTY SCHOOLS TECHNOLOGY PARK,59 EVA RD,SOMERVILLE,AL,35670,NOT AVAILABLE,(256) 309-2119
66506,10000600877,DOUGLAS ELEMENTARY SCHOOL,HIGHWAY 75,DOUGLAS,AL,35964,NOT AVAILABLE,(256) 593-4420
91811,10358001465,LYNN ELEMENTARY SCHOOL,531 E MAIN ST,LYNN,AL,35575,NOT AVAILABLE,(205) 717-3333
93846,10138000501,IVALEE ELEMENTARY SCHOOL,840 GALLANT RD,ATTALLA,AL,35954,NOT AVAILABLE,(256) 538-9781
94793,10303001804,OAK MOUNTAIN ELEMENTARY SCHOOL,5640 CAHABA VALLEY RD,BIRMINGHAM,AL,35242,NOT AVAILABLE,(205) 682-5230
95010,10339002350,BIG SANDY ELEMENTARY,11950 UPPER HULL ROAD,MOUNDVILLE,AL,35474,NOT AVAILABLE,(205) 342-2840
95128,10078000317,CLEBURNE COUNTY ELEMENTARY SCHOOL,584 EVANS BRIDGE RD,HEFLIN,AL,36264,2235,(256) 463-2654
95720,10192000729,MOUNT OLIVE ELEMENTARY SCHOOL,1301 BROOKSIDE RD,MOUNT OLIVE,AL,35117,NOT AVAILABLE,(205) 379-4900
97518,10177001668,ASHFORD ELEMENTARY SCHOOL,100 BARFIELD ST,ASHFORD,AL,36312,NOT AVAILABLE,(334) 726-5960
97786,10002001831,THE BOYD SCHOOL,20856 EASTERN VALLEY RD,GREEN POND,AL,35074,NOT AVAILABLE,(205) 938-7663
98487,10222000566,NEW HOPE ELEMENTARY SCHOOL,5300 MAIN DR,NEW HOPE,AL,35760,NOT AVAILABLE,(256) 851-3260
74858,10132000474,COPPINVILLE SCHOOL,4641 BOLL WEEVIL CIRCLE,ENTERPRISE,AL,36330,4000,(334) 347-2215
74911,10019001182,THOMPSON INTERMEDIATE SCHOOL,1509 KENT DAIRY RD,ALABASTER,AL,35007,NOT AVAILABLE,(205) 685-6200
78175,10300001168,L E WILLSON ELEMENTARY SCHOOL,2200 31ST ST,SHEFFIELD,AL,35660,NOT AVAILABLE,(256) 386-5730
78576,10192000692,BROOKVILLE ELEMENTARY SCHOOL,4275 BROOKVILLE SCHOOL RD,GRAYSVILLE,AL,35073,NOT AVAILABLE,(205) 379-2700
102323,10017902107,THE BRIDGE INC MOBILE,3401 NEWMAN ROAD,MOBILE,AL,36695,8613,(251) 633-0475
103200,10020602491,WOODLAND PREPARATORY,21168 HWY 17,CHATOM,AL,36518,6361,(205) 361-5267
103212,10237002477,CITRONELLE CENTER FOR ADVANCED TECHNOLOGY,8200 LEBARON AVENUE,CITRONELLE,AL,36522,NOT AVAILABLE,(251) 221-3444
106968,10002602352,SEQUEL TSI TUSKEGEE LLC,4280 U S HIGHWAY 29 SOUTH,TUSKEGEE,AL,36083,NOT AVAILABLE,(334) 727-2216
106987,10180002478,ACADEMY FOR ACADEMICS AND ARTS MIDDLE SCHOOL,4800 SPARKMAN DRIVE,HUNTSVILLE,AL,35810,NOT AVAILABLE,(256) 428-7600
1756,10063000279,GAYLESVILLE HIGH SCHOOL,760 TROJAN WAY,GAYLESVILLE,AL,35973,NOT AVAILABLE,(256) 422-3401
2309,10342001298,DESHLER MIDDLE SCHOOL,598 N HIGH ST,TUSCUMBIA,AL,35674,1399,(256) 389-2920
2341,10318001209,AH WATWOOD ELEMENTARY SCHOOL,3002 LIMBAUGH BLVD,CHILDERSBURG,AL,35044,NOT AVAILABLE,(256) 315-5460
5465,10336002134,SOUTHVIEW ELEMENTARY SCHOOL,2601 SOUTHVIEW DRIVE,TUSCALOOSA,AL,35405,NOT AVAILABLE,(205) 345-1325
6996,10261001078,OPP ELEMENTARY SCHOOL,27098 BOBCAT DRIVE,OPP,AL,36467,NOT AVAILABLE,(334) 493-6031
10701,10288001132,DIXIE ELEMENTARY SCHOOL,4914 US HIGHWAY 80 W,OPELIKA,AL,36804,NOT AVAILABLE,(334) 468-5323
14174,10183000662,NORTH SAND MOUNTAIN SCHOOL,29333 AL HIGHWAY 71,HIGDON,AL,35979,NOT AVAILABLE,(256) 597-2368
14410,10019502407,PIKE ROAD ELEMENTARY SCHOOL,500 AVENUE OF LEARNING,PIKE ROAD,AL,36064,NOT AVAILABLE,(334) 420-5310
15491,10285001387,RANDOLPHROANOKE CAREER TECHNOLOGY CENTER,960 MAIN STSOUTH,WEDOWEE,AL,36278,NOT AVAILABLE,(256) 357-2839
19316,10351000325,F S ERVIN ELEMENTARY SCHOOL,500 LEROY RANDOLPH RD,PINE HILL,AL,36769,0220,(334) 963-4702
4272,10084000331,CHEROKEE ELEMENTARY SCHOOL,1305 NORTH PIKE,CHEROKEE,AL,35616,7028,(256) 359-6422
4434,10018502427,SARALAND EARLY EDUCATION CENTER,4000 LIL SPARTAN DRIVE,SARALAND,AL,36571,NOT AVAILABLE,(251) 602-8930
5092,10336002134,SOUTHVIEW ELEMENTARY SCHOOL,2601 SOUTHVIEW DRIVE,TUSCALOOSA,AL,35405,NOT AVAILABLE,(205) 345-1325
9866,10114000411,COLLINSVILLE HIGH SCHOOL,802 S VALLEY AVE,COLLINSVILLE,AL,35961,3539,(256) 524-2111
60154,10138000498,GLENCOE HIGH SCHOOL,803 LONESOME BEND RD,GLENCOE,AL,35905,NOT AVAILABLE,(256) 492-2250
61209,10216000815,CALHOUN HIGH SCHOOL,8213 COUNTY ROAD 33,LETOHATCHEE,AL,36047,NOT AVAILABLE,(334) 227-4515
61452,10237001688,THEODORE HIGH SCHOOL,6201 SWEDETOWN RD,THEODORE,AL,36582,NOT AVAILABLE,(251) 221-3351
62331,10306201591,MOODY HIGH SCHOOL,714 HIGH SCHOOL DR,MOODY,AL,35004,2307,(205) 640-5127
63211,10012001475,JULIAN NEWMAN ELEMENTARY SCHOOL,517 JULIAN NEWMAN DR,ATHENS,AL,35611,NOT AVAILABLE,(256) 233-6630
63502,10300000160,SHEFFIELD JUNIOR HIGH SCHOOL,1803 30TH ST,SHEFFIELD,AL,35660,NOT AVAILABLE,(256) 386-5735
63925,10153000534,HARLAN ELEMENTARY SCHOOL,2233 MCBURNEY DR,FLORENCE,AL,35630,NOT AVAILABLE,(256) 768-2700
63981,10243001039,VAUGHN ROAD ELEMENTARY SCHOOL,4407 VAUGHN RD,MONTGOMERY,AL,36106,3099,(334) 260-1031
66171,10265001573,PELL CITY HIGH SCHOOL,1300 COGSWELL AVE,PELL CITY,AL,35125,1299,(205) 338-2250
66700,10237000966,SPENCERWESTLAWN ELEMENTARY SCHOOL,3071 RALSTON RD,MOBILE,AL,36606,5099,(251) 221-1705
10255,10096000801,CRENSHAW COUNTY AREA VOCATIONAL,183 VOTEC DR,LUVERNE,AL,36049,NOT AVAILABLE,(334) 335-6519
12873,10102000375,COLD SPRINGS ELEMENTARY SCHOOL,8999 COUNTY ROAD 109,BREMEN,AL,35033,0130,(256) 287-1247
16252,10138001507,GLENCOE MIDDLE SCHOOL,809 LONESOME BEND RD,GLENCOE,AL,35905,NOT AVAILABLE,(256) 492-5627
18689,10159001861,PHIL CAMPBELL ELEMENTARY SCHOOL,148 CAMP STREET,PHIL CAMPBELL,AL,35581,NOT AVAILABLE,(256) 331-2170
42662,10024001639,PRATTVILLE KINDERGARTEN SCHOOL,338 1ST ST,PRATTVILLE,AL,36067,NOT AVAILABLE,(334) 361-3890
43962,10036000098,WEST BLOCTON ELEMENTARY SCHOOL,828 CAHABA RIVER DR,WEST BLOCTON,AL,35184,NOT AVAILABLE,(205) 938-9005
44433,10252001800,HOWELL GRAVES PRESCHOOL,3201 ALABAMA AVE,MUSCLE SHOALS,AL,35661,3699,(256) 389-2630
44538,10339001882,DUNCANVILLE MIDDLE SCHOOL,11205 EAGLE PARKWAY,DUNCANVILLE,AL,35456,NOT AVAILABLE,(205) 342-2830
45209,10348001333,CHATOM ELEMENTARY SCHOOL,592 RAY COAKER RD,CHATOM,AL,36518,1209,(251) 847-2946
49709,10279001115,PIKE COUNTY ELEMENTARY SCHOOL,186 HILLCREST COURT,BRUNDIDGE,AL,36010,NOT AVAILABLE,(334) 735-2683
32190,10183000666,ROSALIE ELEMENTARY SCHOOL,162 COUNTY ROAD 355,PISGAH,AL,35765,NOT AVAILABLE,(256) 451-3616
34372,10039001296,ADOLESCENT DAY TREATMENT,2015 PARK PLACE N,BIRMINGHAM,AL,35203,NOT AVAILABLE,(205) 231-4633
37129,10249001058,MOUNTAIN BROOK ELEMENTARY SCHOOL,3020 CAMBRIDGE RD,MOUNTAIN BROOK,AL,35223,NOT AVAILABLE,(205) 871-8191
52166,10162001824,GADSDEN CITY HIGH SCHOOL,1917 BLACK CREEK PARKWAY,GADSDEN,AL,35904,NOT AVAILABLE,(256) 543-3614
54607,10237001618,AUGUSTA EVANS SCHOOL,6301 BILOXI AVE,MOBILE,AL,36608,NOT AVAILABLE,(251) 221-5400
90295,10117000436,WALTER JACKSON ELEMENTARY SCHOOL,1950 PARK ST SE,DECATUR,AL,35601,5262,(256) 552-3031
91101,10171002162,GREENSBORO HIGH SCHOOL,1221 BAPTIST HILL ROAD,GREENSBORO,AL,36744,NOT AVAILABLE,(334) 624-9156
92705,10039000107,CHARLES A BROWN ELEMENTARY SCHOOL,4811 COURT J,BIRMINGHAM,AL,35208,NOT AVAILABLE,(205) 231-6860
93575,10303001588,ELVIN HILL ELEMENTARY SCHOOL,201 WASHINGTON ST,COLUMBIANA,AL,35051,NOT AVAILABLE,(205) 682-6620
93909,10138001509,SOUTHSIDE ELEMENTARY SCHOOL,2551 HIGHWAY 77,SOUTHSIDE,AL,35907,NOT AVAILABLE,(256) 442-1090
95719,10270001092,SOUTH GIRARD SCHOOL,521 FONTAINE RD,PHENIX CITY,AL,36869,NOT AVAILABLE,(334) 298-2527
97126,10019001460,MEADOW VIEW ELEMENTARY SCHOOL,2800 SMOKEY RD,ALABASTER,AL,35007,NOT AVAILABLE,(205) 685-4300
97815,10017602111,W E DONALDSON,100 WARRIOR LN,BESSEMER,AL,35023,7228,(205) 436-3681
97862,10306202485,SCC VIRTUAL PREPARATORY ACADEMY,410 ROY DRIVE,ASHVILLE,AL,36265,NOT AVAILABLE,(205) 594-7131
97873,10258001566,MORRIS AVENUE INTERMEDIATE SCHOOL,8 MORRIS AVE,OPELIKA,AL,36801,NOT AVAILABLE,(334) 745-9734
98610,10343002135,LIBERTY PARK MIDDLE SCHOOL,17035 LIBERTY PKWY,VESTAVIA,AL,35242,7539,(205) 402-5450
99016,10000702091,RIVERCHASE ELEMENTARY SCHOOL,1950 OLD MONTGOMERY HIGHWAY,HOOVER,AL,35244,1516,(205) 439-3400
21118,10267001577,ROBERT C HATCH HIGH SCHOOL,470 WEST AVENUE,UNIONTOWN,AL,36786,0709,(334) 628-4061
21219,10192000697,CONCORD ELEMENTARY SCHOOL,1886 LEARNING LANE,BESSEMER,AL,35023,4300,(205) 379-3150
21866,10141001874,HOPE ACADEMY,333 STATE DOCKS ROAD,EUFAULA,AL,36027,1450,(334) 687-1100
22430,10180002379,RONALD MCNAIR 78,5000 PULASKI PIKE,HUNTSVILLE,AL,35810,NOT AVAILABLE,(256) 428-7660
23019,10201000772,ROGERS HIGH SCHOOL,300 ROGERS LN,FLORENCE,AL,35634,NOT AVAILABLE,(256) 757-3106
25732,10306200520,SPRINGVILLE MIDDLE SCHOOL,6691 U S HIGHWAY 11,SPRINGVILLE,AL,35146,NOT AVAILABLE,(205) 467-2740
81916,10171000589,MOUNDVILLE ELEMENTARY SCHOOL,537 ALABAMA AVE,MOUNDVILLE,AL,35474,NOT AVAILABLE,(205) 371-2679
83148,10093000364,WS HARLAN ELEMENTARY SCHOOL,1641 MOHEGAN ST,LOCKHART,AL,36455,NOT AVAILABLE,(334) 858-3294
85542,10216001635,FORT DEPOSIT ELEMENTARY SCHOOL,200 GILMER HILLS RD,FORT DEPOSIT,AL,36032,NOT AVAILABLE,(334) 227-8704
87800,10192000734,PINSON VALLEY HIGH SCHOOL,6895 HIGHWAY 75,PINSON,AL,35126,NOT AVAILABLE,(205) 379-5100
89017,10318001806,STEMLEY ROAD ELEMENTARY SCHOOL,2760 STEMLEY BRIDGE RD,TALLADEGA,AL,35160,NOT AVAILABLE,(256) 315-5325
71091,10237000898,BEN C RAIN HIGH SCHOOL,3125 DAUPHIN ISLAND PKWY,MOBILE,AL,36605,3899,(251) 221-3233
74772,10339002153,SIPSEY VALLEY HIGH SCHOOL,15815 ROMULUS RD,BUHL,AL,35446,NOT AVAILABLE,(205) 342-2850
75144,10183000657,DUTTON ELEMENTARY SCHOOL,180 MAIN ST,DUTTON,AL,35744,NOT AVAILABLE,(256) 228-4265
78081,10120000442,WESTSIDE ELEMENTARY SCHOOL,1720 MAUVILLA DRIVE,DEMOPOLIS,AL,36732,1720,(334) 289-0377
102256,10027000059,FAIRHOPE MIDDLE SCHOOL,TWO PIRATE DRIVE,FAIRHOPE,AL,36532,NOT AVAILABLE,(251) 928-2573
102321,10017602111,W E DONALDSON,100 WARRIOR LN,BESSEMER,AL,35023,7228,(205) 436-3681
103199,10020502488,CAPSTONE,820 20TH AVENUE,TUSCALOOSA,AL,35401,2132,(205) 342-2846
31011,10135000489,POLLARDMCCALL JUNIOR HIGH SCHOOL,3975 OLD HIGHWAY 31,BREWTON,AL,36426,8095,(251) 867-4070
32343,10267001734,FRANCIS MARION SCHOOL,101 HUBBARD DRIVE,MARION,AL,36756,2100,(334) 683-6622
32878,10237001624,UCP OF MOBILE INC,3058 DAUPHIN SQUARE CONNECTOR,MOBILE,AL,36607,NOT AVAILABLE,(251) 479-4900
33939,10087000350,REPTON JUNIOR HIGH SCHOOL,2340 CONALY STREET,REPTON,AL,36475,0007,(251) 248-2960
34875,10180000618,BLOSSOMWOOD ELEMENTARY SCHOOL,1321 WOODMONT AVENUE,HUNTSVILLE,AL,35801,4137,(256) 428-7020
12901,10207000285,BEULAH ELEMENTARY SCHOOL,4747 LEE ROAD 270,VALLEY,AL,36854,6987,(334) 705-6021
13718,10039000112,CENTRAL PARK ELEMENTARY SCHOOL,4915 AVE Q,BIRMINGHAM,AL,35208,NOT AVAILABLE,(205) 231-1250
13955,10249001053,BROOKWOOD FOREST ELEMENTARY SCHOOL,3701 S BROOKWOOD RD,MOUNTAIN BROOK,AL,35223,NOT AVAILABLE,(205) 414-3700
19904,10024000045,BILLINGSLEY HIGH SCHOOL,2446 COUNTY ROAD 77,BILLINGSLEY,AL,36006,NOT AVAILABLE,(205) 755-1629
60896,10039001468,GEORGE WASHINGTON CARVER HIGH SCHOOL,3900 24TH ST N,BIRMINGHAM,AL,35207,NOT AVAILABLE,(205) 231-3900
63096,10166000571,SAMSON HIGH SCHOOL,209 N BROAD ST,SAMSON,AL,36477,NOT AVAILABLE,(334) 898-2371
63585,10000500879,ALBERTVILLE INTERMEDIATE SCHOOL,901 W MCKINNEY AVE,ALBERTVILLE,AL,35950,1300,(256) 878-7698
63927,10207000792,LOACHAPOKA HIGH SCHOOL,685 LEE ROAD 61,LOACHAPOKA,AL,36865,0187,(334) 705-6030
65393,10339000233,TUSCALOOSA COUNTY JUVENILE DETENTION CENTER,5941 12TH AVE EAST,TUSCALOOSA,AL,35405,NOT AVAILABLE,(205) 349-3131
68182,10237001813,OROURKE ELEMENTARY SCHOOL,1975 LEROY STEVENS RD,MOBILE,AL,36695,NOT AVAILABLE,(251) 221-1585
69892,10348001338,MCINTOSH HIGH SCHOOL,7010 HIGHWAY 43,MCINTOSH,AL,36553,0359,(251) 944-2449
20152,10078000321,RANBURNE HIGH SCHOOL,21045 MAIN ST,RANBURNE,AL,36273,4216,(256) 568-3402
21567,10093000359,FLEETA SCHOOL,27463 COUNTY ROAD 30,OPP,AL,36467,NOT AVAILABLE,(334) 493-6772
27920,10039000079,ENGLE DAY TREATMENT,2015 PARK PLACE N,BIRMINGHAM,AL,35203,NOT AVAILABLE,(205) 231-4776
28710,10297001157,MEADOWVIEW ELEMENTARY SCHOOL,1816 ORRVILLE RD,SELMA,AL,36701,NOT AVAILABLE,(334) 874-1655
28711,10033000088,JONESBORO ELEMENTARY SCHOOL,125 OWEN AVE,BESSEMER,AL,35020,NOT AVAILABLE,(205) 432-3400
29453,10318001756,CHILDERSBURG MIDDLE SCHOOL,800 4TH ST SE,CHILDERSBURG,AL,35044,NOT AVAILABLE,(256) 315-5505
90571,10348001332,MCINTOSH ELEMENTARY SCHOOL,MCINTOSH,MCINTOSH,AL,36553,0357,(251) 944-2481
94176,10225000857,SWEET WATER HIGH SCHOOL,440 MAIN STREET,SWEET WATER,AL,36782,NOT AVAILABLE,(334) 994-4263
94773,10021002363,PICK ELEMENTARY SCHOOL,1320 N COLLEGE ST,AUBURN,AL,36830,2665,(334) 887-2110
95011,10019001183,THOMPSON HIGH SCHOOL,1921 WARRIOR PARKWAY,ALABASTER,AL,35007,NOT AVAILABLE,(205) 685-6700
96718,10204000779,HATTON ELEMENTARY SCHOOL,6536 COUNTY ROAD 236,TOWN CREEK,AL,35672,5812,(256) 685-4000
99321,10315001724,EVELYN D HOUSTON ELEMENTARY SCHOOL,1310 ASHLAND HWY,TALLADEGA,AL,35160,NOT AVAILABLE,(256) 315-5808
99856,10111001785,BRUCE K CRAIG ELEMENTARY SCHOOL,BUILDING 108 CRAIG IND PARK,SELMA,AL,36701,8138,(334) 875-7937
52560,10087002360,GENESIS SCHOOL,111 PERRYMAN STREET,EVERGREEN,AL,36401,NOT AVAILABLE,(251) 578-5291
55892,10012002417,ATHENS RENAISSANCE SCHOOL,405 SOUTH STREET EAST,ATHENS,AL,35611,NOT AVAILABLE,(256) 614-3708
85932,10180000639,MONTE SANO ELEMENTARY SCHOOL,1107 MONTE SANO BLVD,HUNTSVILLE,AL,35801,NOT AVAILABLE,(256) 428-7300
86393,10054001884,WHITE PLAINS MIDDLE SCHOOL,5800 AL HIGHWAY 9,ANNISTON,AL,36207,NOT AVAILABLE,(256) 741-4700
87333,10054000246,WEAVER ELEMENTARY SCHOOL,444 SCHOOL DR,WEAVER,AL,36277,4311,(256) 741-7100
73647,10018500893,SARALAND MIDDLE SCHOOLADAMS CAMPUS,401 BALDWIN ROAD,SARALAND,AL,36571,9449,(251) 679-9405
76763,10333001807,TROY ELEMENTARY SCHOOL,503 GIBBS ST,TROY,AL,36081,0708,(334) 566-1444
76967,10339001287,NORTHSIDE HIGH SCHOOL,19230 NORTHSIDE PARKWAY,NORTHPORT,AL,35475,NOT AVAILABLE,(205) 342-2755
79097,10093001672,STRAUGHN MIDDLE SCHOOL,29324 STRAUGHN SCHOOL ROAD,ANDALUSIA,AL,36421,NOT AVAILABLE,(334) 222-4090
79143,10195001511,LAMAR COUNTY HIGHINTERMEDIATE,8990 HIGHWAY 18,VERNON,AL,35592,NOT AVAILABLE,(205) 695-7717
3331,10006000008,ANDALUSIA JUNIOR HIGH,408 4TH AVENUE,ANDALUSIA,AL,36420,NOT AVAILABLE,(334) 222-7569
3386,10345001317,LUPTON JUNIOR HIGH SCHOOL,1110 PROSPECT RD,NAUVOO,AL,35578,NOT AVAILABLE,(205) 384-5838
4048,10174000602,ABBEVILLE ELEMENTARY SCHOOL,100 ELM ST,ABBEVILLE,AL,36310,NOT AVAILABLE,(334) 585-3679
5843,10210002436,LIMESTONE COUNTY VIRTUAL SCHOOL CENTER,21465 AL HWY 99,ATHENS,AL,35614,NOT AVAILABLE,(256) 233-6463
8116,10248000212,WEST MORGAN ELEMENTARY SCHOOL,571 OLD HWY 24,TRINITY,AL,35673,6108,(256) 350-8818
44240,10303001178,MONTEVALLO MIDDLE SCHOOL,235 SAMFORD ST,MONTEVALLO,AL,35115,4123,(205) 682-6410
45737,10039002354,OXMOOR K5,3600 SYDNEY DRIVE,BIRMINGHAM,AL,35211,NOT AVAILABLE,(205) 231-1200
46368,10027001708,BAY MINETTE ELEMENTARY SCHOOL,800 BLACKBURN AVE,BAY MINETTE,AL,36507,3754,(251) 937-7651
102301,10000901405,HELEN KELLER SCHOOL,1221 COCHRAN AVE,TALLADEGA,AL,35161,NOT AVAILABLE,(256) 761-3250
102420,10002201833,SEQUEL TSI COURTLAND LLC,349 MADISON STREET,COURTLAND,AL,35618,0370,(256) 637-2199
102422,10002401835,SEQUEL TSI NEW BEGINNINGS LLC,318 HAMER RD,OWENS CROSS ROADS,AL,35763,NOT AVAILABLE,(256) 725-7170
103194,10017902459,THE BRIDGE INC GADSDEN,3232 LAY SPRINGS ROAD,GADSDEN,AL,35904,NOT AVAILABLE,(256) 546-6324
81512,10339001284,MAXWELL ELEMENTARY SCHOOL,11370 MONTICELLO DR,DUNCANVILLE,AL,35456,9798,(205) 342-2656
81635,10173000597,FE BURLESON ELEMENTARY SCHOOL,1100 BETHEL ROAD NE,HARTSELLE,AL,35640,NOT AVAILABLE,(256) 773-2411
81706,10036000095,BRENT ELEMENTARY SCHOOL,160 4TH STREET,BRENT,AL,35034,NOT AVAILABLE,(205) 926-4993
82331,10192000737,PLEASANT GROVE HIGH SCHOOL,100 SPARTAN DRIVE,PLEASANT GROVE,AL,35127,4000,(205) 379-5250
82529,10060000271,VALLEY HIGH SCHOOL,501 HIGHWAY 29,VALLEY,AL,36854,NOT AVAILABLE,(334) 756-4105
83718,10090000798,COOSA COUNTY CAREER TECH CENTER,17768 US HWY 231,ROCKFORD,AL,35136,NOT AVAILABLE,(256) 377-4678
85288,10243001031,MORNINGVIEW ELEMENTARY SCHOOL,2849 PELZER AVE,MONTGOMERY,AL,36109,2099,(334) 260-1028
85758,10339001702,LLOYD WOOD EDUCATION CENTER,2300 26TH AVENUE,NORTHPORT,AL,35476,5011,(205) 342-2660
87425,10201000773,UNDERWOOD ELEMENTARY SCHOOL,4725 HIGHWAY 157,FLORENCE,AL,35633,NOT AVAILABLE,(256) 764-8939
87526,10153000532,FOREST HILLS SCHOOL,101 STOVALL DR,FLORENCE,AL,35633,NOT AVAILABLE,(256) 768-2500
87850,10243002151,WILSON ELEMENTARY SCHOOL,8900 PARK CROSSING,MONTGOMERY,AL,36117,NOT AVAILABLE,(334) 272-8819
88905,10306201367,SAINT CLAIR COUNTY HIGH SCHOOL,16700 US HIGHWAY 411,ODENVILLE,AL,35120,7928,(205) 629-6222
92085,10159000548,VINA HIGH SCHOOL,8250 COUNTY ROAD 23,VINA,AL,35593,NOT AVAILABLE,(256) 331-2260
92925,10162001650,THERAPEUTIC ACADEMIC PROGRAM,201 COLLEGE ST,GADSDEN,AL,35901,3802,(256) 549-2961
94643,10231002160,HACKLEBURG ELEMENTARY SCHOOL,185 SCHOOL STREET,HACKLEBURG,AL,35564,4066,(205) 935-5156
94649,10243000991,BEAR EXPLORATION CENTER,2525 CHURCHILL DR,MONTGOMERY,AL,36111,2899,(334) 284-8014
94975,10141000514,EUFAULA PRIMARY SCHOOL,520 PUMP STATION RD,EUFAULA,AL,36027,2250,(334) 687-1140
97488,10315001201,C L SALTER ELEMENTARY SCHOOL,106 BRECON ACCESS RD,TALLADEGA,AL,35160,1360,(256) 315-5822
102115,10237000900,MATTIE T BLOUNT HIGH SCHOOL,5450 LOTT ROAD,EIGHT MILE,AL,36613,9170,(251) 221-3070
102302,10000901406,E H GENTRY TECHNICAL FACILITY,1105 FORT LASHLEY,TALLADEGA,AL,35160,NOT AVAILABLE,(256) 761-3402
103186,10003901850,PRESBYTERIAN HOME FOR CHILDREN,905 ASHLAND HWY,TALLADEGA,AL,35160,NOT AVAILABLE,(256) 362-4314
103192,10017602467,FRANK LEE YOUTH CENTER,5305 INGRAM RD,DEATSVILLE,AL,36022,0410,(334) 290-3200
50171,10219000829,DC WOLFE SCHOOL,4450 CROSS KEYS RD,SHORTER,AL,36075,NOT AVAILABLE,(334) 727-1641
50233,10348001339,MILLRY HIGH SCHOOL,1 WILDCAT DRIVE,MILLRY,AL,36558,0065,(251) 846-2987
50535,10192000720,BRYAN ELEMENTARY SCHOOL,600 KIMBERLY CUT OFF RD,MORRIS,AL,35116,NOT AVAILABLE,(205) 379-2750
50622,10051000226,GREENVILLE HIGH SCHOOL,100 TIGER DR,GREENVILLE,AL,36037,NOT AVAILABLE,(334) 382-2608
52761,10087000348,THURGOOD MARSHALL MIDDLE SCHOOL,428 REYNOLDS AVENUE,EVERGREEN,AL,36401,3235,(251) 578-2866
52778,10105000389,DALE COUNTY HIGH SCHOOL,11470 COUNTY ROAD 59,MIDLAND CITY,AL,36350,NOT AVAILABLE,(334) 983-3541
3144,10033000084,CHARLES F HARD ELEMENTARY SCHOOL,2801 ARLINGTON AVE,BESSEMER,AL,35020,NOT AVAILABLE,(205) 432-3300
3338,10171002158,GREENSBORO ELEMENTARY SCHOOL,1801 SOUTH STREET,GREENSBORO,AL,36744,NOT AVAILABLE,(334) 624-8611
32900,10000701456,SPAIN PARK HIGH SCHOOL,4700 JAGUAR DRIVE,HOOVER,AL,35242,4678,(205) 439-1400
35894,10237000914,DIXON ELEMENTARY SCHOOL,8650 FOUR MILE RD,IRVINGTON,AL,36544,NOT AVAILABLE,(251) 824-4314
37300,10237000964,CF VIGOR HIGH SCHOOL,913 N WILSON AVE,PRICHARD,AL,36610,NOT AVAILABLE,(251) 221-3045
37575,10060000259,FIVE POINTS ELEMENTARY SCHOOL,10180 COUNTY ROAD 222,FIVE POINTS,AL,36855,0098,(334) 864-7615
60566,10180000533,HAMPTON COVE ELEMENTARY,261 OLD 431 HWY,HAMPTON COVE,AL,35763,NOT AVAILABLE,(256) 428-7180
62741,10129001660,MILLBROOK MIDDLE SCHOOL,4228 CHAPMAN RD,MILLBROOK,AL,36054,NOT AVAILABLE,(334) 285-2100
64936,10237000954,CL SCARBOROUGH MODEL MIDDLE SCHOOL,1800 PHILLIPS LN,MOBILE,AL,36618,NOT AVAILABLE,(251) 221-2323
65641,10303002189,FOREST OAKS ELEMENTARY SCHOOL,1000 HORNET PARKWAY,CHELSEA,AL,35043,NOT AVAILABLE,(205) 682-7220
67067,10132000481,RUCKER BOULEVARD ELEMENTARY SCHOOL,209 REGENCY DR,ENTERPRISE,AL,36330,NOT AVAILABLE,(334) 347-3535
67121,10231000868,HAMILTON HIGH SCHOOL,211 AGGIE AVE,HAMILTON,AL,35570,NOT AVAILABLE,(205) 921-3281
68218,10033001479,ABRAMS ELEMENTARY SCHOOL,1200 23RD STREET N,BESSEMER,AL,35020,NOT AVAILABLE,(205) 432-3100
21303,10358001360,MEEK HIGH SCHOOL,6615 CO RD 41,ARLEY,AL,35541,3360,(205) 384-5825
22687,10219000826,TUSKEGEE INSTITUTE MIDDLE SCHOOL,1809 FRANKLIN RD,TUSKEGEE INSTITUTE,AL,36088,NOT AVAILABLE,(334) 727-2580
24462,10348001337,LEROY HIGH SCHOOL,26301 HIGHWAY 43,LEROY,AL,36548,NOT AVAILABLE,(251) 246-2000
24836,10180001375,NEAVESDAVIS DETENTION CENTER FOR CHILDREN,817 COOK AVE,HUNTSVILLE,AL,35801,NOT AVAILABLE,(256) 532-0300
25318,10000800831,BOB JONES HIGH SCHOOL,650 HUGHES RD,MADISON,AL,35758,NOT AVAILABLE,(256) 772-2547
25733,10318001206,TALLADEGA COUNTY GENESIS SCHOOL,22445 AL HIGHWAY 21,ALPINE,AL,35014,NOT AVAILABLE,(256) 315-5580
26837,10327001239,TARRANT ELEMENTARY SCHOOL,1269 PORTLAND ST,TARRANT,AL,35217,3000,(205) 841-7541
27121,10174000605,HEADLAND MIDDLE SCHOOL,1 MARTIN LUTHER KING DR,HEADLAND,AL,36345,0324,(334) 585-7083
27759,10339001277,CRESTMONT ELEMENTARY SCHOOL,2400 34TH AVE,NORTHPORT,AL,35476,NOT AVAILABLE,(205) 342-2695
10030,10333001603,CHARLES HENDERSON MIDDLE,800 ELM ST,TROY,AL,36081,0925,(334) 566-5770
10183,10207000296,SOUTH SMITHS STATION ELEMENTARY SCHOOL,80 LEE ROAD 926,SMITHS STATION,AL,36877,4304,(334) 664-4062
10700,10117000431,LEON SHEFFIELD MAGNET ELEMENTARY SCHOOL,801 WILSON ST NW,DECATUR,AL,35601,NOT AVAILABLE,(256) 552-3056
11370,10252001382,MUSCLE SHOALS CAREER ACADEMY,321 JIM HOLLAND DRIVE,MUSCLE SHOALS,AL,35661,NOT AVAILABLE,(256) 389-2660
12900,10039001421,SOUTH HAMPTON K8,565 SHERIDAN RD PRATT CITY,BIRMINGHAM,AL,35214,4629,(205) 231-6689
14278,10303001188,WILSONVILLE ELEMENTARY SCHOOL,71 SCHOOL ST,WILSONVILLE,AL,35186,NOT AVAILABLE,(205) 682-6640
14849,10000801485,RAINBOW ELEMENTARY SCHOOL,50 NANCE RD,MADISON,AL,35758,9507,(256) 824-8106
18175,10039001288,DUPUY ALTERNATIVE SCHOOL,4500 14TH AVE N,BIRMINGHAM,AL,35212,NOT AVAILABLE,(205) 231-3250
18378,10318001213,CHILDERSBURG HIGH SCHOOL,1325 FAY S PERRY DR,CHILDERSBURG,AL,35044,NOT AVAILABLE,(256) 315-5477
18580,10258002098,OPELIKA LEARNING CENTER,214 JETER AVENUE,OPELIKA,AL,36801,3730,(334) 741-5603
71242,10222001684,CENTRAL SCHOOL,990 RYLAND PIKE,HUNTSVILLE,AL,35811,NOT AVAILABLE,(256) 851-4670
72810,10258001068,JETER PRIMARY SCHOOL,700 JETER AVE,OPELIKA,AL,36801,NOT AVAILABLE,(334) 745-9723
40003,10039000119,EPIC ALTERNATIVE ELEMENTARY SCHOOL,1000 10TH AVE S,BIRMINGHAM,AL,35205,4606,(205) 231-7370
42930,10195000941,LAMAR COUNTY SCHOOL OF TECHNOLOGY,43880 HWY 17 SOUTH,VERNON,AL,35592,NOT AVAILABLE,(205) 695-7129
43357,10001102095,LEEDS MIDDLE SCHOOL,1771 WHITMIRE STREET,LEEDS,AL,35094,NOT AVAILABLE,(205) 699-4505
43379,10033000086,BESSEMER CITY MIDDLE SCHOOL,100 HIGH SCHOOL DRIVE,BESSEMER,AL,35020,6599,(205) 432-3600
43585,10192000718,IRONDALE COMMUNITY SCHOOL,225 16TH ST S,IRONDALE,AL,35210,1647,(205) 379-4200
45383,10000800303,HORIZON ELEMENTARY SCHOOL,7855 OLD MADISON PIKE,MADISON,AL,35758,NOT AVAILABLE,(256) 464-3614
48337,10248001050,SPARKMAN ELEMENTARY SCHOOL,72 PLAINVIEW,HARTSELLE,AL,35640,5502,(256) 773-6458
12471,10291001140,RUSSELLVILLE ELEMENTARY SCHOOL,133 CHUCKY MULLINS MEMORIAL DR,RUSSELLVILLE,AL,35653,NOT AVAILABLE,(256) 331-2123
14019,10027000060,FOLEY MIDDLE SCHOOL,200 N OAK ST,FOLEY,AL,36535,2007,(251) 943-1255
15476,10183000667,SECTION HIGH SCHOOL,141 AL HIGHWAY 71,SECTION,AL,35771,NOT AVAILABLE,(256) 228-6718
17936,10027001714,LOXLEY ELEMENTARY SCHOOL,4999 SOUTH MAGNOLIA ST,LOXLEY,AL,36551,5499,(251) 964-5334
18545,10243001776,BALDWIN ART AND ACADEMICS MAGNET,410 S MCDONOUGH ST,MONTGOMERY,AL,36104,4226,(334) 269-3870
18939,10303000124,OAK MOUNTAIN MIDDLE SCHOOL,5650 CAHABA VALLEY RD,BIRMINGHAM,AL,35242,NOT AVAILABLE,(205) 682-5210
19698,10327001240,TARRANT HIGH SCHOOL,91 BLACK CREEK ROAD,TARRANT,AL,35217,3096,(205) 849-0172
133,10171002411,HALE COUNTY MIDDLE SCHOOL,120 WILDCAT WAY,MOUNDVILLE,AL,35474,NOT AVAILABLE,(205) 371-7000
1176,10114000423,RUHUMA JUNIOR HIGH SCHOOL,3371 COUNTY ROAD 81,FT PAYNE,AL,35967,6047,(256) 845-3377
1447,10315001390,TALLADEGA CAREER TECHNICAL CENTER,110 PICCADILLY CIR,TALLADEGA,AL,35160,NOT AVAILABLE,(256) 315-5676
8437,10309002201,SUMTER CENTRAL HIGH SCHOOL,13878 U S HIGHWAY 11,YORK,AL,36925,NOT AVAILABLE,(205) 652-1501
9278,10237000946,PILLANS MIDDLE SCHOOL,2051 MILITARY RD,MOBILE,AL,36605,NOT AVAILABLE,(251) 221-2300
9674,10237000942,MURPHY HIGH SCHOOL,100 S CARLEN ST,MOBILE,AL,36606,NOT AVAILABLE,(251) 221-3184
91419,10339001285,MYRTLEWOOD ELEMENTARY SCHOOL,14701 GAINSVILLE RD,FOSTERS,AL,35463,NOT AVAILABLE,(205) 342-2658
91835,10105000388,ARITON SCHOOL,264 CREEL RICHARDSON DRIVE,ARITON,AL,36311,0750,(334) 762-2371
92218,10303000324,OAK MOUNTAIN INTERMEDIATE SCHOOL,5486 CALDWELL MILL RD,BIRMINGHAM,AL,35242,NOT AVAILABLE,(205) 682-5220
92887,10276001109,PIEDMONT ELEMENTARY SCHOOL,504 HOOD ST WEST,PIEDMONT,AL,36272,NOT AVAILABLE,(256) 447-7483
97787,10002101832,BREWERPORCH CHILDRENS CENTER,2501 WOODLAND RD,TUSCALOOSA,AL,35404,NOT AVAILABLE,(205) 348-7236
80220,10237000936,MARYVALE ELEMENTARY SCHOOL,1901 N MARYVALE ST,MOBILE,AL,36605,NOT AVAILABLE,(251) 221-1810
82686,10243001007,DANNELLY ELEMENTARY SCHOOL,3425 CARTER HILL RD,MONTGOMERY,AL,36111,1897,(334) 269-3657
84333,10237001799,JUST 4 DEVELOPMENT LABORATORY,2263 ST STEPHENS RD,MOBILE,AL,36617,NOT AVAILABLE,(251) 221-1450
88542,10192000472,CLAYCHALKVILLE MIDDLE SCHOOL,6700 TRUSSVILLECLAY RD,TRUSSVILLE,AL,35173,NOT AVAILABLE,(205) 379-3100
88602,10114000416,GERALDINE SCHOOL,13011 HIGHWAY 227,GERALDINE,AL,35974,3560,(256) 659-2142
88791,10123001501,DOTHAN HIGH SCHOOL,3209 REEVES ST,DOTHAN,AL,36303,2357,(334) 794-1410
73192,10168001452,EUTAW PRIMARY SCHOOL,212 EUTAW AVE,EUTAW,AL,35462,1345,(205) 372-1051
52159,10102000453,VINEMONT MIDDLE SCHOOL,170 HIGH SCHOOL RD,VINEMONT,AL,35179,6504,(256) 739-1943
54603,10039000164,JACKSONOLIN HIGH SCHOOL,1300 AVENUE F ENSLEY,BIRMINGHAM,AL,35218,NOT AVAILABLE,(205) 231-6431
58048,10186000672,KITTY STONE ELEMENTARY SCHOOL,1200 JAMES HOPKINS RD SW,JACKSONVILLE,AL,36265,NOT AVAILABLE,(256) 782-5191
30181,10183001534,STEVENSON MIDDLE SCHOOL,701 KENTUCKY AVE,STEVENSON,AL,35772,3113,(256) 437-2945
34219,10358001357,WINSTON COUNTY HIGH SCHOOL,1222 CO RD 24,DOUBLE SPRINGS,AL,35553,NOT AVAILABLE,(205) 489-5593
35216,10237000965,WC GRIGGS ELEMENTARY SCHOOL,6001 THREE NOTCH RD,MOBILE,AL,36619,NOT AVAILABLE,(251) 221-1330
35803,10343001302,EAST ELEMENTARY,2109 TYSON DR,VESTAVIA HILLS,AL,35216,1955,(205) 402-5200
36875,10192000724,LIPSCOMB ELEMENTARY SCHOOL,5605 10TH ST S,LIPSCOMB,AL,35020,NOT AVAILABLE,(205) 379-4550
36986,10000701483,DEER VALLEY ELEMENTARY SCHOOL,4990 ROSS BRIDGE PARKWAY,HOOVER,AL,35226,5064,(205) 439-3300
37746,10180001653,MENTAL HEALTH CENTER,4040 MEMORIAL PKWY S W,HUNTSVILLE,AL,35502,4364,(256) 533-1970
62320,10102000385,VINEMONT HIGH SCHOOL,HIGH SCHOOL ROAD,VINEMONT,AL,35179,6504,(256) 734-0571
62990,10237000944,ORCHARD ELEMENTARY SCHOOL,6400 HOWELLS FERRY RD,MOBILE,AL,36618,NOT AVAILABLE,(251) 221-1571
22746,10237000907,W H COUNCIL TRADITIONAL SCHOOL,751 WILKINSON ST,MOBILE,AL,36603,NOT AVAILABLE,(251) 221-1137
25578,10039000174,PRINCETON SCHOOL,1425 2ND AVE W,BIRMINGHAM,AL,35208,5411,(205) 231-2500
25697,10222000984,MADISON COUNTY CAREER TECHNICAL CENTER,1275 JORDAN RD BLDG A,HUNTSVILLE,AL,35811,NOT AVAILABLE,(256) 852-2170
26992,10066001657,JEMISON ELEMENTARY SCHOOL,1495 COUNTY ROAD 44,JEMISON,AL,35085,7646,(205) 280-4820
27490,10231000985,MARION COUNTY ALTERNATIVE SCHOOL,188 WINCHESTER DR,HAMILTON,AL,35570,6626,(205) 952-9083
27514,10033001264,NEW HORIZON ALTERNATIVE SCHOOL,1701 6TH AVE N,BESSEMER,AL,35020,NOT AVAILABLE,(205) 432-3036
29627,10180000622,CHAPMAN ELEMENTARY SCHOOL,2006 REUBEN DR,HUNTSVILLE,AL,35811,2223,(256) 428-7640
43027,10222002376,MOORES MILL INTERMEDIATE SCHOOL,1210 WALKER LANE,NEW MARKET,AL,35761,NOT AVAILABLE,(256) 851-4700
43858,10192000732,OAK GROVE HIGH SCHOOL,9494 OAK GROVE PKWY,BESSEMER,AL,35023,7190,(205) 379-5000
45219,10153001664,HIBBETT SCHOOL,1601 APPLEBY BLVD,FLORENCE,AL,35630,NOT AVAILABLE,(256) 768-2800
49288,10240000980,J U BLACKSHER SCHOOL,15933 HWY 21 S,URIAH,AL,36480,NOT AVAILABLE,(251) 862-2130
49606,10111000408,TIPTON DURANT MIDDLE SCHOOL,2500 TIPTON ST,SELMA,AL,36701,7848,(334) 872-8080
102317,10017502112,POINTE ACADEMY LLC,461 DONALD STREET,MOBILE,AL,36617,3282,(334) 470-1798
102319,10017602109,DRAPER CORRECTIONAL FACILITY,2828 AL HIGHWAY 143,ELMORE,AL,36025,NOT AVAILABLE,(334) 567-2221
103193,10017802374,HIGDON HILL SCHOOL,6869 5TH AVE S,BIRMINGHAM,AL,35212,NOT AVAILABLE,(205) 838-4031
103213,10237002509,BARTON ACADEMY FOR ADVANCED WORLD STUDIES,504 GOVERNMENT STREET,MOBILE,AL,36602,NOT AVAILABLE,(251) 221-4156
106969,10003301843,GLENWOOD INC,150 GLENWOOD LANE,BIRMINGHAM,AL,35242,NOT AVAILABLE,(205) 969-2880
106985,10177002508,COTTONWOOD ELEMENTARY SCHOOL,663 HOUSTON ST,COTTONWOOD,AL,36320,NOT AVAILABLE,(334) 691-2587
141,10243002413,MONTGOMERY PREPARATORY ACADEMY FOR CAREER TECHNOLOGIES,2901 EAST SOUTH BLVD,MONTGOMERY,AL,36116,NOT AVAILABLE,(334) 241-5307
6053,10237001030,FLORENCE HOWARD ELEMENTARY SCHOOL,957 DR MARTIN L KING JR AVE,MOBILE,AL,36603,5922,(251) 221-1406
70641,10318001211,CHARLES R DREW MIDDLE SCHOOL,78975 AL HWY 77,LINCOLN,AL,35096,NOT AVAILABLE,(256) 315-5280
72402,10000701742,ROCKY RIDGE ELEMENTARY SCHOOL,2876 OLD ROCKY RIDGE RD,HOOVER,AL,35243,2999,(205) 439-2900
73534,10279001137,TROYPIKE CENTER FOR TECHNOLOGY,285 GIBBS ST,TROY,AL,36081,4704,(334) 566-5395
73570,10248001043,EVA SCHOOL,20 SCHOOL RD,EVA,AL,35621,8950,(256) 796-5141
74920,10009001782,COBB PREPARATORY ACADEMY,1325 COBB AVE,ANNISTON,AL,36201,NOT AVAILABLE,(256) 231-5030
77127,10294001145,CALDWELL ELEMENTARY SCHOOL,905 S MARKET ST,SCOTTSBORO,AL,35768,NOT AVAILABLE,(256) 218-2500
77917,10300001167,WA THREADGILL PRIMARY SCHOOL,900 ANNAPOLIS AVENUE,SHEFFIELD,AL,35660,NOT AVAILABLE,(256) 386-5720
82489,10054001884,WHITE PLAINS MIDDLE SCHOOL,5800 AL HIGHWAY 9,ANNISTON,AL,36207,NOT AVAILABLE,(256) 741-4700
83119,10084001658,COLBERT HEIGHTS ELEMENTARY SCHOOL,1551 SUNSET DR,TUSCUMBIA,AL,35674,NOT AVAILABLE,(256) 381-6132
86788,10339001295,WESTWOOD ELEMENTARY SCHOOL,11629 WESTWOOD SCHOOL RD,COKER,AL,35452,NOT AVAILABLE,(205) 342-2666
88665,10294001148,SCOTTSBORO JUNIOR HIGH SCHOOL,1601 HEROES DRIVE,SCOTTSBORO,AL,35768,2435,(256) 218-2300
89406,10138000507,WEST END HIGH SCHOOL,4515 ELM ST,WALNUT GROVE,AL,35990,NOT AVAILABLE,(256) 622-1112
31920,10210000799,CLEMENTS HIGH SCHOOL,7730 HIGHWAY 72 W,ATHENS,AL,35611,NOT AVAILABLE,(256) 729-6564
33889,10216000816,CENTRAL ELEMENTARY SCHOOL,141 MAIN ST,HAYNEVILLE,AL,36040,NOT AVAILABLE,(334) 563-7319
35266,10000801798,LIBERTY MIDDLE SCHOOL,281 DOCK MURPHY DR,MADISON,AL,35758,NOT AVAILABLE,(256) 430-0001
35664,10303001177,MONTEVALLO HIGH SCHOOL,980 OAK ST,MONTEVALLO,AL,35115,NOT AVAILABLE,(205) 682-6400
36003,10042000682,BLOUNT COUNTY CAREER TECHNICAL CENTER,61500 US HIGHWAY 231,CLEVELAND,AL,35049,NOT AVAILABLE,(205) 625-3424
36315,10102000374,COLD SPRINGS HIGH SCHOOL,9010 COUNTY ROAD 109,BREMEN,AL,35033,NOT AVAILABLE,(256) 287-1787
36316,10243001037,SOUTHLAWN ELEMENTARY SCHOOL,5225 PATRICIA LN,MONTGOMERY,AL,36108,5399,(334) 284-8028
36480,10249001055,CRESTLINE ELEMENTARY SCHOOL,3785 JACKSON BLVD,MOUNTAIN BROOK,AL,35213,NOT AVAILABLE,(205) 871-8126
38568,10297001149,BYRD FIRST CLASS EARLY LEARNING CENTER,625 LAPSLEY ST,SELMA,AL,36701,5699,(334) 874-1620
61368,10183001674,MACEDONIA SCHOOL,196 COUNTY ROAD 49,SECTION,AL,35771,6930,(256) 228-4483
68588,10024002159,MARBURY MIDDLE SCHOOL,210 COUNTY ROAD 20 EAST,MARBURY,AL,36051,NOT AVAILABLE,(334) 365-3522
68926,10123000450,HEARD ELEMENTARY SCHOOL,201 DANIEL CIR,DOTHAN,AL,36301,2006,(334) 794-1471
69658,10000701741,IRA F SIMMONS MIDDLE SCHOOL,1575 PATTON CHAPEL ROAD,HOOVER,AL,35226,2257,(205) 439-2100
102285,10114000415,FYFFE HIGH SCHOOL,153 CHURCH ST,FYFFE,AL,35971,3310,(256) 623-2116
106976,10020202471,GULF SHORES MIDDLE SCHOOL,450 E 15TH AVE,GULF SHORES,AL,36542,NOT AVAILABLE,(251) 968-8719
20915,10210000802,JOHNSON ELEMENTARY SCHOOL,21360 HWY 251,ATHENS,AL,35613,4319,(256) 233-6665
21024,10177002077,REHOBETH MIDDLE SCHOOL,5631 COUNTY ROAD 203,REHOBETH,AL,36301,8931,(334) 677-5153
21373,10138000502,JOHN S JONES ELEMENTARY SCHOOL,301 LUMLEY RD,RAINBOW CITY,AL,35906,NOT AVAILABLE,(256) 442-2900
22351,10237000919,COLLINSRHODES ELEMENTARY SCHOOL,5110 ST STEPHENS RD,EIGHT MILE,AL,36613,NOT AVAILABLE,(251) 221-1226
24289,10333001395,ALTERNATIVE LEARNING CENTER,211 LAKE AVE,TROY,AL,36081,NOT AVAILABLE,(334) 566-7134
25800,10192000691,BRIGHTON SCHOOL,3400 BROWN CIR,BRIGHTON,AL,35020,NOT AVAILABLE,(205) 379-2650
25934,10000502150,ALBERTVILLE PRIMARY SCHOOL,1100 HORTON RD,ALBERTVILLE,AL,35950,2532,(256) 878-6611
26625,10222000030,HAZEL GREEN ELEMENTARY SCHOOL,14250 HIGHWAY 231431 N,HAZEL GREEN,AL,35750,NOT AVAILABLE,(256) 851-4540
91498,10172001795,HALEYVILLE ELEMENTARY SCHOOL,2000 20TH ST,HALEYVILLE,AL,35565,NOT AVAILABLE,(205) 486-3405
92581,10006000007,ANDALUSIA HIGH SCHOOL,701 THIRD ST,ANDALUSIA,AL,36420,NOT AVAILABLE,(334) 222-7569
93114,10315001201,C L SALTER ELEMENTARY SCHOOL,106 BRECON ACCESS RD,TALLADEGA,AL,35160,1360,(256) 315-5822
95586,10240001562,MONROEVILLE ELEMENTARY SCHOOL,297 S MOUNT PLEASANT AVE,MONROEVILLE,AL,36460,1894,(251) 743-3474
40402,10105000393,SOUTH DALE MIDDLE SCHOOL,309 RANDOLPH STREET,PINCKARD,AL,36371,0218,(334) 983-3077
40405,10066000288,VERBENA HIGH SCHOOL,202 COUNTY ROAD 510,VERBENA,AL,36091,NOT AVAILABLE,(205) 280-2820
42850,10039000140,HUFFMAN MIDDLE SCHOOL,517 HUFFMAN RD,BIRMINGHAM,AL,35215,8312,(205) 231-5370
49763,10339002087,NORTHSIDE MIDDLE SCHOOL,19130 NORTHSIDE PARKWAY,NORTHPORT,AL,35475,NOT AVAILABLE,(205) 342-2740
51826,10000700342,SOUTH SHADES CREST ELEMENTARY SCHOOL,3770 SOUTH SHADES CREST RD,HOOVER,AL,35244,4123,(205) 439-3000
10077,10343002103,VESTAVIA HILLS ELEMENTARY CAHABA HEIGHTS,4401 DOLLY RIDGE ROAD,VESTAVIA HILLS,AL,35243,4173,(205) 402-5480
10155,10258001071,OPELIKA MIDDLE SCHOOL,1206 DENSON DR,OPELIKA,AL,36801,NOT AVAILABLE,(334) 745-9726
11062,10213000813,LINDEN HIGH SCHOOL,321 N MAIN STREET,LINDEN,AL,36748,0729,(334) 295-4287
14902,10345001319,OAKMAN MIDDLE SCHOOL,142 SCHOOL ST,OAKMAN,AL,35579,NOT AVAILABLE,(205) 622-3611
16128,10252001059,MUSCLE SHOALS MIDDLE SCHOOL,100 TROJAN DR,MUSCLE SHOALS,AL,35661,NOT AVAILABLE,(256) 389-2640
16142,10066000287,CLANTON MIDDLE SCHOOL,835 TEMPLE ROAD,CLANTON,AL,35045,NOT AVAILABLE,(205) 280-2750
45009,10222002376,MOORES MILL INTERMEDIATE SCHOOL,1210 WALKER LANE,NEW MARKET,AL,35761,NOT AVAILABLE,(256) 851-4700
45557,10138000509,WHITESBORO ELEMENTARY SCHOOL,5080 LEETH GAP RD,BOAZ,AL,35956,NOT AVAILABLE,(256) 622-1110
46501,10201000765,CENTRAL HIGH SCHOOL,3000 COUNTY ROAD 200,FLORENCE,AL,35633,NOT AVAILABLE,(256) 764-2903
49105,10018902195,SATSUMA HIGH SCHOOL,1 GATOR CIRCLE,SATSUMA,AL,36572,NOT AVAILABLE,(251) 380-8190
49152,10021000037,AUBURN JUNIOR HIGH SCHOOL,405 S DEAN RD,AUBURN,AL,36830,6201,(334) 887-4970
51106,10339001272,HOLT ELEMENTARY SCHOOL,1001 CRESCENT RIDGE ROAD,TUSCALOOSA,AL,35404,NOT AVAILABLE,(205) 342-2650
51442,10192000696,CLAY ELEMENTARY SCHOOL,6745 OLD SPRINGVILLE RD,CLAY,AL,35048,0127,(205) 379-3000
52850,10192000720,BRYAN ELEMENTARY SCHOOL,600 KIMBERLY CUT OFF RD,MORRIS,AL,35116,NOT AVAILABLE,(205) 379-2750
54604,10108001767,A M WINDHAM ELEMENTARY SCHOOL,626 N DALEVILLE AVE,DALEVILLE,AL,36322,2006,(334) 494-2280
54606,10237000931,CLARKSHAW MAGNET SCHOOL,5960 ARLBERG STREET,MOBILE,AL,36608,NOT AVAILABLE,(251) 221-2106
54992,10166002418,GENEVA REGIONAL CAREER TECHNICAL CENTER,1308 WEST MAPLE AVENUE,GENEVA,AL,36340,NOT AVAILABLE,(334) 248-6354
59792,10204000778,EAST LAWRENCE MIDDLE SCHOOL,99 COUNTY ROAD 370,TRINITY,AL,35673,3314,(256) 905-2420
34484,10063000741,CHEROKEE COUNTY CAREER TECHNOLOGY CENTER,600 BAY SPRINGS RD,CENTRE,AL,35960,NOT AVAILABLE,(256) 927-5351
35776,10192002166,MCADORY MIDDLE SCHOOL,5450 YELLOW JACKET BOULEVARD,MCCALLA,AL,35111,NOT AVAILABLE,(205) 379-4730
36008,10288001802,RUSSELL COUNTY HIGH SCHOOL,4699 OLD SEALE HIGHWAY,SEALE,AL,36875,NOT AVAILABLE,(334) 468-5701
38512,10027000057,ELBERTA HIGH SCHOOL,13355MAIN STREET,ELBERTA,AL,36530,NOT AVAILABLE,(251) 986-8127
38997,10177000615,REHOBETH HIGH SCHOOL,373 MALVERN ROAD,DOTHAN,AL,36301,NOT AVAILABLE,(334) 677-7002
1727,10019001184,THOMPSON MIDDLE SCHOOL,100 WARRIOR DRIVE,ALABASTER,AL,35007,NOT AVAILABLE,(205) 685-8100
3524,10231000863,MARION COUNTY HIGH SCHOOL,8115 US HIGHWAY 43,GUIN,AL,35563,NOT AVAILABLE,(205) 468-3377
4030,10255000583,ONEONTA ELEMENTARY SCHOOL,27605 STATE HWY 75,ONEONTA,AL,35121,3228,(205) 536-7756
4119,10027000068,STAPLETON SCHOOL,35480 HARRIOT AVESTAP,STAPLETON,AL,36578,NOT AVAILABLE,(251) 937-2038
6287,10027002443,BALDWIN COUNTY VIRTUAL SCHOOL,24675 HWY 98,DAPHNE,AL,36526,NOT AVAILABLE,(251) 404-6209
7442,10235000890,MIDFIELD ELEMENTARY SCHOOL,416 PARKWOOD ST,MIDFIELD,AL,35228,2231,(205) 923-7727
8362,10186000673,JACKSONVILLE HIGH SCHOOL,1000 GEORGE DOUTHIT DR SW,JACKSONVILLE,AL,36265,NOT AVAILABLE,(256) 782-8800
9122,10270001089,MEADOWLANE ELEMENTARY SCHOOL,709 MEADOWLANE DR,PHENIX CITY,AL,36869,7637,(334) 298-2568
23376,10132000475,DAUPHIN JUNIOR HIGH SCHOOL,1271 DAUPHIN STREET,ENTERPRISE,AL,36330,NOT AVAILABLE,(334) 347-1141
24608,10336001260,SKYLAND ELEMENTARY SCHOOL,408 SKYLAND BOULEVARD EAST,TUSCALOOSA,AL,35405,1302,(205) 759-3638
28237,10180000634,JONES VALLEY ELEMENTARY SCHOOL,4908 GARTH RD,HUNTSVILLE,AL,35802,NOT AVAILABLE,(256) 428-7220
10041,10243001025,JOHNSON ELEMENTARY SCHOOL,4550 NARROW LANE RD,MONTGOMERY,AL,36116,2998,(334) 284-8016
11845,10117000433,DECATUR MIDDLE SCHOOL,1011 PROSPECT DRIVE SE,DECATUR,AL,35601,4357,(256) 552-3035
12855,10318001216,FAYETTEVILLE HIGH SCHOOL,170 W W AVERITTE DR,SYLACAUGA,AL,35151,NOT AVAILABLE,(256) 315-5550
13327,10252001063,WEBSTER ELEMENTARY SCHOOL,200 WEBSTER AVE,MUSCLE SHOALS,AL,35661,2018,(256) 389-2650
14150,10237001597,GOODWILL EASTER SEAL CENTER SPECIAL CHILD,10 WESTMINSTER WAY,MOBILE,AL,36608,NOT AVAILABLE,(251) 342-3122
15520,10036000669,BIBB COUNTY CAREER ACADEMY,17191 HIGHWAY 5,WEST BLOCTON,AL,35184,3638,(205) 938-7434
16107,10102001676,HARMONY SCHOOL,4910 COUNTY ROAD 940,LOGAN,AL,35098,1919,(256) 747-1427
19189,10039001761,FAMILY COURT HIGH SCHOOL,120 2ND COURT N,BIRMINGHAM,AL,35204,NOT AVAILABLE,(205) 231-4868
91796,10000701738,BLUFF PARK ELEMENTARY SCHOOL,569 PARK AVENUE,HOOVER,AL,35226,1298,(205) 439-2800
92651,10318001599,SYCAMORE SCHOOL,22405 AL HIGHWAY 21,ALPINE,AL,35014,NOT AVAILABLE,(256) 315-5450
94336,10012001474,JAMES L COWART ELEMENTARY SCHOOL,1701 W HOBBS ST,ATHENS,AL,35611,4699,(256) 233-6627
94508,10099000371,EAST ELEMENTARY SCHOOL,608 4TH AVE SE,CULLMAN,AL,35055,NOT AVAILABLE,(256) 734-2232
94771,10024000546,DANIEL PRATT ELEMENTARY SCHOOL,420 HARVEST LOOP,PRATTVILLE,AL,36066,NOT AVAILABLE,(334) 361-6400
99380,10237000911,DAUPHIN ISLAND ELEMENTARY SCHOOL,1501 BIENVILLE BLVD,DAUPHIN ISLAND,AL,36528,NOT AVAILABLE,(251) 861-3864
73829,10001102096,LEEDS HIGH SCHOOL,1500 GREENWAVE DRIVE,LEEDS,AL,35094,NOT AVAILABLE,(205) 699-4510
74722,10147000525,HUBBERTVILLE SCHOOL,7360 COUNTY ROAD 49,FAYETTE,AL,35555,9803,(205) 487-2845
77512,10162000563,MITCHELL ELEMENTARY SCHOOL,1501 NOCCALULA RD,GADSDEN,AL,35901,3305,(256) 546-2711
78523,10358001359,LYNN HIGH SCHOOL,531 E MAIN ST,LYNN,AL,35575,2169,(205) 717-3337
79066,10219000827,TUSKEGEE PUBLIC ELEMENTARY,101 E PRICE ST,TUSKEGEE,AL,36083,NOT AVAILABLE,(334) 727-3222
62636,10231000866,HACKLEBURG HIGH SCHOOL,185 SCHOOL ST,HACKLEBURG,AL,35564,0310,(205) 935-3223
80977,10018000033,ETOWAH HIGH SCHOOL,201 CASE AVE,ATTALLA,AL,35954,NOT AVAILABLE,(256) 538-8381
83195,10102002132,HOLLY POND MIDDLE,91 BUCKNER ROAD,HOLLY POND,AL,35083,6489,(256) 796-5898
83423,10336001399,TUSCALOOSA CAREER AND TECHNOLOGY ACADEMY,2800 MARTIN LUTHER KING JR BOULEVARD,TUSCALOOSA,AL,35401,2652,(205) 759-3649
83995,10339001282,HOLT HIGH SCHOOL,3801 ALABAMA AVE NE,HOLT,AL,35404,NOT AVAILABLE,(205) 342-2768
84355,10189000674,MADDOX INTERMEDIATE SCHOOL,201 PANTHER TRAIL,JASPER,AL,35501,4798,(205) 384-3230
86434,10285001128,KNIGHT ENLOE ELEMENTARY SCHOOL,430 PARK AVE,ROANOKE,AL,36274,2367,(334) 539-5261
86765,10321001228,DADEVILLE ELEMENTARY SCHOOL,670 E COLUMBUS ST,DADEVILLE,AL,36853,NOT AVAILABLE,(256) 825-6811
100046,10336001268,WESTLAWN MIDDLE SCHOOL,1715 MARTIN L KING JR BLVD,TUSCALOOSA,AL,35401,5298,(205) 759-3673
102299,10000901403,ALABAMA SCHOOL FOR DEAF,205 E SOUTH STREET,TALLADEGA,AL,35160,2411,(256) 761-3214
102305,10001502126,SAFETY NET ACADEMY MONTGOMERY,5906 CARMICHAEL PLACE,MONTGOMERY,AL,36117,NOT AVAILABLE,(334) 277-1334
102320,10017602110,TUTWILER PRISON,8966 US HIGHWAY 231,WETUMPKA,AL,36092,NOT AVAILABLE,(334) 353-3870
102328,10180000642,MOUNTAIN GAP ELEMENTARY SCHOOL,821 MT GAP RD,HUNTSVILLE,AL,35803,NOT AVAILABLE,(256) 428-7360
102425,10027002490,ELBERTA MIDDLE SCHOOL,13355A MAIN STREET,ELBERTA,AL,36530,NOT AVAILABLE,(251) 986-8127
103185,10003802468,PATHWAY AT BALDWIN,23750 EWING FARM RD,ATMORE,AL,36502,NOT AVAILABLE,(334) 894-5405
103198,10019201694,MONTGOMERY PUBLIC SCHOOLS MPS CLASSROOM MCINNIS,3500 MCINNIS RD,MONTGOMERY,AL,36116,NOT AVAILABLE,(334) 288-2280
103217,10343002481,VESTAVIA HILLS ELEMENTARY DOLLY RIDGE,2680 GRESHAM DRIVE,VESTAVIA HILLS,AL,35243,NOT AVAILABLE,(205) 402-5325
106966,10001501827,SAFETYNET ACADEMY MINTER,80 MEL BAILEY DRIVE,MINTER,AL,36761,NOT AVAILABLE,(334) 872-6196
106984,10177002507,WICKSBURG ELEMENTARY SCHOOL,1172 S STATE HIGHWAY 123,NEWTON,AL,36352,8411,(334) 692-5549
24475,10009001246,ANNISTON CITY BOOT CAMP SCHOOL,4804 MCCLELLAN BLVD,ANNISTON,AL,36206,1863,(256) 231-5100
26117,10303002199,CALERA INTERMEDIATE SCHOOL,8454 HIGHWAY 31 SOUTH,CALERA,AL,35040,NOT AVAILABLE,(205) 682-6500
26120,10237000990,BURNS MIDDLE SCHOOL,6175 GIRBY RD,MOBILE,AL,36693,NOT AVAILABLE,(251) 221-2025
5356,10243001417,LOVELESS ACADEMIC MAGNET PROGRAM HIGH SCHOOL,3440 MCGEHEE RD,MONTGOMERY,AL,36111,NOT AVAILABLE,(334) 284-7500
7061,10248001048,PRICEVILLE HIGH SCHOOL,2650 N BETHEL RD,DECATUR,AL,35603,5403,(256) 353-1950
7073,10173000599,HARTSELLE HIGH SCHOOL,1000 BETHEL ROAD NE,HARTSELLE,AL,35640,3198,(256) 751-5615
9407,10243001025,JOHNSON ELEMENTARY SCHOOL,4550 NARROW LANE RD,MONTGOMERY,AL,36116,2998,(334) 284-8016
9915,10192001453,OAK GROVE ELEMENTARY SCHOOL,9000 TIGER CUB TRAIL,BESSEMER,AL,35023,7191,(205) 379-2450
14258,10111000409,VALLEY GRANDE ELEMENTARY SCHOOL,2765 DALLAS COUNTY ROAD 81,VALLEY GRANDE,AL,36701,9005,(334) 872-7661
18313,10351000325,F S ERVIN ELEMENTARY SCHOOL,500 LEROY RANDOLPH RD,PINE HILL,AL,36769,0220,(334) 963-4702
18723,10189000678,JASPER HIGH SCHOOL,1501 VIKING DRIVE,JASPER,AL,35501,4999,(205) 221-9277
18866,10000702359,CROSSROADS SCHOOL,1085 BUCCANEER DRIVE,HOOVER,AL,35244,NOT AVAILABLE,(205) 439-1800
18972,10114000425,VALLEY HEAD HIGH SCHOOL,235 1ST AVE,VALLEY HEAD,AL,35989,4119,(256) 635-6228
101527,10237000963,CHASTANGFOURNIER MIDDLE SCHOOL,2800 BERKLEY AVENUE,MOBILE,AL,36617,1650,(251) 221-2081
102205,10192001680,WILLIAM E BURKETT MULTIHANDICAPPED CENTER,8601 OLD HIGHWAY 31,MORRIS,AL,35116,NOT AVAILABLE,(205) 379-2800
102324,10018102116,COMPASS SCHOOL,21280 HWY 31,FLOMATON,AL,36441,NOT AVAILABLE,(251) 296-2249
102424,10027002483,ORANGE BEACH MIDDLEHIGH SCHOOL,23908 CANAL ROAD,ORANGE BEACH,AL,36561,NOT AVAILABLE,(251) 937-7651
103207,10123002482,DOTHAN CITY EARLY EDUCATION CENTER,1665 HONEYSUCKLE ROAD,DOTHAN,AL,36301,NOT AVAILABLE,(334) 794-1420
106988,10180002484,MORRIS MIDDLE SCHOOL,4801 BOB WALLACE AVENUE,HUNTSVILLE,AL,35805,NOT AVAILABLE,(256) 428-7340
106989,10180002486,ACADEMY FOR SCIENCE FOREIGN LANGUAGE MIDDLE SCHOOL,3221 MASTIN LAKE ROAD,HUNTSVILLE,AL,35810,NOT AVAILABLE,(256) 428-7000
52344,10279001114,GOSHEN HIGH SCHOOL,286 EAGLE CIRCLE,GOSHEN,AL,36035,NOT AVAILABLE,(334) 566-1852
54602,10027000625,ELBERTA ELEMENTARY SCHOOL,25820 HIGHWAY 98,ELBERTA,AL,36530,NOT AVAILABLE,(251) 986-5888
55194,10078001726,RANBURNE ELEMENTARY SCHOOL,181 YOUNG DR,RANBURNE,AL,36273,4202,(256) 568-9722
55596,10003000005,NATHANIEL H STEPHENS ELEMENTARY SCHOOL,851 LAUREL ST,ALEXANDER CITY,AL,35010,1316,(256) 234-8631
56618,10087000347,LYEFFION JUNIOR HIGH SCHOOL,7575 HIGHWAY 83,EVERGREEN,AL,36401,NOT AVAILABLE,(251) 578-2800
57871,10019402398,PELHAM PARK MIDDLE SCHOOL,2016 PELHAM PARK BOULEVARD,PELHAM,AL,35124,2241,(205) 624-3702
57981,10001302401,MAGNOLIA ELEMENTARY SCHOOL,5400 HIDDEN WAY LANE,TRUSSVILLE,AL,35173,2448,(205) 228-3500
80489,10345001325,SUMITON MIDDLE SCHOOL,275 1ST ST N,SUMITON,AL,35148,NOT AVAILABLE,(205) 648-2390
80628,10027000023,GULF SHORES MIDDLE SCHOOL,450 E 15TH AVE,GULF SHORES,AL,36542,3500,(251) 968-8719
81055,10237001086,GEORGE H BRYANT VOCATIONALAGRICULTURAL CENTER,8950 PADGETT SWITCH RD,IRVINGTON,AL,36544,NOT AVAILABLE,(251) 957-2845
85634,10168000864,PETER J KIRKSEY CAREER CENTER,836 COUNTY ROAD 131,EUTAW,AL,35462,NOT AVAILABLE,(205) 372-9200
88383,10123000448,GIRARD PRIMARY SCHOOL,522 GIRARD AVE,DOTHAN,AL,36303,3199,(334) 794-1467
91579,10243001459,HALCYON ELEMENTARY SCHOOL,1501 PARKVIEW DR,MONTGOMERY,AL,36117,NOT AVAILABLE,(334) 271-9000
93041,10042000206,CLEVELAND HIGH SCHOOL,71 HIGH SCHOOL ST,CLEVELAND,AL,35049,NOT AVAILABLE,(205) 775-2030
42322,10003000001,ALEXANDER CITY MIDDLE SCHOOL,359 STATE ST,ALEXANDER CITY,AL,35010,1948,(256) 234-8660
42435,10000700248,GREYSTONE ELEMENTARY SCHOOL,300 VILLAGE STREET,HOOVER,AL,35242,6447,(205) 439-3200
43365,10243001024,JEFFERSON DAVIS HIGH SCHOOL,3420 CARTER HILL RD,MONTGOMERY,AL,36111,1896,(334) 269-3714
46819,10039000175,WE PUTNAM MIDDLE SCHOOLMAGNET,1757 MONTCLAIR RD,BIRMINGHAM,AL,35210,2617,(205) 231-8680
47874,10303001171,CHELSEA HIGH SCHOOL,10510 HIGHWAY 11,CHELSEA,AL,35043,NOT AVAILABLE,(205) 682-7200
48127,10169000580,CHEROKEE ELEMENTARY SCHOOL,3300 HIGHWAY 79 S,GUNTERSVILLE,AL,35976,NOT AVAILABLE,(256) 582-3908
49050,10252001424,MCBRIDE ELEMENTARY SCHOOL,1400 AVALON AVE,MUSCLE SHOALS,AL,35661,NOT AVAILABLE,(256) 389-2610
49058,10012001758,BROOKHILL ELEMENTARY SCHOOL,320 BROOKHILL DR,ATHENS,AL,35611,4490,(256) 233-6603
32130,10063000283,SPRING GARDEN HIGH SCHOOL,2430 COUNTY ROAD 29,SPRING GARDEN,AL,36275,NOT AVAILABLE,(256) 447-7045
34281,10345001309,CURRY ELEMENTARY SCHOOL,85 YELLOW JACKET DR,JASPER,AL,35503,5652,(205) 387-7845
35644,10264001085,JOSEPH W LISENBY PRIMARY SCHOOL,860 FAUST AVE,OZARK,AL,36360,1110,(334) 774-4919
36251,10216001578,PROJECT SUCCESS LEARNING CENTER,147 MAIN ST,HAYNEVILLE,AL,36040,6401,(334) 563-7389
37576,10039001484,GLEN IRIS ELEMENTARY SCHOOL,1115 11TH STREET SOUTH,BIRMINGHAM,AL,35205,NOT AVAILABLE,(205) 231-7440
63921,10177000882,HOUSTON COUNTY ALTERNATIVE SCHOOL,315 N FOSTER ST,DOTHAN,AL,36303,NOT AVAILABLE,(334) 671-9295
64062,10315001208,ZORA ELLIS JUNIOR HIGH SCHOOL,414 ELM ST,TALLADEGA,AL,35160,NOT AVAILABLE,(256) 315-5700
68304,10173000328,BARKLEY BRIDGE ELEMENTARY SCHOOL,2333 BARKLEY BRIDGE RD,HARTSELLE,AL,35640,NOT AVAILABLE,(256) 773-1931
70614,10180000644,ROLLING HILLS ELEMENTARY SCHOOL,2109 HILLTOP TERR,HUNTSVILLE,AL,35810,NOT AVAILABLE,(256) 428-7400
72545,10348001336,FRUITDALE HIGH SCHOOL,13077 COUNTY RD 1,FRUITDALE,AL,36539,NOT AVAILABLE,(251) 827-6655
72720,10018502137,SARALAND HIGH SCHOOL,1115 INDUSTRIAL PARKWAY,SARALAND,AL,36571,NOT AVAILABLE,(251) 602-8970
76500,10252001060,HIGHLAND PARK ELEMENTARY SCHOOL,714 ELMHURST ST,MUSCLE SHOALS,AL,35661,NOT AVAILABLE,(256) 389-2620
76585,10343001303,WEST ELEMENTARY,1965 MERRYVALE RD,VESTAVIA HILLS,AL,35216,2740,(205) 402-5151
77745,10045000216,TR MILLER HIGH SCHOOL,1835 DOUGLAS AVE,BREWTON,AL,36426,1119,(251) 867-8430
78748,10336001257,OAKDALE ELEMENTARY SCHOOL,5001 25TH STREET,TUSCALOOSA,AL,35401,6200,(205) 759-3626
78798,10105000392,NEWTON ELEMENTARY SCHOOL,523 SOUTH COLLEGE ST,NEWTON,AL,36352,4017,(334) 445-5564
12272,10027000065,ROSINTON SCHOOL,19757 COUNTY ROAD 64,ROBERTSDALE,AL,36567,NOT AVAILABLE,(251) 964-5210
16860,10135000840,ESCAMBIA COUNTY ALTERNATIVE SCHOOL,21280 HIGHWAY 31,FLOMATON,AL,36441,NOT AVAILABLE,(251) 296-4113
17506,10159000544,PHIL CAMPBELL HIGH SCHOOL,65 SCHOOL ST,PHIL CAMPBELL,AL,35581,NOT AVAILABLE,(256) 331-2150
18101,10176000609,HOMEWOOD MIDDLE SCHOOL,395 MECCA AVENUE,HOMEWOOD,AL,35209,NOT AVAILABLE,(205) 870-0878
18884,10156001750,FORT PAYNE MIDDLE SCHOOL,4910 MARTIN AVE NE,FORT PAYNE,AL,35967,NOT AVAILABLE,(256) 845-7501
50024,10248001052,WEST MORGAN HIGH SCHOOL,261 S GREENWAY DR,TRINITY,AL,35673,6002,(256) 353-5214
51802,10069000291,CHOCTAW COUNTY HIGH SCHOOL,277 TOM ORR DRIVE,BUTLER,AL,36904,NOT AVAILABLE,(205) 459-2139
54749,10237002202,TAYLOR WHITE ELEMENTARY SCHOOL,476 ELIZA JORDAN ROAD N,MOBILE,AL,36608,9165,(251) 221-1465
44202,10069000182,SOUTHERN CHOCTAW ELEMENTARY SCHOOL,10935 HIGHWAY 17,GILBERTOWN,AL,36908,2237,(251) 843-2461
44578,10132000476,ENTERPRISE HIGH SCHOOL,1801 BOLL WEEVIL CIRCLE,ENTERPRISE,AL,36330,2070,(334) 347-2640
46859,10177000612,COTTONWOOD HIGH SCHOOL,663 HOUSTON ST,COTTONWOOD,AL,36320,NOT AVAILABLE,(334) 691-2587
1918,10039001878,PHILLIPS ACADEMY,2316 7TH AVENUE NORTH,BIRMINGHAM,AL,35203,NOT AVAILABLE,(205) 231-9500
2174,10051000229,MCKENZIE HIGH SCHOOL,221 NORTH GARLAND ROAD,MCKENZIE,AL,36456,0158,(334) 374-2711
3346,10237000901,BOOKER T WASHINGTON MIDDLE SCHOOL,1961 ANDREWS ST,MOBILE,AL,36617,NOT AVAILABLE,(251) 221-2361
3555,10222001411,MERIDIANVILLE MIDDLE SCHOOL,12975 HIGHWAY 231431 N,HAZEL GREEN,AL,35750,NOT AVAILABLE,(256) 851-4550
4425,10060000268,BOB HARDINGSHAWMUT ELEMENTARY,3301 23RD DR,VALLEY,AL,36854,3102,(334) 710-2803
6376,10336001251,ARCADIA ELEMENTARY SCHOOL,3740 ARCADIA DRIVE,TUSCALOOSA,AL,35404,4395,(205) 759-3567
60641,10180000628,FARLEY ELEMENTARY SCHOOL,2900 GREEN COVE RD SW,HUNTSVILLE,AL,35803,NOT AVAILABLE,(256) 428-7160
60661,10222000842,MONROVIA ELEMENTARY SCHOOL,1030 JEFF RD,HUNTSVILLE,AL,35806,NOT AVAILABLE,(256) 851-4570
60870,10126000461,ELBA HIGH SCHOOL,371 TIGER DR,ELBA,AL,36323,4024,(334) 897-2266
62755,10345001310,CURRY HIGH SCHOOL,155 YELLOW JACKET DR,JASPER,AL,35503,5655,(205) 384-3887
62898,10204000781,HAZLEWOOD ELEMENTARY SCHOOL,334 HAZELWOOD ST,TOWN CREEK,AL,35672,3963,(256) 685-4020
67454,10336002145,TUSCALOOSA MAGNET SCHOOL ELEMENTARY,315 MCFARLAND BLVD E,TUSCALOOSA,AL,35404,NOT AVAILABLE,(205) 759-3655
68355,10243001777,FITZPATRICK ELEMENTARY SCHOOL,4055 FITZPATRICK BLVD,MONTGOMERY,AL,36116,4820,(334) 284-8044
20774,10339001278,ENGLEWOOD ELEMENTARY SCHOOL,10300 OLD GREENSBORO RD,TUSCALOOSA,AL,35405,NOT AVAILABLE,(205) 342-2644
21244,10078000321,RANBURNE HIGH SCHOOL,21045 MAIN ST,RANBURNE,AL,36273,4216,(256) 568-3402
21681,10177002358,HOPE HIGH SCHOOL,1971 REEVES ST SUITE 21,DOTHAN,AL,36303,NOT AVAILABLE,(334) 702-4168
22271,10087000344,CONECUH COUNTY JUNIOR HIGH SCHOOL,2347 CLEVELAND AVENUE,CASTLEBERRY,AL,36432,NOT AVAILABLE,(251) 966-5411
25091,10189000677,T R SIMMONS ELEMENTARY SCHOOL,1001 VIKING DR,JASPER,AL,35501,4985,(205) 387-2535
25919,10303002085,MT LAUREL ELEMENTARY SCHOOL,1 JEFFERSON PLACE,BIRMINGHAM,AL,35242,NOT AVAILABLE,(205) 682-7230
31318,10081001494,NEW BROCKTON HIGH SCHOOL,210 SOUTH TYLER STREET,NEW BROCKTON,AL,36351,6590,(334) 894-2350
33200,10060000738,INSPIRE ACADEMY,AREA VOCATIONAL CENTER DR,LAFAYETTE,AL,36862,NOT AVAILABLE,(334) 864-8863
34352,10027001716,ROBERTSDALE ELEMENTARY SCHOOL,1 CUB DRIVE,ROBERTSDALE,AL,36567,NOT AVAILABLE,(251) 947-4003
39075,10060000257,FAIRFAX ELEMENTARY SCHOOL,502 BLVD,VALLEY,AL,36854,4800,(334) 756-2966
39076,10192001752,MINOR HIGH SCHOOL,2285 MINOR PKWY,ADAMSVILLE,AL,35005,NOT AVAILABLE,(205) 379-4750
92982,10222000560,MONROVIA MIDDLE SCHOOL,1216 JEFF RD,HUNTSVILLE,AL,35806,NOT AVAILABLE,(256) 851-4580
97812,10017602108,CHILDERSBURG BOOT CAMP,926 SELMA HIGHWAY,CHILDERSBURG,AL,35044,NOT AVAILABLE,(256) 378-3821
98118,10039000190,WASHINGTON K8,115 FOURTH AVENUE SOUTH,BIRMINGHAM,AL,35205,NOT AVAILABLE,(205) 231-7740
98958,10001102094,LEEDS ELEMENTARY SCHOOL,950 ASHVILLE ROAD,LEEDS,AL,35094,NOT AVAILABLE,(205) 699-4500
99739,10345001308,CORDOVA HIGH SCHOOL,183 SCHOOL ROAD,CORDOVA,AL,35550,1103,(205) 483-7404
70921,10111000407,SOUTHSIDE PRIMARY SCHOOL,3104 OLD MONTGOMERY HWY,SELMA,AL,36701,8100,(334) 874-9566
72635,10288001135,OLIVER ELEMENTARY SCHOOL,77 LONGVIEW STREET,SEALE,AL,36875,NOT AVAILABLE,(334) 468-5400
74047,10174000600,ABBEVILLE HIGH SCHOOL,411 GRABALL CUTOFF,ABBEVILLE,AL,36310,2073,(334) 585-2065
74655,10183000654,BRIDGEPORT ELEMENTARY SCHOOL,1014 JACOBS AVE,BRIDGEPORT,AL,35740,NOT AVAILABLE,(256) 495-3147
75468,10237000910,NAN GRAY DAVIS ELEMENTARY SCHOOL,6900 NAN GRAY DAVIS RD,THEODORE,AL,36582,NOT AVAILABLE,(251) 221-1166
75867,10265001570,DURAN JUNIOR HIGH SCHOOL,309 WILLIAMSON DR,PELL CITY,AL,35125,1298,(205) 338-2825
79784,10348001242,WASHINGTON COUNTY CAREER TECHNICAL CENTER,16478 ST STEPHENS AVENUE,CHATOM,AL,36518,NOT AVAILABLE,(251) 847-2040
79934,10042001476,CLEVELAND ELEMENTARY SCHOOL,115 STADIUM DR,CLEVELAND,AL,35049,3694,(205) 775-2040
80140,10273001102,PICKENS COUNTY HIGH SCHOOL,205 4TH AVE SE,REFORM,AL,35481,NOT AVAILABLE,(205) 375-2344
85752,10248001871,PRICEVILLE JUNIOR HIGH SCHOOL,311 HIGHWAY 67 SOUTH,DECATUR,AL,35603,5403,(256) 355-5104
87706,10102001444,GOOD HOPE PRIMARY SCHOOL,661 COUNTY ROAD 447,CULLMAN,AL,35057,3164,(256) 734-0109
101613,10336001255,EASTWOOD MIDDLE SCHOOL,6314 MARY HARMON BRYANT DRIVE,COTTONDALE,AL,35453,NOT AVAILABLE,(205) 759-3613
102429,10060002515,INSPIRE VIRTUAL ACADEMY,10180 COUNTY ROAD 222,FIVE POINTS,AL,36855,0098,(334) 864-7615
106967,10001502458,MORGAN COUNTY SYSTEM OF SERVICES INC,2531 ALABAMA HWY 20 WEST,DECATUR,AL,35602,NOT AVAILABLE,(256) 350-8434
42682,10024000048,PRATTVILLE HIGH SCHOOL,1315 UPPER KINGSTON RD,PRATTVILLE,AL,36067,NOT AVAILABLE,(334) 365-8804
49607,10021001259,MARGARET YARBROUGH ELEMENTARY SCHOOL,1555 N DONAHUE DR,AUBURN,AL,36830,2600,(334) 887-1970
52541,10222000850,WALNUT GROVE SCHOOL,1961 JOE QUICK RD,NEW MARKET,AL,35761,NOT AVAILABLE,(256) 851-4690
53221,10164001788,GENEVA MIDDLE SCHOOL,501 PANTHER DR,GENEVA,AL,36340,1407,(334) 684-6431
55896,10054002429,ALEXANDRIA MIDDLE SCHOOL,353 STADIUM DR,ALEXANDRIA,AL,36250,NOT AVAILABLE,(256) 741-4501
34664,10237000992,CALLOWAY SMITH MIDDLE SCHOOL,350 N LAWRENCE ST,MOBILE,AL,36603,NOT AVAILABLE,(251) 221-2042
38429,10249001056,MOUNTAIN BROOK HIGH SCHOOL,3650 BETHUNE DR,MOUNTAIN BROOK,AL,35223,NOT AVAILABLE,(205) 414-3800
21416,10078000768,CLEBURNE COUNTY CAREER TECHNICAL SCHOOL,11200 HIGHWAY 46,HEFLIN,AL,36264,5414,(256) 748-2961
22143,10265001722,WALTER M KENNEDY SCHOOL,250 OTIS PERRY DR,PELL CITY,AL,35128,2037,(205) 338-7896
22233,10162000565,WALNUT PARK ELEMENTARY SCHOOL,3200 WALNUT ST,GADSDEN,AL,35904,4799,(256) 546-4665
23413,10054000232,ALEXANDRIA HIGH SCHOOL,353 STADIUM DR,ALEXANDRIA,AL,36250,NOT AVAILABLE,(256) 741-4400
29601,10201000770,LEXINGTON SCHOOL,101 SCHOOL ST,LEXINGTON,AL,35648,NOT AVAILABLE,(256) 229-6622
63216,10102000803,CULLMAN AREA TECHNOLOGY ACADEMY,17640 U S HWY 31 N,CULLMAN,AL,35058,0403,(256) 734-7740
63224,10306201377,SPRINGVILLE HIGH SCHOOL,8295 U S HWY 11,SPRINGVILLE,AL,35146,1069,(205) 467-7833
65585,10219000824,NOTASULGA HIGH SCHOOL,500 E MAIN ST,NOTASULGA,AL,36866,NOT AVAILABLE,(334) 724-1240
65983,10207000796,SMITHS STATION JUNIOR HIGH SCHOOL,1100 LEE ROAD 298,SMITHS STATION,AL,36877,2333,(334) 664-4070
67265,10024000049,PRATTVILLE JUNIOR HIGH SCHOOL,1089 N CHESTNUT,PRATTVILLE,AL,36067,NOT AVAILABLE,(334) 365-6697
67841,10237001437,MCDAVIDJONES ELEMENTARY SCHOOL,16250 HIGHWAY 45 SOUTH,CITRONELLE,AL,36522,NOT AVAILABLE,(251) 221-1510
68025,10210002164,BLUE SPRINGS ELEMENTARY SCHOOL,16787 HARDY ROAD,ATHENS,AL,35611,NOT AVAILABLE,(256) 729-4092
68354,10243000996,CARVER ELEMENTARY SCHOOL,3100 MOBILE DR,MONTGOMERY,AL,36108,4058,(334) 269-3625
91923,10231000867,HAMILTON MIDDLE SCHOOL,400 MILITARY ST S,HAMILTON,AL,35570,NOT AVAILABLE,(205) 921-7030
92403,10237000962,JOHN L LEFLORE MAGNET SCHOOL,700 DONALD ST,MOBILE,AL,36617,3798,(251) 221-3125
93373,10237000930,JOHN WILL ELEMENTARY SCHOOL,5750 SUMMIT AVE,MOBILE,AL,36608,NOT AVAILABLE,(251) 221-1750
96473,10102000440,HOLLY POND ELEMENTARY SCHOOL,120 NEW HOPE ROAD,HOLLY POND,AL,35083,6440,(256) 796-0046
97747,10243001457,BREWBAKER TECHNOLOGY MAGNET HIGH SCHOOL,4405 BREWBAKER DR,MONTGOMERY,AL,36116,NOT AVAILABLE,(334) 284-7100
98933,10027000013,DAPHNE MIDDLE SCHOOL,ONE JODY DAVIS CIR,DAPHNE,AL,36526,6109,(251) 626-2845
99235,10099002089,CULLMAN COMMUNITY COMPREHENSIVE LEARNING CENTER,301 1ST STREET NE,CULLMAN,AL,35055,NOT AVAILABLE,(256) 734-2233
798,10102001567,CULLMAN AREA RESOURCE EDUCATION,192 COUNTY ROAD 940,CULLMAN,AL,35057,4020,(256) 747-6371
1129,10072000298,CLARKE COUNTY HIGH SCHOOL,151 S CHURCH,GROVE HILL,AL,36451,NOT AVAILABLE,(251) 250-2107
1130,10318001226,WINTERBORO HIGH SCHOOL,22435 AL HIGHWAY 21,ALPINE,AL,35014,NOT AVAILABLE,(256) 315-5370
5722,10192000728,MORTIMER JORDAN HIGH SCHOOL,1920 BLUE DEVIL ROAD,KIMBERLY,AL,35091,NOT AVAILABLE,(205) 379-4850
6224,10036000096,RANDOLPH ELEMENTARY SCHOOL,7259 HIGHWAY 36,RANDOLPH,AL,36792,NOT AVAILABLE,(334) 366-2897
6534,10248001048,PRICEVILLE HIGH SCHOOL,2650 N BETHEL RD,DECATUR,AL,35603,5403,(256) 353-1950
7252,10183000908,EPRUETT CENTER OF TECHNOLOGY,29490 US HIGHWAY 72,HOLLYWOOD,AL,35752,NOT AVAILABLE,(256) 574-6079
7397,10021000040,DEAN ROAD ELEMENTARY SCHOOL,335 S DEAN RD,AUBURN,AL,36830,6165,(334) 887-4900
10240,10054000250,WHITE PLAINS HIGH SCHOOL,250 WHITE PLAINS RD,ANNISTON,AL,36207,NOT AVAILABLE,(256) 741-7800
12115,10237000896,MARY B AUSTIN ELEMENTARY SCHOOL,150 PROVIDENT LN,MOBILE,AL,36608,1418,(251) 221-1015
16269,10180000630,HIGHLANDS ELEMENTARY SCHOOL,2500 BARNEY AVE,HUNTSVILLE,AL,35810,NOT AVAILABLE,(256) 428-7200
16640,10339001276,COTTONDALE ELEMENTARY SCHOOL,2301 COTTONDALE LN,COTTONDALE,AL,35453,NOT AVAILABLE,(205) 342-2642
70427,10192000735,HUEYTOWN MIDDLE SCHOOL,701 SUNRISE BLVD,HUEYTOWN,AL,35023,NOT AVAILABLE,(205) 379-5150
72835,10219001863,GEORGE WASHINGTON CARVER ELEMENTARY SCHOOL,303 UNION SPRINGS HIGHWAY,TUSKEGEE,AL,36083,NOT AVAILABLE,(334) 727-2700
72841,10237001686,CONTINUOUS LEARNING CENTER,1870 PLEASANT AVE,MOBILE,AL,36617,3282,(251) 221-2122
73742,10027000069,SUMMERDALE SCHOOL,400 E BROADWAY,SUMMERDALE,AL,36580,NOT AVAILABLE,(251) 989-6850
75641,10180000620,ACADEMY FOR ACADEMICS ARTS ELEMENTARY SCHOOL,2800 POPLAR ST NW,HUNTSVILLE,AL,35816,NOT AVAILABLE,(256) 428-7600
76806,10001301682,HEWITTTRUSSVILLE HIGH SCHOOL,6450 HUSKY PARKWAY,TRUSSVILLE,AL,35173,6400,(205) 228-4000
78057,10192002182,ERWIN MIDDLE SCHOOL,532 23RD AVENUE NW,CENTER POINT,AL,35215,NOT AVAILABLE,(205) 379-3430
78833,10054001488,PLEASANT VALLEY HIGH SCHOOL,4141 PLEASANT VALLEY RD,JACKSONVILLE,AL,36265,7828,(256) 741-6700
79712,10081001748,NEW BROCKTON ELEMENTARY SCHOOL,504 NORTH JOHN STREET,NEW BROCKTON,AL,36351,NOT AVAILABLE,(334) 894-6152
80789,10000601685,KATE D SMITH DAR ELEMENTARY SCHOOL,6077 MAIN ST,GRANT,AL,35747,NOT AVAILABLE,(256) 728-2226
82211,10039001446,MARTHA GASKINS K5,200 DALTON DRIVE,BIRMINGHAM,AL,35215,NOT AVAILABLE,(205) 231-9200
83178,10339001283,MATTHEWS ELEMENTARY SCHOOL,1225 RICE MINE ROAD,NORTHPORT,AL,35476,NOT AVAILABLE,(205) 342-2654
89604,10258001070,OPELIKA HIGH SCHOOL,1700 LAFAYETTE PKWY,OPELIKA,AL,36801,NOT AVAILABLE,(334) 745-9715
89969,10263501733,CE HANNA SCHOOL,1111 WATSON RD,HOBSON CITY,AL,36203,4129,(256) 241-3896
101793,10306200219,ODENVILLE ELEMENTARY SCHOOL,420 ALABAMA STREET,ODENVILLE,AL,35120,0520,(205) 629-6406
102427,10027002493,BALDWIN COUNTY ELEMENTARY VIRTUAL SCHOOL,605 US HWY 98,DAPHNE,AL,36526,NOT AVAILABLE,(251) 972-6862
102432,10123002512,DOTHAN CITY VIRTUAL SCHOOL,1025 S BEVERLYE RD,DOTHAN,AL,36301,4899,(334) 794-7444
102436,10153002474,KILBY LABORATORY SCHOOL,611 N PINE ST,FLORENCE,AL,35632,NOT AVAILABLE,(256) 765-4303
103209,10159002475,RED BAY ELEMENTARY,800 8TH STREET,RED BAY,AL,35582,NOT AVAILABLE,(256) 331-2270
103216,10339002517,NORTHPORT INTERMEDIATE SCHOOL,13688 FRANKIE THOMAS TRACE,NORTHPORT,AL,35475,NOT AVAILABLE,(205) 342-2690
106971,10019502498,PIKE ROAD JR HIGH SCHOOL,696 GEORGIA WASHINGTON ROAD,PIKE ROAD,AL,36064,NOT AVAILABLE,(334) 420-5360
106983,10177002506,HOUSTON COUNTY VIRTUAL ACADEMY,1172 S STATE HIGHWAY 123,NEWTON,AL,36352,8411,(334) 692-5549
80045,10156000538,FORT PAYNE HIGH SCHOOL,201 45TH ST NE,FORT PAYNE,AL,35967,NOT AVAILABLE,(256) 845-0535
81724,10318000577,BB COMER MEMORIAL ELEMENTARY SCHOOL,803 SEMINOLE AVE,SYLACAUGA,AL,35150,NOT AVAILABLE,(256) 315-5430
81852,10120000441,US JONES ELEMENTARY SCHOOL,715 E JACKSON ST,DEMOPOLIS,AL,36732,2509,(334) 289-0426
83606,10291001141,RUSSELLVILLE MIDDLE SCHOOL,765 SUMMIT ST,RUSSELLVILLE,AL,35653,NOT AVAILABLE,(256) 331-2120
84467,10279001112,PIKE COUNTY HIGH SCHOOL,552 S MAIN STREET,BRUNDIDGE,AL,36010,NOT AVAILABLE,(334) 735-2389
89120,10039000161,NORWOOD ELEMENTARY SCHOOL,3136 NORWOOD BLVD,BIRMINGHAM,AL,35234,2123,(205) 231-3620
89441,10180002146,WILLIAMS MIDDLE SCHOOL,155 A BARREN FORK,HUNTSVILLE,AL,35824,NOT AVAILABLE,(256) 428-7330
101740,10174000604,HEADLAND HIGH SCHOOL,8 SPORMAN ST,HEADLAND,AL,36345,NOT AVAILABLE,(334) 585-7086
102157,10192000698,CORNER HIGH SCHOOL,4301 WARRIOR JASPER ROAD,DORA,AL,35062,NOT AVAILABLE,(205) 379-3200
103183,10003602451,LEE CO YOUTH DETENTION CTR,1109 SPRING DRIVE,OPELIKA,AL,36801,NOT AVAILABLE,(334) 745-6771
103197,10019102305,EVERGREEN SCHOOL,THE UNIVERSITY OF ALABAMA WORKING ON WOMANHOOD PROGRAM 6001,TUSCALOOSA,AL,35405,0610,(205) 343-2865
103214,10306202485,SCC VIRTUAL PREPARATORY ACADEMY,410 ROY DRIVE,ASHVILLE,AL,36265,NOT AVAILABLE,(205) 594-7131
22221,10315001205,RAYMOND L YOUNG ELEMENTARY SCHOOL,200 E DAMON AVE,TALLADEGA,AL,35160,3214,(256) 315-5888
22258,10315001207,TALLADEGA HIGH SCHOOL,1177 MCMILLAN STREET EAST,TALLADEGA,AL,35160,3128,(256) 315-5656
24924,10048000218,BULLOCK COUNTY HIGH SCHOOL,108 HARDAWAY AVE,UNION SPRINGS,AL,36089,5108,(334) 651-8264
27111,10240000973,MONROE COUNTY HIGH SCHOOL,212 TIGER DR,MONROEVILLE,AL,36460,NOT AVAILABLE,(251) 575-3258
29248,10318001215,TALLADEGA COUNTY CENTRAL HIGH,5104 HOWELL COVE RD,TALLADEGA,AL,35160,5342,(256) 315-5340
71072,10192000483,MCADORY ELEMENTARY SCHOOL,6251 EASTERN VALLEY RD,MCCALLA,AL,35111,NOT AVAILABLE,(205) 379-4650
71878,10183000888,JACKSON COUNTY ALTERNATIVE SCHOOL,594 COUNTY ROAD 42,HOLLYWOOD,AL,35752,NOT AVAILABLE,(256) 574-6446
73302,10339001540,BROOKWOOD MIDDLE SCHOOL,17021 BROOKWOOD PARKWAY,VANCE,AL,35490,NOT AVAILABLE,(205) 342-2748
76161,10348001242,WASHINGTON COUNTY CAREER TECHNICAL CENTER,16478 ST STEPHENS AVENUE,CHATOM,AL,36518,NOT AVAILABLE,(251) 847-2040
77638,10339002088,DAVISEMERSON MIDDLE SCHOOL,1500 BULLDOG BLVD,COTTONDALE,AL,35453,NOT AVAILABLE,(205) 342-2750
60948,10081000327,ZION CHAPEL HIGH SCHOOL,29256 HIGHWAY 87,JACK,AL,36346,NOT AVAILABLE,(334) 897-6275
61102,10294001587,THURSTON T NELSON ELEMENTARY SCHOOL,202 IDA MOODY RD,SCOTTSBORO,AL,35769,NOT AVAILABLE,(256) 218-2600
61534,10001302402,CAHABA ELEMENTARY SCHOOL,301 PARKWAY DRIVE,TRUSSVILLE,AL,35173,1127,(205) 228-3400
62848,10174002120,HENRY COUNTY VIRTUAL CAMPUS,300A NORTH TRAWICK STREET,ABBEVILLE,AL,36310,NOT AVAILABLE,(334) 585-2206
63036,10339001291,TUSCALOOSA COUNTY HIGH SCHOOL,12500 WILDCAT DR,NORTHPORT,AL,35475,NOT AVAILABLE,(205) 342-2670
66972,10354000343,WINFIELD MIDDLE SCHOOL,481 APPLE AVE,WINFIELD,AL,35594,0070,(205) 487-6901
68094,10213000812,LINDEN ELEMENTARY SCHOOL,201 S SHILOH STREET,LINDEN,AL,36748,0579,(334) 295-5860
10321,10129001768,ECLECTIC ELEMENTARY SCHOOL,35 HARDEN ST,ECLECTIC,AL,36024,NOT AVAILABLE,(334) 541-2291
13695,10129001451,HOLTVILLE MIDDLE SCHOOL,655 BULLDOG LN,DEATSVILLE,AL,36022,NOT AVAILABLE,(334) 569-1596
15423,10180000650,JAMES DAWSON ELEMENTARY,5308 MASTIN LAKE RD NW,HUNTSVILLE,AL,35810,NOT AVAILABLE,(256) 428-7500
16768,10237000897,DENTON MAGNET SCHOOL OF TECHNOLOGY,3800 PLEASANT VALLEY,MOBILE,AL,36608,NOT AVAILABLE,(251) 221-2148
18938,10012001473,ATHENS MIDDLE SCHOOL,100 HWY 31 NORTH,ATHENS,AL,35611,NOT AVAILABLE,(256) 233-6620
30545,10345001305,BANKHEAD MIDDLE SCHOOL,110 SCHOOL RD,CORDOVA,AL,35550,1198,(205) 483-7245
36168,10000800851,WEST MADISON ELEMENTARY SCHOOL,4976 WALL TRIANA HWY,MADISON,AL,35758,NOT AVAILABLE,(256) 837-1189
36268,10117001615,FRANCES NUNGESTER ELEMENTARY SCHOOL,726 TAMMY ST SW,DECATUR,AL,35603,1328,(256) 552-3079
38064,10243001564,WARES FERRY ELEMENTARY SCHOOL,6425 WARES FERRY RD,MONTGOMERY,AL,36117,3399,(334) 260-1036
41301,10303002191,HELENA HIGH SCHOOL,1310 HILLSBORO PARKWAY,HELENA,AL,35080,NOT AVAILABLE,(205) 682-3650
43015,10072000306,WILSON HALL MIDDLE SCHOOL,401 CARTER DRIVE,GROVE HILL,AL,36451,NOT AVAILABLE,(251) 250-2140
43352,10162000551,DONEHOO ELEMENTARY SCHOOL,1109 E BROAD ST,GADSDEN,AL,35903,3041,(256) 546-3604
45296,10099001323,CULLMAN CITY CAREER TECH,301 FIRST STREET NE,CULLMAN,AL,35055,3542,(256) 734-2233
47622,10291001143,WEST ELEMENTARY SCHOOL,1340 CLAY AVE,RUSSELLVILLE,AL,35653,NOT AVAILABLE,(256) 331-2122
52379,10144001361,FAIRFIELD ALTERNATIVE SCHOOL,6405 AVE D,FAIRFIELD,AL,35064,0110,(205) 783-6847
53062,10003000005,NATHANIEL H STEPHENS ELEMENTARY SCHOOL,851 LAUREL ST,ALEXANDER CITY,AL,35010,1316,(256) 234-8631
55897,10180002419,JEMISON HIGH SCHOOL,5000 PULASKI PIKE,HUNTSVILLE,AL,35810,NOT AVAILABLE,(256) 428-8100
57431,10019902452,UNIVERSITY CHARTER SCHOOL,108 NORTH STREET,LIVINGSTON,AL,35470,NOT AVAILABLE,(205) 652-3848
57794,10102000420,HANCEVILLE MIDDLE SCHOOL,805 COMMERCIAL ST SE,HANCEVILLE,AL,35077,5523,(256) 352-6175
59550,10207002197,SMITH STATION FRESHMAN CENTER,1150 LEE ROAD 298,SMITHS STATION,AL,36877,2338,(334) 664-4063
1761,10237000939,MOBILE COUNTY TRAINING MIDDLE SCHOOL,800 WHITLEY ST,MOBILE,AL,36610,0097,(251) 221-2267
2091,10248000574,DANVILLE MIDDLE SCHOOL,5933 HIGHWAY 36 W,DANVILLE,AL,35619,6634,(256) 773-7723
3528,10084000334,COLBERT COUNTY HIGH SCHOOL,2200 HIGH SCHOOL ST,LEIGHTON,AL,35646,NOT AVAILABLE,(256) 446-8214
4846,10264001385,OPPORTUNITY ACADEMY,401 MARTIN STREET,OZARK,AL,36360,NOT AVAILABLE,(334) 774-5197
6880,10183000668,SKYLINE HIGH SCHOOL,897 COUNTY ROAD 25,SCOTTSBORO,AL,35768,5668,(256) 587-6561
6928,10027001888,SPANISH FORT MIDDLE SCHOOL,33899 JIMMY FAULKNER DRIVE,SPANISH FORT,AL,36527,NOT AVAILABLE,(251) 625-3271
90860,10078001671,CLEBURNE COUNTY MIDDLE SCHOOL,661 DUKE DRIVE,HEFLIN,AL,36264,2217,(256) 463-2405
91377,10306201537,MOODY JUNIOR HIGH SCHOOL,600 HIGH SCHOOL DRIVE,MOODY,AL,35004,NOT AVAILABLE,(205) 640-2040
92530,10024000590,AUTAUGA COUNTY TECHNOLOGY CENTER,1301 UPPER KINGSTON RD,PRATTVILLE,AL,36067,NOT AVAILABLE,(334) 361-0258
94455,10183001751,NORTH JACKSON HIGH SCHOOL,45549 AL HIGHWAY 277,STEVENSON,AL,35772,NOT AVAILABLE,(256) 437-2136
95620,10159000542,EAST FRANKLIN JUNIOR HIGH SCHOOL,1815 HIGHWAY 89,PHIL CAMPBELL,AL,35581,NOT AVAILABLE,(256) 331-2140
95630,10042000101,HAYDEN ELEMENTARY SCHOOL,4111 STATE HIGHWAY 160,HAYDEN,AL,35079,NOT AVAILABLE,(205) 647-6578
95683,10000500889,ALBERTVILLE ELEMENTARY SCHOOL,145 WEST END DRIVE,ALBERTVILLE,AL,35950,NOT AVAILABLE,(256) 894-4822
95718,10288001133,LADONIA ELEMENTARY SCHOOL,9 WOODLAND DR,PHENIX CITY,AL,36869,NOT AVAILABLE,(334) 468-5805
96449,10309001592,KINTERBISH JUNIOR HIGH SCHOOL,5586 KINTERBISH 10,CUBA,AL,36907,NOT AVAILABLE,(205) 392-4559
96474,10183000671,WOODVILLE HIGH SCHOOL,290 COUNTY ROAD 63,WOODVILLE,AL,35776,NOT AVAILABLE,(256) 776-2874
97025,10039000184,SMITH MIDDLE SCHOOL,1124 FIVE MILE RD,BIRMINGHAM,AL,35215,7216,(205) 231-5675
97845,10039002489,RICHARD ARRINGTON ELEMENTARY,2101 JEFFERSON AVENUE SW,BIRMINGHAM,AL,35211,NOT AVAILABLE,(205) 231-1130
99542,10345001225,WALKER COUNTY SCHOOLS 180 PROGRAM,1601 HIGHLAND AVENUE,JASPER,AL,35501,4971,(205) 387-9984
99560,10078000319,FRUITHURST ELEMENTARY SCHOOL,222 SCHOOL ST,FRUITHURST,AL,36262,3706,(256) 579-2232
229,10192002117,IRONDALE MIDDLE SCHOOL,6200 OLD LEEDS ROAD,IRONDALE,AL,35210,NOT AVAILABLE,(205) 379-3800
3449,10039000179,ROBINSON ELEMENTARY SCHOOL,8400 1ST AVE S,BIRMINGHAM,AL,35206,2735,(205) 231-5555
5300,10024000046,MARBURY HIGH SCHOOL,2360 HIGHWAY 31 NORTH,DEATSVILLE,AL,36022,NOT AVAILABLE,(334) 387-1910
6285,10018702371,MONTGOMERY CHILDRENS SPECIALTY CENTER,2853 FORBES DR,MONTGOMERY,AL,36110,NOT AVAILABLE,(334) 261-3445
8501,10207000284,BEAUREGARD ELEMENTARY SCHOOL,300 LEE ROAD 431,OPELIKA,AL,36804,0831,(334) 705-6011
9896,10297001151,CLARK ELEMENTARY SCHOOL,405 LAWRENCE ST,SELMA,AL,36703,NOT AVAILABLE,(334) 874-1630
42416,10117000435,WEST DECATUR ELEMENTARY SCHOOL,708 MEMORIAL DR SW,DECATUR,AL,35601,2917,(256) 552-3027
43961,10051002144,GEORGIANA SCHOOL,866 HIGHWAY 31 SOUTH,GEORGIANA,AL,36033,NOT AVAILABLE,(334) 376-9130
44280,10003000001,ALEXANDER CITY MIDDLE SCHOOL,359 STATE ST,ALEXANDER CITY,AL,35010,1948,(256) 234-8660
44681,10111000406,SOUTHSIDE HIGH SCHOOL,7975 US HIGHWAY 80 E,SELMA,AL,36701,1001,(334) 872-0518
44943,10129000834,ELMORE COUNTY TECHNICAL CENTER,800 KELLYFITZPATRICK DR,WETUMPKA,AL,36092,NOT AVAILABLE,(334) 567-1218
48084,10204000958,LAWRENCE COUNTY CAREER TECHNICAL CENTER,179 COLLEGE ST,MOULTON,AL,35605,NOT AVAILABLE,(256) 990-5242
70241,10153000531,FLORENCE FRESHMAN CENTER,1203 BRADSHAW DRIVE,FLORENCE,AL,35630,4694,(256) 768-2400
70899,10063000282,SAND ROCK HIGH SCHOOL,1950 SAND ROCK AVENUE,SAND ROCK,AL,35983,NOT AVAILABLE,(256) 557-3825
72171,10339001292,VANCE ELEMENTARY SCHOOL,18202 HWY 11 N,VANCE,AL,35490,NOT AVAILABLE,(205) 342-2697
74723,10192000716,HUEYTOWN INTERMEDIATE SCHOOL,1950 INTERMEDIATE SCHOOL ROAD,HUEYTOWN,AL,35023,NOT AVAILABLE,(205) 379-4100
76586,10166001794,SLOCOMB MIDDLE SCHOOL,591 SOUTH COUNTY ROAD 9,SLOCOMB,AL,36375,NOT AVAILABLE,(334) 886-2008
78827,10120000439,DEMOPOLIS MIDDLE SCHOOL,300 E PETTUS ST,DEMOPOLIS,AL,36732,0300,(334) 289-4242
56499,10248001526,MORGAN COUNTY LEARNING CENTER,72 PLAINVIEW ST,HARTSELLE,AL,35640,6542,(256) 773-6458
56529,10129002142,REDLAND ELEMENTARY SCHOOL,495 SCHOLARS DRIVE,WETUMPKA,AL,36093,NOT AVAILABLE,(334) 567-1248
56894,10303001868,CALERA MIDDLE,9178 HIGHWAY 22,MONTEVALLO,AL,35115,NOT AVAILABLE,(205) 682-6140
58830,10282001139,RANDOLPHROANOKE CAREER TECHNOLOGY CENTER,960 MAIN ST S,WEDOWEE,AL,36278,NOT AVAILABLE,(256) 357-2839
80474,10156000539,WILLIAMS AVENUE ELEMENTARY SCHOOL,1700 WILLIAMS AVE NE,FORT PAYNE,AL,35967,3310,(256) 845-0626
82641,10039001270,CITY ELEMENTARY,901 9TH AVENUE NORTH,BIRMINGHAM,AL,35204,2823,(205) 231-2288
83118,10042000203,APPALACHIAN SCHOOL,350 COUNTY HIGHWAY 12,ONEONTA,AL,35121,7112,(205) 775-1970
83386,10000600876,CLAYSVILLE SCHOOL,140 CLAYSVILLE SCHOOL RD,GUNTERSVILLE,AL,35976,NOT AVAILABLE,(256) 582-4444
83634,10153000536,FLORENCE MIDDLE SCHOOL,648 NORTH CHERRY,FLORENCE,AL,35630,4694,(256) 768-3100
87218,10166001792,GENEVA COUNTY MIDDLE SCHOOL,301 WEST LILY ST,HARTFORD,AL,36344,1802,(334) 588-2943
88290,10066000748,W A LECROY CAREER TECHNICAL CENTER,2829 4TH AVE N,CLANTON,AL,35045,NOT AVAILABLE,(205) 280-2920
10469,10210000808,TANNER HIGH SCHOOL,12060 SOMMERS RD,TANNER,AL,35671,3801,(256) 233-6682
15586,10001200884,CORLEY ELEMENTARY SCHOOL,505 MOUNT VERNON RD,BOAZ,AL,35957,3159,(256) 593-3254
91376,10297000152,SOPHIA P KINGSTON ELEMENTARY SCHOOL,2224 SELMA AVE,SELMA,AL,36701,NOT AVAILABLE,(334) 874-1635
91395,10099000369,CULLMAN MIDDLE SCHOOL,800 2ND AVE NE,CULLMAN,AL,35055,NOT AVAILABLE,(256) 734-7959
92854,10039000103,AVONDALE ELEMENTARY SCHOOL,4000 8TH CT S,BIRMINGHAM,AL,35222,NOT AVAILABLE,(205) 231-7130
93327,10237001775,ERWIN CRAIGHEAD ELEMENTARY SCHOOL,1000 SOUTH ANN ST,MOBILE,AL,36605,NOT AVAILABLE,(251) 221-1155
94270,10297000540,PHOENIX SCHOOL,501 PLANT ST,SELMA,AL,36701,NOT AVAILABLE,(334) 874-1718
94772,10348001332,MCINTOSH ELEMENTARY SCHOOL,8945 OLD HWY 43,MCINTOSH,AL,36553,0357,(251) 944-2481
95375,10222000978,MADISON COUNTY ALTERNATIVE SCHOOL,1275 JORDAN RD,HUNTSVILLE,AL,35811,NOT AVAILABLE,(256) 859-1148
96579,10162001646,GADSDEN CITY ALTERNATIVE SCHOOL,607 S 12TH ST,GADSDEN,AL,35901,3802,(256) 547-5446
97537,10204001410,EAST LAWRENCE ELEMENTARY SCHOOL,263 COUNTY ROAD 370,TRINITY,AL,35673,3317,(256) 905-2514
99047,10000600887,BRINDLEE MOUNTAIN PRIMARY SCHOOL,1050 SCANT CITY ROAD,GUNTERSVILLE,AL,35976,NOT AVAILABLE,(256) 753-2532
99289,10213000811,GEORGE P AUSTIN JUNIOR HIGH SCHOOL,718 MARTIN LUTHER KING DR,LINDEN,AL,36748,0699,(334) 295-5378
61605,10138000506,SOUTHSIDE HIGH SCHOOL,2361 SCHOOL DRIVE,SOUTHSIDE,AL,35907,7809,(256) 442-2172
63212,10117000434,OAK PARK ELEMENTARY SCHOOL,1218 16H AVE SE,DECATUR,AL,35601,3293,(256) 552-3033
66871,10318001210,BB COMER MEMORIAL HIGH SCHOOL,801 SEMINOLE AVE,SYLACAUGA,AL,35150,NOT AVAILABLE,(256) 315-5400
67106,10078000320,PLEASANT GROVE ELEMENTARY SCHOOL,9855 HIGHWAY 9,HEFLIN,AL,36264,3925,(256) 253-2146
68174,10036000092,BIBB COUNTY HIGH SCHOOL,220 BIRMINGHAM RD,CENTREVILLE,AL,35042,NOT AVAILABLE,(205) 926-9071
69592,10129000468,STANHOPE ELMORE HIGH SCHOOL,4300 MAIN ST,MILLBROOK,AL,36054,NOT AVAILABLE,(334) 285-4263
21012,10198000759,LANETT SENIOR HIGH SCHOOL,1301 S 8TH AVE,LANETT,AL,36363,NOT AVAILABLE,(334) 644-5965
23053,10237000915,OLIVE J DODGE ELEMENTARY SCHOOL,2615 LONGLEAF DR,MOBILE,AL,36693,NOT AVAILABLE,(251) 221-1195
31485,10141000511,EUFAULA HIGH SCHOOL,530 LAKE DR,EUFAULA,AL,36027,NOT AVAILABLE,(334) 687-1110
32741,10126001354,ELBA AREA VOCATIONAL SCHOOL,371 TIGER DR,ELBA,AL,36323,4023,(334) 897-3000
34019,10345001611,VALLEY JUNIOR HIGH SCHOOL,155 VALLEY SCHOOL RD,JASPER,AL,35504,NOT AVAILABLE,(205) 483-9381
37411,10171002156,GREENSBORO MIDDLE SCHOOL,620 CARVER STREET,GREENSBORO,AL,36744,NOT AVAILABLE,(334) 624-4005
37858,10243001036,LANIER SENIOR HIGH SCHOOL,1756 S COURT ST,MONTGOMERY,AL,36104,5498,(334) 269-3726
39782,10018902196,ROBERT E LEE ELEMENTARY,251 BAKER RD,SATSUMA,AL,36572,NOT AVAILABLE,(251) 380-8210
101339,10060000264,LAFAYETTE LANIER ELEMENTARY SCHOOL,6001 20TH AVE,VALLEY,AL,36854,NOT AVAILABLE,(334) 756-3623
101489,10294001486,COLLINS INTERMEDIATE SCHOOL,102 LEGION DR,SCOTTSBORO,AL,35768,NOT AVAILABLE,(256) 218-2700
102309,10002001831,THE BOYD SCHOOL,20856 EASTERN VALLEY RD,GREEN POND,AL,35074,NOT AVAILABLE,(205) 938-7663
102329,10180000653,WHITESBURG ELEMENTARY SCHOOL,6810 WHITESBURG DR,HUNTSVILLE,AL,35802,NOT AVAILABLE,(256) 428-7520
102330,10180001527,CHAPMAN MIDDLE SCHOOL,2006 REUBEN DR NE,HUNTSVILLE,AL,35811,NOT AVAILABLE,(256) 428-7640
102421,10002301834,SEQUEL TSI MADISON LLC,1329 BROWNS FERRY ROAD,MADISON,AL,35758,NOT AVAILABLE,(256) 895-0710
102433,10123002513,CARVER 9TH GRADE ACADEMY,1025 S BEVERLYE RD,DOTHAN,AL,36301,4899,(334) 794-1432
103190,10017602465,KILBY CORRECTIONAL FACILITY,12201 EDNA BRAKE LUCAS DR,MONTGOMERY,AL,36117,NOT AVAILABLE,(334) 215-6600
103208,10132002455,ENTERPRISE CAREER AND TECHNOLOGY CENTER,605 WEST COLLEGE STREET,ENTERPRISE,AL,36330,NOT AVAILABLE,(334) 347-9531
50465,10273001131,LADOW TECHNICAL CENTER,377 LADOW CENTER CIR,CARROLLTON,AL,35447,NOT AVAILABLE,(205) 367-8195
52762,10270001548,PHENIX CITY ELEMENTARY SCHOOL,2307 SOUTH RAILROAD STREET,PHENIX CITY,AL,36867,NOT AVAILABLE,(334) 732-1160
53455,10069001561,CHOCTAW COUNTY ELEMENTARY,201 TOM ORR DRIVE,BUTLER,AL,36904,2409,(205) 459-3520
53995,10087000347,LYEFFION JUNIOR HIGH SCHOOL,7575 HIGHWAY 83,EVERGREEN,AL,36401,NOT AVAILABLE,(251) 578-2800
55893,10210002431,ELKMONT ELEMENTARY SCHOOL,25630 EVANS STREET,ELKMONT,AL,35620,NOT AVAILABLE,(256) 732-4291
55894,10019502424,PIKE ROAD INTERMEDIATE SCHOOL,4710 PIKE ROAD,PIKE ROAD,AL,36064,NOT AVAILABLE,(334) 420-5360
57432,10087002442,GENESIS INNOVATIVE SCHOOL,1989 JAGUAR DRIVE,EVERGREEN,AL,36401,NOT AVAILABLE,(251) 578-5291
41840,10273001097,ALICEVILLE ELEMENTARY SCHOOL,800 COLUMBUS RD NW,ALICEVILLE,AL,35442,1623,(205) 373-8722
42681,10024000047,PRATTVILLE ELEMENTARY SCHOOL,134 PATRICK ST,PRATTVILLE,AL,36067,4420,(334) 361-3885
47718,10177000617,WICKSBURG HIGH SCHOOL,1172 S STATE HIGHWAY 123,NEWTON,AL,36352,8411,(334) 692-5549
81851,10159000545,RED BAY HIGH SCHOOL,800 8TH ST,RED BAY,AL,35582,NOT AVAILABLE,(256) 331-2270
83212,10111000395,BRANTLEY ELEMENTARY SCHOOL,5585 WATER AVE,SELMA,AL,36703,8711,(334) 874-8185
83239,10237000960,TANNER WILLIAMS ELEMENTARY SCHOOL,13700 TANNER WILLIAMS RD,WILMER,AL,36587,NOT AVAILABLE,(251) 221-1675
84250,10000801423,HERITAGE ELEMENTARY SCHOOL,11775 COUNTY LINE RD,MADISON,AL,35758,3301,(256) 772-2075
87389,10243001011,MCINTYRE COMPREHENSIVE ACADEMY,1200 HUGH STREET,MONTGOMERY,AL,36108,2610,(334) 223-7885
88277,10162001517,FLOYD ELEMENTARY SCHOOL,601 BLACK CREEK RD,GADSDEN,AL,35904,1655,(256) 546-0836
71640,10210000797,ARDMORE HIGH SCHOOL,30285 ARDMORE AVE,ARDMORE,AL,35739,0609,(256) 423-2685
90914,10248001864,WEST MORGAN MIDDLE SCHOOL,261 SOUTH GREENWAY DRIVE,TRINITY,AL,35673,6002,(256) 353-5214
91924,10012001472,ATHENS HIGH SCHOOL,655 HWY 31 NORTH,ATHENS,AL,35611,NOT AVAILABLE,(256) 233-6613
95191,10192000702,CENTER POINT HIGH SCHOOL,1000 EAGLE DRIVE,CENTER POINT,AL,35215,NOT AVAILABLE,(205) 379-3400
97047,10039000191,JONES VALLEY MIDDLE SCHOOL,2000 31ST STREET SW,BIRMINGHAM,AL,35221,1717,(205) 231-1040
97820,10248001046,LACEYS SPRING ELEMENTARY SCHOOL,48 SCHOOL RD,LACEYS SPRING,AL,35754,4001,(256) 881-4460
60048,10172001885,HALEYVILLE MIDDLE SCHOOL,2014 20TH AVENUE,HALEYVILLE,AL,35565,NOT AVAILABLE,(205) 486-9240
60687,10102000420,HANCEVILLE MIDDLE SCHOOL,805 COMMERCIAL ST SE,HANCEVILLE,AL,35077,5523,(256) 352-6175
61431,10000701743,SHADES MOUNTAIN ELEMENTARY SCHOOL,2250 SUMPTER ST,HOOVER,AL,35226,3099,(205) 439-3100
61775,10336002101,PAUL W BRYANT HIGH SCHOOL,6315 MARY HARMON BRYANT DRIVE,COTTONDALE,AL,35453,NOT AVAILABLE,(205) 759-3538
61927,10324001238,TALLASSEE HIGH SCHOOL,502 BARNETT BLVD,TALLASSEE,AL,36078,NOT AVAILABLE,(334) 283-2187
62405,10102000386,WELTI ELEMENTARY SCHOOL,8545 COUNTY ROAD 747,CULLMAN,AL,35055,9254,(256) 734-4956
63269,10303001187,VINCENT MIDDLE HIGH SCHOOL,42505 HIGHWAY 25,VINCENT,AL,35178,NOT AVAILABLE,(205) 682-7300
64068,10093000360,FLORALA HIGH SCHOOL,22114 BEGONIA ST,FLORALA,AL,36442,NOT AVAILABLE,(334) 858-3765
64467,10000701743,SHADES MOUNTAIN ELEMENTARY SCHOOL,2250 SUMPTER ST,HOOVER,AL,35226,3099,(205) 439-3100
67555,10243000995,CAPITOL HEIGHTS MIDDLE SCHOOL,116 FEDERAL DR,MONTGOMERY,AL,36107,1728,(334) 260-1000
67840,10039000192,WENONAH HIGH SCHOOL,2800 WILSON RD SW,BIRMINGHAM,AL,35221,1303,(205) 231-1675
69073,10010000022,ARAB ELEMENTARY SCHOOL,241 8TH AVE NE,ARAB,AL,35016,NOT AVAILABLE,(256) 586-6085
31057,10354001613,WINFIELD ELEMENTARY SCHOOL,601 COUNTY HIGHWAY 14,WINFIELD,AL,35594,NOT AVAILABLE,(205) 487-2305
36759,10003000006,WILLIAM L RADNEY ELEMENTARY SCHOOL,140 ALLISON DRIVE,ALEXANDER CITY,AL,35010,4408,(256) 234-8636
100051,10237000916,DUNBAR CREATIVE PERFORMING ARTS,500 SAINT ANTHONY ST,MOBILE,AL,36603,6123,(251) 221-2160
102434,10129002494,EDGE VIRTUAL SCHOOL,517 MICANOPY STREET,WEUMPKA,AL,36092,NOT AVAILABLE,(334) 514-3931
102437,10156002518,LITTLE RIDGE INTERMEDIATE SCHOOL,201 45TH ST NE,FORT PAYNE,AL,35967,NOT AVAILABLE,(256) 845-0535
103202,10020802503,BREAKTHROUGH CHARTER SCHOOL,1101 WASHINGTON STREET,MARION,AL,36756,NOT AVAILABLE,(559) 696-4461
103211,10222002479,MADISON COUNTY VIRTUAL ACADEMY,1275 JORDAN RD BUILDING A,HUNTSVILLE,AL,35811,NOT AVAILABLE,(256) 852-2557
103218,10343002500,VESTAVIA HILLS HIGH SCHOOL FRESHMAN CAMPUS,2020 PIZITZ DRIVE,VESTAVIA HILLS,AL,35216,NOT AVAILABLE,(205) 402-5300
106980,10020402476,I3 ACADEMY,55TH PLACE 1ST AVENUE SOUTH,BIRMINGHAM,AL,35212,NOT AVAILABLE,(205) 403-5777
20426,10358001464,DOUBLE SPRINGS MIDDLE SCHOOL,1218 COUNTY RD 24,DOUBLE SPRINGS,AL,35553,NOT AVAILABLE,(205) 717-3328
21080,10297001158,PAYNE ELEMENTARY SCHOOL,1529 N FRANKLIN ST,SELMA,AL,36701,NOT AVAILABLE,(334) 874-1660
22010,10117000429,DECATUR HIGH SCHOOL,910 SOMERVILLE ROAD,DECATUR,AL,35601,3290,(256) 552-3011
22080,10192000740,SNOW ROGERS ELEMENTARY SCHOOL,2636 SNOW ROGERS RD,GARDENDALE,AL,35071,NOT AVAILABLE,(205) 379-5400
24396,10123001448,HIGHLANDS ELEMENTARY SCHOOL,1400 S BRANNON STAND RD,DOTHAN,AL,36305,NOT AVAILABLE,(334) 794-1459
25585,10237002208,EICHOLDMERTZ SCHOOL OF MATH AND SCIENCE,2815 GOVERNMENT STREET,MOBILE,AL,36606,2617,(251) 221-1105
25596,10282001125,WOODLAND HIGH SCHOOL,24574 HIGHWAY 48,WOODLAND,AL,36280,NOT AVAILABLE,(256) 449-2315
25868,10345001321,PARRISH ELEMENTARYMIDDLE SCHOOL,95 ENGLE ST,PARRISH,AL,35580,NOT AVAILABLE,(205) 686-5061
10211,10237001438,LOTT MIDDLE SCHOOL,17740 CELESTE RD,CITRONELLE,AL,36522,NOT AVAILABLE,(251) 221-2240
10515,10237001083,TL FAULKNER SCHOOL,33 WEST ELM ST,PRICHARD,AL,36610,NOT AVAILABLE,(251) 221-5431
12545,10201000764,BROOKS HIGH SCHOOL,4300 HIGHWAY 72,KILLEN,AL,35645,NOT AVAILABLE,(256) 757-2115
13411,10114000424,SYLVANIA SCHOOL,133 2ND STREET N,SYLVANIA,AL,35988,2440,(256) 638-2030
13937,10264001080,CARROLL HIGH SCHOOL,141 EAGLE WAY,OZARK,AL,36360,1527,(334) 774-4915
13944,10270001096,WESTVIEW ELEMENTARY SCHOOL,1012 INGERSOLL DR,PHENIX CITY,AL,36867,NOT AVAILABLE,(334) 298-4507
14151,10339001880,NORTHPORT ELEMENTARY SCHOOL,13695 FRANKIE THOMAS TRACE,NORTHPORT,AL,35475,NOT AVAILABLE,(205) 342-2862
17949,10303000124,OAK MOUNTAIN MIDDLE SCHOOL,5650 CAHABA VALLEY RD,BIRMINGHAM,AL,35242,NOT AVAILABLE,(205) 682-5210
18530,10237000940,MORNINGSIDE ELEMENTARY SCHOOL,2700 GREENBRIER DR SOUTH,MOBILE,AL,36605,NOT AVAILABLE,(251) 221-1540
18686,10105000391,MIDLAND CITY ELEMENTARY SCHOOL,48 SECOND STREET,MIDLAND CITY,AL,36350,NOT AVAILABLE,(334) 983-4591
1994,10237000970,WILMER ELEMENTARY SCHOOL,7456 WILMERGEORGETOWN RD,WILMER,AL,36587,NOT AVAILABLE,(251) 221-1780
4102,10102001497,CULLMAN CHILD DEVELOPMENT CENTER,17600 US HIGHWAY 31 N,CULLMAN,AL,35058,0403,(256) 739-0486
7467,10084000333,CHEROKEE HIGH SCHOOL,850 HIGH SCHOOL DR,CHEROKEE,AL,35616,NOT AVAILABLE,(256) 359-4434
8443,10354001355,WINFIELD HIGH SCHOOL,232 PIRATE COVE,WINFIELD,AL,35594,NOT AVAILABLE,(205) 487-6900
61371,10000702186,BROCKS GAP INTERMEDIATE SCHOOL,1730 LAKE CYRUS CLUB DRIVE,HOOVER,AL,35244,4182,(205) 439-1600
62004,10318001443,MUNFORD ELEMENTARY SCHOOL,365 CEDARS ROAD,MUNFORD,AL,36268,NOT AVAILABLE,(256) 315-5250
64046,10117000427,AUSTINVILLE ELEMENTARY SCHOOL,2320 CLARA AVE SW,DECATUR,AL,35601,6316,(256) 552-3050
65059,10075002210,CENTRAL HIGH SCHOOL OF CLAY COUNTY,1 BOB RILEY DRIVE,LINEVILLE,AL,36266,NOT AVAILABLE,(256) 396-1400
65157,10192001542,KERMIT JOHNSON SCHOOL,8300 KERMIT JOHNSON RD,PINSON,AL,35126,NOT AVAILABLE,(205) 379-4350
67105,10069000297,SOUTHERN CHOCTAW HIGH SCHOOL,10941 HIGHWAY 17,GILBERTOWN,AL,36908,NOT AVAILABLE,(251) 843-5645
69834,10012000522,ATHENS INTERMEDIATE SCHOOL,1916 US HWY 72 W,ATHENS,AL,35611,1916,(256) 230-2880
106974,10020102472,LEGACY PREP,1500 DANIEL PAYNE DRIVE,BIRMINGHAM,AL,35214,NOT AVAILABLE,(205) 573-0777
71642,10249001054,CHEROKEE BEND ELEMENTARY SCHOOL,4400 FAIR OAKS DR,MOUNTAIN BROOK,AL,35213,NOT AVAILABLE,(205) 871-3595
73327,10192000681,ADAMSVILLE ELEMENTARY SCHOOL,4600 HAZELWOOD ROAD,ADAMSVILLE,AL,35005,1829,(205) 379-2400
75540,10339001289,COLLINSRIVERSIDE MIDDLE SCHOOL,1400 3RD ST,NORTHPORT,AL,35476,NOT AVAILABLE,(205) 342-2680
78408,10072000304,JACKSON MIDDLE SCHOOL,235 COLLEGE AVE,JACKSON,AL,36545,NOT AVAILABLE,(251) 246-3597
78522,10243001524,MCKEE MIDDLE SCHOOL,4017 MCINNIS ROAD,MONTGOMERY,AL,36116,NOT AVAILABLE,(334) 284-7528
79226,10210000959,LIMESTONE COUNTY AREA VOCATIONAL TECHNOLOGY,505 E SANDERFER RD,ATHENS,AL,35611,NOT AVAILABLE,(256) 233-6463
79467,10336001250,THE ALBERTA SCHOOL OF PERFORMING ARTS,2500 UNIVERSITY BLVD E,TUSCALOOSA,AL,35404,3838,(205) 759-3564
79780,10027001709,DAPHNE ELEMENTARY SCHOOL,2307 MAIN ST,DAPHNE,AL,36526,NOT AVAILABLE,(251) 626-2424
10762,10306201779,MOODY ELEMENTARY SCHOOL,1006 H L BLOCKER CIR,MOODY,AL,35004,NOT AVAILABLE,(205) 640-2180
13154,10000500870,ALBERTVILLE MIDDLE SCHOOL,600 E ALABAMA AVE,ALBERTVILLE,AL,35950,NOT AVAILABLE,(256) 878-2341
13818,10216001636,HAYNEVILLE MIDDLE SCHOOL,101 LAFAYETTE ST,HAYNEVILLE,AL,36040,NOT AVAILABLE,(334) 548-2184
14239,10102000377,FAIRVIEW HIGH SCHOOL,841 WELCOME RD,CULLMAN,AL,35058,1212,(256) 796-5106
19587,10180002093,HAMPTON COVE MIDDLE SCHOOL,261 OLD 431 HIGHWAY,HAMPTON COVE,AL,35763,NOT AVAILABLE,(256) 428-8380
1540,10303002128,HELENA MIDDLE,1299 HILLSBORO PARKWAY,HELENA,AL,35080,NOT AVAILABLE,(205) 682-5300
2517,10339001294,WALKER ELEMENTARY SCHOOL,13051 NORTHSIDE RD,NORTHPORT,AL,35475,NOT AVAILABLE,(205) 342-2664
20518,10180000651,WEATHERLY HEIGHTS ELEMENTARY SCHOOL,1307 CANSTATT DR,HUNTSVILLE,AL,35803,NOT AVAILABLE,(256) 428-7460
20816,10222000556,MADISON COUNTY HIGH SCHOOL,174 BROCK RD,GURLEY,AL,35748,NOT AVAILABLE,(256) 851-3270
28118,10318001212,CHILDERSBURG ELEMENTARY SCHOOL,235 PINECREST DRIVE,CHILDERSBURG,AL,35044,1047,(256) 315-5525
32617,10345001703,CURRY MIDDLE SCHOOL,115 YELLOW JACKET DR,JASPER,AL,35503,NOT AVAILABLE,(205) 384-3441
34444,10222000843,NEW HOPE HIGH SCHOOL,5216 MAIN DR,NEW HOPE,AL,35760,NOT AVAILABLE,(256) 851-3280
37038,10176000607,HALL KENT ELEMENTARY SCHOOL,213 HALL AVE,HOMEWOOD,AL,35209,NOT AVAILABLE,(205) 423-2430
38165,10177002078,REHOBETH ELEMENTARY SCHOOL,5631 COUNTY ROAD 203,REHOBETH,AL,36301,NOT AVAILABLE,(334) 677-3838
52511,10303001190,CAREER TECHNICAL EDUCATION CENTER,701 HIGHWAY 70,COLUMBIANA,AL,35051,0701,(205) 682-6650
58221,10159000860,FRANKLIN COUNTY CAREER TECHNICAL CENTER,85 JAIL SPRINGS ROAD,RUSSELLVILLE,AL,35653,NOT AVAILABLE,(256) 332-2127
58710,10114000418,HENAGAR JUNIOR HIGH SCHOOL,85 WOODVIEW RD,HENAGAR,AL,35978,7611,(256) 657-4483
81701,10039000113,CHRISTIAN SCHOOL,725 MOUNTAIN DR,BIRMINGHAM,AL,35206,NOT AVAILABLE,(205) 231-5249
82041,10204000786,MOULTON MIDDLE SCHOOL,660 COLLEGE ST,MOULTON,AL,35650,NOT AVAILABLE,(256) 905-2460
83557,10051000690,BUTLER COUNTY AREA VOCATIONAL SCHOOL,211 SCHOOL HIGHLANDS ROAD,GREENVILLE,AL,36037,1833,(334) 382-2608
85326,10243001012,FLOWERS ELEMENTARY SCHOOL,3510 HARRISON RD,MONTGOMERY,AL,36109,5134,(334) 260-1015
90861,10096000367,HIGHLAND HOME SCHOOL,1434 MONTGOMERY HWY,HIGHLAND HOME,AL,36041,NOT AVAILABLE,(334) 441-3424
91467,10180001531,WHITESBURG MIDDLE SCHOOL,107 SANDERS RD,HUNTSVILLE,AL,35802,NOT AVAILABLE,(256) 428-7780
92247,10243001017,GOODWYN MIDDLE SCHOOL,209 PERRY HILL RD,MONTGOMERY,AL,36109,3799,(334) 260-1021
99720,10120000148,DEMOPOLIS HIGH SCHOOL,701 HWY 80 W,DEMOPOLIS,AL,36732,9999,(334) 289-0294
40406,10243001021,HIGHLAND AVENUE ELEMENTARY SCHOOL,2024 HIGHLAND AVENUE,MONTGOMERY,AL,36107,2698,(334) 269-3690
44279,10147001512,BERRY ELEMENTARY SCHOOL,341 SCHOOL AVENUE,BERRY,AL,35546,0479,(205) 689-4464
44659,10339001293,FAUCETTVESTAVIA ELEMENTARY SCHOOL,1150 VESTAVIA CIRCLE,NORTHPORT,AL,35473,NOT AVAILABLE,(205) 342-2646
48940,10042000213,SUSAN MOORE HIGH SCHOOL,4040 SUSAN MOORE RD,BLOUNTSVILLE,AL,35031,NOT AVAILABLE,(205) 775-2060
70348,10270001091,RIDGECREST ELEMENTARY SCHOOL,1806 8TH PL SO,PHENIX CITY,AL,36869,NOT AVAILABLE,(334) 298-3004
70350,10166001519,SLOCOMB HIGH SCHOOL,ESTO HWY,SLOCOMB,AL,36375,NOT AVAILABLE,(334) 886-2008
70563,10303001803,LINDA NOLEN LEARNING CENTER,2280 HIGHWY 35,PELHAM,AL,35124,NOT AVAILABLE,(205) 682-5800
71710,10207000791,BEULAH HIGH SCHOOL,4848 LEE ROAD 270,VALLEY,AL,36854,8806,(334) 705-6020
76839,10129000833,COOSADA ELEMENTARY SCHOOL,5260 AIRPORT ROAD,MILLBROOK,AL,36054,NOT AVAILABLE,(334) 285-0273
90156,10012001474,JAMES L COWART ELEMENTARY SCHOOL,1701 W HOBBS ST,ATHENS,AL,35611,4699,(256) 233-6627
91399,10066000261,ISABELLA HIGH SCHOOL,11338 COUNTY ROAD 15,MAPLESVILLE,AL,36750,NOT AVAILABLE,(205) 280-2770
91653,10265001469,EDEN ELEMENTARY SCHOOL,412 WOLF CREEK RD N,PELL CITY,AL,35125,NOT AVAILABLE,(205) 338-6930
91778,10339001275,BUHL ELEMENTARY SCHOOL,11968 BUHL SCHOOL RD,BUHL,AL,35446,NOT AVAILABLE,(205) 342-2640
92279,10021000036,AUBURN HIGH SCHOOL,1701 E SAMFORD AVENUE,AUBURN,AL,36830,6340,(334) 887-2120
97296,10240000975,EXCEL HIGH SCHOOL,3010 HWY 136 W,EXCEL,AL,36439,NOT AVAILABLE,(251) 765-9146
99320,10141000513,MOORER MIDDLE SCHOOL,101 ST FRANCIS RD,EUFAULA,AL,36027,NOT AVAILABLE,(334) 687-1130
60792,10000700091,TRACE CROSSINGS ELEMENTARY SCHOOL,5454 LEARNING LANE,HOOVER,AL,35244,4529,(205) 439-2700
62247,10358001358,DOUBLE SPRINGS ELEMENTARY SCHOOL,123 OLD SCHOOL RD,DOUBLE SPRINGS,AL,35553,NOT AVAILABLE,(205) 717-3322
65661,10243001691,CHILDRENS CENTER,310 N MADISON TERRACE,MONTGOMERY,AL,36107,1599,(334) 262-4865
65913,10024000050,PRATTVILLE INTERMEDIATE SCHOOL,1020 HONEYSUCKLE DR,PRATTVILLE,AL,36067,NOT AVAILABLE,(334) 361-3880
67386,10264001084,HARRY N MIXON INTERMEDIATE SCHOOL,349 SHERRILL LN,OZARK,AL,36360,2734,(334) 774-4912
69363,10027001810,BALDWIN COUNTY HIGH SCHOOL,ONE TIGER DR,BAY MINETTE,AL,36507,3300,(251) 937-2341
69429,10336000584,ROCK QUARRY ELEMENTARY SCHOOL,2000 ROCK QUARRY DR,TUSCALOOSA,AL,35406,NOT AVAILABLE,(205) 759-8347
69454,10207000486,EAST SMITHS STATION ELEMENTARY SCHOOL,171 LEE ROAD 728,SMITHS STATION,AL,36877,2509,(334) 664-4061
45611,10072001493,JACKSON HIGH SCHOOL,321 STANLEY DR,JACKSON,AL,36545,NOT AVAILABLE,(251) 246-2571
46549,10351001780,WILCOX CENTRAL HIGH SCHOOL,1310 T L THREADGILL RD,CAMDEN,AL,36726,1089,(334) 682-9239
46777,10138000494,DUCK SPRINGS ELEMENTARY SCHOOL,10180 DUCK SPRINGS RD,ATTALLA,AL,35954,NOT AVAILABLE,(256) 538-6301
82510,10169000582,GUNTERSVILLE HIGH SCHOOL,14227 HIGHWAY 431 SOUTH,GUNTERSVILLE,AL,35976,2599,(256) 582-2046
82844,10123000447,GIRARD INTERMEDIATE SCHOOL,600 GIRARD AVE,DOTHAN,AL,36303,3198,(334) 794-1426
83162,10222001433,ENDEAVOR ELEMENTARY SCHOOL,1997 OLD RAILROAD BED RD,HARVEST,AL,35749,NOT AVAILABLE,(256) 851-4620
83736,10027000024,ROBERTSDALE HIGH SCHOOL,21630 HIGHWAY 59 SOUTH,ROBERTSDALE,AL,36567,NOT AVAILABLE,(251) 947-4154
85407,10138000507,WEST END HIGH SCHOOL,4515 ELM ST,WALNUT GROVE,AL,35990,NOT AVAILABLE,(256) 622-1112
86414,10169000582,GUNTERSVILLE HIGH SCHOOL,14227 HIGHWAY 431 SOUTH,GUNTERSVILLE,AL,35976,2599,(256) 582-2046
88497,10060000260,HUGULEY ELEMENTARY SCHOOL,3011 PHILLIPS RD,LANETT,AL,36863,6233,(334) 576-2572
89421,10303001588,ELVIN HILL ELEMENTARY SCHOOL,201 WASHINGTON ST,COLUMBIANA,AL,35051,NOT AVAILABLE,(205) 682-6620
17282,10237001038,THE PATHWAY,2161 BUTLER ST,MOBILE,AL,36617,0097,(251) 221-5010
17756,10237000989,ALMA BRYANT HIGH SCHOOL,14001 HURRICANE BLVD,IRVINGTON,AL,36544,NOT AVAILABLE,(251) 824-3213
55558,10042000207,HAYDEN PRIMARY SCHOOL,160 BRACKEN LN,HAYDEN,AL,35079,NOT AVAILABLE,(205) 647-2103
56012,10282001139,RANDOLPHROANOKE CAREER TECHNOLOGY CENTER,960 MAIN ST S,WEDOWEE,AL,36278,NOT AVAILABLE,(256) 357-2839
57811,10279001113,GOSHEN ELEMENTARY SCHOOL,23 COUNTY ROAD 2238,GOSHEN,AL,36035,NOT AVAILABLE,(334) 566-1851
20708,10237000924,CORA CASTLEN ELEMENTARY,9960 SCHOOL HOUSE RD,GRAND BAY,AL,36541,0276,(251) 865-6733
23632,10282001123,WADLEY HIGH SCHOOL,105 BAILEY ST,WADLEY,AL,36276,NOT AVAILABLE,(256) 395-2286
24075,10339002154,SIPSEY VALLEY MIDDLE SCHOOL,15817 ROMULUS RD,BUHL,AL,35446,9315,(205) 342-2870
30256,10225000856,MARENGO HIGH SCHOOL,212 PANTHER DRIVE,DIXONS MILLS,AL,36736,NOT AVAILABLE,(334) 992-2395
31426,10297001154,EDGEWOOD ELEMENTARY SCHOOL,709 HIGHLAND AVE,SELMA,AL,36701,NOT AVAILABLE,(334) 874-1640
32194,10027000162,CENTRAL BALDWIN MIDDLE SCHOOL,24545 STATE HIGHWAY 59,ROBERTSDALE,AL,36576,NOT AVAILABLE,(251) 947-2327
33288,10192000689,BRAGG MIDDLE SCHOOL,840 HAZELS WAY,GARDENDALE,AL,35071,NOT AVAILABLE,(205) 379-2600
34753,10294001147,SCOTTSBORO HIGH SCHOOL,25053 JOHN T REID PKWY,SCOTTSBORO,AL,35768,NOT AVAILABLE,(256) 218-2000
36267,10243000998,CATOMA ELEMENTARY SCHOOL,1780 MITCHELL YOUNG RD,MONTGOMERY,AL,36108,5835,(334) 288-5799
39305,10192001543,RUDD MIDDLE SCHOOL,4526 RUDD SCHOOL RD,PINSON,AL,35126,NOT AVAILABLE,(205) 379-5309
866,10345002377,SUMITON ELEMENTARY SCHOOL,71 1ST STREET NORTH,SUMITON,AL,35148,NOT AVAILABLE,(205) 648-5656
1269,10075000312,LINEVILLE ELEMENTARY SCHOOL,18 WEST MAIN,LINEVILLE,AL,36266,0220,(256) 396-1420
2333,10222001731,LYNN FANNING ELEMENTARY SCHOOL,8861 MOORES MILL RD,MERIDIANVILLE,AL,35759,NOT AVAILABLE,(256) 851-4680
3396,10024000587,AUTAUGA COUNTY ALTERNATIVE SCHOOL,816 CARDINAL LN,PRATTVILLE,AL,36067,NOT AVAILABLE,(334) 361-3833
9591,10342001400,DESHLER CAREER TECHNICAL CENTER,200 N COMMONS EAST,TUSCUMBIA,AL,35674,1299,(256) 389-2900
102165,10033001267,BESSEMER CENTER FOR TECHNOLOGY,4940 PREMIERE PARKWAY,BESSEMER,AL,35022,NOT AVAILABLE,(205) 432-3805
102327,10039001629,GATEWAY,5201 AIRPORT HWY,BIRMINGHAM,AL,35212,NOT AVAILABLE,(205) 510-2714
102426,10027002492,BELFOREST ELEMENTARY SCHOOL,11364 COUNTY ROAD 64,DAPHNE,AL,36526,NOT AVAILABLE,(251) 607-5624
106990,10192002495,BRYANT PARK ELEMENTARY,2020 BRYANT PARK DRIVE,BIRMINGHAM,AL,35215,NOT AVAILABLE,(205) 379-2850
68138,10306201590,RUBEN YANCY ALTERNATIVE SCHOOL,466 10TH STREET,ASHVILLE,AL,35953,NOT AVAILABLE,(205) 594-7492
69100,10265001883,WILLIAMS INTERMEDIATE SCHOOL,2000 HARDWICK ROAD,PELL CITY,AL,35128,NOT AVAILABLE,(205) 338-4949
69858,10243001013,FLOYD MIDDLE SCHOOL,3444 LEBRON RD,MONTGOMERY,AL,36111,1394,(334) 284-7130
10212,10345000131,CARBON HILL ELEMENTARYJUNIOR HIGH SCHOOL,283 BULLDOG BLVD,CARBON HILL,AL,35549,NOT AVAILABLE,(205) 924-4101
14596,10318001220,MUNFORD HIGH SCHOOL,300 CEDARS ROAD,MUNFORD,AL,36268,NOT AVAILABLE,(256) 315-5220
15056,10166001793,SLOCOMB ELEMENTARY SCHOOL,108 S HEMBY STREET,SLOCOMB,AL,36375,0307,(334) 886-2132
15885,10237000897,DENTON MAGNET SCHOOL OF TECHNOLOGY,3800 PLEASANT VALLEY,MOBILE,AL,36608,NOT AVAILABLE,(251) 221-2148
16234,10180001651,COLUMBIA HIGH SCHOOL,300 EXPLORER BOULEVARD,HUNTSVILLE,AL,35806,NOT AVAILABLE,(256) 428-7576
17885,10162001666,THOMPSON ELEMENTARY SCHOOL,236 GOLDENROD AVE,GADSDEN,AL,35901,1810,(256) 546-7011
18958,10010000027,ARAB JUNIOR HIGH SCHOOL,911 OLD CULLMAN RD,ARAB,AL,35016,NOT AVAILABLE,(256) 586-6074
40001,10039000127,OLIVER K5 SCHOOL,6871 6TH COURT S,BIRMINGHAM,AL,35212,2900,(205) 231-8620
40008,10237002177,EVENING EDUCATIONAL OPTIONS,2051 MILITARY ROAD,MOBILE,AL,36605,NOT AVAILABLE,(251) 221-3233
40069,10117000437,BENJAMIN DAVIS ELEMENTARY SCHOOL,417 MONROE DR NW,DECATUR,AL,35601,1515,(256) 552-3025
42995,10222000844,NEW MARKET SCHOOL,155 COLLEGE ST,NEW MARKET,AL,35761,NOT AVAILABLE,(256) 851-3250
43344,10000700251,HOOVER HIGH SCHOOL,1000 BUCCANEER DRIVE,HOOVER,AL,35244,4511,(205) 439-1200
48062,10099000372,WEST ELEMENTARY SCHOOL,303 ROSEMONT AVE SW,CULLMAN,AL,35055,NOT AVAILABLE,(256) 734-4271
20128,10192000697,CONCORD ELEMENTARY SCHOOL,1886 LEARNING LANE,BESSEMER,AL,35023,4300,(205) 379-3150
26535,10102000379,GOOD HOPE HIGH SCHOOL,210 GOOD HOPE SCHOOL RD,CULLMAN,AL,35057,0120,(256) 734-3807
26725,10210000805,SUGAR CREEK ELEMENTARY SCHOOL,26595 SALEM MINOR HILL ROAD,LESTER,AL,35647,NOT AVAILABLE,(256) 233-6669
27092,10237000932,LEINKAUF ELEMENTARY SCHOOL,1410 MONROE ST,MOBILE,AL,36604,NOT AVAILABLE,(251) 221-1495
27102,10303001181,SHELBY ELEMENTARY SCHOOL,19099 HIGHWAY 145,SHELBY,AL,35143,NOT AVAILABLE,(205) 682-6630
27811,10243001022,HIGHLAND GARDENS ELEMENTARY SCHOOL,2801 WILLENA AVE,MONTGOMERY,AL,36107,1096,(334) 269-3685
70590,10042000208,HAYDEN HIGH SCHOOL,125 ATWOOD ROAD,HAYDEN,AL,35079,NOT AVAILABLE,(205) 647-0397
73349,10264001386,CARROLL HIGH SCHOOL CAREER CENTER,227 FAUST AVE,OZARK,AL,36360,1575,(334) 774-4949
73910,10169000579,GUNTERSVILLE MIDDLE SCHOOL,901 SUNSET DR,GUNTERSVILLE,AL,35976,NOT AVAILABLE,(256) 582-5182
77937,10173000597,FE BURLESON ELEMENTARY SCHOOL,1100 BETHEL ROAD NE,HARTSELLE,AL,35640,NOT AVAILABLE,(256) 773-2411
868,10036001480,WOODSTOCK ELEMENTARY SCHOOL,19456 EASTERN VALLEY RD,WOODSTOCK,AL,35188,NOT AVAILABLE,(205) 938-2028
3669,10237000912,WP DAVIDSON HIGH SCHOOL,3900 PLEASANT VALLEY RD,MOBILE,AL,36609,NOT AVAILABLE,(251) 221-3084
5606,10135000488,HUXFORD ELEMENTARY SCHOOL,637 HUXFORD ROAD,ATMORE,AL,36502,NOT AVAILABLE,(251) 294-5475
6884,10336001251,ARCADIA ELEMENTARY SCHOOL,3740 ARCADIA DRIVE,TUSCALOOSA,AL,35404,4395,(205) 759-3567
8747,10039002206,HAYES K8,505 43RD STREET NORTH,BIRMINGHAM,AL,35222,NOT AVAILABLE,(205) 231-8900
9244,10114000421,MOON LAKE SCHOOL,5866 E RIVER ROAD,MENTONE,AL,35984,2545,(256) 634-1133
35110,10039001823,OSSIE WARE MITCHELL MIDDLE SCHOOL,501 81ST STREET SOUTH,BIRMINGHAM,AL,35206,NOT AVAILABLE,(205) 231-9400
36428,10117000430,EASTWOOD ELEMENTARY SCHOOL,1802 26TH AVE SE,DECATUR,AL,35601,6729,(256) 552-3043
37752,10102000459,WEST POINT MIDDLE SCHOOL,4545 COUNTY ROAD 1141,VINEMONT,AL,35179,8799,(256) 734-5904
37958,10042001870,HAYDEN MIDDLE SCHOOL,310 SECOND AVENUE,HAYDEN,AL,35079,NOT AVAILABLE,(205) 647-3083
38170,10222000848,SPARKMAN HIGH SCHOOL,2616 JEFF RD,HARVEST,AL,35749,NOT AVAILABLE,(256) 837-0331
38243,10176000608,HOMEWOOD HIGH SCHOOL,1901 S LAKESHORE DR,HOMEWOOD,AL,35209,NOT AVAILABLE,(205) 871-9663
39374,10027002180,CF TAYLOR ALTERNATIVE SCHOOL,19150 WILTERS STREET,ROBERTSDALE,AL,36567,NOT AVAILABLE,(251) 970-4415
51825,10027001859,BAY MINETTE MIDDLE SCHOOL,1311 W 13TH STREET,BAY MINETTE,AL,36507,NOT AVAILABLE,(251) 580-2960
52059,10222001513,MT CARMEL ELEMENTARY SCHOOL,335 HOMER NANCE ROAD,HUNTSVILLE,AL,35811,NOT AVAILABLE,(256) 851-4660
52477,10339001633,HUNTINGTON PLACE ELEMENTARY SCHOOL,11601 HUNTINGTON PL,NORTHPORT,AL,35475,NOT AVAILABLE,(205) 342-2652
55895,10021002440,EAST SAMFORD SCHOOL,332 E SAMFORD AVENUE,AUBURN,AL,36830,7420,(334) 887-1960
57889,10309001194,BELLBROWN CAREER TECHNICAL CENTER,111 MLK PARKWAY,LIVINGSTON,AL,35470,NOT AVAILABLE,(205) 652-9469
58998,10358001356,ADDISON HIGH SCHOOL,151 SCHOOL DRIVE,ADDISON,AL,35540,NOT AVAILABLE,(205) 717-3314
59692,10255002355,ONEONTA MIDDLE SCHOOL,27605 STATE HIGHWAY 75,ONEONTA,AL,35121,3228,(205) 543-5203
59727,10173002356,HARTSELLE INTERMEDIATE SCHOOL,130 PETAIN STREET SW,HARTSELLE,AL,35640,NOT AVAILABLE,(256) 773-6094
80092,10237000927,HOLLINGERS ISLAND ELEMENTARY SCHOOL,2400 HAMMOCK RD,MOBILE,AL,36605,NOT AVAILABLE,(251) 221-1376
82906,10195000756,SULLIGENT SCHOOL,500 ELM ST,SULLIGENT,AL,35586,0367,(205) 698-9254
86489,10051001482,GREENVILLE ELEMENTARY SCHOOL,102 BUTLER CIR,GREENVILLE,AL,36037,NOT AVAILABLE,(334) 382-7614
90208,10345001237,WALKER COUNTY CENTER OF TECHNOLOGY,1100 VIKING DRIVE,JASPER,AL,35501,NOT AVAILABLE,(205) 387-0561
91713,10144000518,GLEN OAKS ELEMENTARY SCHOOL,1301 HIGHLAND DR,FAIRFIELD,AL,35064,NOT AVAILABLE,(205) 783-6837
93245,10066000286,CLANTON ELEMENTARY SCHOOL,1000 CLOVERLEAF DR,CLANTON,AL,35045,NOT AVAILABLE,(205) 280-2730
94783,10192000701,ERWIN INTERMEDIATE SCHOOL,1958 EAGLE LANDING,CENTER POINT,AL,35215,3299,(205) 379-3350
99421,10141000514,EUFAULA PRIMARY SCHOOL,520 PUMP STATION RD,EUFAULA,AL,36027,2250,(334) 687-1140
100242,10093000362,RED LEVEL HIGH SCHOOL,28551 BARROW ROAD,RED LEVEL,AL,36474,NOT AVAILABLE,(334) 469-5315
100973,10066000270,THORSBY HIGH SCHOOL,54 OPPORTUNITY DR,THORSBY,AL,35171,NOT AVAILABLE,(205) 280-4880
102419,10000902231,CHILD COUNT ONLY,1001 MONROE ST,HUNTSVILLE,AL,35801,NOT AVAILABLE,(256) 761-3200
103210,10192002496,JEFFERSON COUNTY VIRTUAL SCHOOL,2100 18TH STREET SOUTH,BIRMINGHAM,AL,35209,NOT AVAILABLE,(205) 379-2000
21059,10180001773,CHALLENGER ELEMENTARY SCHOOL,13555 CHANEY THOMPSON RD,HUNTSVILLE,AL,35803,NOT AVAILABLE,(256) 428-7060
21143,10087000344,CONECUH COUNTY JUNIOR HIGH SCHOOL,2347 CLEVELAND AVENUE,CASTLEBERRY,AL,36432,NOT AVAILABLE,(251) 966-5411
21388,10306201362,ASHVILLE HIGH SCHOOL,33215 US HIGHWAY 231,ASHVILLE,AL,35953,5841,(205) 594-7943
22144,10264001081,D A SMITH MIDDLE SCHOOL,994 ANDREWS AVE,OZARK,AL,36360,1760,(334) 774-4913
23021,10141001874,HOPE ACADEMY,530 LAKE DRIVE,EUFAULA,AL,36027,1450,(334) 687-1100
24248,10237000915,OLIVE J DODGE ELEMENTARY SCHOOL,2615 LONGLEAF DR,MOBILE,AL,36693,NOT AVAILABLE,(251) 221-1195
26324,10358001463,ADDISON ELEMENTARY SCHOOL,16411 COUNTY ROAD 41,ADDISON,AL,35540,2432,(205) 717-3310
28289,10192000684,BAGLEY ELEMENTARY SCHOOL,8581 TATE MILL RD,DORA,AL,35062,NOT AVAILABLE,(205) 379-2500
28769,10248001696,ALBERT P BREWER HIGH SCHOOL,59 EVA RD,SOMERVILLE,AL,35670,6423,(256) 778-8634
28921,10318002086,MUNFORD MIDDLE SCHOOL,360 CEDARS ROAD,MUNFORD,AL,36268,NOT AVAILABLE,(256) 315-5235
1456,10240000981,MONROE INTERMEDIATE SCHOOL,3366 COUNTY RD 49,LOWER PEACHTREE,AL,36751,NOT AVAILABLE,(334) 636-2032
3654,10039000136,HEMPHILL ELEMENTARY SCHOOL,714 12TH STREET SW,BIRMINGHAM,AL,35211,1954,(205) 231-7500
5145,10237002136,NORTH MOBILE COUNTY MIDDLE SCHOOL,1950 SALCO ROAD WEST,AXIS,AL,36505,NOT AVAILABLE,(251) 221-2000
5642,10216001637,LOWNDES COUNTY MIDDLE SCHOOL,301 OLD SCHOOL DRIVE,FORT DEPOSIT,AL,36032,NOT AVAILABLE,(334) 227-4206
6411,10027001888,SPANISH FORT MIDDLE SCHOOL,33899 JIMMY FAULKNER DRIVE,SPANISH FORT,AL,36527,NOT AVAILABLE,(251) 625-3271
8602,10048000688,BULLOCK COUNTY CAREER TECHNICAL CENTER,304 BLACKMON AVE E,UNION SPRINGS,AL,36089,1625,(334) 625-7306
9844,10273001106,REFORM ELEMENTARY SCHOOL,815 7TH AVE SW,REFORM,AL,35481,NOT AVAILABLE,(205) 375-6351
31654,10000600878,DOUGLAS HIGH SCHOOL,225 EAGLE DRIVE,DOUGLAS,AL,35964,NOT AVAILABLE,(256) 593-2810
33287,10327002138,TARRANT INTERMEDIATE SCHOOL,1 WILDCAT DRIVE,TARRANT,AL,35217,2589,(205) 849-0168
34789,10192000695,CHALKVILLE ELEMENTARY SCHOOL,940 CHALKVILLE SCHOOL RD,BIRMINGHAM,AL,35215,NOT AVAILABLE,(205) 379-2950
39151,10009000011,ANNISTON HIGH SCHOOL,1301 WOODSTOCK AVE,ANNISTON,AL,36207,NOT AVAILABLE,(256) 231-5010
10066,10321002364,EDWARD BELL CAREER TECHNICAL CENTER,251 MLK STREET,CAMP HILL,AL,36850,NOT AVAILABLE,(256) 896-0160
10734,10258001778,SOUTHVIEW PRIMARY SCHOOL,2712 MARVYN PKWY,OPELIKA,AL,36804,NOT AVAILABLE,(334) 745-9711
13936,10063000274,CEDAR BLUFF HIGH SCHOOL,3655 OLD HIGHWAY 9,CEDAR BLUFF,AL,35959,NOT AVAILABLE,(256) 779-6211
14181,10168001520,ROBERT BROWN MIDDLE SCHOOL,623 MESPOTAMIA STREET,EUTAW,AL,35462,NOT AVAILABLE,(205) 372-3269
14263,10306201376,RAGLAND HIGH SCHOOL,1060 MAIN ST,RAGLAND,AL,35131,0610,(205) 472-2123
15067,10111000409,VALLEY GRANDE ELEMENTARY SCHOOL,2765 DALLAS COUNTY ROAD 81,VALLEY GRANDE,AL,36701,9005,(334) 872-7661
17240,10159000547,THARPTOWN ELEMENTARY SCHOOL,145 HIGHWAY 80,RUSSELLVILLE,AL,35654,9128,(256) 332-3404
17513,10222000846,OWENS CROSS ROADS SCHOOL,161 WILSON MANN ROAD,OWENS CROSS ROADS,AL,35763,NOT AVAILABLE,(256) 851-3240
17664,10123000454,SELMA STREET ELEMENTARY SCHOOL,1501 W SELMA ST,DOTHAN,AL,36301,3335,(334) 794-1463
18872,10024000045,BILLINGSLEY HIGH SCHOOL,2446 COUNTY ROAD 77,BILLINGSLEY,AL,36006,NOT AVAILABLE,(205) 755-1629
60055,10039000530,FAMILY COURT ELEMENTARY SCHOOL,120 2ND COURT N,BIRMINGHAM,AL,35204,NOT AVAILABLE,(205) 231-4868
61970,10237000920,ELIZABETH FONDE ELEMENTARY SCHOOL,3956 COTTAGE HILL RD,MOBILE,AL,36609,NOT AVAILABLE,(251) 221-1240
62693,10036000099,WEST BLOCTON HIGH SCHOOL,4734 TRUMAN ALDRICH PARKWAY,WEST BLOCTON,AL,35184,NOT AVAILABLE,(205) 938-9002
70319,10243001004,CRUMP ELEMENTARY SCHOOL,3510 WOODLEY RD,MONTGOMERY,AL,36116,3899,(334) 284-8020
72864,10180000621,ROGER B CHAFFEE ELEMENTARY SCHOOL,7900 WHITTIER RD,HUNTSVILLE,AL,35802,NOT AVAILABLE,(256) 428-7040
75067,10054000247,WEAVER HIGH SCHOOL,917 CLAIRMONT DR,WEAVER,AL,36277,3437,(256) 741-7201
75081,10111000818,DALLAS COUNTY CAREER TECHNICAL CENTER,1306 ROOSEVELT AVE,SELMA,AL,36701,NOT AVAILABLE,(334) 267-0788
77334,10054001428,OHATCHEE ELEMENTARY SCHOOL,365 J STREET,OHATCHEE,AL,36271,NOT AVAILABLE,(256) 741-4800
40321,10243001458,GARRETT ELEMENTARY SCHOOL,555 MCLEMORE DRIVE,MONTGOMERY,AL,36117,NOT AVAILABLE,(334) 260-1090
42661,10024000543,PINE LEVEL ELEMENTARY SCHOOL,2040 HIGHWAY 31 N,DEATSVILLE,AL,36022,NOT AVAILABLE,(334) 358-2658
42996,10306200217,SPRINGVILLE ELEMENTARY SCHOOL,75 WILSON STREET,SPRINGVILLE,AL,35146,NOT AVAILABLE,(205) 467-6550
44527,10351001342,ABC ELEMENTARY,3000 COUNTY ROAD 29,ALBERTA,AL,36720,0129,(334) 573-2550
46782,10303001418,NEW DIRECTION,701 HWY 70,COLUMBIANA,AL,35007,NOT AVAILABLE,(205) 682-5910
47801,10135001504,FLOMATON ELEMENTARY SCHOOL,1634 POPLAR ST,FLOMATON,AL,36441,NOT AVAILABLE,(251) 296-3991
49289,10248000204,FALKVILLE ELEMENTARY SCHOOL,72 CLARK DR,FALKVILLE,AL,35622,5047,(256) 784-5249
80552,10237000947,PHILLIPS PREPARATORY MIDDLE SCHOOL,3255 OLD SHELL RD,MOBILE,AL,36607,NOT AVAILABLE,(251) 221-2286
81329,10048000221,SOUTH HIGHLANDS MIDDLE SCHOOL,700 BERNARD STREET,UNION SPRINGS,AL,36089,0111,(334) 651-0183
81604,10117001786,CHESTNUT GROVE ELEMENTARY SCHOOL,3205 CEDARHURST DR SW,DECATUR,AL,35603,3127,(256) 552-3092
83294,10339001445,TAYLORVILLE PRIMARY SCHOOL,350 BOBBY MILLER PKWY,TUSCALOOSA,AL,35405,NOT AVAILABLE,(205) 342-2939
84953,10237000943,OLD SHELL ROAD MAGNET SCHOOL,3160 HEATHER ST,MOBILE,AL,36607,2514,(251) 221-1557
86454,10318001805,LINCOLN ELEMENTARY SCHOOL,79001 AL HWY 77,LINCOLN,AL,35096,NOT AVAILABLE,(256) 315-5265
87207,10201001545,BROOKS ELEMENTARY SCHOOL,100 SCHOOL LN,KILLEN,AL,35645,NOT AVAILABLE,(256) 757-2171
87259,10010000028,ARAB HIGH SCHOOL,511 ARABIAN DR NE,ARAB,AL,35016,1160,(256) 586-6026
87370,10176000610,SHADES CAHABA ELEMENTARY SCHOOL,3001 INDEPENDENCE DRIVE,HOMEWOOD,AL,35209,NOT AVAILABLE,(205) 871-1113
87836,10138001662,HOKES BLUFF HIGH SCHOOL,1865 APPALACHIA RD,HOKES BLUFF,AL,35903,NOT AVAILABLE,(256) 492-1360
87962,10192000706,GARDENDALE HIGH SCHOOL,800 MAIN ST,GARDENDALE,AL,35071,NOT AVAILABLE,(205) 379-3600
54219,10114000819,ALTERNATIVE SCHOOL,155 20TH STREET NE,FORT PAYNE,AL,35967,NOT AVAILABLE,(256) 845-3711
55609,10003000004,JIM PEARSON ELEMENTARY SCHOOL,1240 SCOTT RD,ALEXANDER CITY,AL,35010,7607,(256) 234-8625
90306,10180000631,HUNTSVILLE HIGH SCHOOL,2304 BILLIE WATKINS SW,HUNTSVILLE,AL,35801,NOT AVAILABLE,(256) 428-8050
91486,10237001559,ANNA F BOOTH ELEMENTARY SCHOOL,17001 HURRICANE BLVD,IRVINGTON,AL,36544,6047,(251) 824-1740
93749,10261001073,OPP HIGH SCHOOL,502 N MALOY ST,OPP,AL,36467,NOT AVAILABLE,(334) 493-4561
94248,10042000205,BLOUNTSVILLE ELEMENTARY SCHOOL,260 PAGE ST,BLOUNTSVILLE,AL,35031,NOT AVAILABLE,(205) 775-1990
95985,10201000775,WILSON HIGH SCHOOL,7601 HIGHWAY 17,FLORENCE,AL,35634,NOT AVAILABLE,(256) 764-8470
98893,10243001753,BREWBAKER PRIMARY SCHOOL,4445 BREWBAKER DR,MONTGOMERY,AL,36116,4299,(334) 284-8005
100828,10222001821,SPARKMAN NINTH GRADE SCHOOL,2680 JEFF ROAD,HARVEST,AL,35749,NOT AVAILABLE,(256) 851-4560
101215,10243002214,PARK CROSSING HIGH SCHOOL,8000 PARK CROSSING,MONTGOMERY,AL,36117,NOT AVAILABLE,(334) 260-8121
102431,10117002457,CAREER TECHNICAL CENTER,1625 DANVILLE ROAD SW,DECATUR,AL,35601,NOT AVAILABLE,(256) 552-3060
103189,10017602460,JF INGRAM STATE TECHNICAL COLLEGE SPECIAL SERVICES,5375 INGRAM RD,DEATSVILLE,AL,36022,NOT AVAILABLE,(334) 514-6147
103203,10020902504,IVY CLASSICAL ACADEMY,250 SOUTH WASHINGTON STREET,PRATTVILLE,AL,36067,NOT AVAILABLE,(334) 386-6040
65422,10036001426,WEST BLOCTON MIDDLE SCHOOL,4721 TRUMAN ALDRICH PKWY,WEST BLOCTON,AL,35184,NOT AVAILABLE,(205) 938-2451
66892,10063000278,CHEROKEE COUNTY HIGH SCHOOL,910 WARRIOR DR,CENTRE,AL,35960,NOT AVAILABLE,(256) 927-3625
67759,10180000638,MCDONNELL ELEMENTARY SCHOOL,4010 BINDERTON PL,HUNTSVILLE,AL,35805,NOT AVAILABLE,(256) 428-7280
67972,10147001787,FAYETTE COUNTY HIGH SCHOOL,202 TIGER DRIVE,FAYETTE,AL,35555,NOT AVAILABLE,(205) 932-6313
69192,10303001170,CALERA HIGH,100 CALERA EAGLE DRIVE,CALERA,AL,35040,NOT AVAILABLE,(205) 682-6100
69751,10303001175,HELENA ELEMENTARY SCHOOL,187 THIRD ST,HELENA,AL,35080,3216,(205) 682-5540
11462,10123001499,BEVERLYE INTERMEDIATE SCHOOL,1025 S BEVERLYE RD,DOTHAN,AL,36301,4899,(334) 794-1432
12369,10303001822,CHELSEA PARK ELEMENTARY SCHOOL,9000 CHELSEA PARK TRAIL,CHELSEA,AL,35043,2002,(205) 682-6700
14571,10282001124,WEDOWEE MIDDLE SCHOOL,896 WOODLAND AVE W,WEDOWEE,AL,36278,7102,(256) 357-4636
16156,10111000401,JE TERRY ELEMENTARY SCHOOL,70 ACADEMY ST,PLANTERSVILLE,AL,36758,2517,(334) 366-2838
18191,10297001160,SELMA HIGH SCHOOL,2180 BROAD ST,SELMA,AL,36701,NOT AVAILABLE,(334) 874-1683
18458,10000800495,DISCOVERY MIDDLE SCHOOL,1304 HUGHES RD,MADISON,AL,35758,NOT AVAILABLE,(256) 837-3735
19793,10276001818,PIEDMONT MIDDLE SCHOOL,401 N MAIN ST,PIEDMONT,AL,36272,NOT AVAILABLE,(256) 447-6165
83337,10000601585,BRINDLEE MOUNTAIN HIGH SCHOOL,994 SCANT CITY ROAD,GUNTERSVILLE,AL,35976,NOT AVAILABLE,(256) 753-2800
83457,10045000215,BREWTON MIDDLE SCHOOL,1384 OLD CASTLEBERRY ROAD,BREWTON,AL,36426,3426,(251) 867-8420
84296,10261001074,OPP MIDDLE SCHOOL,303 E STEWART AVE,OPP,AL,36467,NOT AVAILABLE,(334) 493-6332
109,10231001455,PHILLIPS ELEMENTARY SCHOOL,160 SCHOOL AVE,BEAR CREEK,AL,35543,NOT AVAILABLE,(205) 486-5062
1014,10072000298,CLARKE COUNTY HIGH SCHOOL,151 S CHURCH,GROVE HILL,AL,36451,NOT AVAILABLE,(251) 250-2107
1441,10054000700,CALHOUN COUNTY ALTERNATIVE SCHOOL,1200 CHURCH AVENUE SE,JACKSONVILLE,AL,36265,NOT AVAILABLE,(256) 741-7901
1759,10123001349,DOTHAN TECHNOLOGY CENTER,3165 REEVES ST,DOTHAN,AL,36303,2343,(334) 794-1436
2345,10030001641,BARBOUR COUNTY INTERMEDIATE SCHOOL,18 BEATY DRIVE,LOUISVILLE,AL,36048,NOT AVAILABLE,(334) 266-6151
3665,10172001370,HALEYVILLE CENTER OF TECHNOLOGY,2007 20TH ST,HALEYVILLE,AL,35565,NOT AVAILABLE,(205) 486-9231
7141,10207000290,LOACHAPOKA ELEMENTARY SCHOOL,685 LEE ROAD 61,LOACHAPOKA,AL,36865,0060,(334) 705-6031
9064,10135000492,W S NEAL HIGH SCHOOL,801 ANDREW JACKSON STREET,EAST BREWTON,AL,36426,NOT AVAILABLE,(251) 867-4225
32119,10054000244,SAKS MIDDLE SCHOOL,32 WATSON STREET,ANNISTON,AL,36206,NOT AVAILABLE,(256) 741-6900
33277,10192000727,MINOR COMMUNITY SCHOOL,3006 CORA AVENUE,BIRMINGHAM,AL,35224,NOT AVAILABLE,(205) 379-4800
33895,10240000979,J F SHIELDS HIGH SCHOOL,17688 HIGHWAY 21 N,BEATRICE,AL,36425,NOT AVAILABLE,(251) 789-2168
34018,10027001759,DAPHNE HIGH SCHOOL,9300 CHAMPIONS WAY,DAPHNE,AL,36526,8090,(251) 626-8787
36481,10176000606,EDGEWOOD ELEMENTARY SCHOOL,901 COLLEGE AVE,HOMEWOOD,AL,35209,NOT AVAILABLE,(205) 423-2400
37450,10243001006,DALRAIDA ELEMENTARY SCHOOL,440 DALRAIDA RD,MONTGOMERY,AL,36109,2898,(334) 260-1007
38244,10265001572,IOLA ROBERTS ELEMENTARY SCHOOL,810 MARTIN ST N,PELL CITY,AL,35125,1355,(205) 338-7312
40408,10027000660,J LARRY NEWTON SCHOOL,9761 COUNTY ROAD 32,FAIRHOPE,AL,36532,NOT AVAILABLE,(251) 990-3858
41616,10183000655,BRIDGEPORT MIDDLE SCHOOL,620 JACOBS AVENUE,BRIDGEPORT,AL,35740,6662,(256) 495-2967
48869,10237000913,ER DICKSON ELEMENTARY SCHOOL,4645 BIT AND SPUR RD,MOBILE,AL,36608,NOT AVAILABLE,(251) 221-1180
51764,10027000100,FAIRHOPE HIGH SCHOOL,18800 GREENO RD,FAIRHOPE,AL,36532,NOT AVAILABLE,(251) 928-8309
52406,10300001164,SHEFFIELD HIGH SCHOOL,2800 19TH AVE,SHEFFIELD,AL,35660,NOT AVAILABLE,(256) 383-6052
55898,10210002423,CREEKSIDE PRIMARY SCHOOL,16049 SANDERSON ROAD,HARVEST,AL,35749,NOT AVAILABLE,(256) 714-7971
58832,10183001532,PISGAH HIGH SCHOOL,60 METCALF ST,PISGAH,AL,35765,0249,(256) 451-3241
59726,10078002361,CLEBURNE COUNTY ALTERNATIVE SCHOOL,11200 HIGHWAY 46,HEFLIN,AL,36264,5414,(256) 748-2961
71248,10279001110,BANKS SCHOOL,9769 N U S HWY 29,BANKS,AL,36005,NOT AVAILABLE,(334) 243-5514
72994,10114000412,CROSSVILLE ELEMENTARY SCHOOL,15755 AL HWY 68,CROSSVILLE,AL,35962,3981,(256) 925-0300
73483,10162001665,ADAMS ELEMENTARY SCHOOL,919 RALEY ST,GADSDEN,AL,35903,2027,(256) 492-4952
74761,10237000955,SEMMES MIDDLE SCHOOL,4566 ED GEORGE ROAD,SEMMES,AL,36575,NOT AVAILABLE,(251) 221-2344
75695,10345000135,CARBON HILL HIGH SCHOOL,217 BULLDOG BOULEVARD,CARBON HILL,AL,35549,0579,(205) 924-8821
77174,10027000549,ORANGE BEACH ELEMENTARY SCHOOL,4900 WILSON BLVD,ORANGE BEACH,AL,36561,NOT AVAILABLE,(251) 981-5662
22714,10093000359,FLEETA SCHOOL,27463 COUNTY ROAD 30,OPP,AL,36467,NOT AVAILABLE,(334) 493-6772
25814,10039000176,RAMSAY HIGH SCHOOL,1800 13TH AVE S,BIRMINGHAM,AL,35205,5518,(205) 231-7000
26201,10180002172,PROVIDENCE ELEMENTARY,10 CHALKSTONE STREET,HUNTSVILLE,AL,35805,NOT AVAILABLE,(256) 428-7125
29061,10096000365,BRANTLEY HIGH SCHOOL,8879 N MAIN ST,BRANTLEY,AL,36009,NOT AVAILABLE,(334) 527-8879
29068,10000601413,ROBERT D SLOMAN PRIMARY,200 BETHLEHEM RD,DOUGLAS,AL,35964,NOT AVAILABLE,(256) 593-4912
92981,10255001064,ONEONTA HIGH SCHOOL,27605 STATE HWY 75,ONEONTA,AL,35121,3228,(205) 545-5913
93747,10108000394,DALEVILLE HIGH SCHOOL,626 N DALEVILLE AVE,DALEVILLE,AL,36322,2006,(334) 598-4461
99004,10237000961,KATHERINE H HANKINS MIDDLE SCHOOL,5750 KATHERINE HANKINS DR,THEODORE,AL,36582,NOT AVAILABLE,(251) 221-2200
99666,10173000596,CRESTLINE ELEMENTARY SCHOOL,600 CRESTLINE DR SW,HARTSELLE,AL,35640,NOT AVAILABLE,(256) 773-9967
100332,10303001442,HELENA INTERMEDIATE SCHOOL,3500 HWY 52,HELENA,AL,35080,0052,(205) 682-5520
101402,10123001447,HIDDEN LAKE PRIMARY SCHOOL,1475 PREVATT RD,DOTHAN,AL,36301,NOT AVAILABLE,(334) 794-1491
102310,10002801839,TRIWIL INC,65 ENTERPRISE LOOP,WOODSTOCK,AL,35188,NOT AVAILABLE,(205) 938-7855
102316,10004101852,DEVELOPING ALABAMA YOUTH PROG,632 11TH AVE SW,ALABASTER,AL,35007,NOT AVAILABLE,(205) 664-1600
102318,10017602108,CHILDERSBURG BOOT CAMP,926 SELMA HIGHWAY,CHILDERSBURG,AL,35044,NOT AVAILABLE,(256) 378-3821
106975,10020202469,GULF SHORES ELEMENTARY SCHOOL,1600 E 3RD ST,GULF SHORES,AL,36542,NOT AVAILABLE,(251) 968-7375
