OBJECTID,NCESID,NAME,ADDRESS,CITY,STATE,ZIP,ZIP4,TELEPHONE
10427,50005100833,PALESTINE-WHEATLEY SENIOR HIGH,7900 HWY 70 W,PALESTINE,AR,72372,NOT AVAILABLE,(870) 581-2425
11980,50004701079,TRUMANN HIGH SCHOOL,1620 W MAIN ST,TRUMANN,AR,72472,NOT AVAILABLE,(870) 483-5301
13207,51401001145,WEST FORK MIDDLE SCHOOL,333 SCHOOL AVE,WEST FORK,AR,72774,NOT AVAILABLE,(479) 839-3342
13594,50007401030,LISA ACADEMY,21 CORPORATE HILL DR,LITTLE ROCK,AR,72205,NOT AVAILABLE,(501) 227-4942
14213,50004701506,TRUMANN INTERMEDIATE SCHOOL7-8,221 PINE AVE,TRUMANN,AR,72472,NOT AVAILABLE,(870) 483-5356
15673,51252001245,MORRILTON PRIMARY SCHOOL,410 S BRIDGE ST,MORRILTON,AR,72110,NOT AVAILABLE,(501) 354-9423
15985,50006600781,PHILLIPS COMMUNITY CAREER & TECH,2807 HWY 165,STUTTGART,AR,72160,NOT AVAILABLE,(870) 673-4201
16235,50861000572,LAKE HAMILTON PRIMARY SCHOOL,136 OAKBROOK,PEARCY,AR,71964,NOT AVAILABLE,(501) 767-9351
16406,50633001251,TILLES ELEMENTARY SCHOOL,815 N 16TH ST,FORT SMITH,AR,72901,NOT AVAILABLE,(479) 785-5606
1801,50332001578,BLYTHEVILLE HIGH SCHOOL-A NEW TECH SCHOOL,600 N TENTH ST,BLYTHEVILLE,AR,72315,NOT AVAILABLE,(870) 762-2772
3361,50789001187,LANGSTON MAGNET SCHOOL,120 CHESTNUT ST,HOT SPRINGS,AR,71901,NOT AVAILABLE,(501) 620-7821
8343,50459001355,MARGUERITE VANN ELEM. SCHOOL,2845 CARL STUART RD,CONWAY,AR,72034,NOT AVAILABLE,(501) 450-4870
40511,51443001176,WYNNE HIGH SCHOOL,800 E JACKSON ST,WYNNE,AR,72396,NOT AVAILABLE,(870) 238-5001
48533,51029001454,PLEASANT VIEW JUNIOR HIGH,5750 HORNET LN,OZARK,AR,72949,NOT AVAILABLE,(479) 997-8469
49385,50006500727,LAFAYETTE COUNTY HIGH SCHOOL,1209 ALEXANDER LN,STAMPS,AR,71860,NOT AVAILABLE,(870) 533-4464
60336,51252001242,MORRILTON SR. HIGH SCHOOL,701 E HARDING ST,MORRILTON,AR,72110,NOT AVAILABLE,(501) 354-9430
61473,50621001230,FORDYCE ELEMENTARY SCHOOLS,350 REDBUG CIR,FORDYCE,AR,71742,NOT AVAILABLE,(870) 352-2816
66298,50303000169,PEA RIDGE MIDDLE SCHOOL,1391 WESTON ST,PEA RIDGE,AR,72751,NOT AVAILABLE,(479) 451-0620
69742,51113000836,PARIS ELEMENTARY SCHOOL,401 N SCHOOL ST,PARIS,AR,72855,NOT AVAILABLE,(479) 963-3143
103399,50039001674,CSTP-CIVILIAN STUDENT TRAINING PROGRAM,16301 MISSOURI CAMP ROBINSON,NORTH LITTLE ROCK,AR,72199,NOT AVAILABLE,(501) 628-8668
103412,50042601693,HOPE ACADEMY OF NWA ELEMENTARY,14100 VAUGHN RD,BENTONVILLE,AR,72713,NOT AVAILABLE,(479) 326-7268
103442,50975001665,POLK COUNTY VIRTUAL ACADEMY,1100 E BOUNDARY AVE,MENA,AR,71953,NOT AVAILABLE,(479) 394-1710
21116,50369001197,BETHEL MIDDLE SCHOOL,5415 NORTHLAKE RD,ALEXANDER,AR,72002,NOT AVAILABLE,(501) 316-0937
21271,50900000635,WESTERN HILLS ELEM. SCHOOL,4901 WESTERN HILLS AVE,LITTLE ROCK,AR,72204,NOT AVAILABLE,(501) 447-6900
25906,50005500513,ARKANSAS ARTS ACADEMY ELEMENTARY/MIDDLE SCHOOL,2005 S 12TH ST,ROGERS,AR,72758,NOT AVAILABLE,(479) 636-2272
28245,50438000168,PYRON ELEMENTARY SCHOOL,1903 CLARK RD,CLARKSVILLE,AR,72830,NOT AVAILABLE,(479) 705-3256
81114,50002301517,NEWPORT ELEMENTARY SCHOOL,1700 COMMERCE BLVD,NEWPORT,AR,72112,NOT AVAILABLE,(870) 523-1351
81939,50633000364,HOWARD ELEMENTARY SCHOOL,1301 N 8TH ST,FORT SMITH,AR,72901,NOT AVAILABLE,(479) 783-7382
84469,51341000393,NORTHRIDGE MIDDLE SCHOOL,120 NORTHRIDGE DR,VAN BUREN,AR,72956,NOT AVAILABLE,(479) 471-3126
86923,51182000898,PRESCOTT ELEMENTARY SCHOOL,335 SCHOOL ST,PRESCOTT,AR,71857,NOT AVAILABLE,(870) 887-2514
88136,50654001231,GENTRY MIDDLE SCHOOL,1265 PIONEER LN,GENTRY,AR,72734,NOT AVAILABLE,(479) 736-2251
30634,51137000851,PIGGOTT ELEMENTARY SCHOOL,895 E MAIN,PIGGOTT,AR,72454,NOT AVAILABLE,(870) 598-2546
32837,50633000374,SPRADLING ELEMENTARY SCHOOL,4949 SPRADLING AVE,FORT SMITH,AR,72904,NOT AVAILABLE,(479) 783-8048
36482,51323001060,SWIFTON MIDDLE SCHOOL,300 ASHLEY,SWIFTON,AR,72471,NOT AVAILABLE,(870) 485-2336
91535,50306000075,R.E. BAKER ELEMENTARY SCHOOL,301 NW THIRD ST,BENTONVILLE,AR,72712,NOT AVAILABLE,(479) 254-5720
94271,50408000332,CEDARVILLE MIDDLE SCHOOL,9614 PIRATES POINT,CEDARVILLE,AR,72932,NOT AVAILABLE,(479) 474-5847
94373,50324000336,BISMARCK MIDDLE SCHOOL,11636 HWY 84,BISMARCK,AR,71929,NOT AVAILABLE,(501) 865-4888
96800,50633000370,ALBERT PIKE ELEMENTARY SCHOOL,4111 PARK AVE,FORT SMITH,AR,72903,NOT AVAILABLE,(479) 783-4506
97240,51242001001,SHIRLEY HIGH SCHOOL,201 BLUE DEVIL DR,SHIRLEY,AR,72153,NOT AVAILABLE,(501) 723-8192
58095,50369001439,SPRINGHILL ELEMENTARY SCHOOL,2716 NORTHLAKE RD,ALEXANDER,AR,72002,NOT AVAILABLE,(501) 847-5675
73835,50597000306,EUREKA SPRINGS HIGH SCHOOL,44 KINGS HWY RD,EUREKA SPRINGS,AR,72632,NOT AVAILABLE,(479) 253-8875
74664,51440001171,WOODLAWN ELEMENTARY SCHOOL,6760 HWY 63,RISON,AR,71665,NOT AVAILABLE,(870) 357-2211
77180,50824000545,JASPER HIGH SCHOOL,600 SCHOOL ST,JASPER,AR,72641,NOT AVAILABLE,(870) 446-2223
818,50309000077,BERGMAN ELEMENTARY SCHOOL,8949 HWY 7 N,HARRISON,AR,72601,NOT AVAILABLE,(870) 741-6404
4286,51026000751,MOUNTAINBURG HIGH SCHOOL,129 HWY 71 SW,MOUNTAINBURG,AR,72946,NOT AVAILABLE,(479) 369-2146
4470,50040501620,UMPIRE K-12 SCHOOL,142 SCHOOL ST,UMPIRE,AR,71971,NOT AVAILABLE,(870) 583-2141
6924,50792001464,JESSIEVILLE MIDDLE SCHOOL,7900 N HWY 7,JESSIEVILLE,AR,71949,NOT AVAILABLE,(501) 984-5610
6939,51044000060,UNIVERSITY HEIGHTS INTERMEDIATE CENTER,3901 AGGIE RD,JONESBORO,AR,72401,NOT AVAILABLE,(870) 366-4700
40537,50873000586,LAVACA ELEMENTARY SCHOOL,1000 N DIVISION ST,LAVACA,AR,72941,NOT AVAILABLE,(479) 674-5613
42601,50459001486,WOODROW CUMMINS ELEMENTARY SCH,1400 PADGETT RD,CONWAY,AR,72034,NOT AVAILABLE,(501) 450-4800
45446,50900000630,ROMINE INTERDIST. ELEM. SCHOOL,3400 ROMINE RD,LITTLE ROCK,AR,72204,NOT AVAILABLE,(501) 447-6300
48577,50493000214,DARDANELLE HIGH SCHOOL,1079 HWY 28 N,DARDANELLE,AR,72834,NOT AVAILABLE,(479) 229-4655
62962,50900000611,FOREST PARK ELEMENTARY SCHOOL,1600 N TYLER ST,LITTLE ROCK,AR,72207,NOT AVAILABLE,(501) 447-4500
66984,50306001423,SUGAR CREEK ELEMENTARY SCHOOL,1102 BELLA VISTA RD,BENTONVILLE,AR,72712,NOT AVAILABLE,(479) 254-5790
69115,50004701081,CEDAR PARK ELEMENTARY SCHOOL,1200 CEDAR ST,TRUMANN,AR,72472,NOT AVAILABLE,(870) 483-5314
57462,50669001652,CENTERPOINT ELEMENTARY SCHOOL,637 HWY 8 EAST,AMITY,AR,71921,NOT AVAILABLE,(870) 356-3612
58971,50828000550,VISUAL & PERFORMING ART MAGNET,1804 HILLCREST DR,JONESBORO,AR,72401,NOT AVAILABLE,(870) 933-5830
59011,51185000058,CRYSTAL HILL ELEMENTARY,5001 N SHORE DR,NORTH LITTLE ROCK,AR,72118,NOT AVAILABLE,(501) 791-8000
59693,51161000885,M.D. WILLIAMS INTERMEDIATE SCHOOL,2301 N PARK,POCAHONTAS,AR,72455,NOT AVAILABLE,(870) 892-4573
90096,51020000747,MOUNTAIN VIEW ELEM. SCHOOL,201 ELEMENTARY DR,MOUNTAIN VIEW,AR,72560,NOT AVAILABLE,(870) 269-3104
93968,50306001199,CENTERTON GAMBLE ELEMENTARY,1500 GAMBLE RD,CENTERTON,AR,72719,NOT AVAILABLE,(479) 696-3330
96851,51185000942,SYLVAN HILLS MIDDLE SCHOOL,401 DEE JAY HUDSON DR,SHERWOOD,AR,72120,NOT AVAILABLE,(501) 833-1120
97253,50541000253,DOLLARWAY HIGH SCHOOL,4900 DOLLARWAY RD,PINE BLUFF,AR,71602,NOT AVAILABLE,(870) 534-3878
83944,50558000268,BIGELOW HIGH SCHOOL,101 E PANTHER DR,BIGELOW,AR,72016,NOT AVAILABLE,(501) 759-2602
100223,51266000059,GEORGE ELEMENTARY SCHOOL,2878 S POWELL,SPRINGDALE,AR,72764,NOT AVAILABLE,(479) 750-8710
100257,50612000856,MCNAIR MIDDLE SCHOOL,3030 E MISSION BLVD,FAYETTEVILLE,AR,72703,NOT AVAILABLE,(479) 527-3660
101842,50804000527,WEAVER ELEMENTARY SCHOOL,1280 E BARTON,WEST MEMPHIS,AR,72301,NOT AVAILABLE,(870) 735-7670
103413,50042901696,UACCM TECHNICAL CENTER,1537 UNIVERSITY BLVD.,MORRILTON,AR,72210,NOT AVAILABLE,(501) 954-2465
10423,50273000039,BARTON ELEMENTARY SCHOOL,9546 HWY 85 S,BARTON,AR,72312,NOT AVAILABLE,(870) 572-3984
11374,50438000167,CLARKSVILLE JUNIOR HIGH SCHOOL,1801 CLARK RD,CLARKSVILLE,AR,72830,NOT AVAILABLE,(479) 705-3224
14078,50001600690,MARMADUKE ELEMENTARY SCHOOL,2020 GREYHOUND DR,MARMADUKE,AR,72443,NOT AVAILABLE,(870) 597-2711
14227,50612000863,HOLT MIDDLE SCHOOL,2365 N RUPPLE RD,FAYETTEVILLE,AR,72704,NOT AVAILABLE,(479) 527-3670
17296,50369001563,HILL FARM ELEMENTARY SCHOOL,500 HILL FARM RD,BRYANT,AR,72022,NOT AVAILABLE,(501) 653-5950
19925,51026000750,MOUNTAINBURG ELEMENTARY SCHOOL,129 HWY 71 SW,MOUNTAINBURG,AR,72946,NOT AVAILABLE,(479) 369-2762
32371,50789000509,HOT SPRINGS WORLD CLASS HIGH SCHOOL,701 EMORY ST,HOT SPRINGS,AR,71913,NOT AVAILABLE,(501) 624-5286
33356,50459000333,BOB COURTWAY MIDDLE SCHOOL,1200 BOB COURTWAY DR,CONWAY,AR,72032,NOT AVAILABLE,(501) 450-4832
36840,51393001137,EDGEWOOD ELEMENTARY SCHOOL,4100 W 32ND ST,PINE BLUFF,AR,71603,NOT AVAILABLE,(870) 879-1252
37430,50828000553,HEALTH/WELLNESS ENVI MAGNET,1001 ROSEMOND AVE,JONESBORO,AR,72401,NOT AVAILABLE,(870) 933-5850
38233,50332000099,BLYTHEVILLE MIDDLE SCHOOL,700 W CHICKASAWBA AVE,BLYTHEVILLE,AR,72315,NOT AVAILABLE,(870) 762-2983
39081,50468000193,AMANDA GIST ELEMENTARY SCHOOL,152 LUCILLE ST,COTTER,AR,72626,NOT AVAILABLE,(870) 435-6655
39827,51107000835,PANGBURN HIGH SCHOOL,1100 SHORT ST,PANGBURN,AR,72121,NOT AVAILABLE,(501) 728-3513
70947,50375001518,MOUNTAIN SPRINGS ELEM SCHOOL,3620 MOUNTAIN SPRINGS RD,CABOT,AR,72023,NOT AVAILABLE,(501) 743-3575
72054,50606001433,CAMDEN FAIRVIEW INTERMEDIATE,255 POPE ST,CAMDEN,AR,71701,NOT AVAILABLE,(870) 836-6876
72116,51068000779,AMBOY ELEMENTARY SCHOOL,2400 W 58TH ST,NORTH LITTLE ROCK,AR,72118,NOT AVAILABLE,(501) 771-8185
75225,50001900144,EAGLE MOUNTAIN MAGNET SCHOOL,600 EAGLE MOUNTAIN BLVD,BATESVILLE,AR,72501,NOT AVAILABLE,(870) 698-9141
76595,50002901277,GOSNELL HIGH SCHOOL,600 HWY 181,GOSNELL,AR,72315,NOT AVAILABLE,(870) 532-4010
21929,51206000968,RUSSELLVILLE JR. HIGH SCHOOL,2000 W PARKWAY DR,RUSSELLVILLE,AR,72802,NOT AVAILABLE,(479) 968-1599
22431,50007401485,LISA ACADEMY NORTH ELEMENTARY CHARTER SCHOOL,5410 LANDERS RD,SHERWOOD,AR,72117,NOT AVAILABLE,(501) 945-2727
26513,50799000518,HOXIE HIGH SCHOOL,305 SW ALICE ST,HOXIE,AR,72433,NOT AVAILABLE,(870) 886-4254
71033,50435000163,CLARENDON ELEMENTARY SCHOOL,115 EASON LN,CLARENDON,AR,72029,NOT AVAILABLE,(870) 747-3383
72164,50924001373,MALVERN JUNIOR HIGH SCHOOL,1910 SULTON ST,MALVERN,AR,72104,NOT AVAILABLE,(501) 332-7530
75916,51197001483,ROGERS HERITAGE HIGH SCHOOL,1114 S FIFTH ST,ROGERS,AR,72756,NOT AVAILABLE,(479) 631-3579
76925,50225001350,ALMA PRIMARY SCHOOL,1600 HWY 64 E,ALMA,AR,72921,NOT AVAILABLE,(479) 632-5100
79785,50924001372,MALVERN HIGH SCHOOL,525 E HIGHLAND AVE,MALVERN,AR,72104,NOT AVAILABLE,(501) 332-6905
94415,50396000139,CARLISLE ELEMENTARY SCHOOL,707 E 5TH ST,CARLISLE,AR,72024,NOT AVAILABLE,(870) 552-3261
98313,50330000090,BLEVINS HIGH SCHOOL,5954 HWY 29 N,BLEVINS,AR,71825,NOT AVAILABLE,(870) 874-2281
103422,50043801715,COSSATOT COMMUNITY COLLEGE OF THE UA,183 COLLEGE DRIVE,DEQUEEN,AR,71832,NOT AVAILABLE,(870) 584-4471
103445,51101001700,ELGIN B MILTON PRIMARY SCHOOL,1601 WALDEN DRIVE,OZARK,AR,72949,NOT AVAILABLE,(479) 667-4745
80553,50984000722,MONTICELLO MIDDLE SCHOOL,180 CLYDE ROSS DR,MONTICELLO,AR,71655,NOT AVAILABLE,(870) 367-4040
81746,51020001086,TIMBO ELEMENTARY SCHOOL,23747 HWY 263 N,TIMBO,AR,72680,NOT AVAILABLE,(870) 746-4303
82246,50919000652,MAGNET COVE HIGH SCHOOL,472 MAGNET SCHOOL RD,MALVERN,AR,72104,NOT AVAILABLE,(501) 332-5466
83834,50633000353,BEARD ELEMENTARY SCHOOL,1600 CAVANAUGH RD,FORT SMITH,AR,72908,NOT AVAILABLE,(479) 646-0834
85548,50375001182,CABOT JUNIOR HIGH SOUTH,38 PANTHER TRAIL,CABOT,AR,72023,NOT AVAILABLE,(501) 843-2788
86507,50003200053,BEARDEN HIGH SCHOOL,635 N PLUM,BEARDEN,AR,71720,NOT AVAILABLE,(870) 687-2913
51721,51338001580,VALLEY VIEW JUNIOR HIGH SCHOOL,2118 VALLEY VIEW DR,JONESBORO,AR,72404,NOT AVAILABLE,(870) 932-3737
55930,50306001618,BENTONVILLE WEST HIGH SCHOOL,1351 GAMBLE,CENTERTON,AR,72719,NOT AVAILABLE,(479) 286-9800
56528,50000200594,SAU TECH CAREER CENTER,327 STEWART ST SW,CAMDEN,AR,71701,NOT AVAILABLE,(870) 836-9367
59490,50867001401,LAKESIDE INTERMEDIATE SCHOOL,2855 MALVERN AVE,HOT SPRINGS,AR,71901,NOT AVAILABLE,(501) 262-2332
25188,50303000071,PEA RIDGE INTERMEDIATE SCHOOL,1536 N DAVIS,PEA RIDGE,AR,72751,NOT AVAILABLE,(479) 451-8183
27492,51218000981,SCRANTON HIGH SCHOOL,103 N TENTH ST,SCRANTON,AR,72863,NOT AVAILABLE,(479) 938-7121
29819,51185000122,CLINTON ELEMENTARY SCHOOL,142 HOLLYWOOD BLVD,SHERWOOD,AR,72120,NOT AVAILABLE,(501) 833-1200
60150,50007501031,EAST ARKANSAS CAREER CENTER,1700 NEW CASTLE RD,FORRECT CITY,AR,72335,NOT AVAILABLE,(870) 633-4480
60242,50642001605,FOUNTAIN LAKE MIDDLE SCHOOL COBRA DIGITAL PREP ACADEMY,4207 PARK AVE,HOT SPRINGS,AR,71901,NOT AVAILABLE,(501) 701-1730
63477,51257001014,SOUTH SIDE HIGH SCHOOL,334 SOUTHSIDE RD,BEE BRANCH,AR,72013,NOT AVAILABLE,(501) 654-2242
66662,50002600872,THIRTY-FOURTH AVE. ELEM. SCH.,801 E 34TH AVE,PINE BLUFF,AR,71601,NOT AVAILABLE,(870) 543-4392
30358,51185000906,CATO ELEMENTARY SCHOOL,9906 CATO RD,NORTH LITTLE ROCK,AR,72120,NOT AVAILABLE,(501) 833-1160
31995,51029000752,MARVIN PRIMARY SCHOOL,1319 N MAIN ST,MULBERRY,AR,72947,NOT AVAILABLE,(479) 997-1495
33310,50459000937,RUTH DOYLE INTERMEDIATE SCHOOL,800 PADGETT RD,CONWAY,AR,72034,NOT AVAILABLE,(501) 450-6675
35369,50774001509,CROSS COUNTY ELEMENTARY TECH ACADEMY,2622 HWY 42,CHERRY VALLEY,AR,72324,NOT AVAILABLE,(870) 588-3337
35999,50900001190,PULASKI HEIGHTS ELEM. SCHOOL,319 N PINE ST,LITTLE ROCK,AR,72205,NOT AVAILABLE,(501) 447-5900
39106,50828000551,THE ACADEMIES AT JONESBORO HIGH SCHOOL,301 HURRICANE DR,JONESBORO,AR,72401,NOT AVAILABLE,(870) 933-5881
11288,50480001356,CROSSETT MIDDLE SCHOOL,100 PETERSBURG RD,CROSSETT,AR,71635,NOT AVAILABLE,(870) 364-4712
14606,51068000729,RIDGEROAD ELEMENTARY SCHOOL,4601 RIDGE RD,NORTH LITTLE ROCK,AR,72116,NOT AVAILABLE,(501) 771-8155
40983,51197000881,ELZA R. TUCKER ELEM. SCHOOL,121 SCHOOL AVE,LOWELL,AR,72745,NOT AVAILABLE,(479) 631-3561
1221,50002101233,IZARD COUNTY CONS MIDDLE SCH,5068 N AR 9,BROCKWELL,AR,72517,NOT AVAILABLE,(870) 258-3142
4377,51437001170,WONDERVIEW HIGH SCHOOL,2436 HWY 95,HATTIEVILLE,AR,72063,NOT AVAILABLE,(501) 354-8668
8577,50939000681,HERBERT CARTER GLOBAL COMMUNITY MAGNET SCHOOL,235 MILITARY RD,MARION,AR,72364,NOT AVAILABLE,(870) 739-5120
93755,51311001072,FAIRVIEW ELEMENTARY SCHOOL,801 E 16TH ST,TEXARKANA,AR,71854,NOT AVAILABLE,(870) 774-9211
94070,50303000072,PEA RIDGE HIGH SCHOOL,781 W PICKENS RD,PEA RIDGE,AR,72751,NOT AVAILABLE,(479) 451-8182
61082,50369000118,BRYANT HIGH SCHOOL,201 SULLIVAN DR,BRYANT,AR,72022,NOT AVAILABLE,(501) 847-5605
64256,50002001297,MIDLAND ELEMENTARY SCHOOL,3900 FLORAL RD,FLORAL,AR,72534,NOT AVAILABLE,(501) 345-2413
84526,50771000485,HERMITAGE HIGH SCHOOL,312 N SCHOOL DR,HERMITAGE,AR,71647,NOT AVAILABLE,(870) 463-2235
86206,50459001248,FLORENCE MATTISON ELEM. SCHOOL,2001 FLORENCE MATTISON DR,CONWAY,AR,72032,NOT AVAILABLE,(501) 450-4820
86674,50813000537,WATSON PRIMARY SCHOOL,317 N GASKILL ST,HUNTSVILLE,AR,72740,NOT AVAILABLE,(479) 738-2425
88466,50225000004,ALMA HIGH SCHOOL,101 E MAIN,ALMA,AR,72921,NOT AVAILABLE,(479) 632-2162
88855,51161001438,POCAHONTAS JUNIOR HIGH SCHOOL,2405 N PARK,POCAHONTAS,AR,72455,NOT AVAILABLE,(870) 892-4573
54747,50420000157,CHARLESTON ELEMENTARY SCHOOL,11 DALE BUMPERS DR,CHARLESTON,AR,72933,NOT AVAILABLE,(479) 965-2460
58107,50493000213,DARDANELLE ELEMENTARY SCHOOL,2306 HWY 7 N,DARDANELLE,AR,72834,NOT AVAILABLE,(479) 229-3707
44814,50906000642,LONOKE HIGH SCHOOL,501 W ACADEMY ST,LONOKE,AR,72086,NOT AVAILABLE,(501) 676-2476
44947,50948000693,MARSHALL HIGH SCHOOL,950 HWY 65 N,MARSHALL,AR,72650,NOT AVAILABLE,(870) 448-3331
46312,51414001153,MOODY ELEMENTARY SCHOOL,700 MOODY SCHOOL DR,WHITE HALL,AR,71602,NOT AVAILABLE,(870) 247-4363
47156,50402000146,WESTSIDE HIGH SCHOOL,1630 HWY 91 W,JONESBORO,AR,72404,NOT AVAILABLE,(870) 935-7501
48063,50543000439,DOVER MIDDLE SCHOOL,203 COLLEGE ST,DOVER,AR,72837,NOT AVAILABLE,(479) 331-4814
49053,50948000620,NORTH CENTRAL VOCATIONAL CENTER,330 OAK ST,LESLIE,AR,72645,NOT AVAILABLE,(870) 447-6111
77665,50954000698,MAYFLOWER HIGH SCHOOL,10 LESLEY KING DR,MAYFLOWER,AR,72106,NOT AVAILABLE,(501) 470-0388
77864,51341001369,JAMES R. TATE ELEM. SCHOOL,406 CATCHER RD,VAN BUREN,AR,72956,NOT AVAILABLE,(479) 471-3130
78006,50456000181,CONCORD HIGH SCHOOL,10920 HEBER SPRINGS N,CONCORD,AR,72523,NOT AVAILABLE,(870) 668-3522
79786,50332000093,BLYTHEVILLE ELEMENTARY SCHOOL,1124 W MOULTRIE DR,BLYTHEVILLE,AR,72315,NOT AVAILABLE,(870) 763-4485
31931,51248001006,SLOAN-HENDRIX ELEM. SCHOOL,1 GREYHOUND CIR,IMBODEN,AR,72434,NOT AVAILABLE,(870) 869-2101
33435,50228000006,ALPENA ELEMENTARY SCHOOL,300 DENVER ST BLDG B,ALPENA,AR,72611,NOT AVAILABLE,(870) 437-2229
33464,51248001006,SLOAN-HENDRIX ELEM. SCHOOL,1 GREYHOUND CIR,IMBODEN,AR,72434,NOT AVAILABLE,(870) 869-2101
34218,50828000568,JONESBORO VOCATIONAL CENTER,1727 S MAIN ST,JONESBORO,AR,72401,NOT AVAILABLE,(870) 933-5891
37785,50840000559,KENSETT ELEMENTARY SCHOOL,701 W DANDRIDGE ST,KENSETT,AR,72082,NOT AVAILABLE,(501) 742-3221
39828,50777001232,HIGHLAND MIDDLE SCHOOL,1 REBEL CIR,HARDY,AR,72542,NOT AVAILABLE,(870) 856-3284
11421,51206000971,RUSSELLVILLE HIGH SCHOOL,2203 S KNOXVILLE,RUSSELLVILLE,AR,72802,NOT AVAILABLE,(479) 968-3151
13643,50900001384,OTTER CREEK ELEMENTARY SCHOOL,16000 OTTER CREEK PARKWAY,LITTLE ROCK,AR,72209,NOT AVAILABLE,(501) 447-5800
15189,50519000241,DES ARC ELEMENTARY SCHOOL,2100 HICKORY ST,DES ARC,AR,72040,NOT AVAILABLE,(870) 256-4128
16307,50939000682,MARION HIGH SCHOOL,1 PATRIOT DR,MARION,AR,72364,NOT AVAILABLE,(870) 739-5130
1255,50324000085,BISMARCK ELEMENTARY SCHOOL,11636 HWY 84,BISMARCK,AR,71929,NOT AVAILABLE,(501) 865-4888
6312,50041900901,ADKINS PRE-K CENTER,500 CLOVERDALE RD,JACKSONVILLE,AR,72076,NOT AVAILABLE,(501) 982-3117
8215,50243000021,PEAKE ELEMENTARY SCHOOL,1609 PINE ST,ARKADELPHIA,AR,71923,NOT AVAILABLE,(870) 246-2361
9533,50004400653,CENTRAL ELEMENTARY SCHOOL,456 E NORTH ST,MAGNOLIA,AR,71753,NOT AVAILABLE,(870) 234-4911
22149,51341001102,BUTTERFIELD JUNIOR HIGH SCHOOL,310 N 11TH ST,VAN BUREN,AR,72956,NOT AVAILABLE,(479) 474-6838
22259,51209000975,SALEM HIGH SCHOOL,313 HWY 62 E STE 2,SALEM,AR,72576,NOT AVAILABLE,(870) 895-3293
103406,50042101712,PRODIGY PREPARATORY ACADEMY OF SERVICE,2410 SOUTH BATTERY STREET,LITTLE ROCK,AR,72206,NOT AVAILABLE,(501) 404-0012
103410,50042401683,FRIENDSHIP ASPIRE MIDDLE ACADEMY LITTLE ROCK,3615 WEST 25TH STREET,LITTLE ROCK,AR,72202,NOT AVAILABLE,(501) 500-0558
103432,50729001709,SPARKMAN K-12 SCHOOL,325 WEST MAIN ST,SPARKMAN,AR,71763,NOT AVAILABLE,(870) 678-2242
103440,50939001667,MARION MATH SCIENCE & TECHNOLOGY MAGNET SCHOOL,100 L H POLK,MARION,AR,72364,NOT AVAILABLE,(870) 739-5180
92178,50261000033,ATKINS HIGH SCHOOL,403 AVE THREE NW,ATKINS,AR,72823,NOT AVAILABLE,(479) 641-7872
93621,51341001097,J. J. IZARD ELEMENTARY SCHOOL,501 N 24TH ST,VAN BUREN,AR,72956,NOT AVAILABLE,(479) 474-3150
93763,50459000186,IDA BURNS ELEMENTARY SCHOOL,1201 DONAGHEY AVE,CONWAY,AR,72034,NOT AVAILABLE,(501) 450-4825
93896,50332000096,BLYTHEVILLE PRIMARY SCHOOL,1103 BYRUM RD,BLYTHEVILLE,AR,72315,NOT AVAILABLE,(870) 763-6916
96082,50040901606,NORTHWEST ARKANSAS CLASSICAL ACADEMY HIGH,1300 MELISSA DR STE 216,BENTONVILLE,AR,72712,NOT AVAILABLE,(479) 715-6676
98668,50306000074,WASHINGTON JUNIOR HIGH SCHOOL,1501 NE WILDCAT WAY,BENTONVILLE,AR,72712,NOT AVAILABLE,(479) 254-5345
99873,51038001193,NASHVILLE PRIMARY SCHOOL,1201 N EIGHTH ST,NASHVILLE,AR,71852,NOT AVAILABLE,(870) 845-3510
30533,51308001066,GREENE CO. TECH HIGH SCHOOL,5201 W KINGSHIGHWAY,PARAGOULD,AR,72450,NOT AVAILABLE,(870) 215-4460
30612,51098000827,OUACHITA ELEMENTARY SCHOOL,332 SCHOOL HOUSE RD,DONALDSON,AR,71941,NOT AVAILABLE,(501) 384-2341
31425,50005400583,ASU THREE RIVERS CAREER CENTER,ONE COLLEGE CIR,MALVERN,AR,72104,NOT AVAILABLE,(501) 332-3658
33953,50002001298,MIDLAND HIGH SCHOOL,741 MAIN ST,PLEASANT PLAINS,AR,72568,NOT AVAILABLE,(501) 345-2610
36009,51197001088,OLD WIRE ELEMENTARY SCHOOL,3001 S OLD WIRE RD,ROGERS,AR,72756,NOT AVAILABLE,(479) 631-3510
39410,51029000753,MULBERRY HIGH SCHOOL,203 W 5TH ST,MULBERRY,AR,72947,NOT AVAILABLE,(479) 997-1363
13003,50633000368,RAYMOND F. ORR ELEM. SCHOOL,3609 PHOENIX ST,FORT SMITH,AR,72903,NOT AVAILABLE,(479) 646-3711
13332,50633001358,EUPER LANE ELEMENTARY SCHOOL,6601 EUPER LN,FORT SMITH,AR,72903,NOT AVAILABLE,(479) 452-2601
16581,50824000564,KINGSTON HIGH SCHOOL,300 SCHOOL ST,KINGSTON,AR,72742,NOT AVAILABLE,(479) 665-2835
16688,50384000132,CALICO ROCK HIGH SCHOOL,1 PIRATE PLACE,CALICO ROCK,AR,72519,NOT AVAILABLE,(870) 297-3745
17402,50004401123,WALKER PRE-K CENTER,655 HWY 79 S,MAGNOLIA,AR,71753,NOT AVAILABLE,(870) 234-8827
24976,51393001136,COLEMAN ELEMENTARY SCHOOL,4600 W 13TH ST,PINE BLUFF,AR,71603,NOT AVAILABLE,(870) 879-3630
26180,50824000563,KINGSTON ELEMENTARY SCHOOL,300 SCHOOL ST,KINGSTON,AR,72742,NOT AVAILABLE,(479) 665-2835
27134,50004300676,MTN HOME HIGH CAREER ACADEMICS,500 BOMBER BLVD,MOUNTAIN HOME,AR,72653,NOT AVAILABLE,(870) 425-1215
27454,50576000303,ELKINS MIDDLE SCHOOL,349 N CENTER,ELKINS,AR,72727,NOT AVAILABLE,(479) 643-2552
27676,50690001476,GREENBRIER WOOSTER ELEMENTARY,9 CHURCH CIR,GREENBRIER,AR,72058,NOT AVAILABLE,(501) 679-3334
51098,51266001565,SONORA MIDDLE SCHOOL,17051 E HWY 412,SPRINGDALE,AR,72764,NOT AVAILABLE,(479) 750-8821
53049,50813001035,ST. PAUL HIGH SCHOOL,232 4TH ST,ST PAUL,AR,72760,NOT AVAILABLE,(479) 677-2624
55118,50282000051,BAY HIGH SCHOOL,700 SCHOOL ST,BAY,AR,72411,NOT AVAILABLE,(870) 781-3297
55819,50369000121,SALEM ELEMENTARY SCHOOL,2701 SALEM RD,BENTON,AR,72015,NOT AVAILABLE,(501) 316-0263
66491,50441000171,COWSERT ELEMENTARY SCHOOL,760 YELLOWJACKET LN,CLINTON,AR,72031,NOT AVAILABLE,(501) 745-6046
68900,51197000953,ELMWOOD MIDDLE SCHOOL,1600 S 13TH ST,ROGERS,AR,72756,NOT AVAILABLE,(479) 631-3600
70357,50900001409,WASHINGTON ELEMENTARY SCHOOL,2700 S MAIN ST,LITTLE ROCK,AR,72206,NOT AVAILABLE,(501) 447-6700
72219,50900000604,BOOKER ARTS MAGNET ELEM. SCH.,2016 BARBER ST,LITTLE ROCK,AR,72206,NOT AVAILABLE,(501) 447-3800
74927,50568000276,HUGH GOODWIN ELEMENTARY SCHOOL,201 E FIFTH ST,EL DORADO,AR,71730,NOT AVAILABLE,(870) 864-5071
78657,51323001083,TUCKERMAN HIGH SCHOOL,300 N DOWELL ST,TUCKERMAN,AR,72473,NOT AVAILABLE,(870) 349-2657
79790,51266001396,WALKER ELEMENTARY SCHOOL,1701 S 40TH,SPRINGDALE,AR,72762,NOT AVAILABLE,(479) 750-8874
40407,51414001152,HARDIN ELEMENTARY SCHOOL,700 SCHOOLWOOD DR,REDFIELD,AR,72132,NOT AVAILABLE,(501) 397-2450
40529,50900000623,MEADOWCLIFF ELEMENTARY SCHOOL,25 SHERATON DR,LITTLE ROCK,AR,72209,NOT AVAILABLE,(501) 447-5600
40532,51068000783,BOONE PARK ELEMENTARY SCHOOL,1400 CRUTCHER ST,NORTH LITTLE ROCK,AR,72114,NOT AVAILABLE,(501) 340-5160
40534,50900000607,CENTRAL HIGH SCHOOL,1500 PARK ST,LITTLE ROCK,AR,72202,NOT AVAILABLE,(501) 447-1400
43429,50459000184,CONWAY HIGH WEST,2300 PRINCE ST,CONWAY,AR,72034,NOT AVAILABLE,(501) 450-4880
47372,50864000576,LAKESIDE ELEMENTARY SCHOOL,365 HWY 82 W,LAKE VILLAGE,AR,71653,1426,(870) 265-2906
48050,50438000806,CLARKSVILLE PRIMARY SCHOOL,2023 CLARK RD,CLARKSVILLE,AR,72830,NOT AVAILABLE,(479) 979-6000
48908,51092000820,OMAHA ELEMENTARY SCHOOL,522 W COLLEGE,OMAHA,AR,72662,NOT AVAILABLE,(870) 426-3372
140,50041301613,CAPITOL CITY LIGHTHOUSE LOWER ACADEMY,3901 VIRGINIA AVE,NORTH LITTLE ROCK,AR,72117,NOT AVAILABLE,(501) 313-2901
953,51266001562,LAKESIDE JUNIOR HIGH SCHOOL,3050 HYLTON RD,SPRINGDALE,AR,72764,NOT AVAILABLE,(479) 750-8800
1507,50900001626,GEYER SPRINGS EARLY CHILDHOOD CENTER,5240 MABELVALE PIKE,LITTLE ROCK,AR,72209,NOT AVAILABLE,(501) 447-4800
80229,50933000671,MANSFIELD MIDDLE SCHOOL,400 GROVE ST,MANSFIELD,AR,72944,NOT AVAILABLE,(479) 928-4451
82881,50606001432,IVORY PRIMARY SCHOOL,575 DOOLEY WOMACK DR,CAMDEN,AR,71701,NOT AVAILABLE,(870) 836-7381
83998,50654000791,GENTRY PRIMARY SCHOOL,1295 PIONEER LN,GENTRY,AR,72734,NOT AVAILABLE,(479) 736-2252
84528,50001701289,BALDWIN ELEMENTARY SCHOOL,612 W MUELLER ST,PARAGOULD,AR,72450,NOT AVAILABLE,(870) 236-6369
85128,50804000521,BRAGG ELEMENTARY SCHOOL,309 W BARTON,WEST MEMPHIS,AR,72301,NOT AVAILABLE,(870) 735-4196
102228,50005501508,ARKANSAS ARTS ACADEMY HIGH SCHOOL,506 POPULAR ST,ROGERS,AR,72756,NOT AVAILABLE,(479) 631-2787
103396,50006701673,RISON MIDDLE SCHOOL,700 MAIN STREET,RISON,AR,71665,NOT AVAILABLE,(870) 325-6241
103421,50043701713,BLACK RIVER TECHNICAL COLLEGE,1410 HIGHWAY 304 EAST,POCAHONTAS,AR,72455,NOT AVAILABLE,(870) 248-4000
20630,50296000064,CALDWELL ELEMENTARY SCHOOL,1800 W SEVIER ST,BENTON,AR,72015,NOT AVAILABLE,(501) 778-4444
23416,51252001166,MORRILTON ELEMENTARY SCHOOL,1203 N SAINT JOSEPH ST,MORRILTON,AR,72110,NOT AVAILABLE,(501) 354-9443
27496,50330000089,BLEVINS ELEMENTARY SCHOOL,6003 HWY 29 N,BLEVINS,AR,71825,NOT AVAILABLE,(870) 874-2283
29631,50001600691,MARMADUKE HIGH SCHOOL,1010 GREYHOUND DR,MARMADUKE,AR,72443,NOT AVAILABLE,(870) 597-4693
63705,50004300742,PINKSTON MIDDLE SCHOOL,1301 S COLLEGE ST,MOUNTAIN HOME,AR,72653,NOT AVAILABLE,(870) 425-1236
64294,50933001036,MANSFIELD HIGH SCHOOL,2500 HWY 71 S,MANSFIELD,AR,72944,NOT AVAILABLE,(479) 928-1105
66024,50369001407,ROBERT L. DAVIS ELEM. SCHOOL,12001 COUNTY LINE RD,ALEXANDER,AR,72002,NOT AVAILABLE,(501) 455-5672
66732,50693000660,GREENLAND MIDDLE SCHOOL,55 N SANDY AVE,GREENLAND,AR,72737,NOT AVAILABLE,(479) 521-2366
69982,50377000127,CADDO HILLS HIGH SCHOOL,2268 HWY 8 E,NORMAN,AR,71960,NOT AVAILABLE,(870) 356-3857
5457,50039801470,ESTEM PUBLIC CHARTER HIGH SCHOOL,112 W THIRD ST 3RD FLR,LITTLE ROCK,AR,72201,NOT AVAILABLE,(501) 374-7836
40117,50040301567,LITTLE PREP ACADEMY ELEMENTARY,1616 S SPRING ST,LITTLE ROCK,AR,72206,NOT AVAILABLE,(501) 683-1855
40521,51095000825,OSCEOLA HIGH SCHOOL,2800 W SEMMES,OSCEOLA,AR,72370,NOT AVAILABLE,(870) 563-2192
45496,50001701295,PARAGOULD HIGH SCHOOL,1701 W COURT ST,PARAGOULD,AR,72450,NOT AVAILABLE,(870) 236-7744
46146,51252001243,MORRILTON INTERMEDIATE SCHOOL,1907 POOR FARM RD,MORRILTON,AR,72110,NOT AVAILABLE,(501) 354-9476
96656,50693000419,GREENLAND ELEMENTARY SCHOOL,200 N SANDY AVE,GREENLAND,AR,72737,NOT AVAILABLE,(479) 521-2366
99858,50004201280,HAMBURG MIDDLE SCHOOL,1109 CUB DR,HAMBURG,AR,71646,NOT AVAILABLE,(870) 853-2811
53580,50732001616,HARMONY GROVE JUNIOR HIGH SCHOOL,2621 HWY 229,BENTON,AR,72015,NOT AVAILABLE,(501) 778-6907
58456,51341001096,CITY HEIGHTS ELEMENTARY SCHOOL,301 MT VISTA AVE,VAN BUREN,AR,72956,NOT AVAILABLE,(479) 474-6918
81323,50762000472,HECTOR HIGH SCHOOL,11601 SR 27,HECTOR,AR,72843,NOT AVAILABLE,(479) 284-3536
89953,50258000807,MARGARET DANIELS PRIMARY,1323 FOSTER ST,ASHDOWN,AR,71822,NOT AVAILABLE,(870) 898-4711
100014,50001500995,EAST END ELEMENTARY SCHOOL,21801 ARCH ST PIKE,LITTLE ROCK,AR,72206,NOT AVAILABLE,(501) 888-4264
100933,50828000888,EARLY CHILDHOOD LEARNING CNTR,1307 FLINT ST,JONESBORO,AR,72401,NOT AVAILABLE,(870) 933-5876
101420,50375000123,CABOT HIGH SCHOOL,401 N LINCOLN ST,CABOT,AR,72023,NOT AVAILABLE,(501) 843-3562
102440,50306001684,EVENING STAR ELEMENTARY SCHOOL,9649 W. PLEASANT GROVE RD.,ROGERS,AR,72756,NOT AVAILABLE,(479) 360-7400
103391,50000901671,CORNING MIDDLE SCHOOL,605 WEST FOURTH,CORNING,AR,72422,NOT AVAILABLE,(870) 857-6649
103401,50039801666,ESTEM EAST VILLAGE ELEMENTARY PUBLIC CHARTER SCHOOL,410 SHALL AVE,LITTLE ROCK,AR,72202,NOT AVAILABLE,(501) 214-6810
11934,50364000116,BROOKLAND HIGH SCHOOL,100 W SCHOOL ST,BROOKLAND,AR,72417,NOT AVAILABLE,(870) 932-2080
12995,50438000154,KRAUS MIDDLE SCHOOL,1901 CLARK RD,CLARKSVILLE,AR,72830,NOT AVAILABLE,(479) 705-3240
14024,50568000285,YOCUM ELEMENTARY SCHOOL,308 S COLLEGE ST,EL DORADO,AR,71730,NOT AVAILABLE,(870) 864-5096
17244,50003001405,NEVADA HIGH SCHOOL,6580 US HWY 278,ROSSTON,AR,71858,NOT AVAILABLE,(870) 871-2478
31100,50894000600,LINCOLN ELEMENTARY SCHOOL,613 COUNTY AVE,LINCOLN,AR,72744,NOT AVAILABLE,(479) 824-3010
33617,50345000104,BOONEVILLE ELEMENTARY SCHOOL,386 W SEVENTH ST,BOONEVILLE,AR,72927,NOT AVAILABLE,(479) 675-2604
34997,50612000318,BUTTERFIELD ELEMENTARY SCHOOL,3050 N OLD MISSOURI RD,FAYETTEVILLE,AR,72703,NOT AVAILABLE,(479) 444-3081
35409,50006201513,KIPP DELTA ELEMENTARY LITERACY ACADEMY,210 CHERRY ST,HELENA,AR,72342,NOT AVAILABLE,(870) 753-9800
39673,50405000147,CAVE CITY ELEMENTARY SCHOOL,711 N MAIN ST,CAVE CITY,AR,72521,NOT AVAILABLE,(870) 283-5393
73629,50550000261,DUMAS JUNIOR HIGH SCHOOL,315 S COLLEGE ST,DUMAS,AR,71639,NOT AVAILABLE,(870) 382-4476
90494,51038000756,NASHVILLE ELEMENTARY SCHOOL,200 IMMANUEL ST,NASHVILLE,AR,71852,NOT AVAILABLE,(870) 845-3262
93328,51414001262,GANDY ELEMENTARY SCHOOL,400 GANDY AVE,WHITE HALL,AR,71602,NOT AVAILABLE,(870) 247-4054
94984,51437001169,WONDERVIEW ELEMENTARY SCHOOL,2436 HWY 95,HATTIEVILLE,AR,72063,NOT AVAILABLE,(501) 354-4736
96110,50735000446,HARRISBURG ELEMENTARY SCHOOL,1003 S ILLINOIS ST,HARRISBURG,AR,72432,NOT AVAILABLE,(870) 578-2410
99860,51443001173,WYNNE INTERMEDIATE SCHOOL,100 E BRIDGES,WYNNE,AR,72396,NOT AVAILABLE,(870) 238-5060
71400,50684001394,GRAVETTE MIDDLE SCHOOL,607 DALLAS SE,GRAVETTE,AR,72736,NOT AVAILABLE,(479) 787-4160
72188,51068000792,MEADOW PARK ELEMENTARY SCHOOL,400 EUREKA GARDENS RD,NORTH LITTLE ROCK,AR,72117,NOT AVAILABLE,(501) 955-3620
73094,51353000082,VILONIA JUNIOR HIGH SCHOOL,1164A MAIN ST,VILONIA,AR,72173,NOT AVAILABLE,(501) 796-2037
73725,50498000221,DECATUR HIGH SCHOOL,1498 STADIUM AVE,DECATUR,AR,72722,NOT AVAILABLE,(479) 752-3983
74183,50306001543,WILLOWBROOK ELEMENTARY SCHOOL,1800 SW GATOR RD,BENTONVILLE,AR,72713,NOT AVAILABLE,(479) 418-7300
77176,50243000020,GOZA MIDDLE SCHOOL,1305 CADDO ST,ARKADELPHIA,AR,71923,NOT AVAILABLE,(870) 246-4291
77848,51122000840,PARKERS CHAPEL ELEM. SCHOOL,401 PARKERS CHAPEL RD,EL DORADO,AR,71730,NOT AVAILABLE,(870) 862-9767
78962,50870000994,LAMAR MIDDLE SCHOOL,301 ELBERTA ST,LAMAR,AR,72846,NOT AVAILABLE,(479) 885-6511
84040,50459000185,ELLEN SMITH ELEMENTARY SCHOOL,1601 S DONAGHEY AVE,CONWAY,AR,72034,NOT AVAILABLE,(501) 450-4815
84530,51098000828,OUACHITA HIGH SCHOOL,258 SCHOOL HOUSE RD,DONALDSON,AR,71941,NOT AVAILABLE,(501) 384-2323
86606,50861000138,LAKE HAMILTON MIDDLE SCHOOL,120 WOLF ST,PEARCY,AR,71964,NOT AVAILABLE,(501) 767-3355
89420,50258000029,L.F. HENDERSON INTERM. SCH.,410 BURKE ST,ASHDOWN,AR,71822,NOT AVAILABLE,(870) 898-3561
102152,50936000675,LEE HIGH SCHOOL,523 N FORREST AVE,MARIANNA,AR,72360,NOT AVAILABLE,(870) 295-7130
103405,50042101669,NICHOLS INTERMEDIATE ACADEMY,2410 S BATTERY ST,LITTLE ROCK,AR,72206,NOT AVAILABLE,(501) 404-0012
103433,50738001694,HARRISON KINDERGARTEN,500 N CHESTNUT,HARRISON,AR,72601,NOT AVAILABLE,(870) 741-5043
103438,50900001688,LITTLE ROCK HALL STEAM MAGNET HIGH SCHOOL,6700 H STREET,LITTLE ROCK,AR,72205,NOT AVAILABLE,(501) 447-1900
106999,50042701707,FRIENDSHIP ASPIRE ACADEMY SOUTHEAST PINE BLUFF HIGH,1501 W 73RD STREET,PINE BLUFF,AR,71603,NOT AVAILABLE,(870) 395-7420
107002,51368001714,ADVENTURE ONLINE ACADEMY,408 ELM ST,WALDRON,AR,72958,NOT AVAILABLE,(479) 637-3179
12748,50834000557,JUNCTION CITY ELEM. SCHOOL,200 W HOLLY RD,JUNCTION CITY,AR,71749,NOT AVAILABLE,(870) 924-4578
17686,50006100658,IMBODEN AREA CHARTER SCHOOL,605 W 3RD ST,IMBODEN,AR,72434,NOT AVAILABLE,(870) 869-3015
31099,51266001021,ELMDALE ELEMENTARY SCHOOL,420 N WEST END,SPRINGDALE,AR,72764,NOT AVAILABLE,(479) 750-8859
31204,51266001023,ROBERT E. LEE ELEM. SCHOOL,400 QUANDT,SPRINGDALE,AR,72764,NOT AVAILABLE,(479) 750-8868
36810,50900000614,GIBBS MAGNET ELEMENTARY SCHOOL,1115 W 16TH ST,LITTLE ROCK,AR,72202,NOT AVAILABLE,(501) 447-4900
36987,50585000295,ENGLAND ELEMENTARY SCHOOL,400 E DEWITT ST,ENGLAND,AR,72046,NOT AVAILABLE,(501) 842-2041
53581,51251001607,NORPHLET MIDDLE SCHOOL,700 SCHOOL ST,NORPHLET,AR,71759,NOT AVAILABLE,(870) 546-1002
54681,50005300626,WESTARK TECHNICAL CENTER,5210 GRAND AVE,FORT SMITH,AR,72913,NOT AVAILABLE,(479) 788-7720
55928,50041901256,MURRELL TAYLOR ELEM. SCHOOL,1401 MURRELL TAYLOR DR,JACKSONVILLE,AR,72076,NOT AVAILABLE,(501) 985-1581
57804,50609000854,RANDALL G. LYNCH MIDDLE SCHOOL,359 W RHEAS MILL RD,FARMINGTON,AR,72730,NOT AVAILABLE,(479) 266-1840
59786,50633000373,SOUTHSIDE HIGH SCHOOL,4100 GARY ST,FORT SMITH,AR,72903,NOT AVAILABLE,(479) 646-7371
20611,50942000689,MARKED TREE ELEMENTARY SCHOOL,703 NORMANDY ST,MARKED TREE,AR,72365,NOT AVAILABLE,(501) 358-2214
24977,50615000277,FLIPPIN MIDDLE SCHOOL,308 N FIRST ST,FLIPPIN,AR,72634,NOT AVAILABLE,(870) 453-6464
25939,50568000274,EL DORADO HIGH SCHOOL,501 TIMBERLANE DR,EL DORADO,AR,71730,NOT AVAILABLE,(870) 864-5100
26686,50420000158,CHARLESTON HIGH SCHOOL,3005 DALE BUMPERS DR,CHARLESTON,AR,72933,NOT AVAILABLE,(479) 965-7150
62488,50978000717,MINERAL SPRINGS HIGH SCHOOL,130 W BROWNING ST,MINERAL SPRINGS,AR,71851,NOT AVAILABLE,(870) 287-4747
63717,51252000041,MORRILTON JUNIOR HIGH SCHOOL,1400 POOR FARM RD,MORRILTON,AR,72110,NOT AVAILABLE,(501) 354-9437
64967,50002601338,JACK ROBEY JR. HIGH SCHOOL,4101 OLIVE ST,PINE BLUFF,AR,71603,NOT AVAILABLE,(870) 543-4280
66462,51206000175,RUSSELLVILLE UPPER ELEM. SCH.,1201 W 4TH PLACE,RUSSELLVILLE,AR,72801,NOT AVAILABLE,(479) 968-2650
67157,50813000538,HUNTSVILLE HIGH SCHOOL,594 S HARRIS ST,HUNTSVILLE,AR,72740,NOT AVAILABLE,(479) 738-2500
68665,50474000198,COUNTY LINE HIGH SCHOOL,12092 W STATE HWY 22,BRANCH,AR,72928,NOT AVAILABLE,(479) 635-2441
43430,51068000788,LAKEWOOD MIDDLE SCHOOL,2300 LAKEVIEW RD,NORTH LITTLE ROCK,AR,72116,NOT AVAILABLE,(501) 771-8250
45445,51206001376,CENTER VALLEY ELEM. SCHOOL,5401 SR 124,RUSSELLVILLE,AR,72801,NOT AVAILABLE,(479) 968-4540
46179,50039401604,ARKANSAS VIRTUAL ACADEMY HIGH SCHOOL,4702 W COMMERCIAL DR STE B3,NORTH LITTLE ROCK,AR,72116,NOT AVAILABLE,(501) 664-4225
1567,51185000928,LAWSON ELEMENTARY SCHOOL,19901 LAWSON RD,LITTLE ROCK,AR,72210,NOT AVAILABLE,(501) 821-7000
1649,50441000765,CLINTON JR HIGH SCHOOL,443 YELLOWJACKET LN,CLINTON,AR,72031,NOT AVAILABLE,(501) 745-6079
4475,50699001634,GREENWOOD FRESHMAN CENTER,501 BULLDOG LOOP,GREENWOOD,AR,72936,NOT AVAILABLE,(479) 996-4141
5280,51200000961,ROSE BUD ELEMENTARY SCHOOL,124 SCHOOL RD,ROSE BUD,AR,72137,NOT AVAILABLE,(501) 556-5152
6422,51044000060,UNIVERSITY HEIGHTS INTERMEDIATE CENTER,3901 AGGIE RD,JONESBORO,AR,72401,NOT AVAILABLE,(870) 366-4700
12203,50004301236,MOUNTAIN HOME KINDERGARTEN,1310 POST OAK RD,MOUNTAIN HOME,AR,72653,NOT AVAILABLE,(870) 425-1256
14708,50000100216,DEWITT HIGH SCHOOL,1614 S GRANDVIEW DR,DEWITT,AR,72042,NOT AVAILABLE,(870) 946-4661
15789,50804000523,EAST JUNIOR HIGH SCHOOL,1151 GOODWIN ST,WEST MEMPHIS,AR,72301,NOT AVAILABLE,(870) 735-2081
3378,50004900853,DEQUEEN PRIMARY,235 TREATING PLANT RD,DEQUEEN,AR,71832,NOT AVAILABLE,(870) 642-3100
4467,50005901619,SCOTT CHARTER SCHOOL,15306 ALEXANDER RD,SCOTT,AR,72142,NOT AVAILABLE,(501) 961-1744
6918,50558000267,ANNE WATSON ELEMENTARY SCHOOL,2768 HWY 60 E,BIGELOW,AR,72016,NOT AVAILABLE,(501) 759-2638
8222,50693000420,GREENLAND HIGH SCHOOL,30 N SANDY AVE,GREENLAND,AR,72737,NOT AVAILABLE,(479) 521-2366
23796,51185000945,WILBUR D. MILLS HIGH SCHOOL,1205 E DIXON RD,LITTLE ROCK,AR,72206,NOT AVAILABLE,(501) 490-5700
25676,50633000356,CARNALL ELEMENTARY SCHOOL,2524 S TULSA ST,FORT SMITH,AR,72901,NOT AVAILABLE,(479) 646-3612
25926,50004900234,DEQUEEN ELEMENTARY SCHOOL,233 TREATING PLANT RD,DEQUEEN,AR,71832,NOT AVAILABLE,(870) 584-4311
28174,51266001118,HAR-BER HIGH SCHOOL,300 JONES RD,SPRINGDALE,AR,72762,NOT AVAILABLE,(479) 750-8777
40535,50633000357,CAVANAUGH ELEMENTARY SCHOOL,1025 SCHOOL ST,FORT SMITH,AR,72908,NOT AVAILABLE,(479) 646-1131
40649,50004901503,DEQUEEN JUNIOR HIGH SCHOOL,1803 W COLTER DR,DEQUEEN,AR,71832,NOT AVAILABLE,(870) 642-3077
46730,50975000713,MENA HIGH SCHOOL,700 S MORROW ST,MENA,AR,71953,NOT AVAILABLE,(479) 394-1144
31257,50867001525,LAKESIDE HIGH SCHOOL,2871 MALVERN AVE,HOT SPRINGS,AR,71901,NOT AVAILABLE,(501) 262-1530
33958,50729000443,HARMONY GROVE HIGH SCHOOL,401 OUACHITA 88,CAMDEN,AR,71701,NOT AVAILABLE,(870) 574-0867
35187,50612000229,HOLCOMB ELEMENTARY SCHOOL,2900 N SALEM RD,FAYETTEVILLE,AR,72704,NOT AVAILABLE,(479) 527-3610
37451,51266001260,THURMAN G. SMITH ELEM. SCHOOL,3600 FALCON,SPRINGDALE,AR,72762,NOT AVAILABLE,(479) 750-8846
39027,50435000164,CLARENDON HIGH SCHOOL,320 N SEVENTH ST,CLARENDON,AR,72029,NOT AVAILABLE,(870) 747-3326
91736,51197000954,GARFIELD ELEMENTARY SCHOOL,18432 MARSHALL,GARFIELD,AR,72732,NOT AVAILABLE,(479) 359-3263
92616,50774001537,CROSS CNTY HIGH A NEW TECH SCH,21 COUNTY RD 215,CHERRY VALLEY,AR,72324,NOT AVAILABLE,(870) 588-3337
93752,50000900191,CORNING HIGH SCHOOL,602 BOBCAT LN,CORNING,AR,72422,NOT AVAILABLE,(870) 857-3041
93867,50663000982,GLEN ROSE MIDDLE SCHOOL,14334 HWY 67,MALVERN,AR,72104,NOT AVAILABLE,(501) 332-3694
94641,50927000666,MAMMOTH SPRING HIGH SCHOOL,410 GOLDSMITH AVE,MAMMOTH SPRING,AR,72554,NOT AVAILABLE,(870) 625-7212
65363,50006201451,KIPP DELTA COLLEGIATE HIGH SCHOOL,320 MISSOURI ST,HELENA,AR,72342,NOT AVAILABLE,(870) 753-9444
66043,50699000179,WESTWOOD ELEMENTARY SCHOOL,300 WESTWOOD AVE,GREENWOOD,AR,72936,NOT AVAILABLE,(501) 966-7748
66422,51368001120,WALDRON ELEMENTARY SCHOOL,1895 RICE ST,WALDRON,AR,72958,NOT AVAILABLE,(479) 637-2454
66740,50480000201,CROSSETT ELEMENTARY SCHOOL,1100 CAMP RD,CROSSETT,AR,71635,NOT AVAILABLE,(870) 364-6521
67155,50784000495,BERYL HENRY UPPER ELEM. SCHOOL,2000 S MAIN ST,HOPE,AR,71801,NOT AVAILABLE,(870) 777-6222
83761,50282000050,BAY ELEMENTARY SCHOOL,700 SCHOOL ST,BAY,AR,72411,NOT AVAILABLE,(870) 781-3300
85214,50279000048,PINE HAVEN ELEMENTARY SCHOOL,500 PINE HAVEN RD,BAUXITE,AR,72011,NOT AVAILABLE,(501) 557-5361
85573,50004300740,NELSON WILKS HERRON ELEMENTARY,618 N COLLEGE ST,MOUNTAIN HOME,AR,72653,NOT AVAILABLE,(870) 425-1251
88210,50915000649,MAGAZINE ELEMENTARY SCHOOL,351 E PRIDDY ST,MAGAZINE,AR,72943,NOT AVAILABLE,(479) 969-2565
89004,50007100647,HILLCREST ELEMENTARY SCHOOL,180 SCHOOL ST,LYNN,AR,72440,NOT AVAILABLE,(870) 528-3462
89125,50804000522,FAULK ELEMENTARY SCHOOL,908 VANDERBILT,WEST MEMPHIS,AR,72301,NOT AVAILABLE,(870) 735-5252
89916,51248001007,SLOAN-HENDRIX HIGH SCHOOL,1 GREYHOUND CIR,IMBODEN,AR,72434,NOT AVAILABLE,(870) 869-2361
50874,51197001588,JANIE DARR ELEMENTARY SCHOOL,6505 S MT HEBRON RD,ROGERS,AR,72758,NOT AVAILABLE,(479) 248-2008
100275,51311001264,EDWARD D. TRICE ELEM. SCHOOL,4505 PINSON ST,TEXARKANA,AR,71854,NOT AVAILABLE,(870) 772-8431
100927,50960000701,MCCRORY ELEMENTARY SCHOOL,509 N JACKSON ST,MCCRORY,AR,72101,NOT AVAILABLE,(870) 731-2921
101366,51353000137,VILONIA MIDDLE SCHOOL,49 EAGLE ST,VILONIA,AR,72173,NOT AVAILABLE,(501) 796-2940
103392,50001501677,EAST END MIDDLE SCHOOL,24554 HWY 167,HENSLEY,AR,72065,NOT AVAILABLE,(501) 261-6565
10122,50003001398,NEVADA ELEMENTARY SCHOOL,6580 US HWY 278,ROSSTON,AR,71858,NOT AVAILABLE,(870) 871-2475
12411,50001201285,RIVERSIDE EAST ELEM. SCHOOL,502 W STATE ST,CARAWAY,AR,72419,NOT AVAILABLE,(870) 482-3351
15248,50468000194,COTTER HIGH SCHOOL,198 MELBA AVE,COTTER,AR,72626,NOT AVAILABLE,(870) 435-6171
16287,50493000215,DARDANELLE MIDDLE SCHOOL,2032 HWY 7 S,DARDANELLE,AR,72834,NOT AVAILABLE,(479) 229-4550
18037,50900000616,HALL HIGH SCHOOL,6700 H ST,LITTLE ROCK,AR,72205,NOT AVAILABLE,(501) 447-1900
80937,51308001546,GREENE CTY TECH INTERMEDIATE,5205 W KINGSHIGHWAY,PARAGOULD,AR,72450,NOT AVAILABLE,(870) 215-4440
89363,51134000850,PERRYVILLE HIGH SCHOOL,325 HOUSTON AVE,PERRYVILLE,AR,72126,NOT AVAILABLE,(501) 889-2326
89936,50006201526,KIPP BLYTHEVILLE COLLEGE PREPARATORY SCHOOL,1007 S FRANKLIN ST,BLYTHEVILLE,AR,72315,NOT AVAILABLE,(870) 780-6333
89983,50729000442,HARMONY GROVE ELEM. SCHOOL,401 OUACHITA 88,CAMDEN,AR,71701,NOT AVAILABLE,(870) 574-0960
6226,50007301642,ODEN SCHOOLS,135 SCHOOL DR,ODEN,AR,71961,NOT AVAILABLE,(870) 326-4311
6314,50306001649,OSAGE CREEK ELEMENTARY SCHOOL,3001 SW FEATHERSTON,BENTONVILLE,AR,72712,NOT AVAILABLE,(479) 286-5972
6808,50375001019,ACADEMIC CENTER FOR EXCELLENCE,21 FUNTASTIC DR,CABOT,AR,72023,NOT AVAILABLE,(501) 843-3363
40286,50633000366,HARRY C. MORRISON ELEM. SCHOOL,3415 NEWLON RD,FORT SMITH,AR,72904,NOT AVAILABLE,(479) 782-7045
40308,50840000242,RIVERVIEW HIGH SCHOOL,810 RAIDER DR,SEARCY,AR,72143,NOT AVAILABLE,(501) 279-7700
49077,50437001273,RECTOR ELEMENTARY SCHOOL,604 W 5TH ST,RECTOR,AR,72461,NOT AVAILABLE,(501) 595-3358
49982,50597000250,EUREKA SPRINGS MIDDLE SCHOOL,142 GREENWOOD HOLLOW RD,EUREKA SPRINGS,AR,72632,NOT AVAILABLE,(479) 253-7716
93754,51311001074,UNION ELEMENTARY SCHOOL,1701 LINE FERRY RD,TEXARKANA,AR,71854,NOT AVAILABLE,(870) 772-7341
95728,50627000350,STEWART ELEMENTARY SCHOOL,625 IRVING ST,FORREST CITY,AR,72335,NOT AVAILABLE,(870) 633-1365
97973,50007401672,LISA ACADEMY SPRINGDALE,301 HOLCOMB STREET,SPRINGDALE,AR,72764,NOT AVAILABLE,(501) 557-5303
98645,51245001005,SOUTHSIDE ELEMENTARY SCHOOL,200 W TULSA ST,SILOAM SPRINGS,AR,72761,NOT AVAILABLE,(479) 524-5146
103389,50000601695,WARREN HIGH SCHOOL,803 N WALNUT,WARREN,AR,71671,NOT AVAILABLE,(870) 226-6736
59356,51266001532,SONORA ELEMENTARY SCHOOL,20200 SONORA RD,SONORA,AR,72764,NOT AVAILABLE,(479) 750-8820
30308,50001201287,RIVERSIDE WEST ELEM. SCHOOL,2001 HWY 18,LAKE CITY,AR,72437,NOT AVAILABLE,(870) 237-8222
35786,51197000957,OAKDALE MIDDLE SCHOOL,511 N DIXIELAND RD,ROGERS,AR,72756,NOT AVAILABLE,(479) 631-3615
37089,50633000352,BARLING ELEMENTARY SCHOOL,1400 D ST,BARLING,AR,72923,NOT AVAILABLE,(479) 452-0211
37626,50612000316,ASBELL ELEMENTARY SCHOOL,1500 N SANG AVE,FAYETTEVILLE,AR,72701,NOT AVAILABLE,(479) 444-3080
39216,50369001440,BRYANT MIDDLE SCHOOL,412 WOODLAND DR,BRYANT,AR,72022,NOT AVAILABLE,(501) 847-5651
22590,51185001239,OAKBROOKE ELEMENTARY SCHOOL,2200 THORNHILL,SHERWOOD,AR,72120,NOT AVAILABLE,(501) 833-1190
23863,50813000539,HUNTSVILLE MIDDLE SCHOOL,133 SCHOOL DR,HUNTSVILLE,AR,72740,NOT AVAILABLE,(479) 738-6520
25002,50267000034,AUGUSTA HIGH SCHOOL,206 SMITH DR,AUGUSTA,AR,72006,NOT AVAILABLE,(870) 347-2515
26358,50375001375,NORTHSIDE ELEMENTARY SCHOOL,814 W LOCUST ST,CABOT,AR,72023,NOT AVAILABLE,(501) 843-5920
29304,51401001143,WEST FORK ELEMENTARY SCHOOL,245 SCHOOL AVE,WEST FORK,AR,72774,NOT AVAILABLE,(479) 839-2236
76159,50756000466,HEBER SPRINGS ELEM. SCHOOL,901 FRONT,HEBER SPRINGS,AR,72543,NOT AVAILABLE,(501) 362-8155
76597,50849000566,KIRBY HIGH SCHOOL,2614 HWY 27 N,KIRBY,AR,71950,NOT AVAILABLE,(501) 398-4211
78789,51266001053,BAYYARI ELEMENTARY SCHOOL,2199 SCOTTSDALE ST,SPRINGDALE,AR,72764,NOT AVAILABLE,(479) 750-8760
60711,51197001221,GRACE HILL ELEMENTARY SCHOOL,901 N DIXIELAND RD,ROGERS,AR,72756,NOT AVAILABLE,(479) 631-3670
63368,51266000869,BERNICE YOUNG ELEMENTARY,301 PIPPEN APPLE CIR,SPRINGDALE,AR,72762,NOT AVAILABLE,(479) 750-8770
65775,51443001174,WYNNE JUNIOR HIGH SCHOOL,849 E ELDRIDGE AVE,WYNNE,AR,72396,NOT AVAILABLE,(870) 238-5040
31197,51206000970,OAKLAND HEIGHTS ELEM. SCHOOL,1501 S DETROIT,RUSSELLVILLE,AR,72801,NOT AVAILABLE,(479) 968-2084
33262,50547000259,DREW CENTRAL HIGH SCHOOL,250 UNIVERSITY DR,MONTICELLO,AR,71655,NOT AVAILABLE,(870) 367-6076
34282,51254001012,SOUTHSIDE CHARTER HIGH SCHOOL,70 SCOTT DR,BATESVILLE,AR,72501,NOT AVAILABLE,(870) 251-2662
39650,50633000376,SUTTON ELEMENTARY SCHOOL,5001 KELLEY HWY,FORT SMITH,AR,72904,NOT AVAILABLE,(479) 785-1778
3157,50936001554,ANNA STRONG INTERMEDIATE SCHOOL,214 S ALABAMA ST,MARIANNA,AR,72360,NOT AVAILABLE,(870) 295-7140
7785,51311001068,ARKANSAS HIGH SCHOOL,1500 JEFFERSON AVE,TEXARKANA,AR,71875,NOT AVAILABLE,(870) 774-7641
21185,50633000351,BALLMAN ELEMENTARY SCHOOL,2601 SOUTH Q ST,FORT SMITH,AR,72901,NOT AVAILABLE,(479) 783-1280
25938,50004501204,RIVERCREST HIGH SCHOOL,1700 HWY 14 W,WILSON,AR,72395,NOT AVAILABLE,(870) 655-8111
27090,50861000574,LAKE HAMILTON JR. HIGH SCHOOL,281 WOLF ST,PEARCY,AR,71964,NOT AVAILABLE,(501) 767-2731
29115,50345000339,BOONEVILLE JR HIGH SCHOOL,835 E EIGHTH ST,BOONEVILLE,AR,72927,NOT AVAILABLE,(479) 675-5247
11797,50008201216,WALNUT RIDGE HIGH SCHOOL,508 E FREE ST,WALNUT RIDGE,AR,72476,NOT AVAILABLE,(870) 886-6623
13222,50364000115,BROOKLAND ELEMENTARY SCHOOL,220 N OAK ST,BROOKLAND,AR,72417,NOT AVAILABLE,(870) 932-2080
13291,50006800291,EMERSON ELEMENTARY SCHOOL,508 W MAIN,EMERSON,AR,71740,NOT AVAILABLE,(870) 547-2218
16407,50786000502,HORATIO HIGH SCHOOL,205 ISBELL ST,HORATIO,AR,71842,NOT AVAILABLE,(870) 832-2341
17706,50375000809,CABOT MIDDLE SCHOOL NORTH,1900 N LINCOLN ST,CABOT,AR,72023,NOT AVAILABLE,(501) 605-0192
40543,51266001024,SOUTHWEST JUNIOR HIGH SCHOOL,1807 PRINCETON AVE,SPRINGDALE,AR,72762,NOT AVAILABLE,(479) 750-8849
44971,51032000226,DELIGHT ELEMENTARY SCHOOL,621 E CHERRY,DELIGHT,AR,71940,NOT AVAILABLE,(870) 379-2214
47623,50900001390,MCCLELLAN MAGNET HIGH SCHOOL,9417 GEYER SPRINGS RD,LITTLE ROCK,AR,72209,NOT AVAILABLE,(501) 447-2100
48085,50900001387,CLOVERDALE MIDDLE SCHOOL,6300 HINKSON RD,LITTLE ROCK,AR,72209,NOT AVAILABLE,(501) 447-2500
80150,50960000702,MCCRORY HIGH SCHOOL,509 N JACKSON ST,MCCRORY,AR,72101,NOT AVAILABLE,(870) 731-2851
80168,50288001498,BEEBE EARLY CHILDHOOD,301 S HOLLY ST,BEEBE,AR,72012,NOT AVAILABLE,(501) 882-5463
82880,50007901521,TWO RIVERS HIGH SCHOOL,17727 HWY 28 E,OLA,AR,72853,NOT AVAILABLE,(479) 827-3150
87831,50609001113,JERRY POP WILLIAMS ELEM SCH,322 N BROYLES ST,FARMINGTON,AR,72730,NOT AVAILABLE,(479) 267-6013
88946,50002801041,BROWN ELEMENTARY SCHOOL,210 ASHLEY ST,STAR CITY,AR,71667,NOT AVAILABLE,(870) 628-5111
52915,50612000324,RAMAY JUNIOR HIGH SCHOOL,401 S SANG AVE,FAYETTEVILLE,AR,72701,NOT AVAILABLE,(479) 444-3064
55011,50041900935,PINEWOOD ELEMENTARY SCHOOL,1919 NORTHEASTERN AVE,JACKSONVILLE,AR,72076,NOT AVAILABLE,(501) 982-7571
55655,50642000383,FOUNTAIN LAKE ELEMENTARY,4207 PARK AVE,HOT SPRINGS,AR,71901,NOT AVAILABLE,(501) 624-0431
55925,50041801627,FURTURE SCHOOL OF FORT SMITH,622 N 7TH ST,FORT SMITH,AR,72917,NOT AVAILABLE,(479) 431-8695
58253,51185001559,MAUMELLE HIGH SCHOOL,100 VICTORY LN,MAUMELLE,AR,72113,NOT AVAILABLE,(501) 851-5350
93853,50900001474,WATSON ELEMENTARY SCHOOL,7000 VALLEY DR,LITTLE ROCK,AR,72209,NOT AVAILABLE,(501) 447-6800
96663,51393001138,L. L. OWEN ELEMENTARY SCHOOL,3605 OAKWOOD RD,PINE BLUFF,AR,71603,NOT AVAILABLE,(870) 879-3741
96831,51185000914,FULLER MIDDLE SCHOOL,808 E DIXON RD,LITTLE ROCK,AR,72206,NOT AVAILABLE,(501) 490-5730
97689,51266000669,HARP ELEMENTARY SCHOOL,2700 BUTTERFIELD COA,SPRINGDALE,AR,72764,NOT AVAILABLE,(479) 750-8740
61758,50007900818,OLA ELEMENTARY SCHOOL,314 N 6TH ST,OLA,AR,72853,NOT AVAILABLE,(479) 489-4160
64977,50784000500,YERGER JUNIOR HIGH SCHOOL,400 E 9TH ST,HOPE,AR,71801,NOT AVAILABLE,(870) 722-2770
67588,50951000694,MARVELL HIGH SCHOOL,1018B HWY 49,MARVELL,AR,72366,NOT AVAILABLE,(870) 829-1351
67854,50306001571,J WILLIAM FULBRIGHT JUNIOR HIGH SCHOOL,5303 SW BRIGHT RD,BENTONVILLE,AR,72712,NOT AVAILABLE,(479) 254-5000
68523,50840001202,RIVERVIEW JUNIOR HIGH SCHOOL,820 RAIDER DR,SEARCY,AR,72143,NOT AVAILABLE,(501) 279-7111
69169,50636000379,FOUKE ELEMENTARY SCHOOL,370 E RED CUT RD,FOUKE,AR,71837,NOT AVAILABLE,(870) 653-4165
69821,50371001269,BUFFALO IS. CENTRAL EAST ELEM.,1100 NELSON ST,LEACHVILLE,AR,72438,NOT AVAILABLE,(870) 539-6448
69983,51266001020,CENTRAL JUNIOR HIGH SCHOOL,2811 W HUNTSVILLE,SPRINGDALE,AR,72762,NOT AVAILABLE,(479) 750-8854
103395,50004201675,ALLBRITTON ELEMENTARY SCHOOL,210 BARTLETT,HAMBURG,AR,71646,NOT AVAILABLE,(870) 853-2820
103402,50040901685,WEST LITTLE ROCK CLASSICAL ACADEMY,1815 RAHLING RD,LITTLE ROCK,AR,72212,NOT AVAILABLE,(501) 821-8321
103447,51176001717,PRAIRIE GROVE JUNIOR HIGH SCHOOL,824 N MOCK ST.,PRAIRIE GROVE,AR,72753,NOT AVAILABLE,(479) 846-4221
43465,50342000102,LEAD HILL ELEMENTARY SCHOOL,6966 MILUM RD,LEAD HILL,AR,72644,NOT AVAILABLE,(870) 436-5677
44109,50828000552,MATH & SCIENCE MAGNET SCHOOL,213 E THOMAS GREEN RD,JONESBORO,AR,72401,NOT AVAILABLE,(870) 933-5845
47391,51206000969,LONDON ELEMENTARY SCHOOL,154 SCHOOL ST,LONDON,AR,72847,NOT AVAILABLE,(479) 293-4241
48487,50957000699,MAYNARD ELEMENTARY SCHOOL,113 HWY 328 W,MAYNARD,AR,72444,NOT AVAILABLE,(870) 647-2595
49602,50306001544,BRIGHT FIELD MIDDLE SCHOOL,5101 SW BRIGHT RD,BENTONVILLE,AR,72712,NOT AVAILABLE,(479) 418-7200
31586,51113001412,PARIS MIDDLE SCHOOL,602 N TENTH ST,PARIS,AR,72855,NOT AVAILABLE,(479) 963-6995
35367,50606000312,CAMDEN FAIRVIEW HIGH SCHOOL,1750 CASH RD,CAMDEN,AR,71701,NOT AVAILABLE,(870) 837-1300
35947,50900001389,J.A. FAIR HIGH SCHOOL,13420 DAVID O DODD RD,LITTLE ROCK,AR,72210,NOT AVAILABLE,(501) 447-1700
37279,50342000103,LEAD HILL HIGH SCHOOL,6967 MILUM RD,LEAD HILL,AR,72644,NOT AVAILABLE,(870) 436-5677
53051,51032000754,MURFREESBORO ELEMENTARY SCHOOL,605 THRID AVE,MURFREESBORO,AR,71958,NOT AVAILABLE,(870) 285-2193
20047,50004801345,LEPANTO ELEMENTARY,502 MCCLELLAN ST,LEPANTO,AR,72354,NOT AVAILABLE,(870) 475-2632
20904,50324000086,BISMARCK HIGH SCHOOL,11636 HWY 84,BISMARCK,AR,71929,NOT AVAILABLE,(501) 865-4888
22244,50369001197,BETHEL MIDDLE SCHOOL,5415 NORTHLAKE RD,ALEXANDER,AR,72002,NOT AVAILABLE,(501) 316-0937
24607,51044001514,NETTLETON STEAM SCHOOL,3801 VERA ST,JONESBORO,AR,72401,NOT AVAILABLE,(870) 910-7809
25449,50039001575,HARRISBURG JTC SCHOOL,1800 PINE GROVE LN,HARRISBURG,AR,72432,NOT AVAILABLE,(870) 578-5886
25742,50039401461,ARKANSAS VIRTUAL ACADEMY,10802 EXECUTIVE CTR DR STE 205,LITTLE ROCK,AR,72211,NOT AVAILABLE,(501) 664-4225
25998,51134000849,PERRYVILLE ELEMENTARY SCHOOL,625 N CEDAR ST,PERRYVILLE,AR,72126,NOT AVAILABLE,(501) 889-5146
26694,50441000172,CLINTON HIGH SCHOOL,489 YELLOWJACKET LN,CLINTON,AR,72031,NOT AVAILABLE,(501) 745-6035
29985,51095001524,OSCEOLA ELEMENTARY SCHOOL,138 FRANKLIN,OSCEOLA,AR,72370,NOT AVAILABLE,(870) 563-2371
80677,51414001156,WHITE HALL HIGH SCHOOL,700 BULLDOG DR,WHITE HALL,AR,71602,NOT AVAILABLE,(870) 247-3255
80768,51137000852,PIGGOTT HIGH SCHOOL,533 E MAIN,PIGGOTT,AR,72454,NOT AVAILABLE,(870) 598-3815
81790,50288000055,BEEBE JUNIOR HIGH SCHOOL,1201 W CENTER ST,BEEBE,AR,72012,NOT AVAILABLE,(501) 882-8414
87821,50732000661,HARMONY GROVE MIDDLE SCHOOL,2621 HWY 229,BENTON,AR,72015,NOT AVAILABLE,(501) 860-6796
61588,50900001601,FOREST HEIGHTS STEM ACADEMY,5901 EVERGREEN,LITTLE ROCK,AR,72205,NOT AVAILABLE,(501) 447-2700
64372,51393001140,WATSON CHAPEL HIGH SCHOOL,4000 CAMDEN RD,PINE BLUFF,AR,71603,NOT AVAILABLE,(870) 879-3230
66215,51335000678,VALLEY SPRINGS MIDDLE SCHOOL,7349 SCHOOL ST,VALLEY SPRINGS,AR,72682,NOT AVAILABLE,(870) 429-8100
66644,51185000910,COLLEGE STATION ELEM. SCHOOL,4710 FRAZIER PIKE RD,COLLEGE STATION,AR,72053,NOT AVAILABLE,(501) 490-5750
67915,50000100218,DEWITT ELEMENTARY SCHOOL,1718 S GRANDVIEW DR,DEWITT,AR,72042,NOT AVAILABLE,(870) 946-4651
96081,50006201595,KIPP BLYTHEVILLE COLLEGIATE HIGH SCHOOL,1200 BYRUM RD,BLYTHEVILLE,AR,72315,NOT AVAILABLE,(870) 780-6333
98082,50001500275,EAST END INTERMEDIATE SCHOOL,5205 W SAWMILL RD,LITTLE ROCK,AR,72206,NOT AVAILABLE,(501) 888-1477
98232,50002801042,STAR CITY HIGH SCHOOL,206 CLEVELAND ST,STAR CITY,AR,71667,NOT AVAILABLE,(870) 628-4111
76022,50547000258,DREW CENTRAL ELEM. SCHOOL,250 UNIVERSITY DR,MONTICELLO,AR,71655,NOT AVAILABLE,(870) 367-6893
77179,50375000124,EASTSIDE ELEMENTARY SCHOOL,17 BELLAMY ST,CABOT,AR,72023,NOT AVAILABLE,(501) 743-3563
101326,50519000240,DES ARC HIGH SCHOOL,600 MAIN ST,DES ARC,AR,72040,NOT AVAILABLE,(870) 256-4166
107000,50042801690,ASU - MOUNTAIN HOME CAREER CENTER,1600 SOUTH COLLEGE ST,MOUNTAIN HOME,AR,72653,NOT AVAILABLE,(870) 508-6100
1222,50004900236,DEQUEEN MIDDLE SCHOOL,1803 W COULTER DR,DEQUEEN,AR,71832,NOT AVAILABLE,(870) 642-2428
3368,50375001445,STAGECOACH ELEMENTARY SCHOOL,850 STAGECOACH RD,CABOT,AR,72023,NOT AVAILABLE,(501) 743-3574
5394,50006300704,MID-SOUTH COMM COLLEGE TECH CENTER,2000 W BROADWAY ST,WEST MEMPHIS,AR,72301,NOT AVAILABLE,(870) 733-6722
10303,51341001371,PARKVIEW ELEMENTARY SCHOOL,605 PARKVIEW ST,VAN BUREN,AR,72956,NOT AVAILABLE,(479) 474-8730
10703,50438000167,CLARKSVILLE JUNIOR HIGH SCHOOL,1801 CLARK RD,CLARKSVILLE,AR,72830,NOT AVAILABLE,(479) 705-3224
13595,50004101315,WESTERN YELL CO. HIGH SCHOOL,1 WOLVERINE DR,HAVANA,AR,72842,NOT AVAILABLE,(479) 476-4100
15715,51185000933,OAK GROVE ELEMENTARY SCHOOL,5703 OAK GROVE RD,NORTH LITTLE ROCK,AR,72118,NOT AVAILABLE,(501) 851-5370
16012,50789000506,GARDNER MAGNET SCHOOL,525 HAMMOND DR,HOT SPRINGS,AR,71913,NOT AVAILABLE,(501) 620-7822
18693,50784000805,HOPE ACADEMY,601 W 6TH ST,HOPE,AR,71801,NOT AVAILABLE,(870) 777-3454
62517,51068000786,INDIAN HILLS ELEMENTARY SCHOOL,6800 INDIAN HILLS DR,NORTH LITTLE ROCK,AR,72116,NOT AVAILABLE,(501) 835-5622
63974,50900000608,DUNBAR MAGNET MIDDLE SCHOOL,1100 WRIGHT AVE,LITTLE ROCK,AR,72206,NOT AVAILABLE,(501) 447-2600
65301,51206000966,CRAWFORD ELEMENTARY SCHOOL,1116 N PARKER RD,RUSSELLVILLE,AR,72801,NOT AVAILABLE,(479) 968-4677
65776,50001701292,WOODROW WILSON ELEM. SCHOOL,900 W EMERSON ST,PARAGOULD,AR,72450,NOT AVAILABLE,(870) 236-6177
66668,50005200646,SOUTHARK CAREER CENTER,3696 E MAIN RD,EL DORADO,AR,71730,NOT AVAILABLE,(870) 864-7110
69336,50792000515,JESSIEVILLE ELEMENTARY SCHOOL,7900 N HWY 7,JESSIEVILLE,AR,71949,NOT AVAILABLE,(501) 984-5665
10160,50550000262,DUMAS HIGH SCHOOL,709 DAN GILL DR,DUMAS,AR,71639,NOT AVAILABLE,(870) 382-4151
12428,50004400654,EAST SIDE ELEMENTARY SCHOOL,1310 HOLLENSWORTH ST,MAGNOLIA,AR,71753,NOT AVAILABLE,(870) 234-5611
15907,50738000449,EAGLE HEIGHTS ELEM. SCHOOL,500 NO CHESTNUT ST,HARRISON,AR,72601,NOT AVAILABLE,(870) 741-5043
16404,50002901275,GOSNELL ELEMENTARY SCHOOL,600 HWY 181,GOSNELL,AR,72315,NOT AVAILABLE,(870) 532-4003
17507,50753000464,HAZEN ELEMENTARY SCHOOL,477 N HAZEN AVE,HAZEN,AR,72064,NOT AVAILABLE,(870) 255-4547
18341,50261000032,ATKINS ELEMENTARY SCHOOL,611 NW 4TH ST,ATKINS,AR,72823,NOT AVAILABLE,(479) 641-7085
43019,51341000061,RENA ELEMENTARY SCHOOL,720 RENA RD,VAN BUREN,AR,72956,NOT AVAILABLE,(479) 471-3190
47894,50459000135,JIM STONE ELEMENTARY SCHOOL,4255 COLLEGE AVE,CONWAY,AR,72034,NOT AVAILABLE,(501) 450-4808
49432,50804000526,RICHLAND ELEMENTARY SCHOOL,1011 W BARTON,WEST MEMPHIS,AR,72301,NOT AVAILABLE,(870) 735-6443
35666,51197001414,REAGAN ELEMENTARY SCHOOL,3904 W OLIVE ST,ROGERS,AR,72756,NOT AVAILABLE,(479) 631-3680
37225,50900000876,STEPHENS ELEMENTARY,3700 W 18TH ST,LITTLE ROCK,AR,72204,NOT AVAILABLE,(501) 447-6400
55929,50041901510,JACKSONVILLE MIDDLE SCHOOL,718 HARRIS RD,JACSKONVILLE,AR,72076,NOT AVAILABLE,(501) 982-1587
90915,50007300002,ACORN HIGH SCHOOL,143 POLK 96,MENA,AR,71953,NOT AVAILABLE,(479) 394-5544
93654,51266001127,HUNT ELEMENTARY SCHOOL,3511 SILENT GROVE RD,SPRINGDALE,AR,72762,NOT AVAILABLE,(479) 750-8775
93942,50459000081,THEODORE JONES ELEM. SCHOOL,1800 FREYALDENHOVEN LN,CONWAY,AR,72032,NOT AVAILABLE,(501) 450-6645
23758,50006500719,LAFAYETTE COUNTY ELEMENTARY,208 W 7TH ST,LEWISVILLE,AR,71845,NOT AVAILABLE,(870) 921-4275
24232,50306000076,THOMAS JEFFERSON ELEM. SCHOOL,810 BELLA VISTA RD,BENTONVILLE,AR,72712,NOT AVAILABLE,(479) 254-5860
24837,50550000260,CENTRAL ELEMENTARY SCHOOL,101 COURT ST,DUMAS,AR,71639,NOT AVAILABLE,(870) 382-4954
24841,50753000465,HAZEN HIGH SCHOOL,477 N HAZEN AVE,HAZEN,AR,72064,NOT AVAILABLE,(870) 255-4546
25092,50813000539,HUNTSVILLE MIDDLE SCHOOL,133 SCHOOL DR,HUNTSVILLE,AR,72740,NOT AVAILABLE,(479) 738-6520
29229,50001500998,SHERIDAN MIDDLE SCHOOL,500 N ROCK,SHERIDAN,AR,72150,NOT AVAILABLE,(870) 942-3813
80074,50363000114,C.B. PARTEE ELEMENTARY SCHOOL,400 W LYNN ST,BRINKLEY,AR,72021,NOT AVAILABLE,(870) 734-5010
82549,51185000903,BAKER INTERDISTRICT ELEM. SCH.,15001 KANIS RD,LITTLE ROCK,AR,72223,NOT AVAILABLE,(501) 228-3250
85149,50576001051,ELKINS ELEM. PRIMARY SCHOOL,476 N CENTER,ELKINS,AR,72727,NOT AVAILABLE,(479) 643-3382
73935,50978000716,MINERAL SPRINGS ELEM. SCHOOL,130 W BROWNING ST,MINERAL SPRINGS,AR,71851,NOT AVAILABLE,(870) 287-4746
75502,50711000430,GURDON HIGH SCHOOL,7777 HWY 67 S,GURDON,AR,71743,NOT AVAILABLE,(870) 353-5123
78918,51068000800,REDWOOD PRE-SCHOOL,401 REDWOOD ST,NORTH LITTLE ROCK,AR,72114,NOT AVAILABLE,(501) 955-3640
100691,51353001430,VILONIA PRIMARY SCHOOL,4 BANE LN,CONWAY,AR,72032,NOT AVAILABLE,(501) 796-2018
101799,51044000875,NETTLETON JUNIOR HIGH SCHOOL,4208 CHIEFTAIN LN,JONESBORO,AR,72401,NOT AVAILABLE,(870) 910-7819
103418,50043401706,JEFFERSON AREA CAREER CENTER,912 WEST 6TH AVENUE,PINE BLUFF,AR,71601,NOT AVAILABLE,(870) 534-6129
103425,50303001692,PEA RIDGE JUNIOR HIGH SCHOOL,781 W PICKENS RD,PEA RIDGE,AR,72751,NOT AVAILABLE,(479) 451-1916
31097,50900000176,M.L. KING ELEMENTARY SCHOOL,907 MARTIN LUTHER KING JR BLVD,LITTLE ROCK,AR,72202,NOT AVAILABLE,(501) 447-5100
37270,50279001536,BAUXITE MIDDLE SCHOOL,6725 BENTON ST,BAUXITE,AR,72011,NOT AVAILABLE,(501) 557-5491
38128,50972000710,MELBOURNE ELEMENTARY SCHOOL,303 SCHOOL DR,MELBOURNE,AR,72556,NOT AVAILABLE,(870) 368-4500
38225,51170000890,POTTSVILLE ELEMENTARY SCHOOL,87 SOUTH B ST,POTTSVILLE,AR,72858,NOT AVAILABLE,(479) 968-2133
12143,50861001234,LAKE HAMILTON INTERM. SCHOOL,104 WOLF ST,PEARCY,AR,71964,NOT AVAILABLE,(501) 767-4111
13002,50873000663,LAVACA MIDDLE SCHOOL,603 N DIVISION ST,LAVACA,AR,72941,NOT AVAILABLE,(479) 674-5618
13330,51197000952,EASTSIDE ELEMENTARY SCHOOL,505 E NEW HOPE RD,ROGERS,AR,72756,NOT AVAILABLE,(479) 631-3630
13560,51041001493,NEMO VISTA MIDDLE SCHOOL,5690 HWY 9,CENTER RIDGE,AR,72027,NOT AVAILABLE,(501) 893-2925
13632,50007300001,ACORN ELEMENTARY SCHOOL,143 POLK 96,MENA,AR,71953,NOT AVAILABLE,(479) 394-4833
17468,50954000697,MAYFLOWER ELEMENTARY SCHOOL,4 GROVE ST,MAYFLOWER,AR,72106,NOT AVAILABLE,(501) 470-0387
61138,50654000390,GENTRY HIGH SCHOOL CONVERSION CHARTER,1295 PIONEER LN,GENTRY,AR,72734,NOT AVAILABLE,(479) 736-2666
62449,50924001327,WILSON INTERMEDIATE SCHOOL,614 W MOLINE ST,MALVERN,AR,72104,NOT AVAILABLE,(501) 332-6452
67742,50804000525,MADDUX ELEMENTARY SCHOOL,2100 E BARTON,WEST MEMPHIS,AR,72301,NOT AVAILABLE,(870) 735-4242
94555,50306001139,RUTH BARKER MIDDLE SCHOOL,500 SE 18TH ST,BENTONVILLE,AR,72712,NOT AVAILABLE,(479) 696-3300
96460,50001900043,BATESVILLE HIGH SCHOOL,1 PIONEER DR,BATESVILLE,AR,72501,NOT AVAILABLE,(870) 793-6846
96959,50774001537,CROSS CNTY HIGH A NEW TECH SCH,21 COUNTY RD 215,CHERRY VALLEY,AR,72324,NOT AVAILABLE,(870) 588-3337
52525,50001901092,SULPHUR ROCK MAGNET SCHOOL,480 N MAIN,SULPHUR ROCK,AR,72579,NOT AVAILABLE,(870) 799-3149
59033,50004301340,MOUNTAIN HOME JR. HIGH SCHOOL,2301 RODEO DR,MOUNTAIN HOME,AR,72653,NOT AVAILABLE,(870) 425-1231
59479,50006800109,BRADLEY HIGH SCHOOL,521 SCHOOL ST,BRADLEY,AR,71826,NOT AVAILABLE,(870) 894-3316
81258,50288000474,BEEBE MIDDLE SCHOOL,1201 W CENTER ST,BEEBE,AR,72012,NOT AVAILABLE,(501) 726-9705
81882,50375000173,CABOT MIDDLE SCHOOL SOUTH,2555 KERR STATION RD,CABOT,AR,72023,NOT AVAILABLE,(501) 941-7335
82707,50870000994,LAMAR MIDDLE SCHOOL,301 ELBERTA ST,LAMAR,AR,72846,NOT AVAILABLE,(479) 885-6511
83073,50270000037,H.L. LUBKER ELEMENTARY SCHOOL,103 W PARK ST,BALD KNOB,AR,72010,NOT AVAILABLE,(501) 724-3714
70257,50972000711,MELBOURNE HIGH SCHOOL,2270 LACROSSE RD,MELBOURNE,AR,72556,NOT AVAILABLE,(870) 368-4500
73881,50000100217,DEWITT MIDDLE SCHOOL,1209 W 16TH ST,DEWITT,AR,72042,NOT AVAILABLE,(870) 946-3708
78193,50900001217,ROCKEFELLER INCENTIVE ELEM.,700 E 17TH ST,LITTLE ROCK,AR,72206,NOT AVAILABLE,(501) 447-6200
1024,50498001602,DECATUR MIDDLE SCHOOL,1498 STADIUM AVE,DECATUR,AR,72722,NOT AVAILABLE,(479) 752-3986
1508,51266001622,LINDA CHILDERS KNAPP ELEMENTARY SCHOOL,2634 ORIOLE ST,SPRINGDALE,AR,72764,NOT AVAILABLE,(479) 750-8850
3260,51221000986,AHLF JUNIOR HIGH SCHOOL,308 W VINE,SEARCY,AR,72143,NOT AVAILABLE,(501) 268-3158
6913,50006000542,NORTH ARK COLLEGE SECONDARY CENTER,1515 PIONEER DR,HARRISON,AR,72601,NOT AVAILABLE,(870) 391-3513
40692,51020001491,MOUNTAIN VIEW MIDDLE SCHOOL,210 HIGH SCHOOL DR,MOUNTAIN VIEW,AR,72560,NOT AVAILABLE,(870) 269-3443
43681,50714000434,GUY-PERKINS HIGH SCHOOL,492 HWY 25 N,GUY,AR,72061,NOT AVAILABLE,(501) 679-3507
49734,51338001095,VALLEY VIEW HIGH SCHOOL,2118 VALLEY VIEW DR,JONESBORO,AR,72404,NOT AVAILABLE,(870) 935-6361
100418,51341001099,KING ELEMENTARY SCHOOL,400 N 19TH ST,VAN BUREN,AR,72956,NOT AVAILABLE,(479) 474-2661
101614,50954000437,MAYFLOWER MIDDLE SCHOOL,18 EAGLE CIR,MAYFLOWER,AR,72106,NOT AVAILABLE,(501) 470-2111
101819,50984000721,MONTICELLO HIGH SCHOOL,390 CLYDE ROSS DR,MONTICELLO,AR,71655,NOT AVAILABLE,(870) 367-4050
103407,50042201654,SOUTHEAST ARKANSAS PREPARATORY HIGH SCHOOL,1501 W 73RD AVE,PINE BLUFF,AR,71603,NOT AVAILABLE,(870) 850-7234
103408,50042301657,FRIENDSHIP ASPIRE ACADEMY,3911 S HAZEL ST,PINE BLUFF,AR,71603,NOT AVAILABLE,(833) 277-4731
103419,50043501710,UA RICH MOUNTAIN TECHNICAL CENTER,1100 COLLEGE DRIVE,MENA,AR,71953,NOT AVAILABLE,(479) 394-7622
103428,50369001676,BRYANT JUNIOR HIGH SCHOOL,301 HILL FARM RD,BRYANT,AR,72022,NOT AVAILABLE,(501) 590-5139
103450,51197001682,FAIRVIEW ELEMENTARY SCHOOL,3131 GARRETT RD,ROGERS,AR,72758,NOT AVAILABLE,(479) 696-2272
80203,50654000791,GENTRY PRIMARY SCHOOL,1295 PIONEER LN,GENTRY,AR,72734,NOT AVAILABLE,(479) 736-2252
82270,50873000587,LAVACA HIGH SCHOOL,311 HOLLY ST,LAVACA,AR,72941,NOT AVAILABLE,(479) 674-5612
84052,51185000916,HARRIS ELEMENTARY SCHOOL,4424 HWY 161 N,NORTH LITTLE ROCK,AR,72117,NOT AVAILABLE,(501) 955-3550
84705,50008100320,NWA COMMUNITY COLLEGE REG CENTER,2350 W OLD FARMINGTON RD,FAYETTEVILLE,AR,72701,NOT AVAILABLE,(479) 444-3058
88777,50279001590,MINER ACADEMY,800 SCHOOL ST,BAUXITE,AR,72011,NOT AVAILABLE,(501) 557-5453
90997,50711000432,GURDON PRIMARY SCHOOL,401 N 10TH ST,GURDON,AR,71743,NOT AVAILABLE,(870) 353-4321
93057,51020000964,RURAL SPECIAL ELEM. SCHOOL,13237 HWY 263,FOX,AR,72051,NOT AVAILABLE,(870) 363-4365
94279,50633000355,BONNEVILLE ELEMENTARY SCHOOL,2500 S WALDRON RD,FORT SMITH,AR,72903,NOT AVAILABLE,(479) 478-3161
95480,50306000879,MARY MAE JONES ELEM. SCHOOL,500 SE 14TH ST,BENTONVILLE,AR,72712,NOT AVAILABLE,(479) 254-5930
95725,50000900192,PARK ELEMENTARY SCHOOL,510 WYNNE PARK DR,CORNING,AR,72422,NOT AVAILABLE,(870) 857-3748
95727,50900000622,MCDERMOTT ELEMENTARY SCHOOL,1200 RESERVOIR RD,LITTLE ROCK,AR,72207,NOT AVAILABLE,(501) 447-5500
96513,50684000406,GRAVETTE UPPER ELEMENTARY,500 8TH AVE SE,GRAVETTE,AR,72736,NOT AVAILABLE,(479) 787-4140
103434,50804001659,JACKSON/WONDER ELEMENTARY SCHOOL,2395 S L HENRY ST,WEST MEMPHIS,AR,72301,NOT AVAILABLE,(870) 735-4219
52281,51311001070,COLLEGE HILL ELEMENTARY SCHOOL,200 ARTESIAN ST,TEXARKANA,AR,71854,NOT AVAILABLE,(870) 774-9111
54964,50489001488,DANVILLE MIDDLE SCHOOL,101 JA MOUDY DR,DANVILLE,AR,72833,NOT AVAILABLE,(479) 495-4800
57459,50007601643,ST. JOE K-12 SCHOOL,250 S HWY 65,ST. JOE,AR,72675,NOT AVAILABLE,(870) 439-2218
59294,51449001178,YELLVILLE-SUMMIT HIGH SCHOOL,1124 N PANTHER AVE,YELLVILLE,AR,72687,NOT AVAILABLE,(870) 449-4066
1139,50498001602,DECATUR MIDDLE SCHOOL,1498 STADIUM AVE,DECATUR,AR,72722,NOT AVAILABLE,(479) 752-3986
4474,50690001623,GREENBRIER SPRINGHILL ELEMENTARY SCHOOL,91 ELLITT RD,GREENBRIER,AR,72058,NOT AVAILABLE,(501) 679-1003
7837,51185000922,JOE T. ROBINSON ELEM. SCHOOL,21600 HWY 10,LITTLE ROCK,AR,72223,NOT AVAILABLE,(501) 868-2420
31385,50555000264,EARLE ELEMENTARY SCHOOL,802 BARTON ST,EARLE,AR,72331,NOT AVAILABLE,(870) 792-8732
32219,50261000438,ATKINS MIDDLE SCHOOL,611 NW 4TH ST,ATKINS,AR,72823,NOT AVAILABLE,(479) 641-1008
33952,50459001198,RAY/PHYLLIS SIMON INTERMEDIATE,1601 SIEBENMORGAN RD,CONWAY,AR,72032,NOT AVAILABLE,(501) 513-6120
36388,50972000710,MELBOURNE ELEMENTARY SCHOOL,303 SCHOOL DR,MELBOURNE,AR,72556,NOT AVAILABLE,(870) 368-4500
36512,50006801063,TAYLOR HIGH SCHOOL,506 E PINE ST,TAYLOR,AR,71861,NOT AVAILABLE,(870) 694-2251
37906,50040601541,PINE BLUFF LIGHTHOUSE ACADEMY,708 W SECOND ST,PINE BLUFF,AR,71601,NOT AVAILABLE,(870) 534-0277
38185,51101000829,ELGIN B. MILTON ELEM. SCHOOL,1601 WALDEN DR,OZARK,AR,72949,NOT AVAILABLE,(479) 667-4745
62920,50369001407,ROBERT L. DAVIS ELEM. SCHOOL,12001 COUNTY LINE RD,ALEXANDER,AR,72002,NOT AVAILABLE,(501) 455-5672
63088,50723000440,HAMPTON ELEMENTARY SCHOOL,485 E MAIN ST,HAMPTON,AR,71744,NOT AVAILABLE,(870) 798-2304
63108,50306001229,OLD HIGH MIDDLE SCHOOL,406 NW SECOND ST,BENTONVILLE,AR,72712,NOT AVAILABLE,(479) 254-5450
63456,51185001106,MAUMELLE MIDDLE SCHOOL,1000 CARNAHAM DR,MAUMELLE,AR,72113,NOT AVAILABLE,(501) 851-8990
64561,50474000197,COUNTY LINE ELEMENTARY SCHOOL,12092 W STATE HWY 22,BRANCH,AR,72928,NOT AVAILABLE,(479) 635-4701
66493,50612000327,WOODLAND JUNIOR HIGH SCHOOL,1 E POPLAR ST,FAYETTEVILLE,AR,72703,NOT AVAILABLE,(479) 444-3067
68546,51206000972,RUSSELLVILLE MIDDLE SCHOOL,1203 W 4TH PLACE,RUSSELLVILLE,AR,72801,NOT AVAILABLE,(479) 968-2557
24352,50824000810,OARK ELEMENTARY SCHOOL,370 HWY 215,OARK,AR,72852,NOT AVAILABLE,(479) 292-3337
25593,50375001553,CABOT FRESHMAN ACADEMY,18 SPIRITIVE,CABOT,AR,72023,NOT AVAILABLE,(501) 843-3363
29246,51335001093,VALLEY SPRINGS HIGH SCHOOL,7349 SCHOOL ST,VALLEY SPRINGS,AR,72682,NOT AVAILABLE,(870) 429-8100
29821,51185000941,SYLVAN HILLS HIGH SCHOOL,484 BEAR PAW RD,SHERWOOD,AR,72120,NOT AVAILABLE,(501) 833-1100
29975,50004600668,MANILA HIGH SCHOOL,419 E OLYMPIA ST,MANILA,AR,72442,NOT AVAILABLE,(870) 561-4417
13056,50375000125,MAGNESS CREEK ELEMENTARY,16150 ARK HWY 5,CABOT,AR,72023,NOT AVAILABLE,(501) 743-3565
72371,50040701539,SIATECH HIGH CHARTER,6900 SCOTT HAMILTON RD,LITTLE ROCK,AR,72209,NOT AVAILABLE,(501) 618-2500
75202,50007000767,NEWARK ELEMENTARY SCHOOL,3549 CORD RD,NEWARK,AR,72562,NOT AVAILABLE,(870) 799-8691
75299,51176000894,PRAIRIE GROVE ELEM. SCHOOL,300 ED STAGGS DR,PRAIRIE GROVE,AR,72753,NOT AVAILABLE,(479) 846-4210
77664,51221001533,SOUTHWEST MIDDLE SCHOOL,1103 WOODRUFF ST,SEARCY,AR,72143,NOT AVAILABLE,(501) 268-3125
40416,50000100391,GILLETT ELEMENTARY SCHOOL,316 S SIXTH ST,GILLETT,AR,72055,NOT AVAILABLE,(870) 548-2466
43188,50636000299,PAULETTE SMITH MIDDLE SCHOOL,400 PANTHER DR,FOUKE,AR,71837,NOT AVAILABLE,(870) 653-2304
46783,50786000501,HORATIO ELEMENTARY SCHOOL,205 ISBELL ST,HORATIO,AR,71842,NOT AVAILABLE,(870) 832-2891
47041,50636000380,FOUKE HIGH SCHOOL,403 PANTHER DR,FOUKE,AR,71837,NOT AVAILABLE,(870) 653-4551
11055,51266001453,WILLIS SHAW ELEMENTARY SCH,4377 GRIMSLEY RD,SPRINGDALE,AR,72764,NOT AVAILABLE,(479) 750-8898
14913,50493000243,DARDANELLE PRIMARY SCHOOL,900 N 4TH ST,DARDANELLE,AR,72834,NOT AVAILABLE,(479) 229-4185
19373,50004600667,MANILA ELEMENTARY SCHOOL,419 E OLYNPIA ST,MANILA,AR,72442,NOT AVAILABLE,(870) 561-3145
145,51353001617,FRANK MITCHELL INTERMEDIATE SCHOOL,98 S MT OLIVE RD,VILONIA,AR,72173,NOT AVAILABLE,(501) 796-4643
4472,50041900905,BAYOU METO ELEMENTARY SCHOOL,26405 HWY 107,JACKSONVILLE,AR,72076,NOT AVAILABLE,(501) 988-4131
7386,51197000304,FAIRVIEW ELEMENTARY SCHOOL,101 W PRICE LANE,ROGERS,AR,72756,NOT AVAILABLE,(479) 631-3625
8068,51197000505,JONES ELEMENTARY SCHOOL,2926 S FIRST ST,ROGERS,AR,72756,NOT AVAILABLE,(479) 631-3535
90754,50002101300,IZARD CO. CONS. HIGH SCHOOL,5068 N AR 9,BROCKWELL,AR,72517,NOT AVAILABLE,(870) 258-7788
92735,50255000026,ARMOREL ELEMENTARY SCHOOL,4555 HWY 137 N,ARMOREL,AR,72310,NOT AVAILABLE,(870) 763-5600
96766,50615000330,FLIPPIN ELEMENTARY SCHOOL,209 ALFORD ST,FLIPPIN,AR,72634,NOT AVAILABLE,(870) 453-8860
97380,51252000567,RIVER VALLEY VOCATIONAL CENTER,1905 POOR FARM RD,MORRILTON,AR,72110,NOT AVAILABLE,(501) 354-9475
97631,50459001482,CONWAY ADULT EDUCATION CENTER,615 E ROBINS ST,CONWAY,AR,72032,NOT AVAILABLE,(501) 450-4810
80960,50002600857,BROADMOOR ELEMENTARY SCHOOL,1106 WISCONSIN ST,PINE BLUFF,AR,71601,NOT AVAILABLE,(870) 543-4368
82871,50609001490,BOB FOLSOM ELEMENTARY SCHOOL,230 S GRACE LN,FARMINGTON,AR,72730,NOT AVAILABLE,(479) 267-6024
85213,50040501226,VAN COVE ELEMENTARY SCHOOL,122 E ADAIR ST,VANDERVOORT,AR,71972,NOT AVAILABLE,(870) 387-2744
87384,50612000231,VANDERGRIFF ELEMENTARY SCHOOL,2975 E TOWNSHIP ST,FAYETTEVILLE,AR,72703,NOT AVAILABLE,(479) 527-3600
72229,51020000965,RURAL SPECIAL HIGH SCHOOL,13237 HWY 263,FOX,AR,72051,NOT AVAILABLE,(870) 363-4365
74291,50001201538,RIVERSIDE HIGH SCHOOL,601 CATFISH DR,LAKE CITY,AR,72437,NOT AVAILABLE,(870) 237-4328
74590,50900000628,PULASKI HEIGHTS MIDDLE SCHOOL,401 N PINE ST,LITTLE ROCK,AR,72205,NOT AVAILABLE,(501) 447-3200
52398,50894001569,LINCOLN NEW TECH HIGH SCHOOL,1392 E PRIDEMORE DR,LINCOLN,AR,72744,NOT AVAILABLE,(479) 824-7450
53396,51200000962,ROSE BUD HIGH SCHOOL,124 SCHOOL RD,ROSE BUD,AR,72137,NOT AVAILABLE,(501) 556-5404
54783,51170001180,POTTSVILLE JUNIOR HIGH SCHOOL,250 APACHE DR,POTTSVILLE,AR,72858,NOT AVAILABLE,(479) 968-6334
30257,50438000166,CLARKSVILLE HIGH SCHOOL,1703 CLARK RD,CLARKSVILLE,AR,72830,NOT AVAILABLE,(479) 705-3212
31795,51197000349,BELLVIEW ELEMENTARY,5400 BELLVIEW RD,ROGERS,AR,72756,NOT AVAILABLE,(479) 631-3605
38360,51296001249,STUTTGART JUNIOR HIGH SCHOOL,2501 S MAIN,STUTTGART,AR,72160,NOT AVAILABLE,(870) 673-3562
39972,51044000764,UNIVERSITY HGTS. ELEM. SCHOOL,300 BOWLING LN,JONESBORO,AR,72401,NOT AVAILABLE,(870) 910-7823
66632,51044000762,NETTLETON HIGH SCHOOL,4201 CHIEFTAIN LN,JONESBORO,AR,72401,NOT AVAILABLE,(870) 910-7805
68412,50039001589,DERMOTT JTC SCHOOL,1001 REGIONAL RD,DERMOTT,AR,71638,NOT AVAILABLE,(870) 538-3400
21044,50828001362,KINDERGARTEN CENTER,618 W NETTLETON AVE,JONESBORO,AR,72401,NOT AVAILABLE,(870) 933-5835
22538,50039401447,ARKANSAS VIRTUAL ACADEMY JR,10802 EXECUTIVE CTR DR STE 205,LITTLE ROCK,AR,72211,NOT AVAILABLE,(501) 664-4225
26123,50699001523,EAST POINTE ELEMENTARY SCHOOL,700 MT HARMONY RD,GREENWOOD,AR,72936,NOT AVAILABLE,(479) 996-4249
26611,50756000468,HEBER SPRINGS MIDDLE SCHOOL,602 CASE ST,HEBER SPRINGS,AR,72543,NOT AVAILABLE,(501) 362-2488
29751,51266001023,ROBERT E. LEE ELEM. SCHOOL,400 QUANDT,SPRINGDALE,AR,72764,NOT AVAILABLE,(479) 750-8868
40519,51311001075,VERA KILPATRICK ELEM. SCHOOL,1002 E 35TH ST,TEXARKANA,AR,71854,NOT AVAILABLE,(870) 774-9691
101480,51308000963,GREENE CO. TECH PRIMARY SCHOOL,1300 S ROCKINGCHAIR,PARAGOULD,AR,72450,NOT AVAILABLE,(870) 215-4420
103390,50000601722,SEACBEC (WARREN),800 N WALNUT ST,WARREN,AR,71671,NOT AVAILABLE,(870) 226-6920
103403,50041901655,BOBBY G LESTER ELEMENTARY SCHOOL,601 HARRIS RD,JACKSONVILLE,AR,72076,NOT AVAILABLE,(501) 982-7456
103451,51254001702,SOUTHSIDE JUNIOR HIGH SCHOOL,70 SCOTT DRIVE,BATESVILLE,AR,72501,NOT AVAILABLE,(870) 251-4003
103453,51341001699,OLIVER SPRINGS ELEMENTARY SCHOOL,505 NORTHRIDGE DRIVE EAST,VAN BUREN,AR,72956,NOT AVAILABLE,(479) 471-3120
2169,50900000633,TERRY ELEMENTARY SCHOOL,10800 MARA LYNN DR,LITTLE ROCK,AR,72211,NOT AVAILABLE,(501) 447-6500
6155,50306001648,CREEKSIDE MIDDLE SCHOOL,2901 SW 28TH ST,BENTONVILLE,AR,72712,NOT AVAILABLE,(479) 286-9600
7180,51170000401,POTTSVILLE MIDDLE GRADE,6926 SR 247,POTTSVILLE,AR,72858,NOT AVAILABLE,(479) 890-6631
8683,50296000066,PERRIN ELEMENTARY SCHOOL,1201 SMITHERS DR,BENTON,AR,72015,NOT AVAILABLE,(501) 778-7411
70217,50296000067,RINGGOLD ELEMENTARY SCHOOL,536 RIVER ST,BENTON,AR,72015,NOT AVAILABLE,(501) 778-3500
75123,50690000417,GREENBRIER EASTSIDE ELEMENTARY,61 GLENN LN,GREENBRIER,AR,72058,NOT AVAILABLE,(501) 679-2111
81039,51197000956,NORTHSIDE ELEMENTARY SCHOOL,807 N SIXTH ST,ROGERS,AR,72756,NOT AVAILABLE,(479) 631-3650
86372,50003501419,ARK. SCHOOL FOR THE BLIND ELEM,2600 W MARKHAM ST,LITTLE ROCK,AR,72203,NOT AVAILABLE,(501) 296-1810
37501,50411000286,GARY E. COBB MIDDLE SCHOOL,11986 HWY 196,TEXARKANA,AR,71854,NOT AVAILABLE,(870) 653-2132
38622,51101000830,OZARK HIGH SCHOOL,1631 HILLBILLY DR,OZARK,AR,72949,NOT AVAILABLE,(479) 667-4116
60673,50006700950,RISON ELEMENTARY SCHOOL,700 MAIN,RISON,AR,71665,NOT AVAILABLE,(870) 325-6894
60693,50813001034,ST. PAUL ELEMENTARY SCHOOL,176 4TH ST,ST PAUL,AR,72760,NOT AVAILABLE,(479) 677-2711
64304,50459001480,CONWAY AREA CAREER CENTER,2300 PRINCE ST,CONWAY,AR,72034,NOT AVAILABLE,(501) 450-4888
65035,51266001114,HELLSTERN MIDDLE SCHOOL,7771 HAR BER AVE,SPRINGDALE,AR,72762,NOT AVAILABLE,(479) 750-8725
103393,50002601670,SOUTHWOOD ELEMENTARY SCHOOL,4200 FIR STREET,PINEBLUFF,AR,71603,NOT AVAILABLE,(870) 543-4390
103417,50043301705,ASU NEWPORT SEC CAREER CENTER (IGNITE),7648 VICTORY BLVD,NEWPORT,AR,72112,NOT AVAILABLE,(870) 512-7825
103420,50043601721,ARK TECH UNIVERISTY CAREER CENTER,215 WEST O STREET,RUSSELLVILLE,AR,72801,NOT AVAILABLE,(844) 804-2628
107001,50784001662,CREATIVE ACTION TEAM SCHOOL,513 HENRY C YERGER ST,HOPE,AR,71801,NOT AVAILABLE,(870) 722-2700
20036,50002801043,STAR CITY MIDDLE SCHOOL,206 CLEVELAND ST,STAR CITY,AR,71667,NOT AVAILABLE,(870) 628-5125
21096,50309001089,BERGMAN MIDDLE SCHOOL,8949 HWY 7 N,HARRISON,AR,72601,NOT AVAILABLE,(870) 741-8557
21158,50735000447,HARRISBURG COLLEGE & CAREER PREPARATORY SCHOOL,207 WEST ESTES,HARRISBURG,AR,72432,NOT AVAILABLE,(870) 578-2417
23795,50384000131,CALICO ROCK ELEMENTARY SCHOOL,301 COLLEGE ST,CALICO ROCK,AR,72519,NOT AVAILABLE,(870) 297-8533
24738,50828000548,DOUGLAS MACARTHUR JHS,1615 WILKINS AVE,JONESBORO,AR,72401,NOT AVAILABLE,(870) 933-5840
27456,51197001370,BONNIE GRIMES ELEM. SCHOOL,1801 S 13TH ST,ROGERS,AR,72756,NOT AVAILABLE,(479) 631-3660
98847,50633000359,ELMER H. COOK ELEM. SCHOOL,3517 BROOKEN HILL DR,FORT SMITH,AR,72908,NOT AVAILABLE,(479) 646-8880
99857,50480000202,CROSSETT HIGH SCHOOL,301 W 9TH ST,CROSSETT,AR,71635,NOT AVAILABLE,(870) 364-2625
40520,51311001071,COLLEGE HILL MIDDLE,1600 FORREST ST,TEXARKANA,AR,71854,NOT AVAILABLE,(870) 772-0281
45938,50984001395,MONTICELLO INTERMEDIATE SCHOOL,280 CLYDE ROSS DR,MONTICELLO,AR,71655,NOT AVAILABLE,(870) 367-4030
46835,50005900603,MAUMELLE CHARTER ELEMENTARY SCHOOL,900 EDGEWOOD DR,MAUMELLE,AR,72113,NOT AVAILABLE,(501) 851-3333
47903,50824000811,OARK HIGH SCHOOL,370 HWY 215,OARK,AR,72852,NOT AVAILABLE,(479) 292-3353
48603,50900001463,CHICOT ELEMENTARY SCHOOL,11100 CHICOT RD,MABELVALE,AR,72103,NOT AVAILABLE,(501) 447-7000
49379,50411000152,GENOA CENTRAL HIGH SCHOOL,12472 HWY 196,TEXARKANA,AR,71854,NOT AVAILABLE,(870) 653-2272
50413,51401001144,WEST FORK HIGH SCHOOL,359 SCHOOL AVE,WEST FORK,AR,72774,NOT AVAILABLE,(479) 839-3131
52132,50735001141,WEINER ELEMENTARY,313 GARFIELD ST,WEINER,AR,72479,NOT AVAILABLE,(870) 684-2252
52742,50948000595,LESLIE ELEMENTARY SCHOOL,800 ELM ST,LESLIE,AR,72645,NOT AVAILABLE,(870) 447-2431
57378,50612001644,AGEE LIERLY LIFE PREPARATION SERVICES SCHOOL,2350 OLD FARMINGTON RD,FAYETTEVILLE,AR,72701,NOT AVAILABLE,(479) 444-3083
57461,50007801640,HAAS HALL ACADEMY JONES CENTER,922 EAST EMMA AVE,SPRINGDALE,AR,72764,NOT AVAILABLE,(479) 966-4930
14950,50804000523,EAST JUNIOR HIGH SCHOOL,1151 GOODWIN ST,WEST MEMPHIS,AR,72301,NOT AVAILABLE,(870) 735-2081
17685,51017000746,MOUNTAIN PINE HIGH SCHOOL,726 BLAKELY DAM RD,MOUNTAIN PINE,AR,71956,NOT AVAILABLE,(501) 767-6917
43841,51440001172,WOODLAWN HIGH SCHOOL,6760 HWY 63,RISON,AR,71665,NOT AVAILABLE,(870) 357-8171
45439,51263001017,SPRING HILL ELEMENTARY SCHOOL,633 HWY 355 W,HOPE,AR,71801,NOT AVAILABLE,(870) 722-7420
45589,50369000120,BRYANT ELEMENTARY SCHOOL,200 NW FOURTH ST,BRYANT,AR,72022,NOT AVAILABLE,(501) 847-5642
56763,51008000738,MT. VERNON/ENOLA ELEM. SCHOOL,17 MT VERNON RD,ENOLA,AR,72047,NOT AVAILABLE,(501) 849-2211
33117,51296001055,STUTTGART HIGH SCHOOL,401 A W 22ND ST,STUTTGART,AR,72160,NOT AVAILABLE,(870) 673-3561
33906,50001700395,PARAGOULD JUNIOR HIGH,1713 W COURT ST,PARAGOULD,AR,72450,NOT AVAILABLE,(870) 236-7744
37861,50654000389,GENTRY INTERMEDIATE SCHOOL,302 W 2ND ST,GENTRY,AR,72734,NOT AVAILABLE,(479) 736-2252
39970,51245001235,DELBERT PETE & PAT ALLEN ELE,1900 N MT OLIVE,SILOAM SPRINGS,AR,72761,NOT AVAILABLE,(479) 524-0358
4311,51414001247,WHITE HALL JUNIOR HIGH SCHOOL,8106 DOLLARWAY RD,WHITE HALL,AR,71602,NOT AVAILABLE,(870) 247-2711
5332,50585000296,ENGLAND HIGH SCHOOL,501 PINE BLUFF HWY,ENGLAND,AR,72046,NOT AVAILABLE,(501) 842-2031
23418,51353001109,VILONIA ELEMENTARY SCHOOL,15 EAGLE ST,VILONIA,AR,72173,NOT AVAILABLE,(501) 796-2112
24733,50861000573,LAKE HAMILTON ELEMENTARY SCH,240 WOLF ST,PEARCY,AR,71964,NOT AVAILABLE,(501) 767-8725
10764,50642000384,FOUNTAIN LAKE CHARTER HIGH SCHOOL,4207 PARK AVE,HOT SPRINGS,AR,71901,NOT AVAILABLE,(501) 701-1706
10933,51185001258,JOE T. ROBINSON MIDDLE SCHOOL,21001 HWY 10,LITTLE ROCK,AR,72223,NOT AVAILABLE,(501) 868-2410
15330,50377000126,CADDO HILLS ELEMENTARY SCHOOL,2268 HWY 8 E,NORMAN,AR,71960,NOT AVAILABLE,(870) 356-3331
18478,51356001111,VIOLA ELEMENTARY SCHOOL,314 LONGHORN DR,VIOLA,AR,72583,NOT AVAILABLE,(870) 458-2511
91114,50437001274,RECTOR HIGH SCHOOL,604 W 5TH ST,RECTOR,AR,72461,NOT AVAILABLE,(870) 595-3553
91655,50633000360,WILLIAM O. DARBY JR. HIGH SCH.,616 N 14TH ST,FORT SMITH,AR,72901,NOT AVAILABLE,(479) 783-4159
93606,51341001103,VAN BUREN HIGH SCHOOL,2001 POINTER TRAIL,VAN BUREN,AR,72956,NOT AVAILABLE,(479) 474-6821
94275,51041000760,NEMO VISTA HIGH SCHOOL,5690 HWY 9,CENTER RIDGE,AR,72027,NOT AVAILABLE,(501) 893-2811
99082,50900000619,JEFFERSON ELEMENTARY SCHOOL,2600 N MCKINLEY ST,LITTLE ROCK,AR,72207,NOT AVAILABLE,(501) 447-5000
71059,50824000544,JASPER ELEMENTARY SCHOOL,600 SCHOOL ST,JASPER,AR,72641,NOT AVAILABLE,(870) 446-5320
72187,51068000784,CRESTWOOD ELEMENTARY SCHOOL,1901 CRESTWOOD DR,NORTH LITTLE ROCK,AR,72116,NOT AVAILABLE,(501) 771-8190
74907,50690001429,GREENBRIER WESTSIDE ELEMENTARY,65 GARRETT RD,GREENBRIER,AR,72058,NOT AVAILABLE,(501) 679-1029
79725,51197001586,ROGERS NEW TECHNOLOGY HIGH SCHOOL,2922 S FIRST ST,ROGERS,AR,72758,NOT AVAILABLE,(479) 631-3621
61795,51161000884,POCAHONTAS HIGH SCHOOL,2312 STADIUM DR,POCAHONTAS,AR,72455,NOT AVAILABLE,(870) 892-4573
68206,50288000057,BEEBE HIGH SCHOOL,1201 W CENTER ST,BEEBE,AR,72012,NOT AVAILABLE,(501) 882-3311
82635,51254001542,SOUTHSIDE JUNIOR HIGH SCHOOL,70 SCOTT DR,BATESVILLE,AR,72501,NOT AVAILABLE,(870) 251-2662
84298,51008000739,MT. VERNON/ENOLA HIGH SCHOOL,38 GARLAND SPRINGS RD,MT VERNON,AR,72111,NOT AVAILABLE,(501) 849-2221
89970,50699000463,EAST HILLS MIDDLE SCHOOL,700 MT HARMONY RD,GREENWOOD,AR,72936,NOT AVAILABLE,(479) 996-0504
103409,50042401681,FRIENDSHIP ASPIRE ELEMENTARY ACADEMY LITTLE ROCK,3615 WEST 25TH STREET,LITTLE ROCK,AR,72204,NOT AVAILABLE,(501) 500-0558
103441,50939001668,MARION VISUAL & PERFORMING ARTS MAGNET SCHOOL,1402 CRESTMERE,WEST MEMPHIS,AR,72301,NOT AVAILABLE,(870) 735-4588
26821,50948000692,MARSHALL ELEMENTARY SCHOOL,201 W COLLEGE ST,MARSHALL,AR,72650,NOT AVAILABLE,(870) 448-3333
27738,50459001183,JULIA LEE MOORE ELEM. SCHOOL,1301 COUNTRY CLUB RD,CONWAY,AR,72034,NOT AVAILABLE,(501) 450-4830
29228,50001500097,SHERIDAN INTERMEDIATE SCHOOL,1101 SKYLINE,SHERIDAN,AR,72150,NOT AVAILABLE,(870) 942-7488
1326,50784000498,HOPE HIGH SCHOOL,1701 S MAIN ST,HOPE,AR,71801,NOT AVAILABLE,(870) 777-3451
6315,51068001641,NORTH LITTLE ROCK CENTER OF EXCELLENCE,2201 WEST 22ND ST,NORTH LITTLE ROCK,AR,72114,NOT AVAILABLE,(501) 975-3895
11742,51185000923,JOE T. ROBINSON HIGH SCHOOL,21501 HWY 10,LITTLE ROCK,AR,72223,NOT AVAILABLE,(501) 868-2400
16236,50008201186,WALNUT RIDGE ELEMENTARY SCHOOL,508 E FREE ST,WALNUT RIDGE,AR,72476,NOT AVAILABLE,(870) 886-3482
17964,50717000436,HACKETT ELEMENTARY SCHOOL,102 N OAK ST,HACKETT,AR,72937,NOT AVAILABLE,(479) 638-8606
19968,50005600657,ASU BEEBE REGIONAL CAREER CENTER - SEARCY,1800 EAST MOORE AVENUE,SEARCY,AR,72143,NOT AVAILABLE,(501) 724-3614
103424,50258001708,ASHDOWN ELEMENTARY SCHOOL,1323 FOSTER ST,ASHDOWN,AR,71822,NOT AVAILABLE,(870) 898-3711
103444,51068001678,NORTH LITTLE ROCK MIDDLE SCHOOL 6TH GRADE CAMPUS,2300 LAKEVIEW RD,NORTH LITTLE ROCK,AR,72116,NOT AVAILABLE,(501) 771-8268
52569,50008001098,ARKANSAS NORTHEASTERN COLLEGE TECHNICAL CENTER,HWY 148 AND NTERSTATE 55,BURDETTE,AR,72321,NOT AVAILABLE,(870) 763-1486
53047,50039001577,MANSFIELD JTC SCHOOL,36 JOHNNY CAKE POINT RD,MANSFIELD,AR,72944,NOT AVAILABLE,(479) 928-0166
57027,50007801639,HAAS HALL ACADEMY AT THE LANE,121 WEST POPLAR ST,ROGERS,AR,72756,NOT AVAILABLE,(479) 966-4930
57282,50007501031,EAST ARKANSAS CAREER CENTER,1700 NEW CASTLE RD,FORRECT CITY,AR,72335,NOT AVAILABLE,(870) 633-4480
59485,50894001363,LINCOLN MIDDLE SCHOOL,107 E SCHOOL ST,LINCOLN,AR,72744,NOT AVAILABLE,(479) 824-3010
84560,50864000577,LAKESIDE MIDDLE SCHOOL,360 HWY 82 W,LAKE VILLAGE,AR,71653,1426,(870) 265-2970
86672,51041000759,NEMO VISTA ELEMENTARY SCHOOL,5690 HWY 9,CENTER RIDGE,AR,72027,NOT AVAILABLE,(501) 893-2435
89128,50900001189,FULBRIGHT ELEMENTARY SCHOOL,300 PLEASANT VALLEY DR,LITTLE ROCK,AR,72212,NOT AVAILABLE,(501) 447-4700
89533,50001900046,WEST MAGNET SCHOOL,850 HILL ST,BATESVILLE,AR,72501,NOT AVAILABLE,(870) 793-9878
90338,50687000546,GREEN FOREST INTERMED SCHOOL,401 TULIP COURT,GREEN FOREST,AR,72638,NOT AVAILABLE,(870) 438-5129
91471,50627000350,STEWART ELEMENTARY SCHOOL,625 IRVING ST,FORREST CITY,AR,72335,NOT AVAILABLE,(870) 633-1365
91593,51296001057,MEEKINS MIDDLE SCHOOL,2501 S MAIN,STUTTGART,AR,72160,NOT AVAILABLE,(870) 673-3565
93715,51221000984,MCRAE ELEMENTARY SCHOOL,609 W MCRAE,SEARCY,AR,72143,NOT AVAILABLE,(501) 268-3936
96664,51449001177,YELLVILLE-SUMMIT ELEM. SCHOOL,1124 N PANTHER AVE,YELLVILLE,AR,72687,NOT AVAILABLE,(870) 449-4244
97307,50804000527,WEAVER ELEMENTARY SCHOOL,1280 E BARTON,WEST MEMPHIS,AR,72301,NOT AVAILABLE,(870) 735-7670
97984,50042401683,FRIENDSHIP ASPIRE MIDDLE ACADEMY LITTLE ROCK,3615 WEST 25TH STREET,LITTLE ROCK,AR,72202,NOT AVAILABLE,(501) 500-0558
99642,50039801467,ESTEM MIDDLE SCHOOL,112 W 3RD ST,LITTLE ROCK,AR,72201,NOT AVAILABLE,(501) 748-9200
40130,50534000248,JOANN WALTERS ELEMENTARY SCH,800 OLD HWY 70 W,DIERKS,AR,71833,NOT AVAILABLE,(870) 286-2015
40545,51266001259,PARSON HILLS ELEM. SCHOOL,2326 CARDINAL DR,SPRINGDALE,AR,72764,NOT AVAILABLE,(479) 750-8877
44436,51182000899,PRESCOTT HIGH SCHOOL,736 MARTIN ST,PRESCOTT,AR,71857,NOT AVAILABLE,(870) 887-3123
47234,50001701576,PARAGOULD PRIMARY SCHOOL,1510 COUNTRY CLUB RD,PARAGOULD,AR,72450,NOT AVAILABLE,(870) 236-5811
31556,51206000973,SEQUOYAH ELEMENTARY SCHOOL,1601 W 12TH ST,RUSSELLVILLE,AR,72801,NOT AVAILABLE,(479) 968-2134
32234,50005800615,UA-PTC TECHNICAL CENTER,16936 INTERSTATE 30 NORTH,BENTON,AR,72019,NOT AVAILABLE,(501) 812-2200
32742,51038000758,NASHVILLE JUNIOR HIGH SCHOOL,1000 N EIGHTH ST,NASHVILLE,AR,71852,NOT AVAILABLE,(870) 845-3418
37080,50633000375,SUNNYMEDE ELEMENTARY SCHOOL,4201 NORTH O ST,FORT SMITH,AR,72904,NOT AVAILABLE,(479) 783-6327
37286,50004900235,DEQUEEN HIGH SCHOOL,1803 W COULTER DR,DEQUEEN,AR,71832,NOT AVAILABLE,(870) 642-2426
37357,50975000712,LOUISE DURHAM ELEM. SCHOOL,106 N REINE ST,MENA,AR,71953,NOT AVAILABLE,(479) 394-2943
37862,50001500997,SHERIDAN HIGH SCHOOL,800 W VINE,SHERIDAN,AR,72150,NOT AVAILABLE,(870) 942-3137
39251,50900000621,MANN MAGNET MIDDLE SCHOOL,1000 E ROOSEVELT RD,LITTLE ROCK,AR,72206,NOT AVAILABLE,(501) 447-3100
60238,50804001594,THE ACADEMIES OF WEST MEMPHIS CHARTER SCHOOL,501 BROADWAY,WEST MEMPHIS,AR,72301,NOT AVAILABLE,(870) 735-3660
61321,50900000617,HENDERSON MIDDLE SCHOOL,401 BARROW RD,LITTLE ROCK,AR,72205,NOT AVAILABLE,(501) 447-2800
62118,50517000238,DERMOTT ELEMENTARY SCHOOL,525 E SPEEDWAY ST,DERMOTT,AR,71638,NOT AVAILABLE,(870) 538-1010
64021,50633000377,TRUSTY ELEMENTARY SCHOOL,3300 HARRIS AVE,FORT SMITH,AR,72904,NOT AVAILABLE,(479) 783-7720
65629,50002600867,PINE BLUFF HIGH SCHOOL,711 W 11TH ST,PINE BLUFF,AR,71601,NOT AVAILABLE,(870) 543-4300
66490,50633000367,NORTHSIDE HIGH SCHOOL,2301 NORTH B ST,FORT SMITH,AR,72901,NOT AVAILABLE,(479) 783-1171
66923,50804000532,WONDER JUNIOR HIGH SCHOOL,1401 MADISON ST,WEST MEMPHIS,AR,72301,NOT AVAILABLE,(870) 735-8522
69586,50039001561,ARK CONSOLIDATED HIGH SCHOOL,700 S MAIN ST,LITTLE ROCK,AR,72203,NOT AVAILABLE,(501) 682-1711
69922,50939000683,MARION JUNIOR HIGH SCHOOL,801 CARTER DR,MARION,AR,72364,NOT AVAILABLE,(870) 739-5140
74643,50040201504,JACKSONVILLE LIGHTHOUSE ELEMENTARY,251 N FIRST ST,JACKSONVILLE,AR,72076,NOT AVAILABLE,(501) 985-1200
75234,50864001215,EUDORA ELEMENTARY SCHOOL,111 N ARCHER ST,EUDORA,AR,71640,NOT AVAILABLE,(870) 355-6010
76451,50258000028,ASHDOWN HIGH SCHOOL,171 LOCUST ST,ASHDOWN,AR,71822,NOT AVAILABLE,(870) 898-3562
77978,50007801078,HAAS HALL ACADEMY,3155 N COLLEGE AVE STE 108,FAYETTEVILLE,AR,72703,NOT AVAILABLE,(479) 267-4805
10176,50006800292,EMERSON HIGH SCHOOL,400 CHURCH ST,EMERSON,AR,71740,NOT AVAILABLE,(870) 547-2862
10177,50270000128,BALD KNOB MIDDLE SCHOOL,103 W PARK ST,BALD KNOB,AR,72010,NOT AVAILABLE,(501) 724-5652
16386,50927000665,MAMMOTH SPRING ELEM. SCHOOL,410 GOLDSMITH AVE,MAMMOTH SPRING,AR,72554,NOT AVAILABLE,(870) 625-7213
51065,50039001583,LEWISVILLE JTC SCHOOL,750 LAFAYETTE RD 16,LEWISVILLE,AR,71845,NOT AVAILABLE,(870) 921-5302
51863,50296000065,BENTON JUNIOR HIGH SCHOOL,411 BORDER ST,BENTON,AR,72015,NOT AVAILABLE,(501) 778-7698
52665,51185001391,BATES ELEMENTARY SCHOOL,14300 DINEEN DR,LITTLE ROCK,AR,72206,NOT AVAILABLE,(501) 897-2171
55361,51245001004,SILOAM SPRINGS MIDDLE SCHOOL,1500 N MT OLIVE,SILOAM SPRINGS,AR,72761,NOT AVAILABLE,(479) 524-6184
55409,50663000398,GLEN ROSE HIGH SCHOOL,14334 HWY 67,MALVERN,AR,72104,NOT AVAILABLE,(501) 332-3694
55540,50690001359,GREENBRIER MIDDLE SCHOOL,13 SCHOOL DR,GREENBRIER,AR,72058,NOT AVAILABLE,(501) 679-2113
55653,50714000433,GUY-PERKINS ELEMENTARY SCHOOL,492 HWY 25 N,GUY,AR,72061,NOT AVAILABLE,(501) 679-3509
57465,51341001650,RIVER VALLEY VIRTUAL ACADEMY,821 POINTER TRAIL,VAN BUREN,AR,72956,NOT AVAILABLE,(479) 471-3165
59714,51113000837,PARIS HIGH SCHOOL,2000 E WOOD ST,PARIS,AR,72855,NOT AVAILABLE,(479) 963-2247
41264,50636000299,PAULETTE SMITH MIDDLE SCHOOL,400 PANTHER DR,FOUKE,AR,71837,NOT AVAILABLE,(870) 653-2304
45674,50459001550,CAROLYN LEWIS ELEMENTARY SCHOOL,1805 OLD MILITARY RD,CONWAY,AR,72034,NOT AVAILABLE,(501) 450-4835
1755,50315000079,BERRYVILLE ELEMENTARY SCHOOL,902 W FREEMAN AVE,BERRYVILLE,AR,72616,NOT AVAILABLE,(870) 423-3310
8119,50408000149,CEDARVILLE ELEMENTARY SCHOOL,9335 ARMER LN,CEDARVILLE,AR,72932,NOT AVAILABLE,(479) 474-5073
9899,50627000344,FORREST CITY HIGH SCHOOL,467 VICTORIA ST,FORREST CITY,AR,72335,NOT AVAILABLE,(870) 633-1464
21121,51101001165,OZARK KINDERGARTEN SCHOOL,700 N 12TH ST,OZARK,AR,72949,NOT AVAILABLE,(479) 667-3021
23658,50306001424,APPLE GLEN ELEMENTARY SCHOOL,1801 ORCHARD LN,BENTONVILLE,AR,72712,NOT AVAILABLE,(479) 254-5580
26137,50576000303,ELKINS MIDDLE SCHOOL,349 N CENTER,ELKINS,AR,72727,NOT AVAILABLE,(479) 643-2552
26918,51218000980,SCRANTON ELEMENTARY SCHOOL,103 N EIGHTH ST,SCRANTON,AR,72863,NOT AVAILABLE,(479) 938-7278
34693,51356001112,VIOLA HIGH SCHOOL,314 LONGHORN DR,VIOLA,AR,72583,NOT AVAILABLE,(870) 458-2213
39295,50984000570,MONTICELLO VOCATIONAL CENTER,741 SCOGIN DR,MONTICELLO,AR,71655,NOT AVAILABLE,(870) 367-4060
91850,51221001444,WESTSIDE ELEMENTARY SCHOOL,512 COUNTRY CLUB RD,SEARCY,AR,72143,NOT AVAILABLE,(501) 268-0111
92541,51266001077,GEORGE JUNIOR HIGH SCHOOL,3200 S POWELL,SPRINGDALE,AR,72764,NOT AVAILABLE,(479) 750-8750
93689,51101001090,OZARK MIDDLE SCHOOL,18 W COLLEGE,ALTUS,AR,72821,NOT AVAILABLE,(479) 468-2821
94277,50001701296,OAK GROVE MIDDLE SCHOOL,5097 HWY 135 N,PARAGOULD,AR,72450,NOT AVAILABLE,(870) 586-0483
99059,51221000988,SIDNEY DEENER ELEM. SCHOOL,163 CLOVERDALE BLVD,SEARCY,AR,72143,NOT AVAILABLE,(501) 268-3850
72480,50612000326,WASHINGTON ELEMENTARY SCHOOL,425 N NIGHLAND AVE,FAYETTEVILLE,AR,72701,NOT AVAILABLE,(479) 444-3073
73802,50002101299,IZARD CO. CONS. ELEM. SCHOOL,HWY 56 W AND CO RD 25,VIOLET HILL,AR,72584,NOT AVAILABLE,(870) 322-7229
74333,50371001271,BUFFALO IS. CENTRAL HS,803 W DREW,MONETTE,AR,72447,NOT AVAILABLE,(870) 486-5511
75231,51020000749,MOUNTAIN VIEW HIGH SCHOOL,210 HIGH SCHOOL DR,MOUNTAIN VIEW,AR,72560,NOT AVAILABLE,(870) 269-3943
79219,50615000331,FLIPPIN HIGH SCHOOL,103 ALFORD ST,FLIPPIN,AR,72634,NOT AVAILABLE,(870) 453-2233
80520,50267000036,AUGUSTA ELEMENTARY SCHOOL,1011 MAIN ST,AUGUSTA,AR,72006,NOT AVAILABLE,(870) 347-2432
81588,50900000609,FAIR PARK EARLY CHILDHOOD CTR,616 N HARRISON ST,LITTLE ROCK,AR,72205,NOT AVAILABLE,(501) 447-4400
81680,50375001182,CABOT JUNIOR HIGH SOUTH,38 PANTHER TRAIL,CABOT,AR,72023,NOT AVAILABLE,(501) 843-2788
103398,50007801718,HAAS HALL BENTONVILLE,2600 SE J STREET,BENTONVILLE,AR,72712,NOT AVAILABLE,(479) 966-4930
103435,50828001697,NORTHEAST ARKANSAS CAREER AND TECHNICAL CENTER,1727 S MAIN ST,JONESBORO,AR,72401,NOT AVAILABLE,(870) 933-5891
103437,50900001687,LITTLE ROCK SOUTHWEST HIGH SCHOOL,9715 MABELVALE PIKE,MABELVALE,AR,72103,NOT AVAILABLE,(501) 447-9100
40533,50900000636,WILLIAMS MAGNET ELEM. SCHOOL,7301 EVERGREEN ST,LITTLE ROCK,AR,72207,NOT AVAILABLE,(501) 447-7100
47947,51020001087,TIMBO HIGH SCHOOL,23747 HWY 263 N,TIMBO,AR,72680,NOT AVAILABLE,(870) 746-4303
54273,50309000078,BERGMAN HIGH SCHOOL,8949 HWY 7 N,HARRISON,AR,72601,NOT AVAILABLE,(870) 741-1414
57210,50042001638,THE EXCEL CENTER,7400 SCOTT HAMILTON RD,LITTLE ROCK,AR,72209,NOT AVAILABLE,(501) 372-5100
32920,50699000424,GREENWOOD HIGH SCHOOL,440 E GARY ST,GREENWOOD,AR,72936,NOT AVAILABLE,(479) 996-4141
35106,50799000517,HOXIE ELEMENTARY SCHOOL,305 SW ALICE ST,HOXIE,AR,72433,NOT AVAILABLE,(870) 886-4256
37904,51266001025,SPRINGDALE HIGH SCHOOL,1103 W EMMA AVE,SPRINGDALE,AR,72764,NOT AVAILABLE,(479) 750-8832
38313,50534000248,JOANN WALTERS ELEMENTARY SCH,800 OLD HWY 70 W,DIERKS,AR,71833,NOT AVAILABLE,(870) 286-2015
23681,50942000687,MARKED TREE HIGH SCHOOL,406 SAINT FRANCIS ST,MARKED TREE,AR,72365,NOT AVAILABLE,(501) 358-2891
24124,50738000450,FOREST HEIGHTS ELEM. SCHOOL,1124 SO TAMARIND ST,HARRISON,AR,72601,NOT AVAILABLE,(870) 741-5837
24988,50000601334,WARREN MIDDLE SCHOOL,210 SCOBEY DR,WARREN,AR,71671,NOT AVAILABLE,(870) 226-2484
60458,50864000578,LAKESIDE HIGH SCHOOL,336 HWY 82 W,LAKE VILLAGE,AR,71653,NOT AVAILABLE,(870) 265-2232
61119,50006801062,TAYLOR ELEMENTARY SCHOOL,506 E PINE ST,TAYLOR,AR,71861,NOT AVAILABLE,(870) 694-5811
67045,50405000148,CAVE CITY HIGH CAREER & COLLEGIATE PREPARATORY SCHOOL,620 N MAIN ST,CAVE CITY,AR,72521,NOT AVAILABLE,(870) 283-5392
93171,50687000415,GREEN FOREST ELEMENTARY SCHOOL,601 SCHOOL DR,GREEN FOREST,AR,72638,NOT AVAILABLE,(870) 438-5205
94809,50624000337,OSCAR HAMILTON ELEMENTARY SCH,311 W 10 AVE,FOREMAN,AR,71836,NOT AVAILABLE,(870) 542-7214
94969,50813000662,HUNTSVILLE INTERMEDIATE SCH,437 PARK AVE,HUNTSVILLE,AR,72740,NOT AVAILABLE,(479) 738-6228
3079,51338001587,VALLEY VIEW INTERMEDIATE SCHOOL,2119 VALLEY VIEW DR,JONESBORO,AR,72404,NOT AVAILABLE,(870) 935-1910
3408,50738001397,HARRISON MIDDLE SCHOOL,1125 GOBLIN DR,HARRISON,AR,72601,NOT AVAILABLE,(870) 741-9764
8940,50612000323,LEVERETT ELEMENTARY SCHOOL,1124 W CLEVELAND ST,FAYETTEVILLE,AR,72702,NOT AVAILABLE,(479) 444-3077
10695,50279000047,BAUXITE HIGH SCHOOL,800 SCHOOL ST,BAUXITE,AR,72011,NOT AVAILABLE,(501) 557-5303
10765,50002300772,NEWPORT HIGH SCHOOL,406 WILKERSON DR,NEWPORT,AR,72112,NOT AVAILABLE,(870) 523-1321
10932,50684000413,GLENN DUFFY ELEMENTARY SCHOOL,601 EL PASO ST SE,GRAVETTE,AR,72736,NOT AVAILABLE,(479) 787-4120
11109,50008201216,WALNUT RIDGE HIGH SCHOOL,508 E FREE ST,WALNUT RIDGE,AR,72476,NOT AVAILABLE,(870) 886-6623
17688,50900001381,DAVID O'DODD ELEMENTARY SCHOOL,6423 STAGECOACH RD,LITTLE ROCK,AR,72204,NOT AVAILABLE,(501) 447-4300
19351,51308001067,GREENE CO. TECH INTERM. SCHOOL,5205 W KINGSHIGHWAY,PARAGOULD,AR,72450,NOT AVAILABLE,(870) 215-4440
71957,50296000063,BENTON HIGH SCHOOL,211 BORDER ST,BENTON,AR,72015,NOT AVAILABLE,(501) 778-3288
75211,50459000183,CARL STUART MIDDLE SCHOOL,2745 CARL STUART RD,CONWAY,AR,72034,NOT AVAILABLE,(501) 329-2782
78603,50828000547,ANNIE CAMP JR. HIGH SCHOOL,1814 W NETTLETON AVE,JONESBORO,AR,72401,NOT AVAILABLE,(870) 933-5820
81621,50633000358,L. A. CHAFFIN JR. HIGH SCHOOL,3025 MASSARD RD,FORT SMITH,AR,72903,NOT AVAILABLE,(479) 452-2226
86525,51056000774,NORFORK HIGH SCHOOL,136 MILDRED SIMPSON DR,NORFORK,AR,72658,NOT AVAILABLE,(870) 499-7191
86671,50000601130,WARREN HIGH SCHOOL DISTRICT CONVERSION CHARTER,803 N WALNUT ST,WARREN,AR,71671,NOT AVAILABLE,(870) 226-6736
86927,51068000785,GLENVIEW ELEMENTARY SCHOOL,1901 EDMOND ST,NORTH LITTLE ROCK,AR,72117,NOT AVAILABLE,(501) 955-3630
88246,51368001121,WALDRON MIDDLE SCHOOL,2075 RICE ST,WALDRON,AR,72958,NOT AVAILABLE,(479) 637-4549
100299,51044000761,FOX MEADOW ELEMENTARY,2305 FOX MEADOW LN,JONESBORO,AR,72401,NOT AVAILABLE,(870) 910-7817
103404,50042101656,IVY PRIMARY ACADEMY,2410 S BATTERY ST,LITTLE ROCK,AR,72206,NOT AVAILABLE,(501) 404-0012
103431,50669001720,CENTERPOINT ACADEMY OF AGRICULTURE & SKILLS TRADES,755 HWY 8 E,AMITY,AR,71921,NOT AVAILABLE,(870) 356-3612
103448,51182001660,PRESCOTT JUNIOR HIGH SCHOOL,762 MARTIN ST BLDG 5,PRESCOTT,AR,71857,NOT AVAILABLE,(870) 887-2521
81940,50633000354,BELLE POINT ALTERNATIVE CENTER,1501 DODSON AVE,FORT SMITH,AR,72901,NOT AVAILABLE,(479) 783-7034
83552,50963000705,MCGEHEE HIGH SCHOOL,1902 E ASH ST,MCGEHEE,AR,71654,NOT AVAILABLE,(870) 222-3600
84536,51266001029,WESTWOOD ELEMENTARY SCHOOL,1850 MCRAY AVE,SPRINGDALE,AR,72762,NOT AVAILABLE,(479) 750-8871
86922,50999000733,MOUNT IDA HIGH SCHOOL,338 WHITTINGTON ST,MOUNT IDA,AR,71957,NOT AVAILABLE,(870) 867-4517
88192,51122000841,PARKERS CHAPEL HIGH SCHOOL,401 PARKERS CHAPEL RD,EL DORADO,AR,71730,NOT AVAILABLE,(870) 862-2360
89124,51443001175,WYNNE PRIMARY SCHOOL,1500 N LEMONS,WYNNE,AR,72396,NOT AVAILABLE,(870) 238-5050
100604,50225000003,ALMA INTERMEDIATE SCHOOL,1220 W COLLUM LN,ALMA,AR,72921,NOT AVAILABLE,(479) 632-2166
103426,50306001691,GRIMSLEY JUNIOR HIGH SCHOOL,850 N VAUGHN RD,CENTERTON,AR,72719,NOT AVAILABLE,(479) 360-7500
27499,50824000563,KINGSTON ELEMENTARY SCHOOL,300 SCHOOL ST,KINGSTON,AR,72742,NOT AVAILABLE,(479) 665-2835
28389,50306001080,CENTRAL PARK AT MORNING STAR,1400 SW LIBERTY AVE,BENTONVILLE,AR,72712,NOT AVAILABLE,(479) 696-3200
71177,50900000628,PULASKI HEIGHTS MIDDLE SCHOOL,401 N PINE ST,LITTLE ROCK,AR,72205,NOT AVAILABLE,(501) 447-3200
74180,51176001426,PRAIRIE GROVE MIDDLE SCHOOL,824 N MOCK,PRAIRIE GROVE,AR,72753,NOT AVAILABLE,(479) 846-4221
75588,50777000490,CHEROKEE ELEMENTARY SCHOOL,HWY 175 SPUR,HARDY,AR,72542,NOT AVAILABLE,(870) 257-3118
78544,50873000587,LAVACA HIGH SCHOOL,311 HOLLY ST,LAVACA,AR,72941,NOT AVAILABLE,(479) 674-5612
60572,50306000789,LINCOLN JUNIOR HIGH SCHOOL,1206 LEOPARD LN,BENTONVILLE,AR,72712,NOT AVAILABLE,(479) 254-5250
60692,50001500996,SHERIDAN ELEMENTARY SCHOOL,707 RIDGE DR,SHERIDAN,AR,72150,NOT AVAILABLE,(870) 942-3131
65085,50663000397,GLEN ROSE ELEMENTARY SCHOOL,14334 HWY 67,MALVERN,AR,72104,NOT AVAILABLE,(501) 332-3694
65343,50306000160,SPRING HILL MIDDLE SCHOOL,3400 HWY 72 W,BENTONVILLE,AR,72712,NOT AVAILABLE,(479) 254-5510
69060,50489000212,DANVILLE HIGH SCHOOL,101 JA MOUDY DR,DANVILLE,AR,72833,NOT AVAILABLE,(479) 495-4810
12987,50804000529,WEST JUNIOR HIGH SCHOOL,331 W BARTON ST,WEST MEMPHIS,AR,72301,NOT AVAILABLE,(870) 735-3161
15137,50006600781,PHILLIPS COMMUNITY CAREER & TECH,2807 HWY 165,STUTTGART,AR,72160,NOT AVAILABLE,(870) 673-4201
15321,50007101010,HILLCREST HIGH SCHOOL,146 S MAIN ST,STRAWBERRY,AR,72469,NOT AVAILABLE,(870) 528-3856
30531,51188000947,QUITMAN HIGH SCHOOL,6275 HEBER SPRINGS W,QUITMAN,AR,72131,NOT AVAILABLE,(501) 589-2554
37100,50900000605,BRADY ELEMENTARY SCHOOL,7915 W MARKHAM ST,LITTLE ROCK,AR,72205,NOT AVAILABLE,(501) 447-3900
40853,50375000170,WARD CENTRAL ELEMENTARY,1570 WILSON LOOP,WARD,AR,72176,NOT AVAILABLE,(501) 843-9601
50235,51173000892,POYEN ELEMENTARY SCHOOL,111 N SCHOOL ST,POYEN,AR,72128,NOT AVAILABLE,(501) 332-2939
51027,50306000165,ELM TREE ELEMENTARY SCHOOL,101 ELM TREE LN,BENTONVILLE,AR,72712,NOT AVAILABLE,(479) 254-5650
51457,51188000946,QUITMAN ELEMENTARY SCHOOL,6275 HEBER SPRINGS W,QUITMAN,AR,72131,NOT AVAILABLE,(501) 589-2807
51945,50040801579,PREMIER HIGH SCHOOL OF LITTLE ROCK,1621 DR MARTIN LUTHER KING DR,LITTLE ROCK,AR,72206,NOT AVAILABLE,(501) 400-4873
2109,50771000484,HERMITAGE ELEMENTARY SCHOOL,206 W SCHOOL DR,HERMITAGE,AR,71647,NOT AVAILABLE,(870) 463-8500
4471,50041701632,ARKANSAS CONNECTIONS ACADEMY HIGH,609 SW 8TH ST,BENTONVILLE,AR,72712,NOT AVAILABLE,(501) 386-3419
5093,50777000491,HIGHLAND HIGH SCHOOL,1 REBEL CIR,HARDY,AR,72542,NOT AVAILABLE,(870) 856-3273
8150,51221000985,SEARCY HIGH SCHOOL,301 N ELLA,SEARCY,AR,72143,NOT AVAILABLE,(501) 268-8315
9402,50738000454,SKYLINE HEIGHTS ELEM. SCHOOL,1120 W HOLT AVE,HARRISON,AR,72601,NOT AVAILABLE,(870) 741-5821
92903,50489000211,S.C. TUCKER ELEMENTARY SCHOOL,304 E 9TH ST,DANVILLE,AR,72833,NOT AVAILABLE,(479) 495-4820
93559,51266000233,J. O. KELLY MIDDLE SCHOOL,1879 E ROBINSON,SPRINGDALE,AR,72764,NOT AVAILABLE,(479) 750-8730
98081,51206000967,DWIGHT ELEMENTARY SCHOOL,1300 W SECOND PLACE,RUSSELLVILLE,AR,72801,NOT AVAILABLE,(479) 968-3967
98089,50900001388,MABELVALE MIDDLE SCHOOL,10811 MABELVALE W RD,MABELVALE,AR,72103,NOT AVAILABLE,(501) 447-3000
6708,50789000512,PARK MAGNET SCHOOL,617 MAIN ST,HOT SPRINGS,AR,71901,NOT AVAILABLE,(501) 623-5661
40468,50729001015,SPARKMAN ELEMENTARY SCHOOL,325 W MAIN ST,SPARKMAN,AR,71763,NOT AVAILABLE,(870) 678-9312
40933,50005900741,MAUMELLE CHARTER HIGH SCHOOL,900 EDGEWOOD DR,MAUMELLE,AR,72113,NOT AVAILABLE,(501) 851-3333
41359,50919000651,MAGNET COVE ELEMENTARY SCHOOL,22083 HWY 51,MALVERN,AR,72104,NOT AVAILABLE,(501) 337-9131
45373,50258000031,ASHDOWN JUNIOR HIGH SCHOOL,600 S ELLEN DR,ASHDOWN,AR,71822,NOT AVAILABLE,(870) 898-5138
47126,50690000418,GREENBRIER HIGH SCHOOL,72 GREEN VALLEY DR,GREENBRIER,AR,72058,NOT AVAILABLE,(501) 679-4236
72230,51197000953,ELMWOOD MIDDLE SCHOOL,1600 S 13TH ST,ROGERS,AR,72756,NOT AVAILABLE,(479) 631-3600
74622,50690000270,GREENBRIER JUNIOR HIGH SCHOOL,10 SCHOOL DR,GREENBRIER,AR,72058,NOT AVAILABLE,(501) 679-3433
75347,50004201540,NOBLE/ALLBRITTON ELEMENTARY SCHOOL,206 S BARTLETT,HAMBURG,AR,71646,NOT AVAILABLE,(870) 853-2836
75630,50789000511,OAKLAWN MAGNET SCHOOL,301 OAKLAWN BLVD,HOT SPRINGS,AR,71913,NOT AVAILABLE,(501) 623-2661
77530,50543000256,DOVER ELEMENTARY SCHOOL,75 PINE HILL RD,DOVER,AR,72837,NOT AVAILABLE,(479) 331-2702
77746,50789000514,HOT SPRINGS JUNIOR ACADEMY,701 MAIN ST,HOT SPRINGS,AR,71913,NOT AVAILABLE,(501) 624-5228
79714,50597000305,EUREKA SPRINGS ELEM. SCHOOL,156 GREENWOOD HOLLOW RD,EUREKA SPRINGS,AR,72632,NOT AVAILABLE,(479) 253-8704
51068,50000601570,THOMAS C BRUNSON ELEMENTARY SCHOOL,212 SCOBEY DR,WARREN,AR,71671,NOT AVAILABLE,(870) 226-2351
51995,50006200659,KIPP DELTA COLLEGE PREPARATORY SCHOOL,215 CHERRY ST,HELENA,AR,72342,NOT AVAILABLE,(870) 753-9444
53575,50041601611,HAAS HALL ACADEMY BENTONVILLE,2600 SW J ST,BENTONVILLE,AR,72712,NOT AVAILABLE,(479) 966-4930
54821,51056000773,ARRIE GOFORTH ELEMENTARY SCHOOL,161 MILDRED SIMPSON DR,NORFORK,AR,72658,NOT AVAILABLE,(870) 499-7192
58207,51044000889,FOX MEADOW INTERMEDIATE CENTER,2309 FOX MEADOW LN,JONESBORO,AR,72404,NOT AVAILABLE,(870) 910-7812
83138,50005700579,NATIONAL PARK TECHNOLOGY CENTER,101 COLLEGE DR,HOT SPRINGS,AR,71913,NOT AVAILABLE,(501) 767-9314
83879,50732000661,HARMONY GROVE MIDDLE SCHOOL,2621 HWY 229,BENTON,AR,72015,NOT AVAILABLE,(501) 860-6796
89450,50306001462,COOPER ELEMENTARY SCHOOL,2 BLOWING SPRING RD,BELLA VISTA,AR,72714,NOT AVAILABLE,(479) 254-5000
89700,50663000982,GLEN ROSE MIDDLE SCHOOL,14334 HWY 67,MALVERN,AR,72104,NOT AVAILABLE,(501) 332-3694
89856,50498000220,DECATUR NORTHSIDE ELEMENTARY,9083 MT OLIVE RD,DECATUR,AR,72722,NOT AVAILABLE,(479) 752-3981
10851,50867000394,LAKESIDE MIDDLE SCHOOL,1110 S LAKESHORE DR,HOT SPRINGS,AR,71901,NOT AVAILABLE,(501) 262-6244
12998,50007000768,CEDAR RIDGE HIGH SCHOOL,1500 N HILL ST,NEWARK,AR,72562,NOT AVAILABLE,(870) 799-8691
14162,51251001008,SMACKOVER ELEMENTARY SCHOOL,701 MAGNOLIA ST,SMACKOVER,AR,71762,NOT AVAILABLE,(870) 725-3601
96846,50002601530,FORREST PARK PREP PRESCHOOL,1903 W 34TH ST,PINE BLUFF,AR,71603,NOT AVAILABLE,(870) 543-4374
60361,51170000891,POTTSVILLE HIGH SCHOOL,500 APACHE DR,POTTSVILLE,AR,72858,NOT AVAILABLE,(479) 968-6334
60643,51185001257,PINE FOREST ELEMENTARY SCHOOL,400 PINE FOREST DR,MAUMELLE,AR,72113,NOT AVAILABLE,(501) 851-5380
61123,51044000889,FOX MEADOW INTERMEDIATE CENTER,2309 FOX MEADOW LN,JONESBORO,AR,72404,NOT AVAILABLE,(870) 910-7812
68148,50784000500,YERGER JUNIOR HIGH SCHOOL,400 E 9TH ST,HOPE,AR,71801,NOT AVAILABLE,(870) 722-2770
26689,50306000073,BENTONVILLE HIGH SCHOOL,1901 SE J ST,BENTONVILLE,AR,72712,NOT AVAILABLE,(479) 254-5100
32724,50870000584,LAMAR ELEMENTARY SCHOOL,301 ELBERTA ST,LAMAR,AR,72846,NOT AVAILABLE,(479) 885-3363
36029,50375000399,CABOT JUNIOR HIGH NORTH,38 SPIRIT DR,CABOT,AR,72023,NOT AVAILABLE,(501) 605-8470
38174,50004400655,MAGNOLIA JR. HIGH SCHOOL,540 E NORTH ST,MAGNOLIA,AR,71753,NOT AVAILABLE,(870) 234-2206
39000,50375000170,WARD CENTRAL ELEMENTARY,1570 WILSON LOOP,WARD,AR,72176,NOT AVAILABLE,(501) 843-9601
39109,51308000015,GREENE CTY TECH ELEM. SCHOOL,5203 W KINGSHIGHWAY,PARAGOULD,AR,72450,NOT AVAILABLE,(870) 215-4430
39624,50375001351,SOUTHSIDE ELEMENTARY SCHOOL,2600 S PINE ST,CABOT,AR,72023,NOT AVAILABLE,(501) 843-6176
103415,50043101703,UACCB TECHNICAL CENTER,2005 WHITE DRIVE,BATESVILLE,AR,72501,NOT AVAILABLE,(870) 612-2000
55393,50834000558,JUNCTION CITY HIGH SCHOOL,520 N ELM RD,JUNCTION CITY,AR,71749,NOT AVAILABLE,(870) 924-4576
55926,51341001631,VAN BUREN FRESHMAN ACADEMY,821 POINTER TRAIL,VAN BUREN,AR,72956,NOT AVAILABLE,(479) 471-3160
55927,50041900919,JACKSONVILLE HIGH SCHOOL,2400 LINDA LN,JACKSONVILLE,AR,72076,NOT AVAILABLE,(501) 982-2128
40681,50612001213,OWL CREEK SCHOOL,375 N RUPPLE RD,FAYETTEVILLE,AR,72704,NOT AVAILABLE,(479) 718-0200
42446,50417000155,WHITE CO. CENTRAL ELEM. SCHOOL,3259 HWY 157,JUDSONIA,AR,72081,NOT AVAILABLE,(501) 729-4292
42992,50861000575,LAKE HAMILTON HIGH SCHOOL,280 WOLF ST,PEARCY,AR,71964,NOT AVAILABLE,(501) 767-9311
46178,50007401501,LISA ACADEMY NORTH HIGH CHARTER SCHOOL,5410 LANDERS RD,SHERWOOD,AR,72117,NOT AVAILABLE,(501) 945-2727
47719,51323001082,TUCKERMAN ELEMENTARY SCHOOL,300 N DOWELL ST,TUCKERMAN,AR,72473,NOT AVAILABLE,(870) 349-2312
49403,50612000325,ROOT ELEMENTARY SCHOOL,1529 MISSION BLVD,FAYETTEVILLE,AR,72701,NOT AVAILABLE,(479) 444-3075
80612,50828000554,MICROSOCIETY MAGNET SCHOOL,1110 W WASHINGTON AVE,JONESBORO,AR,72401,NOT AVAILABLE,(870) 933-5855
80824,50975000714,MENA MIDDLE SCHOOL,320R MENA ST,MENA,AR,71953,NOT AVAILABLE,(479) 394-2572
81908,50040201560,COLLEGE PREP ACADEMY,251 N FIRST ST,JACKSONVILLE,AR,72076,NOT AVAILABLE,(501) 985-1200
82236,50040501591,COSSATOT RIVER HIGH SCHOOL,6330 HWY 71 S,COVE,AR,71937,NOT AVAILABLE,(870) 387-4200
87382,50840001442,JUDSONIA ELEMENTARY SCHOOL,1004 BOARDMAN,JUDSONIA,AR,72081,NOT AVAILABLE,(501) 729-5196
88510,50004801348,EAST POINSETT CO. HIGH SCHOOL,502 MCCLELLAN ST,LEPANTO,AR,72354,NOT AVAILABLE,(870) 475-2331
70158,50402000269,WESTSIDE MIDDLE SCHOOL,1800 HWY 91 W,JONESBORO,AR,72404,NOT AVAILABLE,(870) 972-5622
71738,50738000452,HARRISON HIGH SCHOOL,925 GOBLIN DR,HARRISON,AR,72601,NOT AVAILABLE,(870) 741-8223
75904,50243000018,ARKADELPHIA HIGH SCHOOL,401 HIGH SCHOOL RD,ARKADELPHIA,AR,71923,NOT AVAILABLE,(870) 246-7373
76514,50555000266,EARLE HIGH SCHOOL,1401 THIRD ST,EARLE,AR,72331,NOT AVAILABLE,(870) 792-8716
79134,50006700951,RISON HIGH SCHOOL,700 MAIN,RISON,AR,71665,NOT AVAILABLE,(870) 325-6241
91844,50717000435,HACKETT HIGH SCHOOL,102 N OAK ST,HACKETT,AR,72937,NOT AVAILABLE,(479) 638-7003
99089,50568000279,NORTHWEST ELEMENTARY SCHOOL,1600 N COLLEGE AVE,EL DORADO,AR,71730,NOT AVAILABLE,(870) 864-5078
36761,50568000280,RETTA BROWN ELEMENTARY SCHOOL,505 DIXIE DR,EL DORADO,AR,71730,NOT AVAILABLE,(870) 864-5081
102150,51296001052,PARK AVENUE ELEMENTARY SCHOOL,1202 S PARK AVE,STUTTGART,AR,72160,NOT AVAILABLE,(870) 673-3563
103394,50003601653,SCHOOL FOR THE DEAF SCHOOLS,2500 W MARKHAM ST,LITTLE ROCK,AR,72205,NOT AVAILABLE,(501) 324-9533
103400,50039801658,ESTEM EAST VILLAGE JUNIOR HIGH PUBLIC CHARTER SCHOOL,400 SHALL AVE,LITTLE ROCK,AR,72202,NOT AVAILABLE,(501) 214-6710
20024,50915000650,J.D. LEFTWICH HIGH SCHOOL,292 E PRIDDY ST,MAGAZINE,AR,72943,NOT AVAILABLE,(479) 969-2640
22059,50004101312,WESTERN YELL CO. ELEM. SCHOOL,300 N GRAND AVE,BELLEVILLE,AR,72824,NOT AVAILABLE,(479) 493-4100
23918,50633000371,RAMSEY JUNIOR HIGH SCHOOL,3201 JENNY LIND RD,FORT SMITH,AR,72901,NOT AVAILABLE,(479) 783-5115
25335,50762000471,HECTOR ELEMENTARY SCHOOL,104 SYCAMORE ST,HECTOR,AR,72843,NOT AVAILABLE,(479) 284-3586
27685,50315000411,BERRYVILLE MIDDLE SCHOOL,214 FERGUSON ST,BERRYVILLE,AR,72616,NOT AVAILABLE,(870) 423-4512
29251,50606000311,FAIRVIEW ELEMENTARY SCHOOL,1 ROBIN ST,CAMDEN,AR,71701,NOT AVAILABLE,(870) 231-5434
10383,51266001452,MONITOR ELEMENTARY,3862 E MONITOR RD WC 91,SPRNGDALE,AR,72764,NOT AVAILABLE,(479) 750-8749
18193,50288000054,BEEBE ELEMENTARY SCHOOL,1201 W CENTER ST,BEEBE,AR,72012,NOT AVAILABLE,(501) 882-3392
19792,50270000038,BALD KNOB HIGH SCHOOL,901 N HICKORY ST,BALD KNOB,AR,72010,NOT AVAILABLE,(501) 724-3843
2097,51092000821,OMAHA HIGH SCHOOL,522 W COLLEGE,OMAHA,AR,72662,NOT AVAILABLE,(870) 426-3373
6311,50007601646,WESTERN GROVE K-12 SCHOOL,300 SCHOOL ST,WESTERN GROVE,AR,72685,NOT AVAILABLE,(870) 439-2218
6893,51197000955,LOWELL ELEMENTARY SCHOOL,202 MCCLURE RD,LOWELL,AR,72745,NOT AVAILABLE,(479) 631-3610
7894,50612000321,HAPPY HOLLOW ELEMENTARY SCHOOL,300 S RAY AVE,FAYETTEVILLE,AR,72701,NOT AVAILABLE,(479) 444-3085
8087,50363000112,BRINKLEY HIGH SCHOOL,100 TIGER DR,BRINKLEY,AR,72021,NOT AVAILABLE,(870) 734-5005
9824,51209000974,SALEM ELEMENTARY SCHOOL,313 HWY 62 E STE 4,SALEM,AR,72576,NOT AVAILABLE,(870) 895-2456
62937,50364001534,BROOKLAND JUNIOR HIGH SCHOOL,100 W SCHOOL ST,BROOKLAND,AR,72417,NOT AVAILABLE,(870) 932-8610
100688,50315001496,BERRYVILLE INTERMEDIATE SCH,908 W FREEMAN AVE,BERRYVILLE,AR,72616,NOT AVAILABLE,(870) 423-3313
100952,51185000940,SYLVAN HILLS ELEMENTARY SCHOOL,402 DEE JAY HUDSON DR,SHERWOOD,AR,72120,NOT AVAILABLE,(501) 833-1140
76432,50906000643,LONOKE MIDDLE SCHOOL,1100 W PALM ST,LONOKE,AR,72086,NOT AVAILABLE,(501) 676-6670
14238,50040501157,WICKES ELEMENTARY SCHOOL,130 SCHOOL DR,WICKES,AR,71973,NOT AVAILABLE,(870) 385-2346
3209,50039801468,ESTEM ELEMENTARY SCHOOL,112 W 3RD ST,LITTLE ROCK,AR,72201,NOT AVAILABLE,(501) 748-9200
4015,50004201282,PORTLAND ELEMENTARY SCHOOL,314 HWY 160 E,PORTLAND,AR,71663,NOT AVAILABLE,(870) 737-4333
8794,50396000140,CARLISLE HIGH SCHOOL,145 RABORN RD,CARLISLE,AR,72024,NOT AVAILABLE,(870) 552-3196
21284,50345000105,BOONEVILLE HIGH SCHOOL,945 N PLUM ST,BOONEVILLE,AR,72927,NOT AVAILABLE,(479) 675-3277
25729,50933000670,MANSFIELD ELEMENTARY SCHOOL,100 N WALNUT AVE,MANSFIELD,AR,72944,NOT AVAILABLE,(479) 928-4866
29245,51335001224,VALLEY SPRINGS ELEM. SCHOOL,7349 SCHOOL ST,VALLEY SPRINGS,AR,72682,NOT AVAILABLE,(870) 429-8100
30359,50900001385,WAKEFIELD ELEMENTARY SCHOOL,75 WESTMINISTER DR,LITTLE ROCK,AR,72209,NOT AVAILABLE,(501) 447-6600
30714,51185000939,SHERWOOD ELEMENTARY SCHOOL,307 VERONA AVE,SHERWOOD,AR,72120,NOT AVAILABLE,(501) 833-1150
30871,50984000724,MONTICELLO ELEMENTARY SCHOOL,1037 SCOGIN DR,MONTICELLO,AR,71655,NOT AVAILABLE,(870) 367-4010
31765,51308001368,GREEN CO. TECH JR. HIGH SCHOOL,5207 W KINGSHIGHWAY,PARAGOULD,AR,72450,NOT AVAILABLE,(870) 215-4450
31797,50957000700,MAYNARD HIGH SCHOOL,74 CAMPUS DR,MAYNARD,AR,72444,NOT AVAILABLE,(870) 647-2210
34721,51404001147,WEST SIDE HIGH SCHOOL,7295 GREERS FERRY RD,GREERS FERRY,AR,72067,NOT AVAILABLE,(501) 825-7241
34791,50900000453,METROPOLITAN CAREER & TECHNICAL CENTER,7701 SCOTT HAMILTON DR,LITTLE ROCK,AR,72209,NOT AVAILABLE,(501) 447-1200
34858,50699000425,GREENWOOD JUNIOR HIGH SCHOOL,300 E GARY ST,GREENWOOD,AR,72936,NOT AVAILABLE,(479) 996-7440
35415,50228000007,ALPENA HIGH SCHOOL,300 DENVER ST BLDG A,ALPENA,AR,72611,NOT AVAILABLE,(870) 437-2228
35948,50870000585,LAMAR HIGH SCHOOL,301 ELBERTA ST,LAMAR,AR,72846,NOT AVAILABLE,(479) 885-3344
38696,50633000357,CAVANAUGH ELEMENTARY SCHOOL,1025 SCHOOL ST,FORT SMITH,AR,72908,NOT AVAILABLE,(479) 646-1131
39316,50405001457,CAVE CITY MIDDLE SCHOOL,711 N MAIN ST,CAVE CITY,AR,72521,NOT AVAILABLE,(870) 283-5392
50025,50792000516,JESSIEVILLE HIGH SCHOOL,7900 N HWY 7,JESSIEVILLE,AR,71949,NOT AVAILABLE,(501) 984-5011
51443,51197000960,WESTSIDE ELEMENTARY SCHOOL,2200 W OAK ST,ROGERS,AR,72756,NOT AVAILABLE,(479) 631-3640
51716,51032000755,MURFREESBORO HIGH SCHOOL,605 THIRD AVE,MURFREESBORO,AR,71958,NOT AVAILABLE,(870) 285-2184
54359,50007801639,HAAS HALL ACADEMY AT THE LANE,121 WEST POPLAR ST,ROGERS,AR,72756,NOT AVAILABLE,(479) 966-4930
55519,51245001584,SILOAM SPRINGS INTERMEDIATE SCHOOL,1500 N MT OLIVE ST,SILOAM SPRINGS,AR,72761,NOT AVAILABLE,(479) 524-8152
57464,50768001637,J.F. WAHL ELEMENTARY SCHOOL,125 HICKLORY HILL,WEST HELENA,AR,72390,NOT AVAILABLE,(870) 338-4425
83912,50273000040,BARTON HIGH SCHOOL,9546 HWY 85 S,BARTON,AR,72312,NOT AVAILABLE,(870) 572-6867
84176,51254000100,SOUTHSIDE MIDDLE SCHOOL,70 SCOTT DR,BATESVILLE,AR,72501,NOT AVAILABLE,(870) 251-2332
84532,51311001073,NORTH HEIGHTS JR. HIGH SCHOOL,2118 E 35TH ST,TEXARKANA,AR,71854,NOT AVAILABLE,(870) 773-1091
84921,51353001110,VILONIA HIGH SCHOOL,1164 MAIN ST,VILONIA,AR,72173,NOT AVAILABLE,(501) 796-2111
90336,50001701497,OAK GROVE ELEMENTARY SCHOOL,5027 HWY 135 N,PARAGOULD,AR,72450,NOT AVAILABLE,(870) 586-0439
91841,50768000476,CENTRAL HIGH SCHOOL,103 SCHOOL RD,WEST HELENA,AR,72390,NOT AVAILABLE,(870) 572-6744
92917,51263001018,SPRING HILL HIGH SCHOOL,633 HWY 355 W,HOPE,AR,71801,NOT AVAILABLE,(870) 722-7430
40211,50828000549,INTERNATIONAL STUDIES MAGNET,1218 COBB ST,JONESBORO,AR,72401,NOT AVAILABLE,(870) 933-5825
40510,50999000732,MOUNT IDA ELEMENTARY SCHOOL,430 BALL PARK RD,MOUNT IDA,AR,71957,NOT AVAILABLE,(870) 867-4596
42997,51068000804,SEVENTH STREET ELEM. SCHOOL,1200 E 7TH ST,NORTH LITTLE ROCK,AR,72114,NOT AVAILABLE,(501) 340-5170
44203,50687000416,GREEN FOREST HIGH SCHOOL,801 PHILLIPS AVE,GREEN FOREST,AR,72638,NOT AVAILABLE,(870) 438-5203
47529,50040601551,PINE BLUFF LIGHTHOUSE COLLEGE PREP ACADEMY HIGH SCHOOL,708 W SECOND ST,PINE BLUFF,AR,71601,NOT AVAILABLE,(870) 534-0217
70949,51266001161,TURNBOW ELEMENTARY SCHOOL,3390 HABBERTON RD,SPRINGDALE,AR,72764,NOT AVAILABLE,(479) 750-8785
73656,51095001555,OSCEOLA STEM CHARTER,112 N SCHOOL ST,OSCEOLA,AR,72370,NOT AVAILABLE,(870) 563-2150
75868,50975000715,HOLLY HARSHMAN ELEM. SCHOOL,1000 GEYER DR,MENA,AR,71953,NOT AVAILABLE,(479) 394-3151
77004,50003200052,BEARDEN ELEMENTARY SCHOOL,100 OAK AVE,BEARDEN,AR,71720,NOT AVAILABLE,(870) 687-2237
93697,50924001366,MALVERN ELEMENTARY SCHOOL,1807 W MOLINE ST,MALVERN,AR,72104,NOT AVAILABLE,(501) 467-3166
93969,50005100832,PALESTINE-WHEATLEY ELEM. SCH.,105 WESTWOOD ST,PALESTINE,AR,72372,NOT AVAILABLE,(870) 581-2246
95131,50756000467,HEBER SPRINGS HIGH SCHOOL,900 W PINE ST,HEBER SPRINGS,AR,72543,NOT AVAILABLE,(501) 362-3141
98255,50627000345,FORREST CITY JR. HIGH,1133 N DIVISION ST,FORREST CITY,AR,72335,NOT AVAILABLE,(870) 633-3230
61868,50417000156,WHITE CO. CENTRAL HIGH SCHOOL,3259 HWY 157,JUDSONIA,AR,72081,NOT AVAILABLE,(501) 729-3947
63728,51197001221,GRACE HILL ELEMENTARY SCHOOL,901 N DIXIELAND RD,ROGERS,AR,72756,NOT AVAILABLE,(479) 631-3670
40544,50609000315,FARMINGTON CAREER ACADEMIES,278 W MAIN ST,FARMINGTON,AR,72730,NOT AVAILABLE,(479) 266-1861
42347,50369001450,HURRICANE CREEK ELEMENTARY,6091 ALCOA RD,BENTON,AR,72015,NOT AVAILABLE,(501) 653-1012
44902,50711000431,CABE MIDDLE SCHOOL,7780 HWY 67 S,GURDON,AR,71743,NOT AVAILABLE,(870) 353-4311
46177,50007401473,LISA ACADEMY NORTH MIDDLE CHARTER SCHOOL,5410 LANDERS RD,SHERWOOD,AR,72117,NOT AVAILABLE,(501) 945-2727
48547,50369000178,COLLEGEVILLE ELEMENTARY SCHOOL,4818 HWY 5 N,BRYANT,AR,72022,NOT AVAILABLE,(501) 847-5670
81620,51402001267,WESTSIDE HIGH SCHOOL,400 HWY 164 N,COAL HILL,AR,72832,NOT AVAILABLE,(479) 497-1171
82754,50612000319,FAYETTEVILLE HIGH SCHOOL EAST,1001 W STONE ST,FAYETTEVILLE,AR,72701,NOT AVAILABLE,(479) 444-3050
84177,50654001231,GENTRY MIDDLE SCHOOL,1265 PIONEER LN,GENTRY,AR,72734,NOT AVAILABLE,(479) 736-2251
84369,50517000239,DERMOTT HIGH SCHOOL,525 E SPEEDWAY ST,DERMOTT,AR,71638,NOT AVAILABLE,(870) 538-1030
86477,50550001481,REED ELEMENTARY SCHOOL,709 S CHERRY ST,DUMAS,AR,71639,NOT AVAILABLE,(870) 382-5363
16594,50000600543,SEACBEC (WARREN),800 N WALNUT ST,WARREN,AR,71671,NOT AVAILABLE,(870) 226-6920
17270,50633000365,DORA KIMMONS JR. HIGH SCHOOL,2201 N 50TH ST,FORT SMITH,AR,72904,NOT AVAILABLE,(479) 785-2451
19141,50669000341,CENTERPOINT HIGH SCHOOL,755 HWY 8 E,AMITY,AR,71921,NOT AVAILABLE,(870) 356-3612
19625,50003501420,ARK. SCHOOL FOR THE BLIND H.S.,2600 W MARKHAM ST,LITTLE ROCK,AR,72203,NOT AVAILABLE,(501) 296-1810
55924,50612001636,FAYETTEVILLE VIRTUAL ACADEMY- DIST CONVERSION CHARTER SCH,300 S RAY AVE,FAYETTEVILLE,AR,72701,NOT AVAILABLE,(479) 444-3085
22006,50906000644,LONOKE PRIMARY SCHOOL,800 LINCOLN ST,LONOKE,AR,72086,NOT AVAILABLE,(501) 676-3839
23077,51266001022,JONES ELEMENTARY SCHOOL,900 S POWELL,SPRINGDALE,AR,72764,NOT AVAILABLE,(479) 750-8865
24423,50633000356,CARNALL ELEMENTARY SCHOOL,2524 S TULSA ST,FORT SMITH,AR,72901,NOT AVAILABLE,(479) 646-3612
30855,50411000151,GENOA CENTRAL ELEM. SCHOOL,12018 HWY 196,TEXARKANA,AR,71854,NOT AVAILABLE,(870) 653-2248
33120,50849000565,KIRBY ELEMENTARY SCHOOL,2614 HWY 27 N,KIRBY,AR,71950,NOT AVAILABLE,(501) 398-4213
2183,50732000445,WESTBROOK ELEMENTARY SCHOOL,2621 HWY 229,BENTON,AR,72015,NOT AVAILABLE,(501) 778-7331
2262,50255000027,ARMOREL HIGH SCHOOL,4555 HWY 137 N,ARMOREL,AR,72310,NOT AVAILABLE,(870) 763-7121
3510,50348000106,BRADFORD ELEMENTARY SCHOOL,504 W MAIN ST,BRADFORD,AR,72020,NOT AVAILABLE,(501) 344-8245
4473,50041900912,WARREN DUPREE ELEM. SCHOOL,700 GREGORY ST,JACKSONVILLE,AR,72076,NOT AVAILABLE,(501) 982-9541
5790,50006300704,MID-SOUTH COMM COLLEGE TECH CENTER,2000 W BROADWAY ST,WEST MEMPHIS,AR,72301,NOT AVAILABLE,(870) 733-6722
6847,51245001003,SILOAM SPRINGS HIGH SCHOOL CONVERSION CHARTER,700 N PROGRESS AVE,SILOAM SPRINGS,AR,72761,NOT AVAILABLE,(479) 524-5134
8221,50568000273,BARTON JR. HIGH SCHOOL,400 W FAULKNER ST,EL DORADO,AR,71730,NOT AVAILABLE,(870) 864-5051
8444,51254001011,SOUTHSIDE ELEMENTARY SCHOOL,2460 BATESVILLE BLVD,BATESVILLE,AR,72501,NOT AVAILABLE,(870) 251-2661
8795,50633000363,FAIRVIEW ELEMENTARY SCHOOL,2400 S DALLAS,FORT SMITH,AR,72901,NOT AVAILABLE,(479) 783-3214
8944,50000601129,EASTSIDE ELEMENTARY SCHOOL,408 N BRADLEY,WARREN,AR,71671,NOT AVAILABLE,(870) 226-8500
9117,51402001266,WESTSIDE ELEMENTARY SCHOOL,193 SCHOOL ST,HARTMAN,AR,72840,NOT AVAILABLE,(479) 497-1088
9784,50951000696,MARVELL PRIMARY SCHOOL,1018B HWY 49,MARVELL,AR,72366,NOT AVAILABLE,(870) 829-2946
103414,50043001701,UA HOPE TEXARKANA TECHNICAL CENTER,2500 SOUTH MAIN,HOPE,AR,71801,NOT AVAILABLE,(870) 777-5722
103449,51188001664,QUITMAN MIDDLE SCHOOL,6275 HEBER SPRINGS RD W,QUITMAN,AR,72131,NOT AVAILABLE,(501) 589-2554
65717,51197000328,LINGLE MIDDLE SCHOOL,901 N 13TH ST,ROGERS,AR,72756,NOT AVAILABLE,(479) 631-3590
69980,50480000201,CROSSETT ELEMENTARY SCHOOL,1100 CAMP RD,CROSSETT,AR,71635,NOT AVAILABLE,(870) 364-6521
12217,50606001435,CAMDEN FAIRVIEW MIDDLE SCHOOL,647 DOOLEY WOMACK DR,CAMDEN,AR,71701,NOT AVAILABLE,(870) 836-9361
13016,50459000182,CONWAY JUNIOR HIGH SCHOOL,1815 PRINCE ST,CONWAY,AR,72034,NOT AVAILABLE,(501) 450-4860
14022,50243000019,CENTRAL PRIMARY SCHOOL,233 N 11TH ST,ARKADELPHIA,AR,71923,NOT AVAILABLE,(870) 246-4138
15027,51197000101,FRANK TILLERY ELEM. SCHOOL,211 S 7TH ST,ROGERS,AR,72756,NOT AVAILABLE,(479) 631-3520
17492,50824000564,KINGSTON HIGH SCHOOL,300 SCHOOL ST,KINGSTON,AR,72742,NOT AVAILABLE,(479) 665-2835
40539,50568000281,WASHINGTON MIDDLE SCHOOL,601 MARTIN LUTHER KING JR BLVD,EL DORADO,AR,71730,NOT AVAILABLE,(870) 864-5032
21717,50942000689,MARKED TREE ELEMENTARY SCHOOL,703 NORMANDY ST,MARKED TREE,AR,72365,NOT AVAILABLE,(501) 358-2214
23425,50375001181,WESTSIDE ELEMENTARY SCHOOL,1701 S SECOND ST,CABOT,AR,72023,NOT AVAILABLE,(501) 843-5719
27533,51161000883,ALMA SPIKES ELEMENTARY SCHOOL,1707 HIGHLAND,POCAHONTAS,AR,72455,NOT AVAILABLE,(870) 892-4573
70354,50784000025,WM. JEFFERSON CLINTON PRIMARY,601 LAKESHORE DR,HOPE,AR,71801,NOT AVAILABLE,(870) 722-2723
71278,50541000252,ROBERT F MOREHEAD MIDDLE SCHOO,2602 FLUKER ST,PINE BLUFF,AR,71602,NOT AVAILABLE,(870) 534-5243
75682,50900000604,BOOKER ARTS MAGNET ELEM. SCH.,2016 BARBER ST,LITTLE ROCK,AR,72206,NOT AVAILABLE,(501) 447-3800
79098,50576000289,ELKINS ELEMENTARY SCHOOL,349 N CENTER,ELKINS,AR,72727,NOT AVAILABLE,(479) 643-3382
1738,51185000928,LAWSON ELEMENTARY SCHOOL,19901 LAWSON RD,LITTLE ROCK,AR,72210,NOT AVAILABLE,(501) 821-7000
4024,50459000571,CONWAY VOCATIONAL CENTER,2300 PRINCE ST,CONWAY,AR,72032,NOT AVAILABLE,(501) 450-4888
4465,50007401624,LISA ACADEMY CHENAL,12200 WESTHAVEN DR,LITTLE ROCK,AR,72211,NOT AVAILABLE,(501) 476-3309
30571,51038000757,NASHVILLE HIGH SCHOOL,1301 MT PLEASANT DR,NASHVILLE,AR,71852,NOT AVAILABLE,(870) 845-3261
31796,51185000927,LANDMARK ELEMENTARY SCHOOL,16712 ARCH ST PIKE,LITTLE ROCK,AR,72206,NOT AVAILABLE,(501) 888-8790
34239,50486000209,CUTTER-MORNING STAR ELEM. SCH.,2801 SPRING ST,HOT SPRINGS,AR,71901,NOT AVAILABLE,(501) 262-1883
34878,50004601478,MANILA MIDDLE SCHOOL,419 E OLYMPIA ST,MANILA,AR,72442,NOT AVAILABLE,(870) 561-4417
38694,51368001122,WALDRON HIGH SCHOOL,736 W HWY 80,WALDRON,AR,72958,NOT AVAILABLE,(479) 637-3405
38888,50004801346,TYRONZA ELEMENTARY,412 S MAIN ST,TYRONZA,AR,72386,NOT AVAILABLE,(870) 487-2259
39080,50004400656,MAGNOLIA HIGH SCHOOL,1400 HIGH SCHOOL DR,MAGNOLIA,AR,71753,NOT AVAILABLE,(870) 234-4424
51460,50007401107,LISA ACADEMY HIGH,21 CORPORATE HILL DR,LITTLE ROCK,AR,72205,NOT AVAILABLE,(501) 246-5853
55931,51266001633,SPRINGDALE SCHOOL OF INNOVATIONS,2667 HYLTON RD,SPRINGDALE,AR,72764,NOT AVAILABLE,(479) 750-8780
58160,51245001004,SILOAM SPRINGS MIDDLE SCHOOL,1500 N MT OLIVE,SILOAM SPRINGS,AR,72761,NOT AVAILABLE,(479) 524-6184
83619,50684000414,GRAVETTE HIGH SCHOOL,325 LION DR,GRAVETTE,AR,72736,NOT AVAILABLE,(479) 787-4180
85401,51242001000,SHIRLEY ELEMENTARY SCHOOL,154 SCHOOL DR,SHIRLEY,AR,72153,NOT AVAILABLE,(501) 723-8193
88209,50624000338,FOREMAN HIGH SCHOOL,700 ROCKY COMFORT RD,FOREMAN,AR,71836,NOT AVAILABLE,(870) 542-7212
88267,50735000300,HARRISBURG MIDDLE SCHOOL,401 W SOUTH ST,HARRISBURG,AR,72432,NOT AVAILABLE,(870) 578-2410
92892,50900001378,BASELINE ELEMENTARY SCHOOL,3623 BASELINE RD,LITTLE ROCK,AR,72209,NOT AVAILABLE,(501) 447-3700
95730,51266000237,HELEN TYSON MIDDLE SCHOOL,3304 S 40TH,SPRINGDALE,AR,72762,NOT AVAILABLE,(479) 750-8720
96504,50402001353,WESTSIDE ELEMENTARY SCHOOL,1834 HWY 91 W,JONESBORO,AR,72404,NOT AVAILABLE,(870) 932-8023
101776,51242001001,SHIRLEY HIGH SCHOOL,201 BLUE DEVIL DR,SHIRLEY,AR,72153,NOT AVAILABLE,(501) 723-8192
103446,51101001719,OZARK UPPER ELEMENTARY SCHOOL,1601 WALDEN DR,OZARK,AR,72949,NOT AVAILABLE,(479) 667-4745
22358,50041101599,EXALT ACADEMY OF SOUTHWEST LITTLE ROCK,6111 W 83RD ST,LITTLE ROCK,AR,72209,NOT AVAILABLE,(501) 568-3279
27923,51197000117,JOE MATHIAS ELEMENTARY SCHOOL,1609 N 24TH ST,ROGERS,AR,72756,NOT AVAILABLE,(479) 631-3530
28957,50004301522,HACKLER INTERMEDIATE SCHOOL,965 WEST RD,MOUNTAIN HOME,AR,72653,NOT AVAILABLE,(870) 425-1288
144,50609001608,FARMINGTON FRESHMAN ACADEMY,278 W MAIN ST,FARMINGTON,AR,72730,NOT AVAILABLE,(479) 266-1800
3308,50040201531,FLIGHTLINE UPPER ACADEMY,LRAFB-BLDG 1030,JACKSONVILLE,AR,72076,NOT AVAILABLE,(501) 985-1200
4468,50007201621,DEER K-12 SCHOOL,HWY 16,DEER,AR,72628,NOT AVAILABLE,(870) 428-8109
4469,50007201630,MT. JUDEA K-12 SCHOOL,HWY 123,MT. JUDEA,AR,72655,NOT AVAILABLE,(870) 434-5350
5867,50041900901,ADKINS PRE-K CENTER,500 CLOVERDALE RD,JACKSONVILLE,AR,72076,NOT AVAILABLE,(501) 982-3117
6908,50547001492,DREW CENTRAL MIDDLE SCHOOL,250 UNIVERSITY DR,MONTICELLO,AR,71655,NOT AVAILABLE,(870) 367-5235
7912,51338001094,VALLEY VIEW ELEMENTARY SCHOOL,2119 VALLEY VIEW DR,JONESBORO,AR,72404,NOT AVAILABLE,(870) 935-1910
8200,51068001566,NORTH LITTLE ROCK HIGH SCHOOL,101 W 2ND ST,NORTH LITTLE ROCK,AR,72114,NOT AVAILABLE,(501) 771-8100
8629,51404001146,WEST SIDE ELEMENTARY SCHOOL,7295 GREERS FERRY RD,GREERS FERRY,AR,72067,NOT AVAILABLE,(501) 825-7744
31054,51107000834,PANGBURN ELEMENTARY SCHOOL,1100 SHORT ST,PANGBURN,AR,72121,NOT AVAILABLE,(501) 728-4912
34650,51026000372,MOUNTAINBURG MIDDLE SCHOOL,129 HWY 71 SW,MOUNTAINBURG,AR,72946,NOT AVAILABLE,(479) 369-4506
13870,50296000068,BENTON MIDDLE SCHOOL,204 N COX ST,BENTON,AR,72015,NOT AVAILABLE,(501) 776-5740
15820,51017000745,MOUNTAIN PINE ELEM. SCHOOL,690 BLAKELY DAM RD,MOUNTAIN PINE,AR,71956,NOT AVAILABLE,(501) 767-2421
60617,50541000251,MATTHEWS ELEMENTARY SCHOOL,4501 DOLLARWAY RD,PINE BLUFF,AR,71602,NOT AVAILABLE,(870) 534-0726
60824,50040901574,NORTHWEST ARKANSAS CLASSICAL ACADEMY,1300 MELISSA DR STE 216,BENTONVILLE,AR,72712,NOT AVAILABLE,(479) 715-6662
61440,50006800108,BRADLEY ELEMENTARY SCHOOL,527 CENTER ST,BRADLEY,AR,71826,NOT AVAILABLE,(870) 894-3477
62072,51185001484,CHENAL ELEMENTARY SCHOOL,21201 DENNY RD,LITTLE ROCK,AR,72223,NOT AVAILABLE,(501) 490-2000
64859,51414001155,TAYLOR ELEMENTARY SCHOOL,805 WEST ST,WHITE HALL,AR,71602,NOT AVAILABLE,(870) 247-1988
65050,50729001016,SPARKMAN HIGH SCHOOL,325 W MAIN ST,SPARKMAN,AR,71763,NOT AVAILABLE,(870) 678-9312
68356,50732000444,HARMONY GROVE HIGH SCHOOL,2621 HWY 229,BENTON,AR,72015,NOT AVAILABLE,(501) 776-2337
69659,50576000290,ELKINS HIGH SCHOOL,349 N CENTER,ELKINS,AR,72727,NOT AVAILABLE,(479) 643-3381
72183,50296000062,ANGIE GRANT ELEMENTARY SCHOOL,1124 HOOVER ST,BENTON,AR,72015,NOT AVAILABLE,(501) 778-3300
74857,50459001548,SALLIE CONE PRESCHOOL,1629 SOUTH BLVD,CONWAY,AR,72034,NOT AVAILABLE,(501) 450-6693
74926,50900001188,BALE ELEMENTARY SCHOOL,6501 W 32ND ST,LITTLE ROCK,AR,72204,NOT AVAILABLE,(501) 447-3600
78347,50004201281,HAMBURG HIGH SCHOOL,1119 S MAIN ST,HAMBURG,AR,71646,NOT AVAILABLE,(870) 853-9856
79787,50900000627,PARKVIEW MAGNET HIGH SCHOOL,2501 BARROW RD,LITTLE ROCK,AR,72204,NOT AVAILABLE,(501) 447-2300
40419,50243000022,LOUISA PERRITT PRIMARY,1900 WALNUT ST,ARKADELPHIA,AR,71923,NOT AVAILABLE,(870) 246-2260
43985,50867000580,LAKESIDE PRIMARY SCHOOL,2841 MALVERN AVE,HOT SPRINGS,AR,71901,NOT AVAILABLE,(501) 262-1921
80205,51197000958,ROGERS HIGH SCHOOL,2300 S DIXIELAND RD,ROGERS,AR,72758,NOT AVAILABLE,(479) 636-2202
89346,50225000005,ALMA MIDDLE SCHOOL,706 HWY 64 E,ALMA,AR,72921,NOT AVAILABLE,(479) 632-2168
50236,51173000893,POYEN HIGH SCHOOL,111 N SCHOOL ST,POYEN,AR,72128,NOT AVAILABLE,(501) 332-2939
57460,50007601645,BRUNO-PYATT K-12 SCHOOL,4754 HWY 1255,EVERTON,AR,72633,NOT AVAILABLE,(870) 439-2218
92736,51068000787,LAKEWOOD ELEMENTARY SCHOOL,1800 FAIRWAY AVE,NORTH LITTLE ROCK,AR,72116,NOT AVAILABLE,(501) 771-8270
92968,51251001009,SMACKOVER HIGH SCHOOL,1 BUCKAROO LN,SMACKOVER,AR,71762,NOT AVAILABLE,(870) 725-3101
96580,50543000257,DOVER HIGH SCHOOL,101 PIRATES LOOP,DOVER,AR,72837,NOT AVAILABLE,(479) 331-2120
100614,50735000446,HARRISBURG ELEMENTARY SCHOOL,1003 S ILLINOIS ST,HARRISBURG,AR,72432,NOT AVAILABLE,(870) 578-2410
103397,50007401672,LISA ACADEMY SPRINGDALE,301 HOLCOMB STREET,SPRINGDALE,AR,72764,NOT AVAILABLE,(501) 557-5303
103416,50043201704,OZARKA COLLEGE TECHNICAL CENTER,218 COLLEGE DRIVE,MELBOURNE,AR,72556,NOT AVAILABLE,(870) 368-7371
103423,50043901723,ARKANSAS STATE UNIVERSITY–MIDSOUTH TECHNICAL CENTER,2000 W BROADWAY ST,WEST MEMPHIS,AR,72301,NOT AVAILABLE,(870) 733-6722
103427,50369001661,PARKWAY ELEMENTARY SCHOOL,5200 BRYANT PKWY,LITTLE ROCK,AR,72015,NOT AVAILABLE,(501) 653-5128
103429,50609001716,FARMINGTON HIGH SCHOOL,12327 N HWY 170,FARMINGTON,AR,72730,NOT AVAILABLE,(479) 266-1860
103430,50669001680,CENTERPOINT MIDDLE SCHOOL,755 HWY 8 EAST,AMITY,AR,71921,NOT AVAILABLE,(870) 356-2912
103436,50900001679,PINNACLE VIEW HIGH SCHOOL,5701 RANCH DRIVE,LITTLE ROCK,AR,72223,NOT AVAILABLE,(501) 447-8500
103439,50900001689,ROCKEFELLER EARLY CHILDHOOD CENTER,700 E. 17TH STREET,LITTLE ROCK,AR,72206,NOT AVAILABLE,(501) 447-6200
103452,51293001663,STRONG-HUTTIG SCHOOLS,635 S CONCORD,STRONG,AR,71765,NOT AVAILABLE,(870) 797-7322
60697,50609000854,RANDALL G. LYNCH MIDDLE SCHOOL,359 W RHEAS MILL RD,FARMINGTON,AR,72730,NOT AVAILABLE,(479) 266-1840
61300,50004501600,RIVERCREST ELEMENTARY SCHOOL,1704 W STATE HWY 14,WILSON,AR,72395,NOT AVAILABLE,(870) 655-8111
62887,50906000641,LONOKE ELEMENTARY SCHOOL,900 W PALM ST,LONOKE,AR,72086,NOT AVAILABLE,(501) 676-6740
65573,50900001383,MABELVALE ELEMENTARY SCHOOL,9401 MABELVALE CUT OFF RD,MABELVALE,AR,72103,NOT AVAILABLE,(501) 447-5400
67158,50633000377,TRUSTY ELEMENTARY SCHOOL,3300 HARRIS AVE,FORT SMITH,AR,72904,NOT AVAILABLE,(479) 783-7720
68110,51095001237,NORTH ELEMENTARY SCHOOL,1230 W SEMMES,OSCEOLA,AR,72370,NOT AVAILABLE,(870) 563-1155
10320,51257001013,SOUTH SIDE ELEMENTARY SCHOOL,334 SOUTHSIDE RD,BEE BRANCH,AR,72013,NOT AVAILABLE,(501) 654-2200
13098,50633000378,JOHN P. WOODS ELEM. SCHOOL,3201 MASSARD RD,FORT SMITH,AR,72903,NOT AVAILABLE,(479) 452-5808
14637,50900000606,CARVER MAGNET ELEM. SCHOOL,2100 E SIXTH ST,LITTLE ROCK,AR,72202,NOT AVAILABLE,(501) 447-4000
17342,50963000703,MCGEHEE ELEMENTARY SCHOOL,409 OAK ST,MCGEHEE,AR,71654,NOT AVAILABLE,(870) 222-5400
84299,50375001431,CENTRAL ELEMENTARY SCHOOL,36 POND ST,CABOT,AR,72023,NOT AVAILABLE,(501) 843-3000
85583,50456000180,CONCORD ELEMENTARY SCHOOL,10920 HEBER SPRINGS N,CONCORD,AR,72523,NOT AVAILABLE,(870) 668-3757
87295,50408000150,CEDARVILLE HIGH SCHOOL,9530 PIRATES POINT,CEDARVILLE,AR,72932,NOT AVAILABLE,(479) 474-7021
3845,51245001002,NORTHSIDE ELEMENTARY SCHOOL,501 W ELGIN,SILOAM SPRINGS,AR,72761,NOT AVAILABLE,(479) 524-4126
8149,50486000210,CUTTER-MORNING STAR HIGH SCH.,2801 SPRING ST,HOT SPRINGS,AR,71901,NOT AVAILABLE,(501) 262-1220
32089,51311000593,TEXARKANA AREA VOCATIONAL CENTER,3512 GRAND AVE,TEXARKANA,AR,71854,NOT AVAILABLE,(870) 774-7641
32372,50627001425,CENTRAL ELEMENTARY SCHOOL,801 DEADERICK RD,FORREST CITY,AR,72335,NOT AVAILABLE,(870) 633-2141
36176,50040601541,PINE BLUFF LIGHTHOUSE ACADEMY,708 W SECOND ST,PINE BLUFF,AR,71601,NOT AVAILABLE,(870) 534-0277
39971,50364001458,BROOKLAND MIDDLE SCHOOL,100 W SCHOOL ST,BROOKLAND,AR,72417,NOT AVAILABLE,(870) 932-2080
40709,50459001486,WOODROW CUMMINS ELEMENTARY SCH,1400 PADGETT RD,CONWAY,AR,72034,NOT AVAILABLE,(501) 450-4800
42950,50315000080,BERRYVILLE HIGH SCHOOL,902 W TRIMBLE AVE,BERRYVILLE,AR,72616,NOT AVAILABLE,(870) 423-3312
48047,51173000892,POYEN ELEMENTARY SCHOOL,111 N SCHOOL ST,POYEN,AR,72128,NOT AVAILABLE,(501) 332-2939
50477,50723000441,HAMPTON HIGH SCHOOL,419 E MAIN ST,HAMPTON,AR,71744,NOT AVAILABLE,(870) 798-2742
55010,50900001628,PINNACLE VIEW MIDDLE SCHOOL,5701 RANCH DR,LITTLE ROCK,AR,72223,NOT AVAILABLE,(501) 447-8500
57807,50040301500,LITTLE ROCK PREP ACADEMY,1205 S SCHILLER ST,LITTLE ROCK,AR,72206,NOT AVAILABLE,(501) 683-1855
70815,50534000249,DIERKS HIGH SCHOOL,900 OLD HWY 70 W,DIERKS,AR,71833,NOT AVAILABLE,(870) 286-3234
77870,50001900042,BATESVILLE JUNIOR HIGH SCHOOL,2 PIONEER DR,BATESVILLE,AR,72501,NOT AVAILABLE,(870) 793-7533
78217,50303001505,PEA RIDGE PRIMARY SCHOOL,1411 WESTON ST,PEA RIDGE,AR,72751,NOT AVAILABLE,(479) 451-8183
78243,51176000895,PRAIRIE GROVE HIGH SCHOOL,500 COLE,PRAIRIE GROVE,AR,72753,NOT AVAILABLE,(479) 846-4212
23360,50900001528,DON ROBERTS ELEMENTARY SCHOOL,16601 LAMARCHE DR,LITTLE ROCK,AR,72223,NOT AVAILABLE,(501) 447-2500
29233,51393001212,WATSON CHAPEL JR. HIGH SCHOOL,3900 CAMDEN RD,PINE BLUFF,AR,71603,NOT AVAILABLE,(870) 879-4420
91838,50621000335,FORDYCE HIGH SCHOOL,100 REDBUG BLVD,FORDYCE,AR,71742,NOT AVAILABLE,(870) 352-2126
95729,51266001027,JOHN TYSON ELEMENTARY SCHOOL,1967 CHAPMAN,SPRINGDALE,AR,72762,NOT AVAILABLE,(479) 750-8862
96666,50627001185,LINCOLN ACADEMY,616 W BROADWAY AVE,FOREST CITY,AR,72335,NOT AVAILABLE,(870) 261-1810
97424,50348000107,BRADFORD HIGH SCHOOL,504 W MAIN ST,BRADFORD,AR,72020,NOT AVAILABLE,(501) 344-2607
103411,50042501686,PREMIER HIGH SCHOOL OF NORTH LITTLE ROCK,801 WEST 29TH STREET,NORTH LITTLE ROCK,AR,72114,NOT AVAILABLE,(501) 333-9541
103443,51026001698,MOUNTAINBURG MIDDLE SCHOOL BRAIN ACADEMY,129 HWY 71 SW,MOUNTAINBURG,AR,72946,NOT AVAILABLE,(479) 369-4506
