OBJECTID,NCESID,NAME,ADDRESS,CITY,STATE,ZIP,ZIP4,TELEPHONE
10863,90447000904,SUFFIELD HIGH SCHOOL,1060 SHELDON STREET,WEST SUFFIELD,CT,6093,NOT AVAILABLE,(860) 668-3810
13043,90021000020,MARY E. GRISWOLD SCHOOL,133 HEATHER LN.,KENSINGTON,CT,6037,2056,(860) 828-6336
18791,90249000465,MIDDLETOWN HIGH SCHOOL,200 LAROSA LANE,MIDDLETOWN,CT,6457,NOT AVAILABLE,(860) 704-4500
19992,90483000685,WOODROW WILSON SCHOOL,235 BIRCH ST.,WATERBURY,CT,6704,NOT AVAILABLE,(203) 573-6660
40297,90522001095,SAGE PARK MIDDLE SCHOOL,25 SAGE PARK RD.,WINDSOR,CT,6095,3328,(860) 687-2030
47404,90279000549,COLUMBUS FAMILY ACADEMY,255 BLATCHLEY AVE.,NEW HAVEN,CT,6513,NOT AVAILABLE,(475) 220-2500
47934,90126000204,JOSEPH O. GOODWIN SCHOOL,1235 FORBES ST.,EAST HARTFORD,CT,6118,2803,(860) 622-5420
63339,90495001041,WEST HAVEN HIGH SCHOOL,ONE MCDONOUGH PLAZA,WEST HAVEN,CT,6516,5299,(203) 937-4360
24894,90459000917,FORBES SCHOOL,500 MIGEON AVE.,TORRINGTON,CT,6790,NOT AVAILABLE,(860) 489-2500
25418,90486001593,GREAT NECK ELEMENTARY SCHOOL,165 GREAT NECK RD.,WATERFORD,CT,6385,3739,(860) 442-2593
26353,90459000923,TORRINGFORD SCHOOL,800 CHARLES ST.,TORRINGTON,CT,6790,NOT AVAILABLE,(860) 489-2300
27824,90192001192,BETANCES LEARNING LAB MAGNET SCHOOL,42 CHARTER OAK AVENUE,HARTFORD,CT,6106,1909,(860) 695-2840
85444,90105000169,MIDDLESEX MIDDLE SCHOOL,204 HOLLOW TREE RIDGE RD.,DARIEN,CT,6820,4023,(203) 655-2518
31992,90537001110,WOODSTOCK ELEMENTARY SCHOOL,24 FROG POND RD.,WOODSTOCK,CT,6281,3009,(860) 928-0471
32397,90423000838,SOUTHINGTON HIGH SCHOOL,720 PLEASANT STREET,SOUTHINGTON,CT,6489,2713,(860) 628-3229
35014,90042000039,BRANFORD HIGH SCHOOL,185 EAST MAIN ST.,BRANFORD,CT,6405,3767,(203) 488-7291
37607,90033001375,CARMEN ARACE INTERMEDIATE SCHOOL,390 PARK AVENUE,BLOOMFIELD,CT,6002,3100,(860) 286-2626
38437,90123000188,EAST HAMPTON MIDDLE SCHOOL,19 CHILDS RD.,EAST HAMPTON,CT,6424,1709,(860) 365-4060
39630,90045000081,ROOSEVELT SCHOOL,680 PARK AVE.,BRIDGEPORT,CT,6604,4610,(203) 576-8032
39776,90507001059,ALFRED W. HANMER SCHOOL,50 FRANCIS ST.,WETHERSFIELD,CT,6109,1801,(860) 571-8370
39838,90267000521,NEW BRITAIN HIGH SCHOOL,110 MILL ST.,NEW BRITAIN,CT,6051,3413,(860) 225-6300
90539,90108000173,DEEP RIVER ELEMENTARY SCHOOL,12 RIVER ST.,DEEP RIVER,CT,6417,1921,(860) 526-5319
90839,90192000026,SANCHEZ SCHOOL,176 BABCOCK STREET,HARTFORD,CT,6106,1357,(860) 695-4940
91096,90483000984,REGAN SCHOOL,2780 NORTH MAIN ST.,WATERBURY,CT,6704,1603,(203) 574-8187
92955,90144000235,CENTER SCHOOL,49 MAIN ST.,ELLINGTON,CT,6029,NOT AVAILABLE,(860) 896-2315
94502,90279000546,BISHOP WOODS ARCHITECTURE AND DESIGN MAGNET SCHOOL,1481 QUINNIPIAC AVENUE,NEW HAVEN,CT,6513,NOT AVAILABLE,(475) 220-7300
98671,90381001467,BARLOW MOUNTAIN ELEMENTARY SCHOOL,115 BARLOW MOUNTAIN RD.,RIDGEFIELD,CT,6877,NOT AVAILABLE,(203) 894-5800
52013,90345001617,THREE RIVERS MIDDLE COLLEGE MAGNET SCHOOL,574 NEW LONDON TURNPIKE,NORWICH,CT,6360,NOT AVAILABLE,(860) 859-9203
54074,90022101803,CAPITAL PREPARATORY HARBOR SCHOOL,777 MAIN STREET,BRIDGEPORT,CT,6604,NOT AVAILABLE,(475) 422-5900
58822,90156000273,FARMINGTON HIGH SCHOOL,10 MONTEITH DR,FARMINGTON,CT,6032,1052,(860) 673-2514
59430,90495001039,SETH G. HALEY SCHOOL,148 SOUTH ST.,WEST HAVEN,CT,6516,7149,(203) 931-6810
71375,90309000649,KENDALL ELEMENTARY SCHOOL,57 FILLOW STREET,NORWALK,CT,6850,NOT AVAILABLE,(203) 899-2880
71542,90423000832,JOHN F. KENNEDY MIDDLE SCHOOL,1071 SOUTH MAIN ST.,PLANTSVILLE,CT,6479,1672,(860) 628-3275
77944,90117000182,EAST GRANBY MIDDLE SCHOOL,95 SOUTH MAIN ST.,EAST GRANBY,CT,6026,9550,(860) 653-7113
5212,90070001623,ANA GRACE ACADEMY OF THE ARTS ELEMENTARY SCHOOL,20 SECURITY DRIVE,AVON,CT,6001,NOT AVAILABLE,(860) 677-0380
43124,90000201672,J. M. WRIGHT TECHNICAL HIGH SCHOOL,120 BRIDGE ST.,STAMFORD,CT,6905,NOT AVAILABLE,(203) 324-7363
44241,90207000394,KILLINGLY MEMORIAL SCHOOL,339 MAIN ST.,DANIELSON,CT,6239,2856,(860) 779-6680
60736,90162000287,NAUBUC SCHOOL,82 GRISWOLD ST.,GLASTONBURY,CT,6033,1006,(860) 652-7918
51401,90381001361,SCOTTS RIDGE MIDDLE SCHOOL,750 NORTH SALEM RD.,RIDGEFIELD,CT,6877,NOT AVAILABLE,(203) 894-5725
53162,90381000780,SCOTLAND ELEMENTARY SCHOOL,111 BARLOW MOUNTAIN RD.,RIDGEFIELD,CT,6877,1902,(203) 894-5825
93673,90006001020,PRENDERGAST SCHOOL,59 FINNEY ST.,ANSONIA,CT,6401,NOT AVAILABLE,(203) 736-5080
93918,90090000139,HORACE W. PORTER SCHOOL,3 SCHOOLHOUSE ROAD,COLUMBIA,CT,6237,0166,(860) 228-9493
98882,90528001106,WAKELEE SCHOOL,12 HEMPEL DR.,WOLCOTT,CT,6716,1799,(203) 879-8154
82564,90192000358,BURR MIDDLE SCHOOL,400 WETHERSFIELD AVENUE,HARTFORD,CT,6114,1414,(860) 695-3080
86343,90528001102,TYRRELL MIDDLE SCHOOL,500 TODD RD.,WOLCOTT,CT,6716,3144,(203) 879-8151
88691,90171000299,GLENVILLE SCHOOL,33 RIVERSVILLE RD.,GREENWICH,CT,6831,3627,(203) 531-9287
100364,90417000825,PLEASANT VALLEY SCHOOL,591 ELLINGTON RD.,SOUTH WINDSOR,CT,6074,4118,(860) 610-0291
14309,90099000145,CROMWELL HIGH SCHOOL,1 DONALD HARRIS DR.,CROMWELL,CT,6416,1698,(860) 632-4841
19514,90450001117,THOMASTON CENTER SCHOOL,1 THOMAS AVE.,THOMASTON,CT,6787,1502,(860) 283-3036
32670,90513001075,MILLER-DRISCOLL SCHOOL,217 WOLFPIT RD.,WILTON,CT,6897,3426,(203) 762-8678
32842,90279000588,WORTHINGTON HOOKER SCHOOL,180 CANNER ST.,NEW HAVEN,CT,6511,NOT AVAILABLE,(475) 220-7200
33297,90324000002,QUAKER FARMS SCHOOL,30 GREAT OAK RD.,OXFORD,CT,6478,NOT AVAILABLE,(203) 888-5842
33440,90102000160,ROGERS PARK MIDDLE SCHOOL,21 MEMORIAL DR.,DANBURY,CT,6810,8005,(203) 797-4881
70539,90438000881,STONINGTON HIGH SCHOOL,176 SOUTH BROAD ST.,PAWCATUCK,CT,6379,1924,(860) 599-5781
73158,90309000659,SILVERMINE DUAL LANGUAGE MAGNET SCHOOL,157 PERRY AVENUE,NORWALK,CT,6850,1100,(203) 899-2950
75326,90045001162,JAMES J. CURIALE SCHOOL,300 LAUREL AVE.,BRIDGEPORT,CT,6604,1103,(203) 576-8437
78793,90240000445,JOHN BARRY SCHOOL,124 COLUMBIA ST.,MERIDEN,CT,6450,3171,(203) 237-8831
20570,90279001483,ROBERTO CLEMENTE LEADERSHIP ACADEMY FOR GLOBAL AWARENESS,360 COLUMBUS AVENUE,NEW HAVEN,CT,6519,NOT AVAILABLE,(475) 220-7600
71244,90033000033,METACOMET SCHOOL,185 SCHOOL ST.,BLOOMFIELD,CT,6002,2718,(860) 286-2660
72096,90288000608,MARTIN KELLOGG MIDDLE SCHOOL,155 HARDING AVE.,NEWINGTON,CT,6111,1918,(860) 666-5418
76785,90447000902,SUFFIELD MIDDLE SCHOOL,350 MOUNTAIN RD.,SUFFIELD,CT,6078,2078,(860) 668-3820
76840,90258000494,MOHEGAN SCHOOL,49 GOLDEN RD.,UNCASVILLE,CT,6382,1714,(860) 848-9261
79907,90417000821,PHILIP R. SMITH SCHOOL,949 AVERY STREET,SOUTH WINDSOR,CT,6074,NOT AVAILABLE,(860) 648-5025
90286,90411000811,HENRY JAMES MEMORIAL SCHOOL,155 FIRETOWN RD.,SIMSBURY,CT,6070,1962,(860) 651-3341
91501,90312000676,UNCAS ELEMENTARY SCHOOL,280 ELIZABETH ST.,NORWICH,CT,6360,6612,(860) 823-4208
93751,90483000992,WILBY HIGH SCHOOL,568 BUCKS HILL RD.,WATERBURY,CT,6704,1296,(203) 574-8100
98390,90353001632,SHEPAUG VALLEY SCHOOL,159 SOUTH STREET,WASHINGTON,CT,6793,NOT AVAILABLE,(860) 868-7326
89071,90501001428,WESTON INTERMEDIATE SCHOOL,95 SCHOOL RD.,WESTON,CT,6883,NOT AVAILABLE,(203) 221-6330
52984,90070001625,GREATER HARTFORD ACADEMY OF THE ARTS MAGNET MIDDLE,75 VAN DYKE AVENUE,HARTFORD,CT,6106,NOT AVAILABLE,(860) 724-0685
53518,90186000341,HELEN STREET SCHOOL,285 HELEN ST.,HAMDEN,CT,6514,3235,(203) 407-2030
54073,90022001807,STAMFORD CHARTER SCHOOL FOR EXCELLENCE,1 SCHUYLER AVE.,STAMFORD,CT,6902,NOT AVAILABLE,(203) 989-0000
56063,90147000247,HAZARDVILLE MEMORIAL SCHOOL,68 NORTH MAPLE ST.,ENFIELD,CT,6082,3904,(860) 763-7500
56592,90495001039,SETH G. HALEY SCHOOL,148 SOUTH ST.,WEST HAVEN,CT,6516,7149,(203) 931-6810
58881,90147000247,HAZARDVILLE MEMORIAL SCHOOL,68 NORTH MAPLE ST.,ENFIELD,CT,6082,3904,(860) 763-7500
20304,90483001396,WATERBURY ARTS MAGNET SCHOOL (HIGH),16 SOUTH ELM ST.,WATERBURY,CT,6706,NOT AVAILABLE,(203) 573-6300
20449,90153000919,ROGER LUDLOWE MIDDLE SCHOOL,689 UNQUOWA RD.,FAIRFIELD,CT,6824,NOT AVAILABLE,(203) 255-8345
23194,90483000971,CROSBY HIGH SCHOOL,300 PIERPONT RD.,WATERBURY,CT,6705,3905,(203) 574-8061
27571,90474000961,ROCK HILL SCHOOL,910 OLD ROCK HILL ROAD,WALLINGFORD,CT,6492,2528,(203) 294-6260
28960,90444000900,DAVID WOOSTER MIDDLE SCHOOL,150 LINCOLN ST.,STRATFORD,CT,6615,4000,(203) 385-4275
29906,90051000106,STAFFORD SCHOOL,212 LOUISIANA AVE.,BRISTOL,CT,6010,4456,(860) 584-7824
61407,90321001225,MARY L. TRACY SCHOOL,650 SCHOOL HOUSE LANE,ORANGE,CT,6477,2414,(203) 891-8028
68271,90279000584,CONTE/WEST HILLS MAGNET SCHOOL,511 CHAPEL ST.,NEW HAVEN,CT,6511,1217,(475) 220-5400
33064,90285001168,NORTHVILLE ELEMENTARY SCHOOL,22 HIPP RD.,NEW MILFORD,CT,6776,2221,(860) 355-3713
36276,90423000839,STRONG ELEMENTARY SCHOOL,820 MARION AVE.,PLANTSVILLE,CT,6479,1461,(860) 628-3314
37510,90234000434,DOROTHY C. GOODWIN SCHOOL,321 HUNTING LODGE RD.,STORRS,CT,6268,1508,(860) 429-4630
10126,90354000763,LYME-OLD LYME HIGH SCHOOL,69 LYME ST.,OLD LYME,CT,6371,2335,(860) 434-1651
10768,90495001038,SAVIN ROCK COMMUNITY SCHOOL,50 PARK ST.,WEST HAVEN,CT,6516,6052,(203) 931-6850
11780,90070000072,GLASTONBURY/EAST HARTFORD MAGNET SCHOOL,95 OAK STREET,GLASTONBURY,CT,6033,NOT AVAILABLE,(860) 633-4455
40986,90231000429,VERPLANCK SCHOOL,65 N SCHOOL STREET,MANCHESTER,CT,6042,NOT AVAILABLE,(860) 647-3383
44960,90171000309,WESTERN MIDDLE SCHOOL,1 WESTERN JUNIOR HWY.,GREENWICH,CT,6830,6019,(203) 531-5700
46057,90450000908,THOMASTON HIGH SCHOOL,185 BRANCH RD.,THOMASTON,CT,6787,1984,(860) 283-3030
2357,90036000037,BOLTON HIGH SCHOOL,72 BRANDY ST.,BOLTON,CT,6043,7697,(860) 643-2768
3037,90186000348,SPRING GLEN SCHOOL,1908 WHITNEY AVE.,HAMDEN,CT,6517,1206,(203) 407-2045
3047,90186000345,RIDGE HILL SCHOOL,120 CAREW RD.,HAMDEN,CT,6517,2906,(203) 407-2035
9418,90303000631,NORTH HAVEN HIGH SCHOOL,221 ELM STREET,NORTH HAVEN,CT,6473,NOT AVAILABLE,(203) 239-1641
93656,90405000803,LONG HILL SCHOOL,565 LONG HILL AVE.,SHELTON,CT,6484,4808,(203) 929-4077
93693,90372001226,NORTHWESTERN REGIONAL MIDDLE SCHOOL,100 BATTISTONI DR.,WINSTED,CT,6098,1899,(860) 379-7243
94653,90081000132,LEWIN G. JOEL JR. SCHOOL,137A GLENWOOD RD.,CLINTON,CT,6413,1425,(860) 664-6501
95826,90102001691,WESTSIDE MIDDLE SCHOOL ACADEMY,1 SCHOOL RIDGE ROAD,DANBURY,CT,6811,NOT AVAILABLE,(203) 797-4713
96197,90021701750,BOOKER T. WASHINGTON ACADEMY,804 STATE STREET,NEW HAVEN,CT,6511,NOT AVAILABLE,(203) 691-6535
96842,90264000501,CITY HILL MIDDLE SCHOOL,441 CITY HILL ST.,NAUGATUCK,CT,6770,3399,(203) 720-5246
99224,90309001923,P-TECH NORWALK,23 CALVIN MURPHY DRIVE,NORWALK,CT,6851,NOT AVAILABLE,(203) 838-4481
63586,90003301449,PARK CITY PREP CHARTER SCHOOL,1550 STATE STREET,BRIDGEPORT,CT,6605,NOT AVAILABLE,(203) 953-3766
64566,90492001014,DUFFY SCHOOL,95 WESTMINSTER ST.,WEST HARTFORD,CT,6107,3353,(860) 521-0110
65739,90525001100,WINDSOR LOCKS HIGH SCHOOL,58 SOUTH ELM ST.,WINDSOR LOCKS,CT,6096,2399,(860) 292-5032
65885,90045001127,MULTICULTURAL MAGNET SCHOOL,700 PALISADE AVE.,BRIDGEPORT,CT,6610,3457,(203) 576-7505
81162,90492001026,WOLCOTT SCHOOL,71 WOLCOTT RD.,WEST HARTFORD,CT,6110,1764,(860) 561-2300
83916,90144000237,ELLINGTON HIGH SCHOOL,37 MAPLE ST.,ELLINGTON,CT,6029,3333,(860) 896-2352
85262,90291000615,NEWTOWN HIGH SCHOOL,12 BERKSHIRE RD.,SANDY HOOK,CT,6482,1398,(203) 426-7646
86778,90045000049,BARNUM SCHOOL,495 WATERVIEW AVENUE,BRIDGEPORT,CT,6608,NOT AVAILABLE,(203) 275-2300
87386,90252000476,LIVE OAKS SCHOOL,575 MERWIN AVE.,MILFORD,CT,6460,7136,(203) 783-3564
87550,90222000407,LITCHFIELD INTERMEDIATE SCHOOL,35 PLUMB HILL ROAD,LITCHFIELD,CT,6759,NOT AVAILABLE,(860) 567-7520
89335,90129001350,OVERBROOK EARLY LEARNING CENTER,54 GERRISH AVE.,EAST HAVEN,CT,6512,NOT AVAILABLE,(203) 468-3305
58380,90360000766,HOUSATONIC VALLEY REGIONAL HIGH SCHOOL,246 WARREN TURNPIKE RD.,FALLS VILLAGE,CT,6031,1600,(860) 824-5123
58755,90312000663,BISHOP SCHOOL EARLY LEARNING CENTER,526 EAST MAIN ST.,NORWICH,CT,6360,5909,(860) 823-4201
59104,90432000867,STAMFORD HIGH SCHOOL,55 STRAWBERRY HILL AVE.,STAMFORD,CT,6902,NOT AVAILABLE,(203) 977-4223
59705,90297000623,TOTOKET VALLEY ELEMENTARY SCHOOL,1388 MIDDLETOWN AVE.,NORTHFORD,CT,6472,1380,(203) 484-1455
59985,90267000515,LINCOLN ELEMENTARY SCHOOL,145 STEELE ST.,NEW BRITAIN,CT,6052,1555,(860) 229-2564
40025,90297000622,NORTH BRANFORD INTERMEDIATE SCHOOL,654 FOXON RD.,NORTH BRANFORD,CT,6471,1108,(203) 484-1500
42978,90201000388,HEBRON ELEMENTARY SCHOOL,92 CHURCH ST.,HEBRON,CT,6248,1427,(860) 228-9465
48225,90279001612,QUINNIPIAC REAL WORLD MATH STEM SCHOOL,460 LEXINGTON AVENUE,NEW HAVEN,CT,6513,NOT AVAILABLE,(475) 220-4700
70162,90291001121,HEAD O'MEADOW ELEMENTARY SCHOOL,94 BOGGS HILL RD.,NEWTOWN,CT,6470,1915,(203) 426-7670
30012,90312000667,JOHN B. STANTON SCHOOL,386 NEW LONDON TPKE.,NORWICH,CT,6360,5337,(860) 823-4207
32040,90414000819,SOMERS HIGH SCHOOL,5 VISION BOULEVARD,SOMERS,CT,6071,NOT AVAILABLE,(860) 749-2270
33294,90000201148,OLIVER WOLCOTT TECHNICAL HIGH SCHOOL,75 OLIVER ST.,TORRINGTON,CT,6790,3859,(860) 496-5300
33394,90474001213,PARKER FARMS SCHOOL,30 PARKER FARMS ROAD,WALLINGFORD,CT,6492,2972,(203) 294-6200
34024,90519001086,WINDHAM HIGH SCHOOL,355 HIGH ST.,WILLIMANTIC,CT,6226,1306,(860) 465-2480
35696,90240000442,HANOVER SCHOOL,208 MAIN ST.,MERIDEN,CT,6450,5149,(203) 235-6359
35708,90000201150,VINAL TECHNICAL HIGH SCHOOL,60 DANIELS ST.,MIDDLETOWN,CT,6457,4941,(860) 344-7100
11611,90486000998,OSWEGATCHIE ELEMENTARY SCHOOL,470 BOSTON POST RD.,WATERFORD,CT,6385,1598,(860) 442-4331
13044,90216000397,GALES FERRY SCHOOL,1858 ROUTE 12,GALES FERRY,CT,6335,NOT AVAILABLE,(860) 464-7664
13819,90459001211,VOGEL-WETMORE SCHOOL,68 CHURCH ST.,TORRINGTON,CT,6790,5217,(860) 489-2570
16543,90219000403,LISBON CENTRAL SCHOOL,15 NEWENT RD.,LISBON,CT,6351,2926,(860) 376-2403
1136,90096000142,COVENTRY GRAMMAR SCHOOL,3453 MAIN STREET,COVENTRY,CT,6238,1568,(860) 742-7313
1742,90012000011,AVON HIGH SCHOOL,510 WEST AVON RD.,AVON,CT,6001,2519,(860) 404-4740
20062,90264000499,ANDREW AVENUE SCHOOL,140 ANDREW AVE.,NAUGATUCK,CT,6770,4303,(203) 720-5221
20183,90153000257,DWIGHT ELEMENTARY SCHOOL,1600 REDDING RD.,FAIRFIELD,CT,6824,NOT AVAILABLE,(203) 255-8312
23708,90162000284,HEBRON AVENUE SCHOOL,1363 HEBRON AVENUE,GLASTONBURY,CT,6033,NOT AVAILABLE,(860) 652-7875
23798,90249000457,LAWRENCE SCHOOL,KAPLAN DR.,MIDDLETOWN,CT,6457,1837,(860) 632-2158
25747,90504001055,KING'S HIGHWAY ELEMENTARY SCHOOL,125 POST RD. WEST,WESTPORT,CT,6880,4602,(203) 341-1802
104593,90136001937,LEAP ALTERNATIVE HIGH SCHOOL,729 MAIN ST,WILLIMANTIC,CT,6226,NOT AVAILABLE,(860) 455-1592
91524,90417000822,ELI TERRY SCHOOL,569 GRIFFIN RD.,SOUTH WINDSOR,CT,6074,1382,(860) 648-5020
93884,90174000310,GRISWOLD ELEMENTARY SCHOOL,303 SLATER AVE.,GRISWOLD,CT,6351,2540,(860) 376-7610
94671,90483000975,F. J. KINGSBURY SCHOOL,220 COLUMBIA BLVD.,WATERBURY,CT,6710,1401,(203) 574-8172
95528,90399001642,CHATFIELD-LOPRESTI SCHOOL,51 SKOKORAT ST.,SEYMOUR,CT,6483,NOT AVAILABLE,(203) 888-4640
30193,90483000970,CARRINGTON SCHOOL,24 KENMORE AVE.,WATERBURY,CT,6708,1845,(203) 574-8184
31048,90144000239,WINDERMERE SCHOOL,2 ABBOTT RD.,ELLINGTON,CT,6029,3800,(860) 896-2329
36955,90381000779,RIDGEFIELD HIGH SCHOOL,700 NORTH SALEM RD.,RIDGEFIELD,CT,6877,1716,(203) 894-5750
36996,90147000241,EDGAR H. PARKMAN SCHOOL,165 WEYMOUTH RD.,ENFIELD,CT,6082,6200,(860) 253-6570
37250,90279000543,BEECHER SCHOOL,100 JEWEL STREET,NEW HAVEN,CT,6511,NOT AVAILABLE,(475) 220-3800
39836,90432000009,SCOFIELD MIDDLE SCHOOL,641 SCOFIELDTOWN RD.,STAMFORD,CT,6903,NOT AVAILABLE,(203) 977-2750
11330,90537101221,NORWICH FREE ACADEMY,305 BROADWAY,NORWICH,CT,6360,NOT AVAILABLE,(860) 887-2505
12996,90249000464,WESLEY SCHOOL,10 WESLEYAN HILLS RD.,MIDDLETOWN,CT,6457,4972,(860) 344-0381
14281,90498001044,WESTBROOK HIGH SCHOOL,156 MCVEAGH RD.,WESTBROOK,CT,6498,NOT AVAILABLE,(860) 399-6214
14322,90252000471,J. F. KENNEDY SCHOOL,404 WEST AVE.,MILFORD,CT,6460,3091,(203) 783-3568
16774,90474000951,DAG HAMMARSKJOLD MIDDLE SCHOOL,106 POND HILL ROAD,WALLINGFORD,CT,6492,4809,(203) 294-3700
17611,90129000214,DEER RUN SCHOOL,311 FOXON RD.,EAST HAVEN,CT,6512,1449,(203) 468-3324
18114,90186000337,CHURCH STREET SCHOOL,95 CHURCH ST.,HAMDEN,CT,6514,3436,(203) 407-2020
20165,90513001073,MIDDLEBROOK SCHOOL,131 SCHOOL RD.,WILTON,CT,6897,2507,(203) 762-8388
23816,90027000024,BETHEL HIGH SCHOOL,300 WHITTLESEY DR.,BETHEL,CT,6801,1517,(203) 794-8600
24050,90366000770,AMITY REGIONAL HIGH SCHOOL,25 NEWTON RD.,WOODBRIDGE,CT,6525,1598,(203) 397-4830
24279,90279000545,BETSY ROSS ARTS MAGNET SCHOOL,150 KIMBERLY AVE.,NEW HAVEN,CT,6519,NOT AVAILABLE,(475) 220-5300
25789,90366000769,AMITY MIDDLE SCHOOL: ORANGE,100 OHMAN AVE.,ORANGE,CT,6477,1328,(203) 392-3200
25790,90279001216,SOUND SCHOOL,60 SOUTH WATER ST.,NEW HAVEN,CT,6519,NOT AVAILABLE,(475) 220-2300
26841,90126000195,DR. JOHN A. LANGFORD SCHOOL,61 ALPS DR.,EAST HARTFORD,CT,6108,1402,(860) 622-5700
58754,90426000842,SAYLES SCHOOL,25 SCOTLAND ROAD,BALTIC,CT,6330,1110,(860) 822-8264
61198,90351500726,WARREN ELEMENTARY SCHOOL,21 SACKETT HILL RD.,WARREN,CT,6754,1713,(860) 868-2223
61584,90279000551,DAVIS ACADEMY FOR ARTS & DESIGN INNOVATION,35 DAVIS ST.,NEW HAVEN,CT,6515,NOT AVAILABLE,(475) 220-7800
64899,90492001018,MORLEY SCHOOL,77 BRETTON RD.,WEST HARTFORD,CT,6119,1209,(860) 233-8535
68642,90279000566,LINCOLN-BASSETT SCHOOL,130 BASSETT ST.,NEW HAVEN,CT,6511,NOT AVAILABLE,(475) 220-8500
79976,90039000038,FIELDS MEMORIAL SCHOOL,8 BOZRAH ST. EXT.,BOZRAH,CT,6334,1300,(860) 887-2561
40279,90021000018,EMMA HART WILLARD SCHOOL,1088 NORTON RD.,BERLIN,CT,6037,3020,(860) 828-4151
4304,90267000510,DILORETO ELEMENTARY & MIDDLE SCHOOL,732 SLATER RD.,NEW BRITAIN,CT,6053,2239,(860) 223-2885
5643,90207000392,KILLINGLY HIGH SCHOOL,226 PUTMAN PIKE,DAYVILLE,CT,6241,NOT AVAILABLE,(860) 779-6620
7466,90000900774,ODYSSEY COMMUNITY SCHOOL,579 MIDDLE TPKE WEST,MANCHESTER,CT,6040,NOT AVAILABLE,(860) 645-1234
8608,90429000847,STAFFORDVILLE SCHOOL,21 LYONS RD.,STAFFORD SPRINGS,CT,6076,NOT AVAILABLE,(860) 684-3298
8999,90045000070,CESAR BATALLA SCHOOL,606 HOWARD AVE.,BRIDGEPORT,CT,6605,NOT AVAILABLE,(203) 579-8501
82663,90288000604,ELIZABETH GREEN SCHOOL,30 THOMAS ST.,NEWINGTON,CT,6111,2059,(860) 666-3394
84283,90177000326,WEST SIDE MIDDLE SCHOOL,250 BRANDEGEE AVENUE,GROTON,CT,6340,5108,(860) 449-5630
87031,90351500723,GOSHEN CENTER SCHOOL,50 NORTH ST.,GOSHEN,CT,6756,1509,(860) 491-6020
100886,90405000806,SHELTON HIGH SCHOOL,120 MEADOW ST.,SHELTON,CT,6484,2276,(203) 922-3004
24066,90070000880,METROPOLITAN LEARNING CENTER FOR GLOBAL AND INTERNATIONAL ST,1551 BLUE HILLS AVE.,BLOOMFIELD,CT,6002,NOT AVAILABLE,(860) 242-7834
25341,90156000277,WEST DISTRICT SCHOOL,114 WEST DISTRICT ROAD,UNIONVILLE,CT,6085,NOT AVAILABLE,(860) 673-2579
25983,90432000853,DOLAN SCHOOL,51 TOMS RD.,STAMFORD,CT,6906,NOT AVAILABLE,(203) 977-4441
62707,90465000938,UNION SCHOOL,18 KINNEY HOLLOW RD.,UNION,CT,6076,4922,(860) 684-3146
65137,90471000949,VOLUNTOWN ELEMENTARY SCHOOL,195 MAIN STREET,VOLUNTOWN,CT,6384,0129,(860) 376-2325
67001,90432000858,JULIA A. STARK SCHOOL,398 GLENBROOK RD.,STAMFORD,CT,6906,2122,(203) 977-4583
604,90003010001,ANDOVER ELEMENTARY SCHOOL,35 SCHOOL RD.,ANDOVER,CT,6232,1526,(860) 742-7339
6998,90192001534,BREAKTHROUGH MAGNET SCHOOL NORTH,25 RIDGEFIELD STREET,HARTFORD,CT,6112,NOT AVAILABLE,(860) 695-6380
7190,90001500809,THE BRIDGE ACADEMY,160 PULASKI STREET,BRIDGEPORT,CT,6608,NOT AVAILABLE,(203) 336-9999
8334,90240000449,ORVILLE H. PLATT HIGH SCHOOL,220 COE AVE.,MERIDEN,CT,6450,3812,(203) 235-7963
94491,90318000007,OLD SAYBROOK MIDDLE SCHOOL,60 SHEFFIELD ST.,OLD SAYBROOK,CT,6475,2307,(860) 395-3168
99011,90492001419,BRISTOW MIDDLE SCHOOL,34 HIGHLAND ST.,WEST HARTFORD,CT,6102,NOT AVAILABLE,(860) 231-2100
52534,90153000262,MCKINLEY SCHOOL,60 THOMPSON ST.,FAIRFIELD,CT,6825,NOT AVAILABLE,(203) 255-8318
57839,90162000287,NAUBUC SCHOOL,82 GRISWOLD ST.,GLASTONBURY,CT,6033,1006,(860) 652-7918
80773,90180000332,GUILFORD HIGH SCHOOL,605 NEW ENGLAND RD.,GUILFORD,CT,6437,1838,(203) 453-2741
82868,90192001572,BULKELEY HIGH SCHOOL,395 LYME STREET,HARTFORD,CT,6112,NOT AVAILABLE,(860) 695-1011
84735,90120000198,NATHAN HALE-RAY MIDDLE SCHOOL,73 CLARK GATES RD.,MOODUS,CT,6469,0363,(860) 873-5081
85474,90309000662,WOLFPIT SCHOOL,ONE STARLIGHT DRIVE,NORWALK,CT,6851,3443,(203) 899-2980
86700,90351000722,REDDING ELEMENTARY SCHOOL,33 LONETOWN RD.,REDDING,CT,6896,NOT AVAILABLE,(203) 938-2519
87905,90285000602,NEW MILFORD HIGH SCHOOL,388 DANBURY RD.,NEW MILFORD,CT,6776,NOT AVAILABLE,(860) 350-6647
88543,90180000329,A. W. COX SCHOOL,143 THREE MILE COURSE,GUILFORD,CT,6437,2522,(203) 453-5291
11058,90330000702,LOUIS TOFFOLON SCHOOL,145 NORTHWEST DR.,PLAINVILLE,CT,6062,1534,(860) 793-3280
11250,90279000556,HILL REGIONAL CAREER HIGH SCHOOL,140 LEGION AVE.,NEW HAVEN,CT,6519,NOT AVAILABLE,(475) 220-5000
11350,90264000505,NAUGATUCK HIGH SCHOOL,543 RUBBER AVE.,NAUGATUCK,CT,6770,2887,(203) 720-5400
13748,90309000642,COLUMBUS MAGNET SCHOOL,46 CONCORD STREET,NORWALK,CT,6854,3699,(203) 899-2840
15119,90414000818,MABELLE B. AVERY MIDDLE SCHOOL,1 VISION BOULEVARD,SOMERS,CT,6071,9609,(860) 749-2270
15571,90036000036,BOLTON CENTER SCHOOL,108 NOTCH RD.,BOLTON,CT,6043,7498,(860) 643-2411
17478,90267000512,GAFFNEY ELEMENTARY SCHOOL,322 SLATER RD.,NEW BRITAIN,CT,6053,3458,(860) 225-6247
17593,90462000929,DANIELS FARM SCHOOL,710 DANIELS FARM RD.,TRUMBULL,CT,6611,5539,(203) 452-4388
19364,90000201139,ELLA T. GRASSO TECHNICAL HIGH SCHOOL,189 FORT HILL RD.,GROTON,CT,6340,4803,(860) 448-0220
31316,90489001008,WATERTOWN HIGH SCHOOL,324 FRENCH ST.,WATERTOWN,CT,6795,2929,(860) 945-4810
37801,90249000459,WOODROW WILSON MIDDLE SCHOOL,370 HUNTING HILL AVE.,MIDDLETOWN,CT,6457,4356,(860) 347-8594
39034,90255000490,MONROE ELEMENTARY SCHOOL,375 MONROE TPKE.,MONROE,CT,6468,NOT AVAILABLE,(203) 452-2870
71069,90096000144,GEORGE HERSEY ROBERTSON SCHOOL,227 CROSS STREET,COVENTRY,CT,6238,3304,(860) 742-7341
72613,90070001629,ACADEMY OF AEROSPACE AND ENGINEERING ELEMENTARY,7 GARDNER WAY,ROCKY HILL,CT,6067,NOT AVAILABLE,(860) 529-1652
73545,90186000346,SHEPHERD GLEN SCHOOL,1 SKIFF ST. EXT.,HAMDEN,CT,6514,1845,(203) 407-2070
79254,90069001376,CANTON MIDDLE SCHOOL,76 SIMONDS AVENUE,CANTON,CT,6019,1207,(860) 693-7712
90091,90045001639,AEROSPACE/HYDROSPACE ENGINEERING AND PHYSICAL SCIENCES MAGNE,840 OLD TOWN ROAD,BRIDGEPORT,CT,6606,NOT AVAILABLE,(203) 275-3343
90474,90432000859,K. T. MURPHY SCHOOL,19 HORTON ST.,STAMFORD,CT,6902,6216,(203) 977-4516
94690,90309000643,CRANBURY ELEMENTARY SCHOOL,5 KNOWALOT LANE,NORWALK,CT,6851,1399,(203) 846-3600
97395,90354001123,LYME-OLD LYME MIDDLE SCHOOL,53 LYME ST.,OLD LYME,CT,6371,2335,(860) 434-2568
99017,90339000711,GILDERSLEEVE SCHOOL,565 MAIN ST.,PORTLAND,CT,6480,1103,(860) 342-0411
99029,90495001027,ALMA E. PAGELS SCHOOL,26 BENHAM HILL RD.,WEST HAVEN,CT,6516,6545,(203) 931-6840
73554,90126000201,GOVERNOR WILLIAM PITKIN SCHOOL,330 HILLS ST.,EAST HARTFORD,CT,6118,2910,(860) 622-5480
74656,90007000884,WINTERGREEN INTERDISTRICT MAGNET SCHOOL,88 BASSETT ROAD,NORTH HAVEN,CT,6473,NOT AVAILABLE,(203) 281-9668
76319,90459000925,TORRINGTON MIDDLE SCHOOL,200 MIDDLE SCHOOL RD.,TORRINGTON,CT,6790,3168,(860) 496-4050
77359,90399000794,SEYMOUR MIDDLE SCHOOL,211 MOUNTAIN RD.,SEYMOUR,CT,6483,3110,(203) 888-4513
77453,90255000491,STEPNEY ELEMENTARY SCHOOL,180 OLD NEWTOWN RD.,MONROE,CT,6468,NOT AVAILABLE,(203) 452-2885
80888,90321000689,TURKEY HILL SCHOOL,441 TURKEY HILL RD.,ORANGE,CT,6477,2218,(203) 891-8040
85273,90240000443,ISRAEL PUTNAM SCHOOL,133 PARKER AVE.,MERIDEN,CT,6450,5925,(203) 237-8493
86694,90171000300,GREENWICH HIGH SCHOOL,10 HILLSIDE RD.,GREENWICH,CT,6830,4835,(203) 625-8000
101026,90228000413,KATHLEEN H. RYERSON ELEMENTARY SCHOOL,982 DURHAM RD.,MADISON,CT,6443,1843,(203) 245-6440
10134,90192001435,CAPITAL PREPARATORY MAGNET SCHOOL,1304 MAIN STREET,HARTFORD,CT,6103,NOT AVAILABLE,(860) 695-9800
12759,90153000260,HOLLAND HILL SCHOOL,105 MEADOWCROFT ROAD,FAIRFIELD,CT,6824,NOT AVAILABLE,(203) 255-8314
14942,90070000210,MONTESSORI MAGNET SCHOOL,1460 BROAD ST.,HARTFORD,CT,6106,NOT AVAILABLE,(860) 757-6100
18561,90423000840,THALBERG ELEMENTARY SCHOOL,145 DUNHAM RD.,SOUTHINGTON,CT,6489,1258,(860) 628-3370
30776,90120000184,EAST HADDAM ELEMENTARY SCHOOL,45 JOE WILLIAMS RD.,MOODUS,CT,6469,0425,(860) 873-5076
31597,90087000138,COLEBROOK CONSOLIDATED SCHOOL,452 SMITH HILL ROAD,COLEBROOK,CT,6021,NOT AVAILABLE,(860) 379-2179
36954,90405000003,SUNNYSIDE SCHOOL,418 RIVER RD.,SHELTON,CT,6484,4524,(203) 922-3021
37818,90012001367,THOMPSON BROOK SCHOOL,150 THOMPSON RD.,AVON,CT,6001,2208,(860) 404-4870
37867,90102000153,KING STREET PRIMARY SCHOOL,151 SOUTH KING ST.,DANBURY,CT,6811,3540,(203) 797-4744
52781,90045000050,BASSICK HIGH SCHOOL,1181 FAIRFIELD AVE.,BRIDGEPORT,CT,6605,1119,(203) 576-7350
53146,90033001565,WINTONBURY EARLY CHILDHOOD MAGNET SCHOOL,44 BROWN STREET,BLOOMFIELD,CT,6002,NOT AVAILABLE,(860) 769-5510
58091,90192001535,GLOBAL COMMUNICATIONS ACADEMY,85 EDWARDS STREET,HARTFORD,CT,6112,1826,(860) 695-6020
59724,90489001007,SWIFT MIDDLE SCHOOL,250 COLONIAL ST.,OAKVILLE,CT,6779,2008,(860) 945-4830
20717,90123000187,EAST HAMPTON HIGH SCHOOL,15 NORTH MAPLE ST.,EAST HAMPTON,CT,6424,1064,(860) 365-4030
20726,90495001040,WASHINGTON SCHOOL,369 WASHINGTON AVE.,WEST HAVEN,CT,6516,5328,(203) 931-6880
24633,90240000450,ROGER SHERMAN SCHOOL,64 NORTH PEARL ST.,MERIDEN,CT,6450,4419,(203) 238-1286
28862,90414000526,SOMERS ELEMENTARY SCHOOL,4 VISION BOULEVARD,SOMERS,CT,6071,9609,(860) 749-2270
28962,90381000525,BRANCHVILLE ELEMENTARY SCHOOL,40 FLORIDA RD.,RIDGEFIELD,CT,6877,6111,(203) 894-5850
29893,90123000189,MEMORIAL SCHOOL,20 SMITH ST.,EAST HAMPTON,CT,6424,1698,(860) 365-4020
60295,90353700708,LONG MEADOW ELEMENTARY SCHOOL,65 NORTH BENSON RD.,MIDDLEBURY,CT,6762,NOT AVAILABLE,(203) 758-1144
60977,90378000773,JOEL BARLOW HIGH SCHOOL,100 BLACK ROCK TPKE.,REDDING,CT,6896,3099,(203) 938-2508
65687,90033001619,LEARNING ACADEMY AT BLOOMFIELD,20-28 SARGEANT STREET,HARTFORD,CT,6105,NOT AVAILABLE,(860) 761-7300
47011,90348000719,PUTNAM HIGH SCHOOL,152 WOODSTOCK AVE.,PUTNAM,CT,6260,1440,(860) 963-6905
47987,90519001084,W. B. SWEENEY SCHOOL,60 OAK HILL DR.,WILLIMANTIC,CT,6226,1223,(860) 465-2420
5163,90070001601,MUSEUM ACADEMY,11 TURKEY HILL ROAD,BLOOMFIELD,CT,6002,NOT AVAILABLE,(860) 231-7800
10109,90228001480,WALTER C. POLSON MIDDLE SCHOOL,302 GREEN HILL RD.,MADISON,CT,6443,2283,(203) 245-6480
11706,90330000701,LINDEN STREET SCHOOL,69 LINDEN ST.,PLAINVILLE,CT,6062,2352,(860) 793-3270
16870,90264000506,HOP BROOK ELEMENTARY SCHOOL,75 CROWN STREET,NAUGATUCK,CT,6770,NOT AVAILABLE,(203) 720-5231
17268,90429000061,STAFFORD MIDDLE SCHOOL,21 LEVINTHAL RUN,STAFFORD SPRINGS,CT,6076,3719,(860) 684-2785
1670,90192001370,SPORT AND MEDICAL SCIENCES ACADEMY,280 HUYSHOPE AVENUE,HARTFORD,CT,6106,NOT AVAILABLE,(860) 695-6900
3752,90156001368,WEST WOODS UPPER ELEMENTARY SCHOOL,50 JUDSON LN.,FARMINGTON,CT,6032,NOT AVAILABLE,(860) 284-1230
5313,90070001532,CIVIC LEADERSHIP HIGH SCHOOL,1617 KING STREET,ENFIELD,CT,6082,NOT AVAILABLE,(860) 253-0274
7750,90078000130,CHESTER ELEMENTARY SCHOOL,23 RIDGE RD.,CHESTER,CT,6412,1121,(860) 526-5797
8892,90444000895,SECOND HILL LANE SCHOOL,65 SECOND HILL LN.,STRATFORD,CT,6614,NOT AVAILABLE,(203) 385-4292
28125,90483000977,H. S. CHASE SCHOOL,40 WOODTICK RD.,WATERBURY,CT,6705,2207,(203) 574-8188
30833,90132000223,EAST LYME HIGH SCHOOL,30 CHESTERFIELD RD.,EAST LYME,CT,6333,1244,(860) 739-6946
31127,90273001195,MEETING HOUSE HILL SCHOOL,24 GILLOTTI RD.,NEW FAIRFIELD,CT,6812,2525,(203) 312-5905
32888,90462000936,TASHUA SCHOOL,401 STONEHOUSE RD.,TRUMBULL,CT,6611,1651,(203) 452-4433
35624,90288000611,ANNA REYNOLDS SCHOOL,85 RESERVOIR RD.,NEWINGTON,CT,6111,1025,(860) 521-7830
36865,90498001042,DAISY INGRAHAM SCHOOL,105 GOODSPEED DR.,WESTBROOK,CT,6498,1997,(860) 399-7925
90401,90264001223,MAPLE HILL SCHOOL,641 MAPLE HILL RD.,NAUGATUCK,CT,6770,3557,(203) 720-5236
92582,90192000381,MILNER MIDDLE SCHOOL,150 TOWER AVENUE,HARTFORD,CT,6112,NOT AVAILABLE,(860) 695-4380
98881,90099001432,WOODSIDE INTERMEDIATE SCHOOL,30 WOODSIDE RD.,CROMWELL,CT,6416,NOT AVAILABLE,(860) 632-3564
70932,90070001597,DISCOVERY ACADEMY,176 CUMBERLAND AVENUE,WETHERSFIELD,CT,6109,NOT AVAILABLE,(860) 296-2090
71039,90249000458,MACDONOUGH SCHOOL,66 SPRING ST.,MIDDLETOWN,CT,6457,2262,(860) 347-8553
72020,90153000264,NORTH STRATFIELD SCHOOL,190 PUTTING GREEN RD.,FAIRFIELD,CT,6825,NOT AVAILABLE,(203) 255-8322
72042,90411000812,LATIMER LANE SCHOOL,33 MOUNTAIN VIEW RD.,WEATOGUE,CT,6089,9721,(860) 658-4774
74194,90456000948,BIRCH GROVE PRIMARY SCHOOL,247 RHODES RD,TOLLAND,CT,6084,3568,(860) 870-6750
62325,90222000405,CENTER SCHOOL,125 WEST ST.,LITCHFIELD,CT,6759,NOT AVAILABLE,(860) 567-7510
63576,90255000488,FAWN HOLLOW ELEMENTARY SCHOOL,375 FAN HILL RD.,MONROE,CT,6468,NOT AVAILABLE,(203) 452-2923
68720,90411000812,LATIMER LANE SCHOOL,33 MOUNTAIN VIEW RD.,WEATOGUE,CT,6089,9721,(860) 658-4774
80121,90252000467,CALF PEN MEADOW SCHOOL,395 WELCH'S POINT RD.,MILFORD,CT,6460,7502,(203) 783-3521
81468,90444000893,LORDSHIP SCHOOL,254 CROWN ST.,STRATFORD,CT,6615,7511,(203) 385-4170
84519,90459000924,TORRINGTON HIGH SCHOOL,50 MAJOR BESSE DR.,TORRINGTON,CT,6790,3793,(860) 489-2294
51162,90456000913,TOLLAND INTERMEDIATE SCHOOL,96 OLD POST RD,TOLLAND,CT,6084,3325,(860) 870-6885
54087,90353801811,PROSPECT ELEMENTARY SCHOOL,75 NEW HAVEN ROAD,PROSPECT,CT,6712,NOT AVAILABLE,(203) 578-3300
55134,90105000164,DARIEN HIGH SCHOOL,80 HIGH SCHOOL LN.,DARIEN,CT,6820,3399,(203) 655-3981
59190,90186000342,HAMDEN MIDDLE SCHOOL,2623 DIXWELL AVE.,HAMDEN,CT,6518,NOT AVAILABLE,(203) 407-3140
59770,90353500741,JOHN LYMAN SCHOOL,106 WAY RD.,MIDDLEFIELD,CT,6455,1059,(860) 349-7240
100661,90459000922,SOUTHWEST SCHOOL,340 LITCHFIELD ST.,TORRINGTON,CT,6790,NOT AVAILABLE,(860) 489-2311
100906,90300000626,NORTH CANAAN ELEMENTARY SCHOOL,90 PEASE STREET,NORTH CANAAN,CT,6018,2026,(860) 824-5149
104597,90353901921,HADDAM-KILLINGWORTH INTERMEDIATE SCHOOL,451 ROUTE 81,KILLINGWORTH,CT,6419,NOT AVAILABLE,(860) 663-1241
11405,90153000270,STRATFIELD SCHOOL,1407 MELVILLE AVE.,FAIRFIELD,CT,6825,NOT AVAILABLE,(203) 255-8332
12829,90136001507,ARTS AT THE CAPITOL THEATER MAGNET SCHOOL (ACT),896 MAIN STREET,WILLIMANTIC,CT,6226,NOT AVAILABLE,(860) 465-5636
12876,90168000290,KELLY LANE PRIMARY SCHOOL,60 KELLY LN.,GRANBY,CT,6035,2920,(860) 844-3041
13432,90327000693,PLAINFIELD CENTRAL SCHOOL,75 CANTERBURY RD.,PLAINFIELD,CT,6374,1556,(860) 564-6437
17363,90339001393,BROWNSTONE INTERMEDIATE SCHOOL,314 MAIN ST.,PORTLAND,CT,6480,1877,(860) 342-6765
83551,90525001097,NORTH STREET SCHOOL,325 NORTH ST.,WINDSOR LOCKS,CT,6096,1243,(860) 292-5027
87799,90001600823,SIDE BY SIDE CHARTER SCHOOL,10 CHESTNUT ST.,NORWALK,CT,6854,NOT AVAILABLE,(203) 857-0306
605,90006010002,ANSONIA HIGH SCHOOL,20 PULASKI HWY.,ANSONIA,CT,6401,2561,(203) 736-5060
3509,90132000225,FLANDERS SCHOOL,167 BOSTON POST RD.,EAST LYME,CT,6333,NOT AVAILABLE,(860) 739-8475
6792,90279001509,BARACK H. OBAMA MAGNET UNIVERSITY SCHOOL,69 FARNHAM AVE,NEW HAVEN,CT,6515,NOT AVAILABLE,(475) 220-4800
7131,90525001101,WINDSOR LOCKS MIDDLE SCHOOL,7 CENTER ST.,WINDSOR LOCKS,CT,6096,2312,(860) 292-5012
9103,90162000280,BUTTONBALL LANE SCHOOL,376 BUTTONBALL LN.,GLASTONBURY,CT,6033,3226,(860) 652-7276
9427,90180000328,A. BALDWIN MIDDLE SCHOOL,68 BULLARD DR.,GUILFORD,CT,6437,1553,(203) 457-0222
40854,90267000518,PULASKI MIDDLE SCHOOL,757 FARMINGTON AVE.,NEW BRITAIN,CT,6053,1364,(860) 225-7665
41446,90192000372,NAYLOR/CCSU LEADERSHIP ACADEMY,639 FRANKLIN AVENUE,HARTFORD,CT,6114,3030,(860) 695-4620
41538,90468000944,SKINNER ROAD SCHOOL,90 SKINNER RD.,VERNON,CT,6066,2723,(860) 870-6180
42357,90504001048,BEDFORD MIDDLE SCHOOL,88 NORTH AVE.,WESTPORT,CT,6880,NOT AVAILABLE,(203) 341-1510
43401,90075000129,NORTON SCHOOL,414 NORTH BROOKSVALE RD.,CHESHIRE,CT,6410,3340,(203) 272-7283
93540,90423000829,DERYNOSKI ELEMENTARY SCHOOL,240 MAIN ST.,SOUTHINGTON,CT,6489,2528,(860) 628-3286
97617,90411000810,CENTRAL SCHOOL,29 MASSACO ST.,SIMSBURY,CT,6070,2118,(860) 658-4732
97859,90288000606,JOHN PATERSON SCHOOL,120 CHURCH ST.,NEWINGTON,CT,6111,4801,(860) 666-4657
54072,90012010010,PINE GROVE SCHOOL,151 SCOVILLE RD.,AVON,CT,6001,3023,(860) 404-4790
30048,90117000183,R. DUDLEY SEYMOUR SCHOOL,185 HARTFORD AVE.,EAST GRANBY,CT,6026,9520,(860) 653-7214
30901,90423000838,SOUTHINGTON HIGH SCHOOL,720 PLEASANT STREET,SOUTHINGTON,CT,6489,2713,(860) 628-3229
31898,90279001388,KING/ROBINSON MAGNET SCHOOL,150 FOURNIER ST.,NEW HAVEN,CT,6511,NOT AVAILABLE,(475) 220-2700
33224,90171000308,RIVERSIDE SCHOOL,90 HENDRIE AVE.,RIVERSIDE,CT,6878,1829,(203) 637-1440
33989,90249000462,SPENCER SCHOOL,207 WESTFIELD ST.,MIDDLETOWN,CT,6457,2042,(860) 344-0711
36536,90126000197,EAST HARTFORD MIDDLE SCHOOL,777 BURNSIDE AVE.,EAST HARTFORD,CT,6108,2705,(860) 622-5600
37008,90051000104,NORTHEAST MIDDLE SCHOOL,530 STEVENS ST.,BRISTOL,CT,6010,2587,(860) 584-7839
39858,90192001403,GREAT PATH ACADEMY AT MCC,60 BIDWELL STREET,MANCHESTER,CT,6045,NOT AVAILABLE,(860) 521-3700
21804,90234000432,ANNIE E. VINTON SCHOOL,306 STAFFORD RD.,MANSFIELD CENTER,CT,6250,1424,(860) 423-3086
70163,90027000025,BETHEL MIDDLE SCHOOL,600 WHITTLESEY DR.,BETHEL,CT,6801,1531,(203) 794-8670
70346,90045001636,BIOTECHNOLOGY RESEARCH & ZOOLOGICAL STUDIES MAGNET HIGH SCHO,840 OLD TOWN ROAD,BRIDGEPORT,CT,6606,NOT AVAILABLE,(203) 275-3413
76773,90423000831,HATTON ELEMENTARY SCHOOL,50 SPRING LAKE RD.,SOUTHINGTON,CT,6489,4424,(860) 628-3377
62480,90020700907,HIGHVILLE CHARTER SCHOOL,1 SCIENCE PARK,NEW HAVEN,CT,6511,NOT AVAILABLE,(203) 287-0528
63070,90000201149,PLATT TECHNICAL HIGH SCHOOL,600 ORANGE AVE.,MILFORD,CT,6461,2157,(203) 783-5300
66603,90147000249,JOHN F. KENNEDY MIDDLE SCHOOL,155 RAFFIA RD.,ENFIELD,CT,6082,5679,(860) 763-8855
30860,90468000947,VERNON CENTER MIDDLE SCHOOL,777 HARTFORD TPKE.,VERNON,CT,6066,5126,(860) 870-6070
32729,90405000796,BOOTH HILL SCHOOL,544 BOOTH HILL RD.,SHELTON,CT,6484,3426,(203) 929-5625
35587,90486001001,WATERFORD HIGH SCHOOL,20 ROPE FERRY RD.,WATERFORD,CT,6385,2894,(860) 437-6956
37688,90231000425,MARTIN SCHOOL,140 DARTMOUTH RD.,MANCHESTER,CT,6040,6616,(860) 647-3367
39112,90468000943,ROCKVILLE HIGH SCHOOL,70 LOVELAND HILL,VERNON,CT,6066,2304,(860) 870-6050
628,90444001805,STRATFORD ACADEMY - VICTORIA SOTO SCHOOL,699 BIRDSEYE STREET,STRATFORD,CT,6615,NOT AVAILABLE,(203) 375-2206
2635,90207000391,KILLINGLY CENTRAL SCHOOL,60 SOAP ST.,DAYVILLE,CT,6241,0365,(860) 779-6750
2720,90405001584,PERRY HILL ELEMENTARY SCHOOL,60 PERRY HILL ROAD,SHELTON,CT,6484,NOT AVAILABLE,(203) 924-4002
2812,90186000348,SPRING GLEN SCHOOL,1908 WHITNEY AVE.,HAMDEN,CT,6517,1206,(203) 407-2045
2903,90045000066,HALLEN SCHOOL,68 OMEGA AVE.,BRIDGEPORT,CT,6606,3099,(203) 576-8216
3007,90402000795,SHARON CENTER SCHOOL,80 HILLTOP ROAD,SHARON,CT,6069,NOT AVAILABLE,(860) 364-5153
3610,90381000776,EAST RIDGE MIDDLE SCHOOL,10 EAST RIDGE RD.,RIDGEFIELD,CT,6877,5022,(203) 894-5500
6721,90279001519,ENGINEERING - SCIENCE UNIVERSITY MAGNET SCHOOL,500 BOSTON POST ROAD,WEST HAVEN,CT,6516,NOT AVAILABLE,(475) 220-6000
8497,90162000280,BUTTONBALL LANE SCHOOL,376 BUTTONBALL LN.,GLASTONBURY,CT,6033,3226,(860) 652-7276
25953,90033000029,BLOOMFIELD HIGH SCHOOL,5 HUCKLEBERRY LN.,BLOOMFIELD,CT,6002,3190,(860) 286-2630
26823,90000201137,BULLARD-HAVENS TECHNICAL HIGH SCHOOL,500 PALISADE AVE.,BRIDGEPORT,CT,6610,3458,(203) 579-6333
29701,90093000140,CORNWALL CONSOLIDATED SCHOOL,5 CREAM HILL RD.,WEST CORNWALL,CT,6796,NOT AVAILABLE,(860) 672-6617
10130,90492001025,WHITING LANE SCHOOL,47 WHITING LN.,WEST HARTFORD,CT,6119,1642,(860) 233-8541
10852,90474000954,JAMES H. MORAN MIDDLE SCHOOL,141 HOPE HILL ROAD,WALLINGFORD,CT,6492,2227,(203) 741-2900
10859,90279000558,HIGH SCHOOL IN THE COMMUNITY,175 WATER ST.,NEW HAVEN,CT,6511,NOT AVAILABLE,(475) 220-6200
11469,90537000573,WOODSTOCK MIDDLE SCHOOL,147 B-ROUTE 169,WOODSTOCK,CT,6281,3321,(860) 963-6575
11621,90264000502,CROSS STREET INTERMEDIATE SCHOOL,120 CROSS ST.,NAUGATUCK,CT,6770,4729,(203) 720-5227
17362,90070001364,TWO RIVERS MAGNET MIDDLE SCHOOL,337 EAST RIVER DR.,EAST HARTFORD,CT,6108,NOT AVAILABLE,(860) 290-5320
74804,90042000042,MARY T. MURPHY SCHOOL,14 BRUSHY PLAIN RD.,BRANFORD,CT,6405,6001,(203) 483-1832
76347,90039000038,FIELDS MEMORIAL SCHOOL,8 BOZRAH ST. EXT.,BOZRAH,CT,6334,1300,(860) 887-2561
78772,90462000934,MIDDLEBROOK SCHOOL,220 MIDDLEBROOKS AVE.,TRUMBULL,CT,6611,3015,(203) 452-4411
44114,90483000969,BUNKER HILL SCHOOL,170 BUNKER HILL AVE.,WATERBURY,CT,6708,2226,(203) 574-8183
45401,90510001070,HALL MEMORIAL SCHOOL,111 RIVER RD.,WEST WILLINGTON,CT,6279,1842,(860) 429-9391
46741,90177000325,S. B. BUTLER SCHOOL,155 OCEAN VIEW AVE.,MYSTIC,CT,6355,2239,(860) 572-5825
48506,90306000635,WHEELER HIGH SCHOOL,297 NORWICH/WESTERLY RD.,NORTH STONINGTON,CT,6359,0901,(860) 535-0377
80262,90507001068,WETHERSFIELD HIGH SCHOOL,411 WOLCOTT HILL RD.,WETHERSFIELD,CT,6109,2798,(860) 571-8200
82558,90252000474,WEST SHORE MIDDLE SCHOOL,70 KAY AVE.,MILFORD,CT,6460,5496,(203) 783-3553
82599,90051000099,IVY DRIVE SCHOOL,160 IVY DR.,BRISTOL,CT,6010,3303,(860) 584-7844
84713,90312000675,THOMAS W. MAHAN SCHOOL,94 SALEM TPKE.,NORWICH,CT,6360,6496,(860) 823-4205
86442,90111001578,DERBY MIDDLE SCHOOL,73 CHATFIELD STREET,DERBY,CT,6418,NOT AVAILABLE,(203) 736-1426
52024,90159000278,FRANKLIN ELEMENTARY SCHOOL,206 POND RD.,NORTH FRANKLIN,CT,6254,1219,(860) 642-7063
53341,90291001487,REED INTERMEDIATE SCHOOL,3 TRADES LANE,NEWTOWN,CT,6470,NOT AVAILABLE,(203) 270-4880
54089,90537311223,THE WOODSTOCK ACADEMY,57 ACADEMY RD.,WOODSTOCK,CT,6281,NOT AVAILABLE,(860) 928-6575
59960,90363000767,JOHN WINTHROP MIDDLE SCHOOL,1 WINTHROP ROAD,DEEP RIVER,CT,6417,NOT AVAILABLE,(860) 526-9546
97356,90102001438,WESTERN CT ACADEMY OF INTERNATIONAL STUDIES ELEMENTARY MAGNE,201 UNIVERSITY BLVD.,DANBURY,CT,6810,NOT AVAILABLE,(203) 778-7462
60560,90042001119,JOHN B. SLINEY SCHOOL,23 EADES ST.,BRANFORD,CT,6405,3628,(203) 481-5386
60814,90000201144,HENRY ABBOTT TECHNICAL HIGH SCHOOL,21 HAYESTOWN AVE.,DANBURY,CT,6811,NOT AVAILABLE,(203) 797-4460
64978,90231001533,ELISABETH M. BENNET ACADEMY,1151 MAIN ST.,MANCHESTER,CT,6040,6011,(860) 647-3571
67919,90279000547,NEW HAVEN ACADEMY,444 ORANGE STREET,NEW HAVEN,CT,6511,NOT AVAILABLE,(475) 220-6600
100292,90353700749,POMPERAUG REGIONAL HIGH SCHOOL,234 JUDD RD.,SOUTHBURY,CT,6488,NOT AVAILABLE,(203) 262-3200
107063,90309001923,P-TECH NORWALK,23 CALVIN MURPHY DRIVE,NORWALK,CT,6851,NOT AVAILABLE,(203) 838-4481
41025,90147000248,HENRY BARNARD SCHOOL,27 SHAKER RD.,ENFIELD,CT,6082,3199,(860) 253-6540
43346,90354000764,MILE CREEK SCHOOL,205 MILE CREEK RD.,OLD LYME,CT,6371,NOT AVAILABLE,(860) 434-2209
46299,90252000473,JOSEPH A. FORAN HIGH SCHOOL,80 FORAN DR.,MILFORD,CT,6460,7799,(203) 783-3502
47679,90294000618,BOTELLE ELEMENTARY SCHOOL,128 GREENWOODS RD. EAST,NORFOLK,CT,6058,1353,(860) 542-5286
49398,90309000660,TRACEY MAGNET SCHOOL,20 CAMP STREET,NORWALK,CT,6851,3797,(203) 899-2960
31496,90240000448,NATHAN HALE SCHOOL,277 ATKINS ST. EXT.,MERIDEN,CT,6450,3408,(203) 237-7486
32049,90171000305,NORTH STREET SCHOOL,381 NORTH ST.,GREENWICH,CT,6830,3903,(203) 869-6756
32968,90345001430,THE FRIENDSHIP SCHOOL,24 ROPE FERRY RD.,WATERFORD,CT,6385,NOT AVAILABLE,(860) 447-4049
35186,90498001042,DAISY INGRAHAM SCHOOL,105 GOODSPEED DR.,WESTBROOK,CT,6498,1997,(860) 399-7925
36360,90102000157,PARK AVENUE SCHOOL,82 PARK AVE.,DANBURY,CT,6810,7630,(203) 797-4763
38301,90492000004,AIKEN SCHOOL,212 KING PHILIP DR.,WEST HARTFORD,CT,6117,1408,(860) 233-6994
51097,90345001581,CONNECTICUT RIVER ACADEMY AT GOODWIN UNIVERSITY,9 RIVERSIDE DRIVE,EAST HARTFORD,CT,6118,NOT AVAILABLE,(860) 913-2200
52573,90252000484,EAST SHORE MIDDLE SCHOOL,240 CHAPEL ST.,MILFORD,CT,6460,7920,(203) 783-3559
55762,90081000134,THE MORGAN SCHOOL,71 KILLINGWORTH TPKE.,CLINTON,CT,6413,1399,(860) 664-6504
20637,90381000778,RIDGEBURY ELEMENTARY SCHOOL,112 BENNETT'S FARM RD.,RIDGEFIELD,CT,6877,1511,(203) 894-5875
26102,90498001043,WESTBROOK MIDDLE SCHOOL,154 MCVEAGH RD.,WESTBROOK,CT,6498,NOT AVAILABLE,(860) 399-2010
28076,90249000461,SNOW SCHOOL,299 WADSWORTH ST.,MIDDLETOWN,CT,6457,4019,(860) 347-2579
83556,90186000338,DUNBAR HILL SCHOOL,315 LANE ST.,HAMDEN,CT,6514,2718,(203) 407-2025
84738,90528001107,WOLCOTT HIGH SCHOOL,457 BOUND LINE RD.,WOLCOTT,CT,6716,2007,(203) 879-8164
86695,90483000990,WENDELL L. CROSS SCHOOL,1255 HAMILTON AVE.,WATERBURY,CT,6706,2306,(203) 574-8171
64381,90522001087,CLOVER STREET SCHOOL,57 CLOVER ST.,WINDSOR,CT,6095,3708,(860) 687-2050
68171,90174000311,GRISWOLD HIGH SCHOOL,267 SLATER AVE.,GRISWOLD,CT,6351,NOT AVAILABLE,(860) 376-7640
93562,90453000911,TOURTELLOTTE MEMORIAL HIGH SCHOOL,785 RIVERSIDE DR.,NORTH GROSVENORDALE,CT,6255,0835,(860) 923-9303
98593,90353900757,BURR DISTRICT ELEMENTARY SCHOOL,792 KILLINGWORTH ROAD,HIGGANUM,CT,6441,4472,(860) 345-4584
70943,90042000041,FRANCIS WALSH INTERMEDIATE SCHOOL,185 DAMASCUS RD.,BRANFORD,CT,6405,6107,(203) 488-8317
101556,90171000304,NORTH MIANUS SCHOOL,309 PALMER HILL RD.,RIVERSIDE,CT,6878,1011,(203) 637-9730
3435,90252000480,ORANGE AVENUE SCHOOL,260 ORANGE AVE.,MILFORD,CT,6460,2196,(203) 783-3537
4524,90309001917,CENTER FOR GLOBAL STUDIES,300 HIGHLAND AVENUE,NORWALK,CT,6854,NOT AVAILABLE,(203) 852-9488
9246,90045000085,A.B. SKANE CENTER,2977 NORTH MADISON AVE.,BRIDGEPORT,CT,6606,2060,(203) 576-7181
10696,90000201145,HOWELL CHENEY TECHNICAL HIGH SCHOOL,791 WEST MIDDLE TPKE.,MANCHESTER,CT,6040,NOT AVAILABLE,(860) 649-5396
11602,90258000496,OAKDALE SCHOOL,30 INDIANA CIRCLE,OAKDALE,CT,6370,1628,(860) 859-1800
15003,90000201141,EMMETT O'BRIEN TECHNICAL HIGH SCHOOL,141 PRINDLE AVE.,ANSONIA,CT,6401,2561,(203) 732-1800
15848,90000201141,EMMETT O'BRIEN TECHNICAL HIGH SCHOOL,141 PRINDLE AVE.,ANSONIA,CT,6401,2561,(203) 732-1800
19385,90351500725,WAMOGO REGIONAL HIGH SCHOOL,98 WAMOGO RD.,LITCHFIELD,CT,6759,3204,(860) 567-7410
606,90006010008,ANSONIA MIDDLE SCHOOL,115 HOWARD AVE.,ANSONIA,CT,6401,NOT AVAILABLE,(203) 736-5070
696,90330000699,FRANK T. WHEELER SCHOOL,15 CLEVERLAND MEMORIAL DR.,PLAINVILLE,CT,6062,1329,(860) 793-3290
3508,90483001115,NORTH END MIDDLE SCHOOL,534 BUCKS HILL RD.,WATERBURY,CT,6704,1270,(203) 574-8097
5543,90070001601,MUSEUM ACADEMY,11 TURKEY HILL ROAD,BLOOMFIELD,CT,6002,NOT AVAILABLE,(860) 231-7800
9687,90432000008,TOQUAM MAGNET SCHOOL,123 RIDGEWOOD AVE.,STAMFORD,CT,6907,NOT AVAILABLE,(203) 977-4556
60155,90453000909,MARY R. FISHER ELEMENTARY SCHOOL,785 RIVERSIDE DR.,NORTH GROSVENORDALE,CT,6255,0835,(860) 923-9142
60511,90084000136,WILLIAM J. JOHNSTON MIDDLE SCHOOL,360 NORWICH AVE.,COLCHESTER,CT,6415,1272,(860) 537-2313
61836,90384000782,ALBERT D. GRISWOLD MIDDLE SCHOOL,144 BAILEY RD.,ROCKY HILL,CT,6067,2200,(860) 258-7741
63061,90438000876,DEANS MILL SCHOOL,35 DEANS MILL RD.,STONINGTON,CT,6378,2104,(860) 535-2235
63713,90147000243,ENFIELD HIGH SCHOOL,1264 ENFIELD ST.,ENFIELD,CT,6082,4919,(860) 253-5540
64118,90249000460,MOODY SCHOOL,300 COUNTRY CLUB RD.,MIDDLETOWN,CT,6457,2302,(860) 347-2561
65068,90522001093,POQUONOCK ELEMENTARY SCHOOL,1760 POQUONOCK AVE.,WINDSOR,CT,6095,1227,(860) 687-2080
68167,90264000504,HILLSIDE INTERMEDIATE SCHOOL,51 HILLSIDE AVE.,NAUGATUCK,CT,6770,4018,(203) 720-5260
16542,90279000568,NATHAN HALE SCHOOL,480 TOWNSEND AVE.,NEW HAVEN,CT,6512,3964,(475) 220-4200
16582,90309000658,ROWAYTON SCHOOL,1 ROTON AVENUE,NORWALK,CT,6853,NOT AVAILABLE,(203) 899-2940
49386,90353800755,LAUREL LEDGE SCHOOL,30 HIGHLAND AVE.,BEACON FALLS,CT,6403,1199,(203) 729-5355
31141,90162000286,HOPEWELL SCHOOL,1068 CHESTNUT HILL RD.,SOUTH GLASTONBURY,CT,6073,NOT AVAILABLE,(860) 652-7897
32314,90000201142,H. C. WILCOX TECHNICAL HIGH SCHOOL,298 OREGON RD.,MERIDEN,CT,6450,NOT AVAILABLE,(203) 238-6260
35265,90381000779,RIDGEFIELD HIGH SCHOOL,700 NORTH SALEM RD.,RIDGEFIELD,CT,6877,1716,(203) 894-5750
35787,90216000398,GALLUP HILL SCHOOL,169 GALLUP HILL RD.,LEDYARD,CT,6339,1830,(860) 536-9477
36725,90474000536,MARY G. FRITZ ELEMENTARY SCHOOL OF YALESVILLE,415 CHURCH STREET,YALESVILLE,CT,6492,2281,(203) 284-6900
36728,90432000860,NEWFIELD SCHOOL,345 PEPPER RIDGE RD.,STAMFORD,CT,6905,2801,(203) 977-4282
37050,90051000093,BRISTOL EASTERN HIGH SCHOOL,632 KING ST.,BRISTOL,CT,6010,4477,(860) 584-7876
54885,90111000175,DERBY HIGH SCHOOL,75 CHATFIELD STREET,DERBY,CT,6418,NOT AVAILABLE,(203) 736-5032
58649,90045000054,BRYANT SCHOOL,230 POPLAR ST.,BRIDGEPORT,CT,6605,1634,(203) 576-7303
59959,90126001477,CONNECTICUT IB ACADEMY,857 FORBES ST.,EAST HARTFORD,CT,6118,NOT AVAILABLE,(860) 622-5590
90117,90327000695,PLAINFIELD HIGH SCHOOL,105 PUTNAM ROAD,CENTRAL VILLAGE,CT,6332,NOT AVAILABLE,(860) 564-6417
24356,90129000215,DOMINICK H. FERRARA SCHOOL,22 MAYNARD RD.,EAST HAVEN,CT,6512,1299,(203) 468-3318
24376,90447001394,MCALISTER INTERMEDIATE SCHOOL,260 MOUNTAIN ROAD,SUFFIELD,CT,6078,NOT AVAILABLE,(860) 668-3830
27136,90186000349,WEST WOODS SCHOOL,350 WEST TODD ST.,HAMDEN,CT,6518,1129,(203) 407-2050
83419,90252000481,ORCHARD HILLS SCHOOL,185 MARINO DR.,MILFORD,CT,6460,6799,(203) 783-3566
84300,90192000385,WISH MUSEUM SCHOOL,350 BARBOUR STREET,HARTFORD,CT,6120,1002,(860) 695-5600
79956,90153000609,OSBORN HILL SCHOOL,760 STILLSON RD.,FAIRFIELD,CT,6824,NOT AVAILABLE,(203) 255-8340
104595,90192001925,HARTFORD PUBLIC HIGH SCHOOL,55 FOREST STREET,HARTFORD,CT,6105,NOT AVAILABLE,(860) 695-1300
36715,90411000813,SIMSBURY HIGH SCHOOL,34 FARMS VILLAGE RD.,SIMSBURY,CT,6070,2320,(860) 658-0451
39629,90381000777,FARMINGVILLE ELEMENTARY SCHOOL,324 FARMINGVILLE RD.,RIDGEFIELD,CT,6877,4299,(203) 894-5570
13617,90132000226,LILLIE B. HAYNES SCHOOL,29 SOCIETY RD.,NIANTIC,CT,6357,1107,(860) 739-2922
14321,90141000234,SAMUEL STAPLES ELEMENTARY SCHOOL,515 MOREHOUSE ROAD,EASTON,CT,6612,NOT AVAILABLE,(203) 261-3607
17344,90504000960,GREEN'S FARMS SCHOOL,17 MORNINGSIDE DR. SOUTH,WESTPORT,CT,6880,NOT AVAILABLE,(203) 222-3610
60475,90192001381,UNIVERSITY HIGH SCHOOL OF SCIENCE AND ENGINEERING,351 MARK TWAIN DRIVE,HARTFORD,CT,6112,NOT AVAILABLE,(860) 695-9020
60918,90240000441,FRANCIS T. MALONEY HIGH SCHOOL,121 GRAVEL ST.,MERIDEN,CT,6450,4611,(203) 238-2334
64981,90045001590,INTERDISTRICT DISCOVERY MAGNET SCHOOL,4510 PARK AVENUE,BRIDGEPORT,CT,6606,NOT AVAILABLE,(203) 275-1801
67762,90279000580,AUGUSTA LEWIS TROUP SCHOOL,259 EDGEWOOD AVE.,NEW HAVEN,CT,6511,4106,(475) 220-3000
68292,90007001358,THOMAS EDISON MAGNET MIDDLE SCHOOL,1355 NORTH BROAD ST.,MERIDEN,CT,6450,NOT AVAILABLE,(203) 639-8403
20939,90135000230,EAST WINDSOR MIDDLE SCHOOL,38 MAIN ST.,BROAD BROOK,CT,6016,9602,(860) 623-4488
21537,90444000897,STRATFORD HIGH SCHOOL,245 KING,STRATFORD,CT,6615,5822,(203) 385-4230
22542,90252000472,JONATHAN LAW HIGH SCHOOL,20 LANSDALE AVE.,MILFORD,CT,6460,5199,(203) 783-3574
23797,90063000115,LEE H. KELLOGG SCHOOL,47 MAIN ST.,FALLS VILLAGE,CT,6031,NOT AVAILABLE,(860) 824-7791
92258,90189000351,HAMPTON ELEMENTARY SCHOOL,380 MAIN ST.,HAMPTON,CT,6247,1416,(860) 455-9409
93334,90507001061,EMERSON-WILLIAMS SCHOOL,461 WELLS RD.,WETHERSFIELD,CT,6109,2867,(860) 571-8360
94950,90353701200,MIDDLEBURY ELEMENTARY SCHOOL,550 WHITTEMORE RD,MIDDLEBURY,CT,6762,1093,(203) 758-2401
95827,90174001721,GRISWOLD ALTERNATIVE SCHOOL,1553 GLASGO ROAD,GRISWOLD,CT,6351,NOT AVAILABLE,(860) 376-9129
99593,90353000731,BOOTH FREE SCHOOL,14 SOUTH ST.,ROXBURY,CT,6783,1706,(860) 354-9391
50239,90531001611,BEECHER ROAD SCHOOL,40 BEECHER RD.,WOODBRIDGE,CT,6525,2006,(203) 389-2195
57101,90363000767,JOHN WINTHROP MIDDLE SCHOOL,1 WINTHROP ROAD,DEEP RIVER,CT,6417,NOT AVAILABLE,(860) 526-9546
58011,90267001445,HOUSE OF ARTS LETTERS AND SCIENCE (HALS) ACADEMY,30 PENDLETON RD.,NEW BRITAIN,CT,6053,NOT AVAILABLE,(860) 826-1866
58167,90192001616,BETANCES STEM MAGNET SCHOOL,400 WETHERSFIELD AVENUE,HARTFORD,CT,6114,NOT AVAILABLE,(860) 695-2970
58175,90483000987,WALSH SCHOOL,55 DIKEMAN STREET,WATERBURY,CT,6704,3907,(203) 574-8164
80051,90432000861,NORTHEAST SCHOOL,82 SCOFIELDTOWN RD.,STAMFORD,CT,6903,NOT AVAILABLE,(203) 977-4469
85122,90483000974,MARGARET M. GENERALI ELEMENTARY SCHOOL,3196 EAST MAIN ST.,WATERBURY,CT,6705,3430,(203) 574-8174
86270,90495001036,HARRY M. BAILEY MIDDLE SCHOOL,106 MORGAN LN.,WEST HAVEN,CT,6516,6299,(203) 937-4380
86758,90279001585,BRENNAN ROGERS SCHOOL,200 WILMOT RD.,NEW HAVEN,CT,6515,NOT AVAILABLE,(475) 220-2200
70271,90353900760,KILLINGWORTH ELEMENTARY SCHOOL,340 ROUTE 81,HIGGANUM,CT,6419,1299,(860) 663-1121
70579,90353500740,FREDERICK BREWSTER SCHOOL,126 TUTTLE RD.,DURHAM,CT,6422,2213,(860) 349-7227
73409,90045000076,JETTIE S. TISDALE SCHOOL,250 HOLLISTER AVENUE,BRIDGEPORT,CT,6607,NOT AVAILABLE,(203) 576-8037
3364,90303000630,MONTOWESE ELEMENTARY SCHOOL,145 FITCH ST.,NORTH HAVEN,CT,6473,3706,(203) 239-2564
3376,90000201152,WINDHAM TECHNICAL HIGH SCHOOL,210 BIRCH ST.,WILLIMANTIC,CT,6226,2108,(860) 456-3879
3592,90330000703,PLAINVILLE HIGH SCHOOL,47 ROBERT HOLCOMB WAY,PLAINVILLE,CT,6062,NOT AVAILABLE,(860) 793-3220
40656,90192000368,KENNELLY SCHOOL,180 WHITE STREET,HARTFORD,CT,6114,2242,(860) 695-3860
47530,90051001624,WEST BRISTOL SCHOOL,500 CLARK AVENUE,BRISTOL,CT,6010,NOT AVAILABLE,(860) 584-7815
84038,90252000477,MATHEWSON SCHOOL,466 WEST RIVER ST.,MILFORD,CT,6460,1919,(203) 783-3527
94437,90279001207,COOPERATIVE HIGH SCHOOL - INTER-DISTRICT MAGNET,177 COLLEGE STREET,NEW HAVEN,CT,6511,NOT AVAILABLE,(475) 220-2400
97608,90432000870,TURN OF RIVER SCHOOL,117 VINE RD.,STAMFORD,CT,6905,NOT AVAILABLE,(203) 977-4284
98857,90411000814,SQUADRON LINE SCHOOL,44 SQUADRON LINE RD.,SIMSBURY,CT,6070,1636,(860) 658-2251
100115,90507001060,CHARLES WRIGHT SCHOOL,186 NOTT ST.,WETHERSFIELD,CT,6109,1720,(860) 571-8350
51421,90126000196,DR. THOMAS S. O'CONNELL SCHOOL,301 MAY RD.,EAST HARTFORD,CT,6118,3434,(860) 622-5460
51537,90456000914,TOLLAND HIGH SCHOOL,1 EAGLE HILL,TOLLAND,CT,6084,3323,(860) 870-6818
52495,90267000522,SLADE MIDDLE SCHOOL,183 STEELE ST.,NEW BRITIAN,CT,6052,1555,(860) 225-6395
58230,90489001003,FLETCHER W. JUDSON SCHOOL,124 HAMILTON LANE,WATERTOWN,CT,6795,2405,(860) 945-4850
1021,90096000142,COVENTRY GRAMMAR SCHOOL,3453 MAIN STREET,COVENTRY,CT,6238,1568,(860) 742-7313
1677,90171000301,HAMILTON AVENUE SCHOOL,184 HAMILTON AVENUE,GREENWICH,CT,6830,NOT AVAILABLE,(203) 869-1685
2030,90474000957,MOSES Y. BEACH SCHOOL,340 NORTH MAIN STREET,WALLINGFORD,CT,6492,3735,(203) 294-3940
4297,90309000653,NATHAN HALE MIDDLE SCHOOL,176 STRAWBERRY HILL AVENUE,NORWALK,CT,6851,5999,(203) 899-2910
6697,90192001369,BREAKTHROUGH MAGNET SCHOOL SOUTH,290 BROOKFIELD STREET,HARTFORD,CT,6106,NOT AVAILABLE,(860) 695-5700
9110,90336000709,POMFRET COMMUNITY SCHOOL,20 POMFRET ST.,POMFRET CENTER,CT,6259,NOT AVAILABLE,(860) 928-2718
9121,90483000991,WEST SIDE MIDDLE SCHOOL,483 CHASE PARKWAY,WATERBURY,CT,6708,3303,(203) 574-8120
31161,90352000729,LAKE GARDA ELEMENTARY SCHOOL,61 MONCE RD.,BURLINGTON,CT,6013,2540,(860) 673-2511
31378,90282000596,BENNIE DOVER JACKSON MIDDLE SCHOOL,36 WALLER ST.,NEW LONDON,CT,6320,5216,(860) 437-6480
31599,90252000483,PUMPKIN DELIGHT SCHOOL,27 ART ST.,MILFORD,CT,6460,4318,(203) 783-3531
32202,90483000976,GILMARTIN SCHOOL,107 WYOMING AVE.,WATERBURY,CT,6706,2742,(203) 574-8175
33552,90192000377,SAND SCHOOL,1750 MAIN STREET,HARTFORD,CT,6120,NOT AVAILABLE,(860) 695-5040
35901,90051000098,GREENE-HILLS SCHOOL,718 PINE ST.,BRISTOL,CT,6010,6923,(860) 584-7822
36951,90021201528,ACHIEVEMENT FIRST HARTFORD ACADEMY,305 GREENFIELD STREET,HARTFORD,CT,6112,NOT AVAILABLE,(860) 695-6685
37418,90528001103,FRISBIE SCHOOL,24 TODD RD.,WOLCOTT,CT,6716,2821,(203) 879-8146
38836,90483000966,B. W. TINKER SCHOOL,809 HIGHLAND AVE.,WATERBURY,CT,6708,4601,(203) 574-8186
60382,90270000534,WEST SCHOOL,769 PONUS RIDGE,NEW CANAAN,CT,6840,3413,(203) 594-4410
63799,90429000848,WEST STAFFORD SCHOOL,153 WEST STAFFORD RD.,STAFFORD SPRINGS,CT,6076,1017,(860) 684-3181
65964,90432000868,STILLMEADOW SCHOOL,800 STILLWATER RD.,STAMFORD,CT,6902,NOT AVAILABLE,(203) 977-4507
20149,90255000489,MASUK HIGH SCHOOL,1014 MONROE TPKE.,MONROE,CT,6468,NOT AVAILABLE,(203) 452-5823
20644,90126000206,ROBERT J. O'BRIEN SCHOOL,52 FARM DR.,EAST HARTFORD,CT,6108,1211,(860) 622-5760
23992,90353000735,WASHINGTON PRIMARY SCHOOL,11 SCHOOL ST.,WASHINGTON DEPOT,CT,6794,1221,(860) 868-7331
26118,90153000261,JENNINGS SCHOOL,31 PALM DR.,FAIRFIELD,CT,6824,NOT AVAILABLE,(203) 255-8316
28179,90492001015,HALL HIGH SCHOOL,975 NORTH MAIN ST.,WEST HARTFORD,CT,6117,2057,(860) 232-4561
13019,90249000453,BIELEFIELD SCHOOL,70 MAYNARD ST.,MIDDLETOWN,CT,6457,4519,(860) 347-4124
19418,90177000314,CLAUDE CHESTER SCHOOL,1 HARRY DAY DRIVE,GROTON,CT,6340,NOT AVAILABLE,(860) 449-5636
72118,90522001089,JOHN F. KENNEDY SCHOOL,530 PARK AVE.,WINDSOR,CT,6095,3225,(860) 687-2060
72418,90444000899,WILCOXSON SCHOOL,600 WILCOXSON AVE.,STRATFORD,CT,6615,4238,(203) 385-4196
74850,90192001478,CLASSICAL MAGNET SCHOOL,85 WOODLAND STREET,HARTFORD,CT,6105,NOT AVAILABLE,(860) 695-9100
75207,90240000445,JOHN BARRY SCHOOL,124 COLUMBIA ST.,MERIDEN,CT,6450,3171,(203) 237-8831
78773,90156000276,UNION SCHOOL,173 SCHOOL ST.,UNIONVILLE,CT,6085,1096,(860) 673-2575
79411,90069000118,CANTON HIGH SCHOOL,76 SIMONDS AVENUE,CANTON,CT,6019,1207,(860) 693-7707
46733,90291000614,MIDDLE GATE ELEMENTARY SCHOOL,7 COLD SPRING RD.,NEWTOWN,CT,6470,2600,(203) 426-7662
19379,90462000927,BOOTH HILL SCHOOL,545 BOOTH HILL RD.,TRUMBULL,CT,6611,4003,(203) 452-4377
19784,90002400981,AMISTAD ACADEMY,130 EDGEWOOD AVENUE,NEW HAVEN,CT,6511,NOT AVAILABLE,(203) 772-7000
19794,90327000692,MOOSUP ELEMENTARY SCHOOL,35 CHURCH ST.,MOOSUP,CT,6354,1207,(860) 564-6430
1506,90192001370,SPORT AND MEDICAL SCIENCES ACADEMY,280 HUYSHOPE AVENUE,HARTFORD,CT,6106,NOT AVAILABLE,(860) 695-6900
3506,90099000146,EDNA C. STEVENS SCHOOL,25 COURT ST.,CROMWELL,CT,6416,1617,(860) 632-4866
9428,90045000051,BEARDSLEY SCHOOL,500 HUNTINGTON RD.,BRIDGEPORT,CT,6610,1709,(203) 576-7184
90391,90528001102,TYRRELL MIDDLE SCHOOL,500 TODD RD.,WOLCOTT,CT,6716,3144,(203) 879-8151
81427,90273000537,NEW FAIRFIELD HIGH SCHOOL,54 GILLOTTI RD.,NEW FAIRFIELD,CT,6812,2525,(203) 312-5800
84401,90102000161,SHELTER ROCK SCHOOL,2 CROWS NEST RD.,DANBURY,CT,6810,7056,(203) 797-4777
85215,90102000162,SOUTH STREET SCHOOL,129 SOUTH ST.,DANBURY,CT,6810,8039,(203) 797-4787
86721,90353801356,WOODLAND REGIONAL HIGH SCHOOL,135 BACK RIMMON RD.,BEACON FALLS,CT,6403,1199,(203) 881-5551
73973,90417000827,TIMOTHY EDWARDS SCHOOL,100 ARNOLD WAY,SOUTH WINDSOR,CT,6074,3028,(860) 648-5030
79776,90390000787,SALEM ELEMENTARY SCHOOL,200 HARTFORD RD.,SALEM,CT,6420,3804,(860) 859-0267
52667,90492001017,KING PHILIP MIDDLE SCHOOL,100 KING PHILIP DR.,WEST HARTFORD,CT,6117,1316,(860) 233-8236
52909,90522001096,WINDSOR HIGH SCHOOL,50 SAGE PARK RD.,WINDSOR,CT,6095,3329,(860) 687-2020
30440,90342001466,PRESTON VETERANS' MEMORIAL SCHOOL,325 SHETUCKET TPKE.,PRESTON,CT,6365,NOT AVAILABLE,(860) 887-3113
31365,90051000106,STAFFORD SCHOOL,212 LOUISIANA AVE.,BRISTOL,CT,6010,4456,(860) 584-7824
33605,90375001210,RHAM MIDDLE SCHOOL,25 RHAM RD.,HEBRON,CT,6248,1500,(860) 228-9423
39322,90102001166,KING STREET INTERMEDIATE SCHOOL,151 SOUTH KING ST.,DANBURY,CT,6811,3540,(203) 797-4761
60394,90276000538,ANN ANTOLINI SCHOOL,30 ANTOLINI ROAD,NEW HARTFORD,CT,6057,3326,(860) 489-4169
63934,90045000075,CLASSICAL STUDIES ACADEMY,240 LINWOOD AVE.,BRIDGEPORT,CT,6604,2408,(203) 576-7188
68288,90429000845,STAFFORD HIGH SCHOOL,145 ORCUTTVILLE RD.,STAFFORD SPRINGS,CT,6076,3719,(860) 684-4233
27223,90001800834,EXPLORATIONS,71 SPENCER ST.,WINSTED,CT,6098,NOT AVAILABLE,(860) 738-9070
27583,90444000900,DAVID WOOSTER MIDDLE SCHOOL,150 LINCOLN ST.,STRATFORD,CT,6615,4000,(203) 385-4275
40312,90519001083,NATCHAUG SCHOOL,123 JACKSON ST.,WILLIMANTIC,CT,6226,NOT AVAILABLE,(860) 465-2380
41661,90353600746,WOODBURY MIDDLE SCHOOL,67 WASHINGTON AVE.,WOODBURY,CT,6798,2816,(203) 263-4306
7826,90352000728,HARWINTON CONSOLIDATED SCHOOL,115 LITCHFIELD RD.,HAWRINTON,CT,6791,2204,(860) 485-9029
70099,90291000616,NEWTOWN MIDDLE SCHOOL,11 QUEEN ST.,NEWTOWN,CT,6471,2172,(203) 426-7638
75124,90234000435,SOUTHEAST ELEMENTARY SCHOOL,134 WARRENVILLE RD.,MANSFIELD CENTER,CT,6250,1229,(860) 423-1611
81423,90240000443,ISRAEL PUTNAM SCHOOL,133 PARKER AVE.,MERIDEN,CT,6450,5925,(203) 237-8493
83549,90390000787,SALEM ELEMENTARY SCHOOL,200 HARTFORD RD.,SALEM,CT,6420,3804,(860) 859-0267
87852,90352000727,HAR-BUR MIDDLE SCHOOL,26 LYON RD.,BURLINGTON,CT,6013,1313,(860) 673-6163
30192,90363000768,VALLEY REGIONAL HIGH SCHOOL,256 KELSEY HILL RD.,DEEP RIVER,CT,6417,1699,(860) 526-5328
33569,90249000455,FARM HILL SCHOOL,390 RIDGE RD.,MIDDLETOWN,CT,6457,4437,(860) 346-1225
37894,90375000772,RHAM HIGH SCHOOL,85 WALL ST.,HEBRON,CT,6248,NOT AVAILABLE,(860) 228-9474
39484,90297000621,NORTH BRANFORD HIGH SCHOOL,49 CAPUTO RD.,NORTH BRANFORD,CT,6471,1021,(203) 484-1465
66995,90162000279,GIDEON WELLES SCHOOL,1029 NEIPSIC RD.,GLASTONBURY,CT,6033,2571,(860) 652-7800
67893,90264000508,WESTERN SCHOOL,108 PINE ST.,NAUGATUCK,CT,6770,3723,(203) 720-5244
68660,90111000174,BRADLEY SCHOOL,155 DAVID HUMPHREYS RD.,DERBY,CT,6418,2299,(203) 736-5040
68743,90510001069,CENTER SCHOOL,12 OLD FARMS RD.,WEST WILLINGTON,CT,6279,1732,(860) 429-9367
69161,90353600744,MITCHELL ELEMENTARY SCHOOL,14 SCHOOL ST.,WOODBURY,CT,6798,2842,(203) 263-4314
69973,90353800756,LONG RIVER MIDDLE SCHOOL,38 COLUMBIA AVE.,PROSPECT,CT,6712,1638,(203) 758-4421
20587,90027001118,RALPH M. T. JOHNSON SCHOOL,500 WHITTLESEY DR.,BETHEL,CT,6801,1518,(203) 794-8700
29612,90483001638,WATERBURY CAREER ACADEMY,175 BIRCH STREET,WATERBURY,CT,6704,NOT AVAILABLE,(203) 574-8000
94447,90312000677,VETERANS' MEMORIAL SCHOOL,80 CROUCH AVE.,NORWICH,CT,6360,7329,(860) 823-4209
95910,90066001187,DR. HELEN BALDWIN MIDDLE SCHOOL,45 WESTMINSTER RD.,CANTERBURY,CT,6331,1538,(860) 546-9421
97634,90285001372,SARAH NOBLE INTERMEDIATE SCHOOL,25 SUNNY VALLEY RD.,NEW MILFORD,CT,6776,3333,(860) 210-4020
98023,90231000421,ILLING MIDDLE SCHOOL,227 MIDDLE TPKE E,MANCHESTER,CT,6040,4261,(860) 647-3400
42407,90492001019,NORFELDT SCHOOL,35 BARKSDALE RD.,WEST HARTFORD,CT,6117,1605,(860) 233-4421
44568,90276000539,BAKERVILLE CONSOLIDATED SCHOOL,51 CEDAR LN.,NEW HARTFORD,CT,6057,2909,(860) 482-0288
45520,90492001011,BUGBEE SCHOOL,1943 ASYLUM AVE.,WEST HARTFORD,CT,6117,3058,(860) 929-5500
45592,90267000527,VANCE ELEMENTARY SCHOOL,183 VANCE ST.,NEW BRITAIN,CT,6052,1634,(860) 225-8731
46552,90282001685,HARBOR ELEMENTARY SCHOOL,432 MONTAUK AVENUE,NEW LONDON,CT,6320,4698,(860) 447-6040
50588,90045001163,HIGH HORIZONS MAGNET SCHOOL,700 PALISADE AVE.,BRIDGEPORT,CT,6610,3457,(203) 576-7807
52604,90353901201,HADDAM-KILLINGWORTH MIDDLE SCHOOL,451 ROUTE 81,KILLINGWORTH,CT,6419,NOT AVAILABLE,(860) 663-1241
54076,90111001806,LITTLE RAIDERS UNIVERSITY,75 CHATFIELD STREET,DERBY,CT,6418,NOT AVAILABLE,(203) 446-4224
55479,90384000786,WEST HILL SCHOOL,95 CRONIN DR.,ROCKY HILL,CT,6067,1106,(860) 258-7761
55765,90447000903,A. WARD SPAULDING SCHOOL,945 MOUNTAIN RD.,SUFFIELD,CT,6078,2014,(860) 668-3826
11687,90132000224,EAST LYME MIDDLE SCHOOL,31 SOCIETY RD.,NIANTIC,CT,6357,NOT AVAILABLE,(860) 739-4491
15693,90267000524,SMITH ELEMENTARY SCHOOL,142 RUTHERFORD ST.,NEW BRITAIN,CT,6051,3299,(860) 223-1574
18786,90102000152,HAYESTOWN AVENUE SCHOOL,42 TAMARACK AVE.,DANBURY,CT,6811,NOT AVAILABLE,(203) 797-4771
46688,90102000154,MILL RIDGE PRIMARY SCHOOL,49A HIGH RIDGE RD.,DANBURY,CT,6811,5297,(203) 797-4781
47908,90282000591,C.B. JENNINGS INTERNATIONAL ELEMENTARY MAGNET,50 MERCER STREET,NEW LONDON,CT,6320,NOT AVAILABLE,(860) 447-6050
48621,90105000170,OX RIDGE ELEMENTARY SCHOOL,395 MANSFIELD AVE.,DARIEN,CT,6820,2113,(203) 655-2579
52148,90168000291,GRANBY MEMORIAL MIDDLE SCHOOL,321 SALMON BROOK ST.,GRANBY,CT,6035,1804,(860) 844-3029
55275,90192000360,DWIGHT-BELLIZZI DUAL LANGUAGE ACADEMY,215 SOUTH STREET,HARTFORD,CT,6114,1918,(860) 695-2400
57421,90353700708,LONG MEADOW ELEMENTARY SCHOOL,65 NORTH BENSON RD.,MIDDLEBURY,CT,6762,NOT AVAILABLE,(203) 758-1144
58226,90309000657,ROTON MIDDLE SCHOOL,201 HIGHLAND AVENUE,NORWALK,CT,6854,NOT AVAILABLE,(203) 899-2930
58760,90270000533,SOUTH SCHOOL,8 FARM RD.,NEW CANAAN,CT,6840,6697,(203) 594-4313
58887,90091000340,SIX-SIX MAGNET SCHOOL,601 PEARL HARBOR ST.,BRIDGEPORT,CT,6610,NOT AVAILABLE,(203) 365-8200
30859,90054001186,HUCKLEBERRY HILL ELEMENTARY SCHOOL,100 CANDLEWOOD LAKE RD.,BROOKFIELD,CT,6804,2228,(203) 775-7675
34532,90279001564,MAURO-SHERIDAN MAGNET SCHOOL,191 FOUNTAIN ST.,NEW HAVEN,CT,6515,NOT AVAILABLE,(475) 220-2800
37460,90228000411,DANIEL HAND HIGH SCHOOL,286 GREEN HILL RD.,MADISON,CT,6443,NOT AVAILABLE,(203) 245-6350
39837,90126000200,EAST HARTFORD HIGH SCHOOL,869 FORBES ST.,EAST HARTFORD,CT,6118,1921,(860) 622-5200
23828,90186000336,BEAR PATH SCHOOL,10 KIRK RD.,HAMDEN,CT,6514,1308,(203) 407-2015
24291,90462001469,FRENCHTOWN ELEMENTARY SCHOOL,30 FRENCHTOWN RD.,TRUMBULL,CT,6611,NOT AVAILABLE,(203) 452-4227
25836,90279001443,JOHN C. DANIELS,569 CONGRESS AVE.,NEW HAVEN,CT,6519,NOT AVAILABLE,(475) 220-3600
29968,90045000080,READ SCHOOL,130 EZRA ST.,BRIDGEPORT,CT,6606,5061,(203) 576-8030
11668,90045000056,CENTRAL HIGH SCHOOL,1 LINCOLN BLVD.,BRIDGEPORT,CT,6606,5502,(203) 576-7377
12054,90279000586,WEXLER/GRANT COMMUNITY SCHOOL,55 FOOTE ST.,NEW HAVEN,CT,6511,NOT AVAILABLE,(475) 220-5600
15918,90353500742,MIDDLEFIELD MEMORIAL SCHOOL,124 HUBBARD ST.,MIDDLEFIELD,CT,6455,1218,(860) 349-7235
17212,90324000690,OXFORD MIDDLE SCHOOL,40 GREAT OAK RD.,OXFORD,CT,6478,NOT AVAILABLE,(203) 888-5418
17692,90423000833,JOSEPH A. DEPAOLO MIDDLE SCHOOL,385 PLEASANT ST.,SOUTHINGTON,CT,6489,2708,(860) 628-3260
18794,90177001488,NORTHEAST ACADEMY ELEMENTARY SCHOOL,115 OSLO STREET,MYSTIC,CT,6355,NOT AVAILABLE,(860) 572-5852
90756,90444000898,ELI WHITNEY SCHOOL,1130 HUNTINGTON RD.,STRATFORD,CT,6615,2738,(203) 385-4198
98865,90171000302,JULIAN CURTISS SCHOOL,180 EAST ELM ST.,GREENWICH,CT,6830,5755,(203) 869-1896
74780,90291000613,HAWLEY ELEMENTARY SCHOOL,29 CHURCH HILL RD.,NEWTOWN,CT,6470,1644,(203) 426-7666
76004,90006000005,MEAD SCHOOL,75 FORD ST.,ANSONIA,CT,6401,2699,(203) 736-5090
76316,90021000017,CATHERINE M. MCGEE MIDDLE SCHOOL,899 NORTON RD.,BERLIN,CT,6037,3017,(860) 828-0323
79778,90525001097,NORTH STREET SCHOOL,325 NORTH ST.,WINDSOR LOCKS,CT,6096,1243,(860) 292-5027
61074,90483001602,DUGGAN SCHOOL,952 BANK STREET,WATERBURY,CT,6708,NOT AVAILABLE,(203) 574-8875
64223,90240000447,LINCOLN MIDDLE SCHOOL,164 CENTENNIAL AVE.,MERIDEN,CT,6450,3707,(203) 238-2381
65364,90084000135,BACON ACADEMY,611 NORWICH AVE.,COLCHESTER,CT,6415,2142,(860) 537-2378
65498,90228001382,DR. ROBERT H. BROWN INTERMEDIATE SCHOOL,980 DURHAM RD.,MADISON,CT,6443,1843,(203) 245-6400
68755,90231000420,HIGHLAND PARK SCHOOL,397 PORTER ST.,MANCHESTER,CT,6040,5575,(860) 647-3430
84992,90516001077,BATCHELLER EARLY EDUCATION CENTER,201 PRATT ST.,WINSTED,CT,6098,2061,(860) 379-5423
100983,90285000599,HILL AND PLAIN SCHOOL,60 OLD TOWN PARK RD.,NEW MILFORD,CT,6776,4228,(860) 354-5430
20541,90195000386,HARTLAND SCHOOL,30 SOUTH RD.,EAST HARTLAND,CT,6027,9710,(860) 653-7207
22492,90372000771,NORTHWESTERN REGIONAL HIGH SCHOOL,100 BATTISTONI DR.,WINSTED,CT,6098,1899,(860) 379-8525
22630,90351500724,JAMES MORRIS SCHOOL,10 EAST ST.,MORRIS,CT,6763,1801,(860) 567-7420
28937,90105000172,TOKENEKE ELEMENTARY SCHOOL,7 OLD FARM RD.,DARIEN,CT,6820,6113,(203) 655-9666
29761,90432000851,CLOONAN SCHOOL,11 WEST NORTH ST.,STAMFORD,CT,6902,2217,(203) 977-4544
3049,90045000071,PARK CITY MAGNET SCHOOL,1526 CHOPSEY HILL RD.,BRIDGEPORT,CT,6606,2422,(203) 576-7547
3566,90399000790,BUNGAY SCHOOL,35 BUNGAY RD.,SEYMOUR,CT,6483,2521,(203) 881-7500
6402,90045001918,GERALDINE CLAYTOR MAGNET ACADEMY,240 OCEAN TERRACE,BRIDGEPORT,CT,6605,NOT AVAILABLE,(203) 275-1285
7156,90279000553,EDGEWOOD SCHOOL,737 EDGEWOOD AVE.,NEW HAVEN,CT,6515,NOT AVAILABLE,(475) 220-8000
7775,90303000627,CLINTONVILLE ELEMENTARY SCHOOL,456 CLINTONVILLE RD.,NORTH HAVEN,CT,6473,2815,(203) 239-5865
8096,90353700751,ROCHAMBEAU MIDDLE SCHOOL,100 PETER RD.,SOUTHBURY,CT,6488,NOT AVAILABLE,(203) 264-2711
12493,90489001135,JOHN TRUMBULL PRIMARY SCHOOL,779 BUCKINGHAM ST.,OAKVILLE,CT,6779,1109,(860) 945-2776
14466,90192000371,MCDONOUGH MIDDLE SCHOOL,111 HILLSIDE AVENUE,HARTFORD,CT,6106,3545,(860) 695-4260
51054,90045001633,INFORMATION TECHNOLOGY & SOFTWARE ENGINEERING MAGNET HIGH SC,840 OLD TOWN ROAD,BRIDGEPORT,CT,6606,NOT AVAILABLE,(203) 275-3372
51103,90045001631,BRIDGEPORT MILITARY ACADEMY,160 IRANISTAN AVENUE,BRIDGEPORT,CT,6605,NOT AVAILABLE,(203) 275-3961
52412,90051000092,BRISTOL CENTRAL HIGH SCHOOL,480 WOLCOTT ST.,BRISTOL,CT,6010,6480,(860) 584-7735
54088,90423001808,SOUTHINGTON PUBLIC SCHOOLS PRESCHOOL PROGRAM AT HATTON SCHOO,50 SPRING LAKE RD,SOUTHINGTON,CT,6489,NOT AVAILABLE,(860) 628-3377
55672,90240000451,THOMAS HOOKER SCHOOL,70 OVERLOOK RD.,MERIDEN,CT,6450,6933,(203) 237-8839
59202,90279000581,TRUMAN SCHOOL,114 TRUMAN ST.,NEW HAVEN,CT,6519,2022,(475) 220-2100
86059,90045001161,PAUL LAURENCE DUNBAR SCHOOL,445 UNION AVE.,BRIDGEPORT,CT,6607,1823,(203) 576-7194
87815,90117000180,ALLGROVE SCHOOL,33 TURKEY HILLS RD.,EAST GRANBY,CT,6026,9570,(860) 653-2505
88682,90303000628,GREEN ACRES ELEMENTARY SCHOOL,146 UPPER STATE ST.,NORTH HAVEN,CT,6473,1280,(203) 239-5387
90975,90273000535,CONSOLIDATED SCHOOL,12 GILLOTTI RD.,NEW FAIRFIELD,CT,6812,2525,(203) 312-5940
93047,90171001288,INTERNATIONAL SCHOOL AT DUNDEE,55 FLORENCE RD.,RIVERSIDE,CT,6878,NOT AVAILABLE,(203) 637-3800
40687,90381000781,VETERANS PARK ELEMENTARY SCHOOL,8 GOVERNOR ST.,RIDGEFIELD,CT,6877,4653,(203) 894-5525
40987,90312000672,SAMUEL HUNTINGTON SCHOOL,80 WEST TOWN ST.,NORWICH,CT,6360,2209,(860) 823-4204
43953,90231000417,BOWERS SCHOOL,141 PRINCETON ST.,MANCHESTER,CT,6042,3272,(860) 647-3313
30888,90333001521,HARRY S. FISHER ELEMENTARY SCHOOL,79 NORTH MAIN STREET,TERRYVILLE,CT,6786,5329,(860) 314-2770
36323,90027000023,ANNA H. ROCKWELL SCHOOL,400 WHITTLESEY DR.,BETHEL,CT,6801,1546,(203) 794-8688
36994,90012000013,ROARING BROOK SCHOOL,30 OLD WHEELER LN.,AVON,CT,6001,4061,(860) 404-4810
38067,90267000523,SMALLEY ELEMENTARY SCHOOL,175 WEST ST.,NEW BRITAIN,CT,6051,1415,(860) 225-8647
69743,90126000191,ANNA E. NORRIS SCHOOL,40 REMINGTON RD.,EAST HARTFORD,CT,6108,4010,(860) 622-5740
72439,90102000163,STADLEY ROUGH SCHOOL,25 KAREN RD.,DANBURY,CT,6811,3218,(203) 797-4773
73956,90318000684,OLD SAYBROOK SENIOR HIGH SCHOOL,1111 BOSTON POST RD.,OLD SAYBROOK,CT,6475,4403,(860) 395-3175
76024,90309000661,WEST ROCKS MIDDLE SCHOOL,81 WEST ROCKS ROAD,NORWALK,CT,6851,2299,(203) 899-2970
77667,90495001037,CARRIGAN 5/6 INTERMEDIATE SCHOOL,2 TETLOW ST.,WEST HAVEN,CT,6516,1819,(203) 937-4390
79997,90147000242,ELI WHITNEY SCHOOL,94 MIDDLE RD.,ENFIELD,CT,6082,4544,(860) 763-7540
10090,90462000937,TRUMBULL HIGH SCHOOL,72 STROBEL RD.,TRUMBULL,CT,6611,5510,(203) 452-4555
10103,90135000228,BROAD BROOK ELEMENTARY SCHOOL,14 RYE ST.,EAST WINDSOR,CT,6016,9552,(860) 623-2433
14593,90231000424,MANCHESTER HIGH SCHOOL,134 MIDDLETPKE E,MANCHESTER,CT,6040,4260,(860) 647-3530
15970,90084000137,JACK JACKTER INTERMEDIATE SCHOOL,215 HALLS HILL RD.,COLCHESTER,CT,6415,1433,(860) 537-9421
16691,90492001009,BRAEBURN SCHOOL,45 BRAEBURN RD.,WEST HARTFORD,CT,6107,1605,(860) 561-2200
18239,90291000617,SANDY HOOK ELEMENTARY SCHOOL,12 DICKINSON DRIVE,SANDY HOOK,CT,6482,NOT AVAILABLE,(203) 426-7657
19965,90070001516,REGGIO MAGNET SCHOOL OF THE ARTS,59 WATERVILLE ROAD,AVON,CT,6001,NOT AVAILABLE,(860) 674-8549
52852,90432001468,THE ACADEMY OF INFORMATION TECHNOLOGY & ENGINEERING,411 HIGH RIDGE ROAD,STAMFORD,CT,6905,NOT AVAILABLE,(203) 977-4336
56992,90366001114,AMITY MIDDLE SCHOOL: BETHANY,190 LUKE HILL RD.,BETHANY,CT,6524,3345,(203) 393-3102
58642,90352000730,LEWIS S. MILLS HIGH SCHOOL,26 LYON RD.,BURLINGTON,CT,6013,1313,(860) 673-0423
59600,90423000830,FLANDERS ELEMENTARY SCHOOL,100 VICTORIA DR.,SOUTHINGTON,CT,6489,2741,(860) 628-3372
59695,90237000437,ELMER THIENES-MARY HALL ELEMENTARY SCHOOL,25 SCHOOL DR.,MARLBOROUGH,CT,6447,1507,(860) 295-6220
40190,90192000384,WEST MIDDLE SCHOOL,44 NILES STREET,HARTFORD,CT,6112,NOT AVAILABLE,(860) 695-5480
44961,90282000594,NATHAN HALE ARTS MAGNET SCHOOL,37 BEECH DRIVE,NEW LONDON,CT,6320,4698,(860) 447-6060
45422,90051001624,WEST BRISTOL SCHOOL,500 CLARK AVENUE,BRISTOL,CT,6010,NOT AVAILABLE,(860) 584-7815
60739,90258000495,MONTVILLE HIGH SCHOOL,800 OLD COLCHESTER RD.,OAKDALE,CT,6370,NOT AVAILABLE,(860) 848-9208
65966,90462000931,JANE RYAN SCHOOL,190 PARK LN.,TRUMBULL,CT,6611,2399,(203) 452-4400
68117,90429001503,STAFFORD ELEMENTARY SCHOOL,11 LEVINTHAL RUN,STAFFORD SPRINGS,CT,6076,NOT AVAILABLE,(860) 684-6677
22947,90156000274,IRVING A. ROBBINS MIDDLE SCHOOL,20 WOLF PIT RD.,FARMINGTON,CT,6032,2435,(860) 677-2683
23905,90504001056,LONG LOTS SCHOOL,13 HYDE LN.,WESTPORT,CT,6880,3915,(203) 341-1910
23938,90279000554,FAIR HAVEN SCHOOL,164 GRAND AVE.,NEW HAVEN,CT,6513,NOT AVAILABLE,(475) 220-2600
24102,90033001615,GLOBAL EXPERIENCE MAGNET SCHOOL,44 GRIFFIN RD.,BLOOMFIELD,CT,6002,NOT AVAILABLE,(860) 769-6600
29360,90438000877,STONINGTON MIDDLE SCHOOL,204 MISTUXET AVE.,MYSTIC,CT,6355,3009,(860) 536-9613
30749,90141000233,HELEN KELLER MIDDLE SCHOOL,360 SPORT HILL RD.,EASTON,CT,6612,1714,(203) 268-8651
32176,90168000289,GRANBY MEMORIAL HIGH SCHOOL,315 SALMON BROOK ST.,GRANBY,CT,6035,1804,(860) 844-3014
32199,90051000096,EDGEWOOD SCHOOL,345 MIX ST.,BRISTOL,CT,6010,2785,(860) 584-7827
38253,90177000313,CHARLES BARNUM SCHOOL,68 BRIAR HILL RD.,GROTON,CT,6340,2651,(860) 449-5640
90711,90462000933,MADISON MIDDLE SCHOOL,4630 MADISON AVE.,TRUMBULL,CT,6611,1732,(203) 452-4499
92271,90270000531,NEW CANAAN HIGH SCHOOL,11 FARM RD.,NEW CANAAN,CT,6840,6699,(203) 594-4600
92552,90353600745,NONNEWAUG HIGH SCHOOL,5 MINORTOWN ROAD,WOODBURY,CT,6798,0469,(203) 263-2186
92740,90393000788,SALISBURY CENTRAL SCHOOL,45 LINCOLN CITY ROAD,LAKEVILLE,CT,6039,1711,(860) 435-9871
93305,90353000734,THE BURNHAM SCHOOL,80 MAIN ST.,BRIDGEWATER,CT,6752,1518,(860) 354-5559
95702,90180000334,MELISSA JONES SCHOOL,181 LEDGE HILL RD.,GUILFORD,CT,6437,1024,(203) 457-0773
97048,90045000074,MADISON SCHOOL,376 WAYNE ST.,BRIDGEPORT,CT,6606,NOT AVAILABLE,(203) 576-7186
98885,90282000595,NEW LONDON HIGH SCHOOL,490 JEFFERSON AVE.,NEW LONDON,CT,6320,NOT AVAILABLE,(860) 437-6400
76132,90456000915,TOLLAND MIDDLE SCHOOL,1 FALCON WAY,TOLLAND,CT,6084,3048,(860) 870-6860
77739,90438000883,WEST VINE STREET SCHOOL,17 WEST VINE ST.,PAWCATUCK,CT,6379,NOT AVAILABLE,(860) 599-5832
77807,90001400807,COMMON GROUND HIGH SCHOOL,358 SPRINGSIDE AVE.,NEW HAVEN,CT,6515,NOT AVAILABLE,(203) 389-4333
80935,90279000544,BENJAMIN JEPSON MAGNET SCHOOL,15 LEXINGTON AVE.,NEW HAVEN,CT,6513,NOT AVAILABLE,(475) 220-2900
81018,90153000256,FAIRFIELD WARDE HIGH SCHOOL,755 MELVILLE AVE.,FAIRFIELD,CT,6825,NOT AVAILABLE,(203) 255-8449
84689,90075000122,CHAPMAN SCHOOL,38 COUNTRY CLUB RD.,CHESHIRE,CT,6410,1630,(203) 272-3591
88094,90027000027,FRANK A. BERRY SCHOOL,200 WHITTLESEY DR.,BETHEL,CT,6801,1598,(203) 794-8680
89452,90216000401,LEDYARD HIGH SCHOOL,24 GALLUP HILL RD.,LEDYARD,CT,6339,1512,(860) 464-9600
100526,90171000296,COS COB SCHOOL,300 EAST PUTNAM AVE.,COS COB,CT,6807,2545,(203) 869-4670
100842,90444000887,CHAPEL SCHOOL,380 CHAPEL ST.,STRATFORD,CT,6614,1690,(203) 385-4192
40077,90153000258,FAIRFIELD WOODS MIDDLE SCHOOL,1115 FAIRFIELD WOODS RD.,FAIRFIELD,CT,6824,NOT AVAILABLE,(203) 255-8334
45534,90000201140,ELI WHITNEY TECHNICAL HIGH SCHOOL,100 FAIRVIEW AVE,HAMDEN,CT,6514,NOT AVAILABLE,(203) 397-4031
52146,90177000318,ROBERT E. FITCH HIGH SCHOOL,101 GROTON LONG POINT ROAD,GROTON,CT,6340,4861,(860) 449-7200
55984,90432001916,STRAWBERRY HILL AN EXT. OF ROGERS INTERNATIONAL,200 STRAWBERRY HILL AVENUE,STAMFORD,CT,6902,NOT AVAILABLE,(203) 977-6600
30685,90483000541,MALONEY INTERDISTRICT MAGNET SCHOOL,233 SOUTH ELM ST.,WATERBURY,CT,6706,NOT AVAILABLE,(203) 574-8162
30861,90357000765,PARISH HILL HIGH SCHOOL,304 PARISH HILL RD.,CHAPLIN,CT,6235,NOT AVAILABLE,(860) 455-9584
37041,90111000178,IRVING SCHOOL,9 GARDEN PLACE,DERBY,CT,6418,1416,(203) 736-5043
38441,90486000994,CLARK LANE MIDDLE SCHOOL,105 CLARK LN.,WATERFORD,CT,6385,2199,(860) 443-2837
25605,90507001065,SAMUEL B. WEBB ELEMENTARY SCHOOL,51 WILLOW ST.,WETHERSFIELD,CT,6109,2798,(860) 571-8340
26719,90519001081,WINDHAM MIDDLE SCHOOL,123 QUARRY ST.,WILLIMANTIC,CT,6226,2208,(860) 465-2351
27589,90000201147,NORWICH TECHNICAL HIGH SCHOOL,7 MAHAN DRIVE,NORWICH,CT,6360,7044,(860) 889-8453
27822,90192001479,PATHWAYS ACADEMY OF TECHNOLOGY AND DESIGN,2 PENT ROAD,EAST HARTFORD,CT,6118,NOT AVAILABLE,(860) 695-9450
60737,90339000713,PORTLAND MIDDLE SCHOOL,93 HIGH STREET,PORTLAND,CT,6480,NOT AVAILABLE,(860) 342-1880
61789,90177001494,CATHERINE KOLNASKI MAGNET SCHOOL,500 POQUONNOCK RD.,GROTON,CT,6340,NOT AVAILABLE,(860) 449-5608
63218,90489001005,POLK SCHOOL,435 BUCKINGHAM ST.,OAKVILLE,CT,6779,1131,(860) 945-4840
63965,90096000143,COVENTRY HIGH SCHOOL,78 RIPLEY HILL ROAD,COVENTRY,CT,6238,1653,(860) 742-7346
69645,90312000674,TEACHERS' MEMORIAL GLOBAL STUDIES MAGNET MIDDLE SCHOOL,15 TEACHERS DR.,NORWICH,CT,6360,4029,(860) 823-4212
90261,90312000677,VETERANS' MEMORIAL SCHOOL,80 CROUCH AVE.,NORWICH,CT,6360,7329,(860) 823-4209
91628,90153001378,BURR ELEMENTARY SCHOOL,1960 BURR ST.,FAIRFIELD,CT,6824,NOT AVAILABLE,(203) 255-7385
91769,90051000097,ELLEN P. HUBBELL SCHOOL,90 WEST WASHINGTON ST.,BRISTOL,CT,6010,5444,(860) 584-7842
92842,90207000393,KILLINGLY INTERMEDIATE SCHOOL,1599 UPPER MAPLE ST.,DAYVILLE,CT,6241,1543,(860) 779-6700
94593,90045000087,GERALDINE JOHNSON SCHOOL,475 LEXINGTON AVENUE,BRIDGEPORT,CT,6604,2675,(203) 275-2500
98805,90483000972,DRIGGS SCHOOL,77 WOODLAWN TERRACE,WATERBURY,CT,6710,1721,(203) 574-8160
2504,90396000789,SCOTLAND ELEMENTARY SCHOOL,68 BROOK RD.,SCOTLAND,CT,6264,0097,(860) 423-0064
2889,90333001199,TERRYVILLE HIGH SCHOOL,33 NORTH HARWINTON AVENUE,TERRYVILLE,CT,6786,NOT AVAILABLE,(860) 314-2777
3927,90126000208,SILVER LANE SCHOOL,15 MERCER AVE.,EAST HARTFORD,CT,6118,1517,(860) 622-5500
6773,90279001485,METROPOLITAN BUSINESS ACADEMY,115 WATER STREET,NEW HAVEN,CT,6511,NOT AVAILABLE,(475) 220-7700
8979,90192000357,BURNS LATINO STUDIES ACADEMY,195 PUTNAM STREET,HARTFORD,CT,6106,1328,(860) 695-2980
10106,90312000668,MORIARTY MAGNET SCHOOL,20 LAWLOR LN.,NORWICH,CT,6360,1750,(860) 823-4206
10342,90070001592,ACADEMY OF SCIENCE AND INNOVATION,600 SLATER ROAD,NEW BRITAIN,CT,6053,NOT AVAILABLE,(860) 223-0726
11342,90288000612,RUTH CHAFFEE SCHOOL,160 SUPERIOR AVE.,NEWINGTON,CT,6111,3955,(860) 666-4687
11571,90264000507,SALEM SCHOOL,124 MEADOW ST.,NAUGATUCK,CT,6770,NOT AVAILABLE,(203) 720-5242
13071,90474000952,EVARTS C. STEVENS SCHOOL,18 KONDRACKI LANE,WALLINGFORD,CT,6492,4938,(203) 294-3750
14142,90070000210,MONTESSORI MAGNET SCHOOL,1460 BROAD ST.,HARTFORD,CT,6106,NOT AVAILABLE,(860) 757-6100
14304,90051000105,SOUTH SIDE SCHOOL,21 TUTTLE RD.,BRISTOL,CT,6010,7147,(860) 584-7812
14943,90495001035,FOREST SCHOOL,95 BURWELL RD.,WEST HAVEN,CT,6516,1299,(203) 931-6800
18001,90231000422,KEENEY SCHOOL,179 KEENEY ST.,MANCHESTER,CT,6040,7017,(860) 647-3354
70578,90021000016,BERLIN HIGH SCHOOL,139 PATTERSON WAY,BERLIN,CT,6037,3146,(860) 828-6577
72067,90309000638,BRIEN MCMAHON HIGH SCHOOL,300 HIGHLAND AVENUE,NORWALK,CT,6854,NOT AVAILABLE,(203) 852-9488
72406,90444000889,FRANKLIN SCHOOL,1895 BARNUM AVE.,STRATFORD,CT,6615,5307,(203) 385-4190
73840,90444000894,NICHOLS SCHOOL,396 NICHOLS AVE.,STRATFORD,CT,6614,3906,(203) 385-4294
74033,90348000718,PUTNAM ELEMENTARY SCHOOL,33 WICKER ST.,PUTNAM,CT,6260,1444,(860) 963-6925
76950,90339000714,VALLEY VIEW SCHOOL,81 HIGH ST.,PORTLAND,CT,6480,NOT AVAILABLE,(860) 342-3131
78624,90279000542,BARNARD ENVIRONMENTAL MAGNET SCHOOL,170 DERBY AVE.,NEW HAVEN,CT,6511,NOT AVAILABLE,(475) 220-3500
80580,90423000836,OSHANA ELEMENTARY SCHOOL,70 CHURCH STREET,SOUTHINGTON,CT,6479,NOT AVAILABLE,(860) 628-3450
83898,90204000389,KENT CENTER SCHOOL,9 JUDD STREET,KENT,CT,6757,0219,(860) 927-3537
84019,90213000395,LEBANON ELEMENTARY SCHOOL,479 EXETER RD.,LEBANON,CT,6249,1505,(860) 642-7593
104594,90177001938,GROTON MIDDLE SCHOOL,35 GROTON LONG POINT ROAD,GROTON,CT,6340,NOT AVAILABLE,(860) 572-2100
80071,90486001512,QUAKER HILL ELEMENTARY SCHOOL,285 BLOOMINGDALE RD.,QUAKER HILL,CT,6375,NOT AVAILABLE,(860) 442-1095
88052,90045000001,LUIS MUNOZ MARIN SCHOOL,479 HELEN ST.,BRIDGEPORT,CT,6608,1321,(203) 576-8202
100060,90192001641,MONTESSORI MAGNET AT BATCHELDER SCHOOL,757 NEW BRITAIN AVENUE,HARTFORD,CT,6106,NOT AVAILABLE,(860) 695-2600
101624,90129000218,GROVE J. TUTTLE SCHOOL,108 PROSPECT ST.,EAST HAVEN,CT,6512,3307,(203) 468-3315
22984,90309000655,NORWALK HIGH SCHOOL,23 CALVIN MURPHY STREET,NORWALK,CT,6851,5597,(203) 838-4481
23888,90045000065,HALL SCHOOL,290 CLERMONT AVE.,BRIDGEPORT,CT,6610,2902,(203) 576-7560
25550,90051000089,CHIPPENS HILL MIDDLE SCHOOL,551 PEACEDALE ST.,BRISTOL,CT,6010,8939,(860) 584-3881
25914,90070001497,GREATER HARTFORD ACADEMY OF THE ARTS HIGH SCHOOL - FULL DAY,160 HUYSHOPE AVE,HARTFORD,CT,6106,NOT AVAILABLE,(860) 757-6300
27224,90516001080,PEARSON SCHOOL,2 WETMORE AVE.,WINSTED,CT,6098,1242,(860) 379-7588
27319,90353700750,POMPERAUG SCHOOL,607 MAIN ST.,SOUTHBURY,CT,6488,NOT AVAILABLE,(203) 264-8283
72397,90519001214,NORTH WINDHAM SCHOOL,112 JORDAN LN.,NORTH WINDHAM,CT,6256,1217,(860) 465-2400
73351,90405000804,MOHEGAN SCHOOL,47 MOHEGAN RD.,SHELTON,CT,6484,2443,(203) 929-4121
73621,90177000312,CARL C. CUTLER MIDDLE SCHOOL,160 FISHTOWN RD.,MYSTIC,CT,6355,2012,(860) 572-5830
77500,90312000678,WEQUONNOC MAGNET SCHOOL,155 PROVIDENCE ST.,TAFTVILLE,CT,6380,1150,(860) 823-4210
79957,90384000784,MYRTLE H. STEVENS SCHOOL,322 ORCHARD ST.,ROCKY HILL,CT,6067,2021,(860) 258-7751
62442,90321000687,PECK PLACE SCHOOL,500 PECK LN.,ORANGE,CT,6477,2948,(203) 891-8034
64696,90252000468,HARBORSIDE MIDDLE SCHOOL,175 HIGH ST.,MILFORD,CT,6460,3250,(203) 783-3523
65313,90213000028,LEBANON MIDDLE SCHOOL,891 EXETER RD.,LEBANON,CT,6249,1742,(860) 642-4702
69088,90045001127,MULTICULTURAL MAGNET SCHOOL,700 PALISADE AVE.,BRIDGEPORT,CT,6610,3457,(203) 576-7505
69777,90483000978,HOPEVILLE SCHOOL,2 CYPRESS ST.,WATERBURY,CT,6706,2101,(203) 574-8173
11258,90240001194,WASHINGTON MIDDLE SCHOOL,1225 NORTH BROAD ST.,MERIDEN,CT,6450,2479,(203) 235-6606
11528,90126001275,SUNSET RIDGE MIDDLE SCHOOL,450 FORBES ST.,EAST HARTFORD,CT,6118,NOT AVAILABLE,(860) 622-5800
11781,90489001135,JOHN TRUMBULL PRIMARY SCHOOL,779 BUCKINGHAM ST.,OAKVILLE,CT,6779,1109,(860) 945-2776
15647,90105000498,HOLMES ELEMENTARY SCHOOL,18 HOYT ST.,DARIEN,CT,6820,3115,(203) 353-4371
16598,90351000721,JOHN READ MIDDLE SCHOOL,486 REDDING ROAD,REDDING,CT,6896,NOT AVAILABLE,(203) 938-2533
17346,90309000648,JEFFERSON ELEMENTARY SCHOOL,21 HUNTERS LANE,NORWALK,CT,6850,NOT AVAILABLE,(203) 899-2870
17795,90264000506,HOP BROOK ELEMENTARY SCHOOL,75 CROWN STREET,NAUGATUCK,CT,6770,NOT AVAILABLE,(203) 720-5231
32198,90417000824,ORCHARD HILL SCHOOL,380 FOSTER ST.,SOUTH WINDSOR,CT,6074,2939,(860) 648-5015
32422,90186000339,HAMDEN HIGH SCHOOL,2040 DIXWELL AVE.,HAMDEN,CT,6514,2404,(203) 407-2040
33734,90234000433,MANSFIELD MIDDLE SCHOOL,205 SPRING HILL RD.,STORRS,CT,6268,2819,(860) 429-9341
40861,90021000021,RICHARD D. HUBBARD SCHOOL,139 GROVE ST.,EAST BERLIN,CT,6023,1005,(860) 828-4119
41016,90069000120,CHERRY BROOK PRIMARY SCHOOL,4 BARBOURTOWN RD.,CANTON,CT,6019,1702,(860) 693-7721
43378,90192000372,NAYLOR/CCSU LEADERSHIP ACADEMY,639 FRANKLIN AVENUE,HARTFORD,CT,6114,3030,(860) 695-4620
44373,90129000605,CARBONE SCHOOL/EAST HAVEN ACADEMY,200 TYLER ST.,EAST HAVEN,CT,6512,NOT AVAILABLE,(203) 468-3219
46273,90513001076,WILTON HIGH SCHOOL,395 DANBURY RD.,WILTON,CT,6897,2006,(203) 762-0381
51858,90408000808,SHERMAN SCHOOL,2 ROUTE 37 EAST,SHERMAN,CT,6784,1422,(860) 355-3793
56501,90070001513,ACADEMY OF AEROSPACE AND ENGINEERING,1101 KENNEDY ROAD,WINDSOR,CT,6095,NOT AVAILABLE,(860) 243-0857
4525,90282001913,SCIENCE AND TECHNOLOGY MAGNET SCHOOL OF SOUTHEASTERN CONNECT,490 JEFFERSON AVE,NEW LONDON,CT,6320,NOT AVAILABLE,(860) 437-6496
6032,90345001556,DUAL LANGUAGE & ARTS MAGNET MIDDLE SCHOOL,51 DANIELS AVENUE,WATERFORD,CT,6385,NOT AVAILABLE,(860) 434-4800
9218,90429000847,STAFFORDVILLE SCHOOL,21 LYONS RD.,STAFFORD SPRINGS,CT,6076,NOT AVAILABLE,(860) 684-3298
1631,90492001217,SMITH SCHOOL,64 ST. JAMES ST.,WEST HARTFORD,CT,6119,2325,(860) 236-3317
2634,90327000696,PLAINFIELD MEMORIAL SCHOOL,95 CANTERBURY RD.,PLAINFIELD,CT,6374,1557,(860) 564-6440
6733,90070001511,INTERNATIONAL MAGNET SCHOOL FOR GLOBAL CITIZENSHIP,625 CHAPEL ROAD,SOUTH WINDSOR,CT,6074,NOT AVAILABLE,(860) 291-6001
8914,90168000293,WELLS ROAD INTERMEDIATE SCHOOL,134 WELLS RD.,GRANBY,CT,6035,1009,(860) 844-3048
43900,90405000798,ELIZABETH SHELTON SCHOOL,138 WILLOUGHBY RD.,SHELTON,CT,6484,5951,(203) 929-1330
45590,90162000282,SMITH MIDDLE SCHOOL,216 ADDISON RD.,GLASTONBURY,CT,6033,NOT AVAILABLE,(860) 652-7040
48654,90345001627,RIVERSIDE MAGNET SCHOOL AT GOODWIN UNIVERSITY,29 WILLOWBROOK RD,EAST HARTFORD,CT,6118,NOT AVAILABLE,(860) 434-4800
70074,90444000888,HARRY B. FLOOD MIDDLE SCHOOL,490 CHAPEL ST.,STRATFORD,CT,6614,1690,(203) 385-4280
71481,90348000720,PUTNAM MIDDLE SCHOOL,35 WICKER ST.,PUTNAM,CT,6260,1443,(860) 963-6920
76873,90483000968,BUCKS HILL SCHOOL,330 BUCKS HILL RD.,WATERBURY,CT,6704,1222,(203) 574-8182
76969,90171000298,EASTERN MIDDLE SCHOOL,51 HENDRIE AVE.,RIVERSIDE,CT,6878,1809,(203) 637-1744
77676,90045000086,WALTERSVILLE SCHOOL,150 HALLETT STREET,BRIDGEPORT,CT,6608,2618,(203) 275-2400
51055,90102001634,DPS EARLY CHILDHOOD CENTER,17 COTTAGE STREET,DANBURY,CT,6810,NOT AVAILABLE,(203) 797-4832
51057,90021501644,BRASS CITY CHARTER SCHOOL,289 WILLOW ST.,WATERBURY,CT,6710,NOT AVAILABLE,(203) 527-5942
52341,90279000647,WEST ROCK AUTHORS ACADEMY,311 VALLEY STREET,NEW HAVEN,CT,6515,NOT AVAILABLE,(475) 220-4900
52491,90501001045,HURLBUTT ELEMENTARY SCHOOL,9 SCHOOL RD.,WESTON,CT,6883,1623,(203) 221-6300
55945,90270000533,SOUTH SCHOOL,8 FARM RD.,NEW CANAAN,CT,6840,6697,(203) 594-4313
81342,90042000043,MARY R. TISKO SCHOOL,118 DAMASCUS RD.,BRANFORD,CT,6405,3904,(203) 483-1826
84664,90192000362,STEM MAGNET AT ANNIE FISHER SCHOOL,280 PLAINFIELD STREET,HARTFORD,CT,6112,NOT AVAILABLE,(860) 695-3500
13066,90249000456,KEIGWIN MIDDLE SCHOOL,99 SPRUCE ST.,MIDDLETOWN,CT,6457,1838,(860) 632-2433
16616,90081000133,JARED ELIOT SCHOOL,69 FAIRY DELL RD.,CLINTON,CT,6413,2403,(860) 664-6503
91015,90192000364,M. D. FOX SCHOOL,470 MAPLE AVENUE,HARTFORD,CT,6114,1215,(860) 695-7790
92625,90384000785,ROCKY HILL HIGH SCHOOL,50 CHAPIN AVE.,ROCKY HILL,CT,6067,NOT AVAILABLE,(860) 258-7721
93277,90147000244,ENFIELD STREET SCHOOL,1318 ENFIELD ST.,ENFIELD,CT,6082,4912,(860) 253-6565
93705,90258000492,DR. CHARLES E. MURPHY SCHOOL,500 CHESTERFIELD RD.,OAKDALE,CT,6370,1816,(860) 848-9241
64017,90180000333,GUILFORD LAKES SCHOOL,40 MAUPAS RD.,GUILFORD,CT,6437,1615,(203) 453-5201
64502,90432000864,ROGERS INTERNATIONAL SCHOOL,202 BLACHLEY ROAD,STAMFORD,CT,6902,NOT AVAILABLE,(203) 977-4560
68270,90123000186,CENTER SCHOOL,7 SUMMIT ST.,EAST HAMPTON,CT,6424,1298,(860) 365-4050
20265,90270000532,SAXE MIDDLE SCHOOL,468 SOUTH AVE.,NEW CANAAN,CT,6840,6321,(203) 594-4564
23953,90342000717,PRESTON PLAINS SCHOOL,1 ROUTE 164,PRESTON,CT,6365,NOT AVAILABLE,(860) 889-3831
27749,90192000383,WEBSTER MICRO SOCIETY MAGNET SCHOOL,5 CONE STREET,HARTFORD,CT,6105,NOT AVAILABLE,(860) 695-5380
30492,90309000645,FOX RUN ELEMENTARY SCHOOL,228 FILLOW STREET,NORWALK,CT,6850,2719,(203) 899-2860
30963,90354000761,CENTER SCHOOL,49 LYME ST.,OLD LYME,CT,6371,2335,(860) 434-7238
31134,90444000892,STRATFORD ACADEMY - JOHNSON HOUSE,719 BIRDSEYE STREET,STRATFORD,CT,6615,6827,(203) 385-4180
32660,90297000620,JEROME HARRISON SCHOOL,335 FOXON RD.,NORTH BRANFORD,CT,6471,1102,(203) 484-1235
38439,90180000331,E. C. ADAMS MIDDLE SCHOOL,233 CHURCH ST.,GUILFORD,CT,6437,2403,(203) 453-2755
39083,90231000418,BUCKLEY SCHOOL,250 VERNON ST.,MANCHESTER,CT,6042,3473,(860) 647-3302
104596,90192001939,WEAVER HIGH SCHOOL,415 GRANBY ST.,HARTFORD,CT,6112,1398,(860) 695-1640
51007,90291001487,REED INTERMEDIATE SCHOOL,3 TRADES LANE,NEWTOWN,CT,6470,NOT AVAILABLE,(203) 270-4880
51407,90273001224,NEW FAIRFIELD MIDDLE SCHOOL,56 GILLOTTI RD.,NEW FAIRFIELD,CT,6812,2525,(203) 312-5885
52488,90522001092,OLIVER ELLSWORTH SCHOOL,730 KENNEDY AVE.,WINDSOR,CT,6095,1925,(860) 687-2070
55940,90312000663,BISHOP SCHOOL EARLY LEARNING CENTER,526 EAST MAIN ST.,NORWICH,CT,6360,5909,(860) 823-4201
59928,90135000229,EAST WINDSOR HIGH SCHOOL,76 SOUTH MAIN ST.,EAST WINDSOR,CT,6088,9741,(860) 623-3361
40304,90411000816,TOOTIN' HILLS SCHOOL,25 NIMROD RD.,WEST SIMSBURY,CT,6092,2520,(860) 658-7629
44003,90171000107,PARKWAY SCHOOL,141 LOWER CROSS RD.,GREENWICH,CT,6831,3033,(203) 869-7466
47407,90423000837,SOUTH END ELEMENTARY SCHOOL,10 MAXWELL-NOBLE DRIVE,PLANTSVILLE,CT,6479,NOT AVAILABLE,(860) 628-3320
80432,90537201222,THE GILBERT SCHOOL,200 WILLIAMS AVE.,WINSTED,CT,6098,1190,(860) 379-8521
81640,90468000941,MAPLE STREET SCHOOL,20 MAPLE ST.,ROCKVILLE,CT,6066,3026,(860) 870-6175
85281,90279000585,WILBUR CROSS HIGH SCHOOL,181 MITCHELL DR.,NEW HAVEN,CT,6511,NOT AVAILABLE,(475) 220-7400
75218,90231000430,WADDELL SCHOOL,163 BROAD STREET,MANCHESTER,CT,6042,NOT AVAILABLE,(860) 647-3392
77078,90192000376,RAWSON SCHOOL,260 HOLCOMB STREET,HARTFORD,CT,6112,1436,(860) 695-4840
92728,90075000123,CHESHIRE HIGH SCHOOL,525 SOUTH MAIN ST.,CHESHIRE,CT,6410,3198,(203) 250-2511
94872,90021601683,ELM CITY MONTESSORI SCHOOL,495 BLAKE STREET,NEW HAVEN,CT,6515,NOT AVAILABLE,(475) 220-4100
60053,90492001013,CONARD HIGH SCHOOL,110 BEECHWOOD RD.,WEST HARTFORD,CT,6107,NOT AVAILABLE,(860) 231-5000
61408,90483000986,SPRAGUE SCHOOL,1443 THOMASTON AVE.,WATERBURY,CT,6704,1716,(203) 574-8189
63552,90267000513,HOLMES ELEMENTARY SCHOOL,2150 STANLEY ST.,NEW BRITIAN,CT,6053,1425,(860) 223-8294
64575,90001000775,INTEGRATED DAY CHARTER SCHOOL,68 THERMOS AVE.,NORWICH,CT,6360,NOT AVAILABLE,(860) 892-1900
67918,90002801366,NEW BEGINNINGS INC FAMILY ACADEMY,184 GARDEN ST.,BRIDGEPORT,CT,6605,NOT AVAILABLE,(203) 384-2897
30055,90102000150,DANBURY HIGH SCHOOL,43 CLAPBOARD RIDGE RD.,DANBURY,CT,6811,4529,(203) 797-4803
30845,90180000330,CALVIN LEETE SCHOOL,280 SOUTH UNION ST.,GUILFORD,CT,6437,2825,(203) 453-2726
31704,90171000308,RIVERSIDE SCHOOL,90 HENDRIE AVE.,RIVERSIDE,CT,6878,1829,(203) 637-1440
34869,90126000197,EAST HARTFORD MIDDLE SCHOOL,777 BURNSIDE AVE.,EAST HARTFORD,CT,6108,2705,(860) 622-5600
36487,90450000906,BLACK ROCK SCHOOL,57 BRANCH RD.,THOMASTON,CT,6787,1916,(860) 283-3040
36923,90174000019,GRISWOLD MIDDLE SCHOOL,211 SLATER AVE.,GRISWOLD,CT,6351,2525,(860) 376-7630
37077,90153000263,MILL HILL SCHOOL,635 MILL HILL TERRACE,SOUTHPORT,CT,6890,NOT AVAILABLE,(203) 255-8320
100114,90021401548,ELM CITY COLLEGE PREPARATORY SCHOOL,407 JAMES STREET,NEW HAVEN,CT,6513,NOT AVAILABLE,(203) 772-7010
22209,90144000238,ELLINGTON MIDDLE SCHOOL,46 MIDDLE BUTCHER RD.,ELLINGTON,CT,6029,NOT AVAILABLE,(860) 896-2339
23951,90192000373,PARKVILLE COMMUNITY SCHOOL,47 NEW PARK AVENUE,HARTFORD,CT,6106,2160,(860) 695-4721
11406,90070001357,UNIVERSITY OF HARTFORD MAGNET SCHOOL,196 BLOOMFIELD AVE.,WEST HARTFORD,CT,6117,NOT AVAILABLE,(860) 236-2899
13787,90162000283,GLASTONBURY HIGH SCHOOL,330 HUBBARD ST.,GLASTONBURY,CT,6033,3047,(860) 652-7200
607,90075011188,DARCEY SCHOOL,1686 WATERBURY RD.,CHESHIRE,CT,6410,1331,(203) 272-3577
63015,90318000681,KATHLEEN E. GOODWIN SCHOOL,80 OLD BOSTON POST RD.,OLD SAYBROOK,CT,6475,2214,(860) 395-3165
64727,90324000691,OXFORD CENTER SCHOOL,50 GREAT OAK ROAD,OXFORD,CT,6478,NOT AVAILABLE,(203) 888-6492
100277,90303000632,NORTH HAVEN MIDDLE SCHOOL,55 BAILEY RD.,NORTH HAVEN,CT,6473,2652,(203) 239-1683
100297,90279000550,CLINTON AVENUE SCHOOL,293 CLINTON AVE.,NEW HAVEN,CT,6513,NOT AVAILABLE,(475) 220-3300
104598,90384001936,MOSER SCHOOL,10 SCHOOL STREET,ROCKY HILL,CT,6067,NOT AVAILABLE,(860) 258-7701
74665,90345000079,REGIONAL MULTICULTURAL MAGNET SCHOOL,ONE BULKELEY PLACE,NEW LONDON,CT,6320,NOT AVAILABLE,(860) 437-7775
75053,90525001098,SOUTH ELEMENTARY SCHOOL,87 SOUTH ST.,WINDSOR LOCKS,CT,6096,2744,(860) 292-5021
10115,90054000110,CENTER ELEMENTARY SCHOOL,8 OBTUSE HILL ROAD,BROOKFIELD,CT,6804,NOT AVAILABLE,(203) 775-7650
12672,90285000603,SCHAGHTICOKE MIDDLE SCHOOL,23 HIPP RD.,NEW MILFORD,CT,6776,2223,(860) 354-2204
3867,90003101405,STAMFORD ACADEMY,229 NORTH ST.,STAMFORD,CT,6901,NOT AVAILABLE,(203) 324-6300
5744,90033000034,CARMEN ARACE MIDDLE SCHOOL,390 PARK AVENUE,BLOOMFIELD,CT,6002,3100,(860) 286-2622
7074,90000700747,JUMOKE ACADEMY,999 ASYLUM AVE. SUITE 200,HARTFORD,CT,6105,NOT AVAILABLE,(860) 527-0575
20540,90177000321,MARY MORRISSON SCHOOL,154 TOLL GATE ROAD,GROTON,CT,6340,3444,(860) 449-5655
23012,90045000059,WILBUR CROSS SCHOOL,1775 RESERVOIR AVE.,BRIDGEPORT,CT,6606,1434,(203) 275-2100
23068,90279000559,HILL CENTRAL MUSIC ACADEMY,140 DEWITT ST.,NEW HAVEN,CT,6519,NOT AVAILABLE,(475) 220-6100
25921,90483000988,WASHINGTON SCHOOL,685 BALDWIN ST.,WATERBURY,CT,6706,1507,(203) 574-8177
28445,90240000440,CASIMIR PULASKI SCHOOL,100 CLEARVIEW AVE.,MERIDEN,CT,6450,6414,(203) 238-1273
30491,90504001058,STAPLES HIGH SCHOOL,70 NORTH AVE.,WESTPORT,CT,6880,2720,(203) 341-1210
31230,90051000103,MOUNTAIN VIEW SCHOOL,71 VERA RD.,BRISTOL,CT,6010,4857,(860) 584-7726
32200,90353900759,HADDAM-KILLINGWORTH HIGH SCHOOL,95 LITTLE CITY ROAD,HIGGANUM,CT,6441,0568,(860) 345-8541
34023,90507001066,SILAS DEANE MIDDLE SCHOOL,551 SILAS DEANE HWY.,WETHERSFIELD,CT,6109,2216,(860) 571-8300
37641,90279001386,JOHN S. MARTINEZ SEA AND SKY STEM SCHOOL,100 JAMES ST.,NEW HAVEN,CT,6513,NOT AVAILABLE,(475) 220-2000
38650,90435001491,STERLING COMMUNITY SCHOOL,251 STERLING RD.,STERLING,CT,6377,NOT AVAILABLE,(860) 564-2728
39921,90045000060,EDISON SCHOOL,115 BOSTON TERRACE,BRIDGEPORT,CT,6610,2505,(203) 576-7183
51163,90327000047,SHEPARD HILL ELEMENTARY SCHOOL,234 SHEPARD HILL RD.,PLAINFIELD,CT,6374,NOT AVAILABLE,(860) 564-6432
54086,90222001809,LITCHFIELD MIDDLE SCHOOL,14 PLUMB HILL ROAD,LITCHFIELD,CT,6759,0110,(860) 567-7540
57929,90192001582,RENZULLI GIFTED AND TALENTED ACADEMY,85 WOODLAND STREET,HARTFORD,CT,6105,NOT AVAILABLE,(860) 695-2140
59204,90045000058,COLUMBUS SCHOOL,300 UNIVERSITY AVENUE,BRIDGEPORT,CT,6604,3320,(203) 275-2100
59696,90483001131,ROTELLA INTERDISTRICT MAGNET SCHOOL,380 PIERPONT RD.,WATERBURY,CT,6705,NOT AVAILABLE,(203) 574-8168
81347,90147000254,PRUDENCE CRANDALL SCHOOL,150 BRAINARD RD.,ENFIELD,CT,6082,2649,(860) 253-6464
84567,90180000329,A. W. COX SCHOOL,143 THREE MILE COURSE,GUILFORD,CT,6437,2522,(203) 453-5291
84736,90099000147,CROMWELL MIDDLE SCHOOL,6 CAPTAIN JAMES MANN MEMORIAL DR.,CROMWELL,CT,6416,1356,(860) 632-4853
85487,90201000387,GILEAD HILL SCHOOL,580 GILEAD ST.,HEBRON,CT,6248,1314,(860) 228-9458
91102,90432000852,DAVENPORT RIDGE SCHOOL,1300 NEWFIELD AVE.,STAMFORD,CT,6905,NOT AVAILABLE,(203) 977-4291
92203,90222000406,LITCHFIELD HIGH SCHOOL,14 PLUMB HILL ROAD,LITCHFIELD,CT,6759,NOT AVAILABLE,(860) 567-7530
92814,90528001105,ALCOTT SCHOOL,1490 WOODTICK RD.,WOLCOTT,CT,6716,1538,(203) 879-8160
93657,90069000119,CANTON INTERMEDIATE SCHOOL,39 DYER AVE.,CANTON,CT,6019,NOT AVAILABLE,(860) 693-7717
96202,90051001774,BRISTOL EARLY CHILDHOOD CENTER-BECC,240 STAFFORD AVENUE,BRISTOL,CT,6010,NOT AVAILABLE,(860) 584-7072
96564,90468000942,NORTHEAST SCHOOL,69 EAST ST.,ROCKVILLE,CT,6066,3837,(860) 870-6080
97419,90171001288,INTERNATIONAL SCHOOL AT DUNDEE,55 FLORENCE RD.,RIVERSIDE,CT,6878,NOT AVAILABLE,(203) 637-3800
99049,90252000478,MEADOWSIDE SCHOOL,80 SEEMAN'S LN.,MILFORD,CT,6460,4337,(203) 783-3555
44932,90192001295,HARTFORD MAGNET TRINITY COLLEGE ACADEMY,53 VERNON STREET,HARTFORD,CT,6103,NOT AVAILABLE,(860) 695-7201
46272,90312000670,KELLY STEAM MAGNET MIDDLE SCHOOL,25 MAHAN DR.,NORWICH,CT,6360,2425,(860) 823-4211
47854,90192001643,HARTFORD PREKINDERGARTEN MAGNET SCHOOL,85 EDWARDS STREET,HARTFORD,CT,6120,NOT AVAILABLE,(860) 695-5820
78783,90156001206,EAST FARMS SCHOOL,25 WOLF PIT RD.,FARMINGTON,CT,6032,2434,(860) 674-9519
90116,90015000015,BARKHAMSTED ELEMENTARY SCHOOL,65 RIPLEY HILL RD.,BARKHAMSTED,CT,6063,NOT AVAILABLE,(860) 379-2729
90325,90432000167,HART SCHOOL,61 ADAMS AVE.,STAMFORD,CT,6902,NOT AVAILABLE,(203) 977-5082
91695,90054000109,BROOKFIELD HIGH SCHOOL,45 LONG MEADOW HILL RD.,BROOKFIELD,CT,6804,1311,(203) 775-7725
96199,90021901782,GREAT OAKS CHARTER SCHOOL,375 HOWARD AVENUE,BRIDGEPORT,CT,6605,NOT AVAILABLE,(203) 870-8188
99000,90000201143,H. H. ELLIS TECHNICAL HIGH SCHOOL,613 UPPER MAPLE ST.,DANIELSON,CT,6239,NOT AVAILABLE,(860) 412-7500
60875,90258000035,LEONARD J. TYL MIDDLE SCHOOL,166 CHESTERFIELD RD.,OAKDALE,CT,6370,1616,(860) 848-2822
65140,90045000067,WARREN HARDING HIGH SCHOOL,379 BOND ST,BRIDGEPORT,CT,6610,2763,(203) 275-2751
65982,90270000530,EAST SCHOOL,54 LITTLE BROOK RD.,NEW CANAAN,CT,6840,4999,(203) 594-4219
67988,90353700748,MEMORIAL MIDDLE SCHOOL,1 MEMORIAL DR,MIDDLEBURY,CT,6762,NOT AVAILABLE,(203) 758-2496
68919,90192000369,M. L. KING JR. MIDDLE SCHOOL,25 RIDGEFIELD STREET,HARTFORD,CT,6112,NOT AVAILABLE,(860) 695-3980
69906,90345001606,MARINE SCIENCE MAGNET HIGH SCHOOL,130 SHENNECOSSETT ROAD,GROTON,CT,6340,NOT AVAILABLE,(860) 434-4800
40508,90045000053,BLACKHAM SCHOOL,425 THORME ST.,BRIDGEPORT,CT,6606,3418,(203) 576-7951
85157,90216000402,LEDYARD MIDDLE SCHOOL,1860 ROUTE 12,GALES FERRY,CT,6335,1127,(860) 464-3188
89432,90353500737,COGINCHAUG REGIONAL HIGH SCHOOL,135 PICKETT LN.,DURHAM,CT,6422,2001,(860) 349-7215
89445,90279001387,ROSS/WOODWARD SCHOOL,185 BARNES AVE.,NEW HAVEN,CT,6513,NOT AVAILABLE,(475) 220-3100
12809,90309000652,NARAMAKE ELEMENTARY SCHOOL,16 KING STREET,NORWALK,CT,6851,5429,(203) 899-2900
13734,90000501215,E. O. SMITH HIGH SCHOOL,1235 STORRS RD.,STORRS,CT,6268,NOT AVAILABLE,(860) 487-0877
16584,90474000955,LYMAN HALL HIGH SCHOOL,70 POND HILL ROAD,WALLINGFORD,CT,6492,4809,(203) 294-5350
52282,90432000871,WESTHILL HIGH SCHOOL,125 ROXBURY RD.,STAMFORD,CT,6902,NOT AVAILABLE,(203) 977-4477
54972,90432000872,WESTOVER SCHOOL,412 STILLWATER AVE.,STAMFORD,CT,6902,NOT AVAILABLE,(203) 977-4572
21690,90507001064,HIGHCREST SCHOOL,95 HIGHCREST RD.,WETHERSFIELD,CT,6109,4030,(860) 571-8380
27250,90144000236,CRYSTAL LAKE SCHOOL,59 SOUTH ROAD,ELLINGTON,CT,6029,3020,(860) 896-2322
27569,90171000306,OLD GREENWICH SCHOOL,825 SOUND BEACH AVE.,OLD GREENWICH,CT,6870,1641,(203) 637-0150
28094,90267000514,JEFFERSON ELEMENTARY SCHOOL,140 HORSE PLAIN RD.,NEW BRITAIN,CT,6053,1678,(860) 223-8007
31208,90153000267,RIVERFIELD SCHOOL,1625 MILL PLAIN RD.,FAIRFIELD,CT,6824,NOT AVAILABLE,(203) 255-8328
33350,90432000866,SPRINGDALE SCHOOL,1127 HOPE ST.,STAMFORD,CT,6907,NOT AVAILABLE,(203) 977-4575
34538,90353701116,GAINFIELD ELEMENTARY SCHOOL,307 OLD FIELD RD.,SOUTHBURY,CT,6488,NOT AVAILABLE,(203) 264-5312
36995,90192000636,EXPEDITIONARY LEARNING ACADEMY AT MOYLAN SCHOOL,101 CATHERINE STREET,HARTFORD,CT,6106,NOT AVAILABLE,(860) 695-4500
37109,90321000688,RACE BROOK SCHOOL,107 GRANNIS RD.,ORANGE,CT,6477,1911,(203) 891-8030
38300,90171000303,NEW LEBANON SCHOOL,25 MEAD AVE.,GREENWICH,CT,6830,6812,(203) 531-9139
60738,90084001444,COLCHESTER ELEMENTARY SCHOOL,315 HALLS HILL RD.,COLCHESTER,CT,6415,1462,(860) 537-0717
60862,90072000121,CHAPLIN ELEMENTARY SCHOOL,240 PALMER RD.,CHAPLIN,CT,6235,NOT AVAILABLE,(860) 455-9593
65338,90309000656,PONUS RIDGE MIDDLE SCHOOL,21 HUNTERS LANE,NORWALK,CT,6850,2499,(203) 847-3557
66652,90333000706,PLYMOUTH CENTER SCHOOL,107 NORTH STREET,PLYMOUTH,CT,6782,2100,(860) 283-6321
68908,90255000920,JOCKEY HOLLOW SCHOOL,365 FAN HILL RD.,MONROE,CT,6468,NOT AVAILABLE,(203) 452-2905
68977,90102000151,GREAT PLAIN SCHOOL,10 STADLEY ROUGH RD.,DANBURY,CT,6811,4023,(203) 797-4749
10104,90474000950,COOK HILL SCHOOL,57 HALL ROAD,WALLINGFORD,CT,6492,NOT AVAILABLE,(203) 284-5400
10263,90267000517,NORTHEND ELEMENTARY SCHOOL,160 BASSETT ST.,NEW BRITAIN,CT,6051,3419,(860) 223-3819
17269,90405000801,INTERMEDIATE SCHOOL,675 CONSTITUTION BLVD. NO.,SHELTON,CT,6484,6038,(203) 926-2000
17413,90075000125,DODD MIDDLE SCHOOL,100 PARK PLACE,CHESHIRE,CT,6410,2145,(203) 272-3249
18186,90411000815,TARIFFVILLE SCHOOL,42 WINTHROP ST.,TARIFFVILLE,CT,6081,9623,(860) 658-5825
19187,90105000171,ROYLE ELEMENTARY SCHOOL,133 MANSFIELD AVE.,DARIEN,CT,6820,3525,(203) 655-0044
43431,90279000563,JAMES HILLHOUSE HIGH SCHOOL,480 SHERMAN PARKWAY,NEW HAVEN,CT,6511,NOT AVAILABLE,(475) 220-7500
44384,90129000219,MOMAUGUIN SCHOOL,99 COSEY BEACH RD.,EAST HAVEN,CT,6512,1449,(203) 468-3321
48026,90288000610,NEWINGTON HIGH SCHOOL,605 WILLARD AVE.,NEWINGTON,CT,6111,2648,(860) 666-5611
21817,90216000399,JULIET W. LONG SCHOOL,1854 ROUTE12,GALES FERRY,CT,6335,1127,(860) 464-2780
25382,90171000295,CENTRAL MIDDLE SCHOOL,9 INDIAN ROCK LN.,GREENWICH,CT,6830,4004,(203) 661-8500
28064,90519001081,WINDHAM MIDDLE SCHOOL,123 QUARRY ST.,WILLIMANTIC,CT,6226,2208,(860) 465-2351
71038,90353500739,FRANK WARD STRONG SCHOOL,191 MAIN STREET,DURHAM,CT,6422,NOT AVAILABLE,(860) 349-7222
73648,90353900760,KILLINGWORTH ELEMENTARY SCHOOL,340 ROUTE 81,HIGGANUM,CT,6419,1299,(860) 663-1121
76154,90075000126,DOOLITTLE SCHOOL,735 CORNWALL AVE.,CHESHIRE,CT,6410,2617,(203) 272-3549
3661,90150000255,ESSEX ELEMENTARY SCHOOL,108 MAIN ST.,CENTERBROOK,CT,6409,1099,(860) 767-8215
7998,90453000910,THOMPSON MIDDLE SCHOOL,785 RIVERSIDE DR.,NORTH GROSVENORDALE,CT,6255,0835,(860) 923-9380
8684,90353700751,ROCHAMBEAU MIDDLE SCHOOL,100 PETER RD.,SOUTHBURY,CT,6488,NOT AVAILABLE,(203) 264-2711
31598,90483000979,JOHN F. KENNEDY HIGH SCHOOL,422 HIGHLAND AVE.,WATERBURY,CT,6708,3443,(203) 574-8153
31802,90501001046,WESTON HIGH SCHOOL,115 SCHOOL RD.,WESTON,CT,6883,1623,(203) 291-1602
33199,90105000165,HINDLEY ELEMENTARY SCHOOL,10 NEARWATER LN.,DARIEN,CT,6820,5698,(203) 655-1323
39157,90057000114,BROOKLYN MIDDLE SCHOOL,119 GORMAN RD.,BROOKLYN,CT,6234,1805,(860) 774-9153
39483,90417000826,SOUTH WINDSOR HIGH SCHOOL,161 NEVERS RD.,SOUTH WINDSOR,CT,6074,2129,(860) 648-5000
57840,90339000713,PORTLAND MIDDLE SCHOOL,93 HIGH STREET,PORTLAND,CT,6480,NOT AVAILABLE,(860) 342-1880
80957,90102000158,PEMBROKE SCHOOL,34 1/2 PEMBROKE RD.,DANBURY,CT,6811,2956,(203) 797-4751
81514,90309000651,MARVIN ELEMENTARY SCHOOL,15 CALF PASTURE BEACH ROAD,NORWALK,CT,6855,2710,(203) 899-2890
85466,90399000793,SEYMOUR HIGH SCHOOL,2 BOTSFORD RD.,SEYMOUR,CT,6483,2302,(203) 888-2561
86038,90136001530,QUINEBAUG MIDDLE COLLEGE,742 UPPER MAPLE ST.,DANIELSON,CT,6239,NOT AVAILABLE,(860) 932-4100
89524,90117000181,EAST GRANBY HIGH SCHOOL,95 SOUTH MAIN ST.,EAST GRANBY,CT,6026,9550,(860) 653-2541
91043,90353600743,BETHLEHEM ELEMENTARY SCHOOL,92 EAST ST.,BETHLEHEM,CT,6751,1802,(203) 266-7506
94652,90462000930,HILLCREST MIDDLE SCHOOL,530 DANIELS FARM RD.,TRUMBULL,CT,6611,5547,(203) 452-4466
24074,90192001531,MONTESSORI MAGNET AT FISHER SCHOOL,280 PLAINFIELD STREET,HARTFORD,CT,6112,1028,(860) 695-3560
25727,90126000194,DR. FRANKLIN H. MAYBERRY SCHOOL,101 GREAT HILL RD.,EAST HARTFORD,CT,6108,2833,(860) 622-5720
27932,90492001021,SEDGWICK MIDDLE SCHOOL,128 SEDGWICK RD.,WEST HARTFORD,CT,6107,3002,(860) 570-6500
29762,90120000185,NATHAN HALE-RAY HIGH SCHOOL,15 SCHOOL DRIVE,MOODUS,CT,6469,0404,(860) 873-5065
3043,90153001379,FAIRFIELD LUDLOWE HIGH SCHOOL,785 UNQUOWA RD.,FAIRFIELD,CT,6824,NOT AVAILABLE,(203) 255-7201
4213,90276000540,NEW HARTFORD ELEMENTARY SCHOOL,40 WICKETT ST.,NEW HARTFORD,CT,6057,3326,(860) 379-8546
7882,90303000633,RIDGE ROAD ELEMENTARY SCHOOL,1341 RIDGE RD.,NORTH HAVEN,CT,6473,3005,(203) 248-4050
31371,90001100797,INTERDISTRICT SCHOOL FOR ARTS AND COMMUNICATION,190 GOVERNOR WINTHROP BLVD.,NEW LONDON,CT,6320,NOT AVAILABLE,(860) 447-1003
33733,90306000634,NORTH STONINGTON ELEMENTARY SCHOOL,311 NORWICH/WESTERLY RD.,NORTH STONINGTON,CT,6359,0901,(860) 535-2805
34552,90000201138,E. C. GOODWIN TECHNICAL HIGH SCHOOL,735 SLATER RD.,NEW BRITAIN,CT,6053,2200,(860) 827-7736
16804,90353500742,MIDDLEFIELD MEMORIAL SCHOOL,124 HUBBARD ST.,MIDDLEFIELD,CT,6455,1218,(860) 349-7235
19345,90324001504,OXFORD HIGH SCHOOL,61 QUAKER FARMS RD.,OXFORD,CT,6478,NOT AVAILABLE,(203) 888-2468
60352,90282000597,WINTHROP STEM ELEMENTARY MAGNET SCHOOL,74 GROVE STREET,NEW LONDON,CT,6320,NOT AVAILABLE,(860) 447-6070
62102,90033000032,LAUREL SCHOOL,1 FILLEY ST.,BLOOMFIELD,CT,6002,1854,(860) 286-2675
65113,90012000012,AVON MIDDLE SCHOOL,375 WEST AVON RD.,AVON,CT,6001,2208,(860) 404-4770
65339,90288001120,JOHN WALLACE MIDDLE SCHOOL,71 HALLERAN DR.,NEWINGTON,CT,6111,4411,(860) 667-5888
65967,90192000366,ENVIRONMENTAL SCIENCES MAGNET AT HOOKER SCHOOL,440 BROADVIEW TERRACE,HARTFORD,CT,6106,NOT AVAILABLE,(860) 695-3760
66126,90330000048,MIDDLE SCHOOL OF PLAINVILLE,150 NORTHWEST DR.,PLAINVILLE,CT,6062,1532,(860) 793-3250
68052,90495001033,EDITH E. MACKRILLE SCHOOL,806 JONES HILL RD.,WEST HAVEN,CT,6516,5699,(203) 931-6820
71473,90519001640,CHARLES H. BARROWS STEM ACADEMY,141 TUCKIE ROAD,NORTH WINDHAM,CT,6256,NOT AVAILABLE,(860) 465-2610
73524,90492001024,WEBSTER HILL SCHOOL,125 WEBSTER HILL BLVD.,WEST HARTFORD,CT,6117,NOT AVAILABLE,(860) 521-0320
77112,90180000332,GUILFORD HIGH SCHOOL,605 NEW ENGLAND RD.,GUILFORD,CT,6437,1838,(203) 453-2741
79944,90021000017,CATHERINE M. MCGEE MIDDLE SCHOOL,899 NORTON RD.,BERLIN,CT,6037,3017,(860) 828-0323
41539,90066001188,CANTERBURY ELEMENTARY SCHOOL,67 KITT RD.,CANTERBURY,CT,6331,1122,(860) 546-6744
44819,90513001071,CIDER MILL SCHOOL,240 SCHOOL RD.,WILTON,CT,6897,2507,(203) 762-3351
47782,90057000113,BROOKLYN ELEMENTARY SCHOOL,119 GORMAN RD.,BROOKLYN,CT,6234,1805,(860) 774-7577
81610,90020801493,ACHIEVEMENT FIRST BRIDGEPORT ACADEMY,655 STILLMAN ST.,BRIDGEPORT,CT,6608,1331,(203) 338-0593
86697,90444000898,ELI WHITNEY SCHOOL,1130 HUNTINGTON RD.,STRATFORD,CT,6615,2738,(203) 385-4198
87343,90504001363,SAUGATUCK ELEMENTARY SCHOOL,170 RIVERSIDE AVE.,WESTPORT,CT,6880,NOT AVAILABLE,(203) 221-2910
87405,90045000069,THOMAS HOOKER SCHOOL,138 ROGER WILLIAMS RD.,BRIDGEPORT,CT,6610,1398,(203) 576-7185
58174,90279000552,EAST ROCK COMMUNITY MAGNET SCHOOL,133 NASH ST.,NEW HAVEN,CT,6511,NOT AVAILABLE,(475) 220-5900
58203,90000201151,W. F. KAYNOR TECHNICAL HIGH SCHOOL,43 TOMPKINS ST.,WATERBURY,CT,6708,1416,(203) 596-4302
93856,90129000216,EAST HAVEN HIGH SCHOOL,35 WHEELBARROW LN.,EAST HAVEN,CT,6513,NOT AVAILABLE,(203) 468-3254
96295,90138000232,EASTFORD ELEMENTARY SCHOOL,12 WESTFORD ROAD,EASTFORD,CT,6242,0158,(860) 974-1130
97696,90129000217,JOSEPH MELILLO MIDDLE SCHOOL,67 HUDSON ST.,EAST HAVEN,CT,6512,1524,(203) 468-3227
98640,90213000396,LYMAN MEMORIAL HIGH SCHOOL,917 EXETER RD.,LEBANON,CT,6249,1742,(860) 642-7567
60860,90102000159,ELLSWORTH AVENUE SCHOOL,53 ELLSWORTH AVE,DANBURY,CT,6810,NOT AVAILABLE,(203) 797-4740
61046,90045000052,BLACK ROCK SCHOOL,545 BREWSTER ST.,BRIDGEPORT,CT,6605,3409,(203) 576-7500
62109,90156000275,NOAH WALLACE SCHOOL,2 SCHOOL ST.,FARMINGTON,CT,6032,2323,(860) 677-1659
64984,90519001085,WINDHAM CENTER SCHOOL,45 NORTH RD.,WINDHAM,CT,6280,0138,(860) 465-2440
69638,90075000127,HIGHLAND SCHOOL,490 HIGHLAND AVE.,CHESHIRE,CT,6410,2518,(203) 272-0335
18113,90024000022,BETHANY COMMUNITY SCHOOL,44 PECK ROAD,BETHANY,CT,6524,3322,(203) 393-3350
19188,90411000815,TARIFFVILLE SCHOOL,42 WINTHROP ST.,TARIFFVILLE,CT,6081,9623,(860) 658-5825
82668,90153000269,SHERMAN SCHOOL,250 FERN ST.,FAIRFIELD,CT,6824,NOT AVAILABLE,(203) 255-8330
83471,90474000959,POND HILL SCHOOL,299 POND HILL ROAD,WALLINGFORD,CT,6492,5319,(203) 294-6230
85873,90096000141,CAPT. NATHAN HALE SCHOOL,1776 MAIN STREET,COVENTRY,CT,6238,1656,(860) 742-7334
88987,90309000640,BROOKSIDE ELEMENTARY SCHOOL,382 HIGHLAND AVENUE,NORWALK,CT,6854,3423,(203) 899-2830
3267,90240000439,BENJAMIN FRANKLIN SCHOOL,426 WEST MAIN ST.,MERIDEN,CT,6450,3802,(203) 235-7997
3413,90354000762,LYME CONSOLIDATED SCHOOL,478 HAMBURG ROAD,LYME,CT,6371,NOT AVAILABLE,(860) 434-1233
8171,90267000509,CHAMBERLAIN ELEMENTARY SCHOOL,120 NEWINGTON AVE.,NEW BRITAIN,CT,6051,2119,(860) 832-5691
8920,90102000149,BROADVIEW MIDDLE SCHOOL,72 HOSPITAL AVE.,DANBURY,CT,6810,6021,(203) 797-4861
30778,90279001484,CELENTANO BIOTECH HEALTH AND MEDICAL MAGNET SCHOOL,400 CANNER STREET,NEW HAVEN,CT,6511,NOT AVAILABLE,(475) 220-3400
31229,90102000156,MORRIS STREET SCHOOL,28 MORRIS ST.,DANBURY,CT,6810,NOT AVAILABLE,(203) 797-4809
31347,90474000953,HIGHLAND SCHOOL,200 HIGHLAND AVENUE,WALLINGFORD,CT,6492,2135,(203) 294-3970
31372,90009000010,ASHFORD SCHOOL,440 WESTFORD RD.,ASHFORD,CT,6278,1113,(860) 429-6419
31526,90483001613,REED SCHOOL,33 GRIGGS STREET,WATERBURY,CT,6704,NOT AVAILABLE,(203) 574-8180
31536,90228000410,J. MILTON JEFFREY ELEMENTARY SCHOOL,331 COPSE RD.,MADISON,CT,6443,2372,(203) 245-6460
32728,90432001353,RIPPOWAM MIDDLE SCHOOL,381 HIGH RIDGE RD.,STAMFORD,CT,6905,NOT AVAILABLE,(203) 977-5255
35240,90174000019,GRISWOLD MIDDLE SCHOOL,211 SLATER AVE.,GRISWOLD,CT,6351,2525,(860) 376-7630
35585,90045000090,JOHN WINTHROP SCHOOL,85 ECKART ST.,BRIDGEPORT,CT,6606,1199,(203) 576-7769
39146,90000201136,A. I. PRINCE TECHNICAL HIGH SCHOOL,401 FLATBUSH AVE.,HARTFORD,CT,6106,NOT AVAILABLE,(860) 951-7112
45559,90468000939,CENTER ROAD SCHOOL,20 CENTER RD.,VERNON,CT,6066,5102,(860) 870-6300
48865,90045001631,BRIDGEPORT MILITARY ACADEMY,160 IRANISTAN AVENUE,BRIDGEPORT,CT,6605,NOT AVAILABLE,(203) 275-3961
51466,90444000885,BUNNELL HIGH SCHOOL,1 BULLDOG BLVD.,STRATFORD,CT,6614,2333,(203) 385-4250
55983,90282001919,NEW LONDON VISUAL AND PERFORMING ARTS MAGNET SCHOOL,36 WALLER STREET,NEW LONDON,CT,6320,NOT AVAILABLE,(860) 449-6800
55985,90309001914,NORWALK EARLY CHILDHOOD CENTER,11 ALLEN ROAD,NORWALK,CT,6851,NOT AVAILABLE,(203) 945-0320
59191,90432000865,ROXBURY SCHOOL,751 WESTHILL RD.,STAMFORD,CT,6902,1413,(203) 977-4287
59632,90483000983,MICHAEL F. WALLACE MIDDLE SCHOOL,3465 EAST MAIN ST.,WATERBURY,CT,6705,3805,(203) 574-8140
59868,90423000841,URBIN T. KELLEY SCHOOL,501 RIDGEWOOD RD.,SOUTHINGTON,CT,6489,2352,(860) 628-3310
75302,90132000227,NIANTIC CENTER SCHOOL,7 WEST MAIN ST.,NIANTIC,CT,6357,2319,(860) 739-3961
79696,90162001447,NAYAUG ELEMENTARY SCHOOL,222 OLD MAIDE LN.,SOUTH GLASTONBURY,CT,6073,NOT AVAILABLE,(860) 652-4949
20322,90192000370,KINSELLA MAGNET SCHOOL OF PERFORMING ARTS,65 VAN BLOCK AVENUE,HARTFORD,CT,6114,NOT AVAILABLE,(860) 695-4140
20604,90054000112,WHISCONIER MIDDLE SCHOOL,17 WEST WHISCONIER RD.,BROOKFIELD,CT,6804,NOT AVAILABLE,(203) 775-7710
22261,90492001012,CHARTER OAK INTERNATIONAL ACADEMY,425 OAKWOOD AVE.,WEST HARTFORD,CT,6110,NOT AVAILABLE,(860) 233-8506
25560,90339000712,PORTLAND HIGH SCHOOL,95 HIGH STREET,PORTLAND,CT,6480,NOT AVAILABLE,(860) 342-1720
25573,90504001051,COLEYTOWN ELEMENTARY SCHOOL,65 EASTON RD.,WESTPORT,CT,6880,NOT AVAILABLE,(203) 341-1710
28399,90468000940,LAKE STREET SCHOOL,201 LAKE ST.,VERNON,CT,6066,6245,(860) 870-6085
28961,90501001047,WESTON MIDDLE SCHOOL,135 SCHOOL RD.,WESTON,CT,6883,1623,(203) 221-6360
91068,90153000271,TOMLINSON MIDDLE SCHOOL,200 UNQUOWA RD.,FAIRFIELD,CT,6824,NOT AVAILABLE,(203) 255-8336
91637,90474000956,MARK T. SHEEHAN HIGH SCHOOL,142 HOPE HILL ROAD,WALLINGFORD,CT,6492,2254,(203) 294-5900
94401,90483001395,WATERBURY ARTS MAGNET SCHOOL (MIDDLE),16 SOUTH ELM ST.,WATERBURY,CT,6706,NOT AVAILABLE,(203) 573-6300
97860,90333000705,ELI TERRY JR. MIDDLE SCHOOL,21 NORTH MAIN STREET,TERRYVILLE,CT,6786,5328,(860) 314-2790
