OBJECTID,NCESID,NAME,ADDRESS,CITY,STATE,ZIP,ZIP4,TELEPHONE
10578,191266001402,GLADBROOK-REINBECK JR. HIGH & HIGH SCHOOL,600 BLACKHAWK STREET,REINBECK,IA,50669,NOT AVAILABLE,(319) 345-2921
16503,190507000154,BONDURANT-FARRAR HIGH SCHOOL,1000 GRANT ST. NORTH,BONDURANT,IA,50035,NOT AVAILABLE,(515) 957-8191
6477,193051002249,RADIANT ELEMENTARY SCHOOL,5050 170TH ST,URBANDALE,IA,50323,NOT AVAILABLE,(515) 987-5161
7659,190738000346,CLARION-GOLDFIELD-DOWS ELEMENTARY SCHOOL,319 3RD AVE NE,CLARION,IA,50525,1113,(515) 532-2873
9371,190759000359,CLEAR CREEK ELEMENTARY SCHOOL,230 W WILSON,OXFORD,IA,52322,0488,(319) 828-4505
40143,190822000414,CRESCENT ELEMENTARY SCHOOL,401 E WELCH ST,CRESCENT,IA,51526,NOT AVAILABLE,(712) 545-3697
40154,191914001130,MID-PRAIRIE EAST ELEM. SCHOOL,702 6TH ST,KALONA,IA,52247,NOT AVAILABLE,(319) 656-2243
41986,193201001867,WOODWARD-GRANGER ELEMENTARY SCHOOL,2002 OAK STREET,GRANGER,IA,50109,NOT AVAILABLE,(515) 999-2357
42006,190654000213,JACKSON ELEMENTARY SCHOOL,1300 38TH ST NW,CEDAR RAPIDS,IA,52405,NOT AVAILABLE,(319) 558-2471
42035,191914001130,MID-PRAIRIE EAST ELEM. SCHOOL,702 6TH ST,KALONA,IA,52247,9487,(319) 656-2243
45607,191470000897,NORTHWEST JUNIOR HIGH SCHOOL,1507 8TH ST,CORALVILLE,IA,52241,NOT AVAILABLE,(319) 688-1060
46799,192682001570,MITCHELLVILLE ELEMENTARY,308 ELM AVE NW,MITCHELLVILLE,IA,50169,NOT AVAILABLE,(515) 967-4274
47494,192100001260,NORTH TAMA ELEMENTARY,605 WALNUT,TRAER,IA,50675,NOT AVAILABLE,(319) 478-2265
49202,192334001378,JOHN R MOTT JR/HI SCHOOL,314 W POST,POSTVILLE,IA,52162,0717,(563) 864-7652
60282,191803001964,LYNNVILLE-SULLY ELEMENTARY SCHOOL,12476 HWY F62 E,SULLY,IA,50251,NOT AVAILABLE,(641) 594-4445
62361,192211002185,LIBERTY ELEMENTARY SCHOOL,50 TRAXLER DRIVE,OTTUMWA,IA,52501,NOT AVAILABLE,(641) 682-4502
64132,192496001431,ROCKFORD JUNIOR-SENIOR ROCKFORD SENIOR HIGH,1460 210TH STREET?,ROCKFORD,IA,50468,0218,(641) 756-3813
64437,190858001977,NORTH HIGH SCHOOL,626 W 53RD ST,DAVENPORT,IA,52806,NOT AVAILABLE,(563) 723-5500
100340,190738000348,CLARION-GOLDFIELD-DOWS MIDDLE SCHOOL,300 3RD AVE NE,CLARION,IA,50525,1113,(515) 532-2412
101038,193102001806,WEST LYON ELEMENTARY SCHOOL,1787 182ND STREET,INWOOD,IA,51240,7702,(712) 753-4917
101770,191872001084,B R MILLER MIDDLE SCHOOL,125 S 11TH ST,MARSHALLTOWN,IA,50158,NOT AVAILABLE,(641) 754-1110
101976,190861000059,DAVIS COUNTY ELEMENTARY,500 E NORTH ST,BLOOMFIELD,IA,52537,NOT AVAILABLE,(641) 664-2200
21003,190315000009,ADM SENIOR HIGH SCHOOL,801 NILE KINNICK DR S,ADEL,IA,50003,NOT AVAILABLE,(515) 993-4584
21522,192083002179,NORTH UNION MIDDLE SCHOOL,203 5TH ST NORTH,SWEA CITY,IA,50590,NOT AVAILABLE,(515) 272-4361
23085,192628001491,SIGOURNEY JR-SR HIGH SCH,907 E PLEASANT VALLEY,SIGOURNEY,IA,52591,NOT AVAILABLE,(641) 622-2010
25342,193135001346,PEOSTA ELEMENTARY SCHOOL,8522 BURDS RD,PEOSTA,IA,52068,NOT AVAILABLE,(563) 588-9010
26738,191179000717,FOREST CITY MIDDLE SCHOOL,216 W SCHOOL ST,FOREST CITY,IA,50436,NOT AVAILABLE,(641) 585-4772
29856,191653000988,LE MARS HIGH SCHOOL,921 3RD AVE SW,LE MARS,IA,51031,NOT AVAILABLE,(712) 546-4153
29882,193195001863,MOVILLE ELEMENTARY SCHOOL,408 SOUTH 4TH STREET,MOVILLE,IA,51039,5000,(712) 873-3128
80327,191989001173,MOUNT PLEASANT MIDDLE SCHOOL,414 N ADAMS,MOUNT PLEASANT,IA,52641,NOT AVAILABLE,(319) 385-7730
82191,191248000757,GEORGE ELEMENTARY SCHOOL,500 E INDIANA AVE,GEORGE,IA,51237,NOT AVAILABLE,(712) 475-3675
82423,191035000659,EAST UNION ELEMENTARY,1916 HIGH SCHOOL DR.,AFTON,IA,50830,NOT AVAILABLE,(641) 347-5411
85367,190336000033,LUCIA WALLACE ELEMENTARY SCHOOL,729 E KENNEDY,ALGONA,IA,50511,NOT AVAILABLE,(515) 295-7296
30043,192211001316,EVANS MIDDLE SCHOOL,812 CHESTER AVENUE,OTTUMWA,IA,52501,NOT AVAILABLE,(641) 684-6511
34581,190858000480,MONROE ELEMENTARY SCHOOL,1926 W 4TH ST,DAVENPORT,IA,52802,NOT AVAILABLE,(563) 723-6850
35755,191107000686,ESTHERVILLE LINCOLN CENTRAL MIDDLE SCHOOL,1430 1ST AVE. S.,ESTHERVILLE,IA,51334,NOT AVAILABLE,(712) 362-2335
94675,191281002120,GRAETTINGER-TERRIL ELEMENTARY SCHOOL,101 S. SCHOOLEY ST.,TERRIL,IA,51364,NOT AVAILABLE,(712) 859-3286
97991,190852002029,SOUTH PRAIRIE ELEMENTARY,500 S JAMES ST,GRIMES,IA,50111,NOT AVAILABLE,(515) 986-4057
99611,191470000894,LINCOLN ELEMENTARY SCHOOL,300 TEETERS COURT,IOWA CITY,IA,52246,NOT AVAILABLE,(319) 688-1130
51230,190681000287,CENTRAL DEWITT MIDDLE SCHOOL,425 E. 11TH ST.,DE WITT,IA,52742,NOT AVAILABLE,(563) 659-0735
55106,191545000927,JOHNSTON SENIOR HIGH SCHOOL,6500 NW 100TH ST,JOHNSTON,IA,50131,NOT AVAILABLE,(515) 278-0449
57065,192658002254,SOLON INTERMEDIATE,200 WEST 5TH ST.,SOLON,IA,52333,NOT AVAILABLE,(319) 624-3401
58131,190002700260,RIVERSIDE COMMUNITY HIGH SCHOOL,18997 HWY 59,OAKLAND,IA,51560,NOT AVAILABLE,(712) 484-2291
59511,193048001738,WEST HIGH SCHOOL,425 E RIDGEWAY AVE,WATERLOO,IA,50702,NOT AVAILABLE,(319) 433-2700
71407,190606000206,CAMANCHE HIGH SCHOOL,937 9TH AVE,CAMANCHE,IA,52730,NOT AVAILABLE,(563) 259-3008
72285,190897000539,HANAWALT ELEMENTARY,225 56TH STREET,DES MOINES,IA,50312,NOT AVAILABLE,(515) 242-8411
72287,191884000710,ORANGE CITY ELEMENTARY SCHOOL,312 1ST ST SW,ORANGE CITY,IA,51041,NOT AVAILABLE,(712) 737-4606
73367,191050000670,EDGEWOOD-COLESBURG HIGH SCHOOL,403 W UNION ST,EDGEWOOD,IA,52042,NOT AVAILABLE,(563) 928-6412
74459,192796001627,TREYNOR HIGH SCHOOL,102 E MAIN ST,TREYNOR,IA,51575,0369,(712) 487-3804
78257,190954000624,DUNKERTON ELEMENTARY,509 CANFIELD,DUNKERTON,IA,50626,NOT AVAILABLE,(319) 822-4295
79326,192010001181,MURRAY JR/SR HIGH,216 SHERMAN,MURRAY,IA,50174,0187,(641) 447-2517
3614,191872001086,FISHER ELEMENTARY SCHOOL,2001 S 4TH ST,MARSHALLTOWN,IA,50158,NOT AVAILABLE,(641) 754-1030
7499,192673001557,SOUTH TAMA COUNTY MIDDLE SCHOOL,201 S GREEN,TOLEDO,IA,52342,NOT AVAILABLE,(641) 484-4121
9370,190912000595,DIKE ELEMENTARY SCHOOL,330 MAIN ST,DIKE,IA,50624,NOT AVAILABLE,(319) 989-2487
45494,192247001508,MADISON ELEMENTARY SCHOOL,950 E. UNIVERSITY ST.,PELLA,IA,50219,NOT AVAILABLE,(641) 628-4638
46212,190813000403,CORNING ELEMENTARY SCHOOL,1012 10TH ST,CORNING,IA,50841,NOT AVAILABLE,(641) 322-4020
47091,190654000239,FRANKLIN MIDDLE SCHOOL,300 20TH ST NE,CEDAR RAPIDS,IA,52402,NOT AVAILABLE,(319) 558-2452
47700,199901702061,PCM MIDDLE SCHOOL,407 PLAINSMEN RD,PRAIRIE CITY,IA,50228,0490,(515) 994-2686
60175,193048000586,BUNGER MIDDLE SCHOOL,157 S ROOSEVELT RD,EVANSDALE,IA,50707,NOT AVAILABLE,(319) 433-2550
65862,192253001356,PERRY MIDDLE SCHOOL,1200 18TH STREET,PERRY,IA,50220,NOT AVAILABLE,(515) 465-3531
68936,190375000082,APLINGTON / PARKERSBURG MIDDLE SCHOOL,215 10TH ST,APLINGTON,IA,50604,NOT AVAILABLE,(319) 347-6621
51235,190693000302,CENTRAL LEE HIGH SCHOOL,2642 HIGHWAY 218,DONNELLSON,IA,52625,NOT AVAILABLE,(319) 835-9510
51851,190002710279,RIVERSIDE ELEMENTARY,708 GLASS ST,OAKLAND,IA,51560,NOT AVAILABLE,(712) 482-6296
59521,190897000232,DOWNTOWN SCHOOL,1800 GRAND AVENUE,DES MOINES,IA,50309,NOT AVAILABLE,(515) 284-5848
90144,190579000190,NORTH HILL ELEMENTARY SCHOOL,825 N. 9TH ST.,BURLINGTON,IA,52601,NOT AVAILABLE,(319) 753-6363
91959,191212000747,FREMONT-MILLS ELEMENTARY SCHOOL,1114 US HWY 275,TABOR,IA,51653,0310,(712) 629-6555
95935,192166001295,OGDEN HIGH SCHOOL,732 W DIVISION,OGDEN,IA,50212,0250,(515) 275-4034
97121,191013002201,EASTON VALLEY JUNIOR HIGH & HIGH SCHOOL,321 W. SCHOOL ST.,PRESTON,IA,52069,NOT AVAILABLE,(563) 689-4221
99922,191098000680,ENGLISH VALLEYS ELEMENTARY SCHOOL,211 S COLLEGE ST,NORTH ENGLISH,IA,52316,NOT AVAILABLE,(319) 664-3638
99923,191470000436,WICKHAM ELEMENTARY,601 OAKDALE BLVD,CORALVILLE,IA,52241,NOT AVAILABLE,(319) 688-1175
82411,190852000453,DALLAS CENTER-GRIMES MIDDLE SCHOOL,1400 VINE STREET,DALLAS CENTER,IA,50063,NOT AVAILABLE,(515) 992-4343
85452,192949001684,WACO HIGH SCHOOL,706 N PEARL ST,WAYLAND,IA,52654,NOT AVAILABLE,(319) 256-6200
88741,190897000584,WEEKS MIDDLE SCHOOL,901 EAST PARK AVENUE,DES MOINES,IA,50315,NOT AVAILABLE,(515) 242-8449
100003,192400001399,RED OAK EARLY CHILDHOOD CENTER,400 W. 2ND STREET,RED OAK,IA,51566,NOT AVAILABLE,(712) 623-6630
100845,190705000315,COLUMBUS ELEMENTARY SCHOOL,1215 LINDEN AVE,CHARITON,IA,50049,NOT AVAILABLE,(641) 774-4712
107150,192124002279,ORCHARD HILLS ELEMENTARY,1130 W NORTH AVENUE,NORWALK,IA,50211,NOT AVAILABLE,(515) 981-1855
11189,192121001270,NORTHWOOD-KENSETT ELEMENTARY,1200 1ST AVE NORTH,NORTHWOOD,IA,50459,0289,(641) 324-1127
11604,190354000050,AMES HIGH SCHOOL,1921 AMES HIGH DRIVE,AMES,IA,50010,NOT AVAILABLE,(515) 817-0600
17033,190369000072,EAST ELEMENTARY SCHOOL,710 SE 3RD,ANKENY,IA,50021,NOT AVAILABLE,(515) 965-9660
36546,192211001315,EISENHOWER ELEMENTARY SCHOOL,2624 MARILYN RD,OTTUMWA,IA,52501,NOT AVAILABLE,(641) 684-5617
37263,190348000046,ALTA-AURELIA HIGH SCHOOL,1009 S MAIN ST,ALTA,IA,51002,NOT AVAILABLE,(712) 200-1331
37873,190600000204,CALAMUS-WHEATLAND ELEM ATTENDANCE CENTER,80 S 2ND ST,CALAMUS,IA,52729,NOT AVAILABLE,(563) 246-2221
38260,190822000422,HOOVER ELEMENTARY SCHOOL,1205 NORTH BROADWAY,COUNCIL BLUFFS,IA,51503,NOT AVAILABLE,(712) 328-6537
39864,190378002177,AR-WE-VA ELEMENTARY COMMUNITY SCHOOL,108 CLINTON STREET,WESTSIDE,IA,51467,NOT AVAILABLE,(712) 663-4313
71220,193099001408,EARLY CHILDHOOD CENTER,111 W. 7TH ST,WEST LIBERTY,IA,52776,NOT AVAILABLE,(319) 627-5089
71506,190651000229,PEET JUNIOR HIGH SCHOOL,525 E SEERLEY BLVD,CEDAR FALLS,IA,50613,NOT AVAILABLE,(319) 553-2710
75608,191275000771,GLIDDEN-RALSTON ELEMENTARY SCHOOL,602 IDAHO,GLIDDEN,IA,51443,NOT AVAILABLE,(712) 659-3863
77959,190858001204,CHILDREN'S VILLAGE WEST,1757 WEST 12TH STREET,DAVENPORT,IA,52804,NOT AVAILABLE,(563) 336-7800
79580,190654000247,HIAWATHA ELEMENTARY SCHOOL,603 EMMONS ST,HIAWATHA,IA,52233,NOT AVAILABLE,(319) 558-2172
21322,193192001861,WOODBINE ELEMENTARY SCHOOL,501 WEARE ST,WOODBINE,IA,51579,NOT AVAILABLE,(712) 647-2440
22840,193075001773,WEST BRANCH MIDDLE SCHOOL,225 N MAPLE,WEST BRANCH,IA,52358,0637,(319) 643-5324
25487,192727001593,STARMONT MIDDLE SCHOOL,3202 40TH ST,ARLINGTON,IA,50606,NOT AVAILABLE,(563) 933-4598
26801,191125000674,EXIRAELK HORN-KIMBALLTON HIGH SCHOOL,4114 MADISON ST,ELK HORN,IA,51531,NOT AVAILABLE,(712) 764-4616
28087,191069001912,ELDORA-NEW PROVIDENCE ELEMENTARY SCHOOL,1100 10TH ST,ELDORA,IA,50627,NOT AVAILABLE,(641) 939-9350
71343,190897000544,HOWE ELEMENTARY,2900 INDIANOLA,DES MOINES,IA,50315,NOT AVAILABLE,(515) 242-8413
97142,190456000122,BEDFORD ELEMENTARY SCHOOL,906 PENNSYLVANIA ST,BEDFORD,IA,50833,NOT AVAILABLE,(712) 523-2116
98733,190957000628,BOYER VALLEY MIDDLE/HIGH SCHOOL,1102 IOWA AVE,DUNLAP,IA,51529,NOT AVAILABLE,(712) 643-2258
102665,192013002278,SUSAN CLARK JUNIOR HIGH,600 KINDLER AVE,MUSCATINE,IA,52761,NOT AVAILABLE,(563) 263-0411
81217,191812001038,MFL MARMAC ELEMENTARY SCHOOL,700 S PAGE ST.,MONONA,IA,52159,NOT AVAILABLE,(563) 539-2032
85460,191782001023,LOUISA-MUSCATINE ELEMENTARY,14506 170TH ST,LETTS,IA,52754,NOT AVAILABLE,(319) 726-3634
87862,191212000747,FREMONT-MILLS ELEMENTARY SCHOOL,1114 US-275,TABOR,IA,51653,NOT AVAILABLE,(712) 629-6555
88123,192094001254,NEIL ARMSTRONG ELEMENTARY SCHOOL,212 S PARKVIEW DR,ELDRIDGE,IA,52748,9509,(563) 285-8223
50310,190354000056,MEEKER ELEMENTARY SCHOOL,300 20TH STREET,AMES,IA,50010,NOT AVAILABLE,(515) 239-3770
50396,192928002207,SOUTHWEST VALLEY MIDDLE SCHOOL,406 EAST THIRD STREET,VILLISCA,IA,50864,NOT AVAILABLE,(712) 826-2552
51571,193075001774,WEST BRANCH HIGH SCHOOL,900 W MAIN,WEST BRANCH,IA,52358,0637,(319) 643-7216
52032,190002200957,UNION HIGH SCHOOL,200 ADAMS ST,LA PORTE CITY,IA,50651,1143,(319) 342-2697
56667,190960000631,DURANT MIDDLE SCHOOL,408 7TH ST,DURANT,IA,52747,NOT AVAILABLE,(563) 785-4433
57877,191545000927,JOHNSTON SENIOR HIGH SCHOOL,6500 NW 100TH STREET,JOHNSTON,IA,50131,NOT AVAILABLE,(515) 278-0449
58853,190771000370,CLINTON HIGH SCHOOL,817 8TH AVE S,CLINTON,IA,52732,NOT AVAILABLE,(563) 243-7540
59515,192046001209,CLARK ELEMENTARY SCHOOL,401 S WALNUT,NEW LONDON,IA,52645,NOT AVAILABLE,(319) 367-0507
20919,191311000786,NODAWAY VALLEY ELEMENTARY SCHOOL,324 NW 2ND,GREENFIELD,IA,50849,NOT AVAILABLE,(641) 743-6136
24105,193135001346,PEOSTA ELEMENTARY SCHOOL,8522 BURDS RD,PEOSTA,IA,52068,NOT AVAILABLE,(563) 588-9010
25338,192640002089,UNITY ELEMENTARY SCHOOL,1901 UNITY AVENUE,SIOUX CITY,IA,51105,2500,(712) 279-6839
60835,191632000974,LAMONI ELEMENTARY SCHOOL,202 N WALNUT ST,LAMONI,IA,50140,NOT AVAILABLE,(641) 784-3422
61425,192760000741,FREDERICKSBURG ELEM SCHOOL,401 E HIGH ST,FREDERICKSBURG,IA,50630,NOT AVAILABLE,(563) 237-5364
63278,190948001532,CARVER ELEMENTARY SCHOOL,2007 RADFORD ROAD,DUBUQUE,IA,52002,NOT AVAILABLE,(563) 552-4500
63730,191320000793,GRINNELL COMMUNITY MIDDLE SCHOOL,132 EAST STREET S.,GRINNELL,IA,50112,NOT AVAILABLE,(641) 236-2750
64258,190002200632,DYSART-GENESEO ELEMENTARY SCHOOL,411 LINCOLN,DYSART,IA,52224,0159,(319) 476-7110
65000,192820001644,TWIN RIVERS ELEMENTARY SCHOOL,200 COLLEGE AVE.,BODE,IA,50519,NOT AVAILABLE,(515) 379-1309
67536,190711000328,CHARTER OAK-UTE JUNIOR HIGH SCHOOL,321 MAIN ST,CHARTER OAK,IA,51439,NOT AVAILABLE,(712) 678-3325
67587,191069002048,SOUTH HARDIN HIGH SCHOOL,1800 24TH ST,ELDORA,IA,50627,NOT AVAILABLE,(641) 939-3421
69255,191179000716,FOREST CITY HIGH SCHOOL,206 W SCHOOL ST,FOREST CITY,IA,50436,NOT AVAILABLE,(641) 585-2324
31786,190891002097,BROADWAY ELEMENTARY SCHOOL,1515 BROADWAY,DENISON,IA,51442,NOT AVAILABLE,(712) 263-3103
32926,193063001764,WEBSTER CITY HIGH SCHOOL,1001 LYNX AVENUE,WEBSTER CITY,IA,50595,1948,(515) 832-9210
37368,191566000938,KEOTA ELEMENTARY SCHOOL,505 N. ELLIS STREET,KEOTA,IA,52248,NOT AVAILABLE,(641) 636-2323
37370,191959001151,MONTEZUMA JUNIOR HIGH SCHOOL,504 NORTH 4TH STREET,MONTEZUMA,IA,50171,NOT AVAILABLE,(641) 623-5121
10574,193087001778,WEST CENTRAL PK - 8 SCHOOL,305 PEMBER,MAYNARD,IA,50655,NOT AVAILABLE,(563) 637-2283
18862,191746001013,LOGAN-MAGNOLIA ELEMENTARY SCHOOL,1200 N 2ND AVE,LOGAN,IA,51546,1060,(712) 644-2168
19193,191311000788,NODAWAY VALLEY HIGH SCHOOL,410 NW 2ND,GREENFIELD,IA,50849,NOT AVAILABLE,(641) 743-6141
19939,190507002125,BONDURANT - FARRAR MIDDLE SCHOOL,300 GARFIELD ST. SW,BONDURANT,IA,50035,NOT AVAILABLE,(515) 967-3711
42036,191914001131,MID-PRAIRIE HIGH SCHOOL,1634 HIGHWAY 22 E,WELLMAN,IA,52356,0150,(319) 646-6091
47264,192640001521,NODLAND ELEMENTARY SCHOOL,5000 MAYHEW AVE,SIOUX CITY,IA,51106,NOT AVAILABLE,(712) 274-4044
47975,191989001175,SALEM ELEMENTARY SCHOOL,412 E. JACKSON ST.,SALEM,IA,52649,NOT AVAILABLE,(319) 258-7799
49646,191824001230,EAST MILLS ELEMENTARY SCHOOL,58962 380TH ST,HASTINGS,IA,51540,NOT AVAILABLE,(712) 624-8696
4343,190306000003,AGWSR ELEMENTARY SCHOOL,918 4TH AVE,ACKLEY,IA,50601,NOT AVAILABLE,(641) 847-2611
6070,191470002241,LIBERTY HIGH SCHOOL,1400 S. DUBUQUE STREET,NORTH LIBERTY,IA,52317,NOT AVAILABLE,(319) 688-1210
8285,193048001728,KITTRELL ELEMENTARY SCHOOL,1304 OREGON ST,WATERLOO,IA,50702,NOT AVAILABLE,(319) 433-2910
8842,190375001336,PARKERSBURG ELEMENTARY SCHOOL,602 LINCOLN,PARKERSBURG,IA,50665,NOT AVAILABLE,(319) 346-2446
9372,192682002068,WILLOWBROOK ELEMENTARY,300 17TH AVE SW,ALTOONA,IA,50009,NOT AVAILABLE,(515) 967-7512
92057,193054001751,WEST CEDAR ELEMENTARY SCHOOL,221 15TH ST NW,WAVERLY,IA,50677,NOT AVAILABLE,(319) 352-2754
95530,192400001399,RED OAK EARLY CHILDHOOD CENTER,400 W 2ND ST,RED OAK,IA,51566,NOT AVAILABLE,(712) 623-6630
95937,190579000180,BLACK HAWK ELEMENTARY SCHOOL,2804 S 14TH ST,BURLINGTON,IA,52601,NOT AVAILABLE,(319) 753-5300
96375,193048002126,EXPO ALTERNATIVE LEARNING CENTER,1410 INDEPENDENCE AVE,WATERLOO,IA,50703,NOT AVAILABLE,(319) 433-1930
96551,190786000387,PRAIRIE HEIGHTS ELEMENTARY SCHOOL,190 76TH AVE SW,CEDAR RAPIDS,IA,52404,NOT AVAILABLE,(319) 848-5230
62170,192805001637,TRIPOLI ELEMENTARY SCHOOL,309 9TH AVE SW,TRIPOLI,IA,50676,9663,(319) 882-4203
69252,192412001995,REMSEN-UNION MIDDLE SCHOOL,511 ROOSEVELT,REMSEN,IA,51050,NOT AVAILABLE,(712) 786-1101
80142,192334001377,CORA B DARLING ELEMENTARY,312 W POST,POSTVILLE,IA,52162,0717,(563) 864-7653
80219,192592001468,WEST FORK HIGH SCHOOL,453 N. 5TH ST.,SHEFFIELD,IA,50475,0617,(641) 892-4461
80326,192163001292,WINGS PARK ELEMENTARY SCHOOL,111 8TH AVE NE,OELWEIN,IA,50662,NOT AVAILABLE,(319) 283-1982
82410,190891000509,DENISON MIDDLE SCHOOL,1201 NORTH 16TH STREET,DENISON,IA,51442,NOT AVAILABLE,(712) 263-9393
82500,193108001813,WEST MARSHALL MIDDLE SCHOOL,605 3RD STREET NW,STATE CENTER,IA,50247,NOT AVAILABLE,(641) 483-2165
85188,191989001172,MOUNT PLEASANT HIGH SCHOOL,2104 S. GRAND AVENUE,MOUNT PLEASANT,IA,52641,NOT AVAILABLE,(319) 385-7700
87974,190681002144,CENTRAL DEWITT INTERMEDIATE SCHOOL,1010 4TH AVE. E.,DEWITT,IA,52742,NOT AVAILABLE,(563) 659-4780
50568,192679001562,SOUTH WINNESHIEK ELEMENTARY SCHOOL,208 E BROOKS ST,OSSIAN,IA,52161,0298,(563) 532-9365
50901,190792002204,COLO-NESCO ELEMENTARY SCHOOL,407 N CENTER,ZEARING,IA,50278,NOT AVAILABLE,(641) 487-7411
51223,190513000156,BOONE HIGH SCHOOL,400 7TH ST,BOONE,IA,50036,NOT AVAILABLE,(515) 433-0890
54277,190483002230,NORWAY ELEMENTARY SCHOOL,100 SCHOOL DRIVE,NORWAY,IA,52318,NOT AVAILABLE,(319) 227-7142
58074,190897002218,JESSIE FRANKLIN TAYLOR,1801 16TH ST,DES MOINES,IA,50314,NOT AVAILABLE,(515) 242-8424
58771,190948000620,GEORGE WASHINGTON MIDDLE SCHOOL,51 N GRANDVIEW AVE,DUBUQUE,IA,52001,NOT AVAILABLE,(563) 552-4800
59303,193168001845,WILLIAMSBURG JR-SR HIGH SCHOOL,810 W WALNUT,WILLIAMSBURG,IA,52361,NOT AVAILABLE,(319) 668-1050
59528,192640001513,HUNT ELEMENTARY SCHOOL,1114 W. 27TH ST,SIOUX CITY,IA,51103,NOT AVAILABLE,(712) 279-6833
40989,192658001543,SOLON HIGH SCHOOL,600 W. 5TH STREET,SOLON,IA,52333,NOT AVAILABLE,(319) 624-3401
41993,193135001832,WESTERN DUBUQUE HIGH SCHOOL,302 5TH AVE SW,EPWORTH,IA,52045,NOT AVAILABLE,(563) 876-3442
41994,190948000617,SAGEVILLE ELEMENTARY SCHOOL,12015 SHERRILL RD,DUBUQUE,IA,52002,NOT AVAILABLE,(563) 552-4300
41995,190948000605,EISENHOWER ELEMENTARY SCHOOL,3170 SPRING VALLEY RD,DUBUQUE,IA,52001,NOT AVAILABLE,(563) 552-3500
42042,191575000942,PIERSON ELEMENTARY SCHOOL,321 4TH STREET,PIERSON,IA,51048,NOT AVAILABLE,(712) 375-5939
47262,191854000725,MAQUOKETA VALLEY MIDDLE SCHOOL,112 THIRD STREET,DELHI,IA,52223,0186,(563) 922-9411
49781,190822000413,CARTER LAKE ELEMENTARY SCHOOL,1000 WILLOW DRIVE,CARTER LAKE,IA,51510,1399,(712) 347-5876
70472,190771000378,JEFFERSON ELEMENTARY SCHOOL,720 4TH AVE S,CLINTON,IA,52732,NOT AVAILABLE,(563) 243-0479
73010,192976001698,RURAL ELEMENTARY SCHOOL #4,1153 DENISON AVE,FAIRBANK,IA,50629,NOT AVAILABLE,(319) 635-2071
74751,193201002079,WOODWARD ACADEMY,1251 334TH ST,WOODWARD,IA,50276,NOT AVAILABLE,(515) 438-3150
78235,190369002187,ANKENY CENTENNIAL HIGH SCHOOL,2220 NW STATE ST,ANKENY,IA,50023,NOT AVAILABLE,(515) 965-9610
30159,190633000217,FAIRVIEW ELEMENTARY SCHOOL,525 EAST 18TH STREET,CARROLL,IA,51401,NOT AVAILABLE,(712) 792-8030
33947,190651000223,HELEN A HANSEN ELEMENTARY SCHOOL,616 HOLMES DR,CEDAR FALLS,IA,50613,NOT AVAILABLE,(319) 553-2775
34027,190807000402,COON RAPIDS-BAYARD 6-12 ATTENDANCE CENTER,905 NORTH STREET,COON RAPIDS,IA,50058,0297,(712) 999-2208
36544,190897000534,GARTON ELEMENTARY,2820 E 24TH ST,DES MOINES,IA,50317,NOT AVAILABLE,(515) 242-8408
39751,190001501487,SIBLEY-OCHEYEDAN HIGH SCHOOL,120 11TH AVE NE,SIBLEY,IA,51249,NOT AVAILABLE,(712) 754-3601
39752,191416000845,HINTON INTERMEDIATE SCHOOL,315 W. GRAND,HINTON,IA,51024,NOT AVAILABLE,(712) 947-4328
862,191470002224,ALEXANDER ELEMENTARY,3571 SYCAMORE ST.,IOWA CITY,IA,52240,NOT AVAILABLE,(319) 688-1095
6024,190000602255,NORTH FAYETTE VALLEY MIDDLE SCHOOL,23493 CANOE RD,ELGIN,IA,52141,9634,(563) 422-3851
7608,190594002176,IOWA CONNECTIONS ACADEMY MIDDLE SCHOOL,807 THIRD ST,ANITA,IA,50020,NOT AVAILABLE,(712) 581-0200
7654,192013001183,MUSKIE EARLY LEARNING CENTER,149 COLORADO ST,MUSCATINE,IA,52761,NOT AVAILABLE,(563) 263-4998
9967,191518000913,JANESVILLE ELEMENTARY SCHOOL,505 BARRICK RD,JANESVILLE,IA,50647,NOT AVAILABLE,(319) 987-2581
20641,192682001573,SOUTHEAST POLK JUNIOR HIGH,8325 NE UNIVERSITY AVE.,PLEASANT HILL,IA,50327,NOT AVAILABLE,(515) 967-5509
26162,191366001962,HARTLEY-MELVIN-SANBORN ELEMENTARY SCHOOL,240 1ST ST SE,HARTLEY,IA,51346,NOT AVAILABLE,(712) 928-2020
29354,190006000179,GMG SECONDARY SCHOOL,306 PARK STREET,GARWIN,IA,50632,9730,(641) 499-2005
104996,191818002276,MADRID ELEMENTARY PRESCHOOL,201 N MAIN ST,MADRID,IA,50156,NOT AVAILABLE,(515) 795-3240
93306,190666000273,CENTER POINT-URBANA PRIMARY SCHOOL,101 PALO ROAD,CENTER POINT,IA,52213,0296,(319) 849-1102
96807,190624000211,CARDINAL HIGH SCHOOL,4045 ASHLAND RD,ELDON,IA,52554,NOT AVAILABLE,(641) 652-7531
98137,190474000134,BENNETT ELEMENTARY SCHOOL,300 CEDAR ST,BENNETT,IA,52721,0304,(563) 890-2226
98670,192682001168,CLAY ELEMENTARY,3200 FIRST AVENUE S.,ALTOONA,IA,50009,NOT AVAILABLE,(515) 967-4198
31770,191050000669,EDGEWOOD-COLESBURG ELEMENTARY SCHOOL,409 EAST ST,COLESBURG,IA,52035,NOT AVAILABLE,(563) 856-2415
36498,191896001122,MELCHER-DALLAS HIGH SCHOOL,214 S MAIN,MELCHER,IA,50163,NOT AVAILABLE,(641) 947-3731
39195,190762000362,CLEAR CREEK ELEMENTARY SCHOOL,901 S 14TH ST,CLEAR LAKE,IA,50428,NOT AVAILABLE,(641) 357-5288
11183,191872001095,WOODBURY ELEMENTARY SCHOOL,8 N 7TH AVE,MARSHALLTOWN,IA,50158,NOT AVAILABLE,(641) 754-1080
12384,192013001184,FRANKLIN ELEMENTARY SCHOOL,210 TAYLOR ST,MUSCATINE,IA,52761,NOT AVAILABLE,(563) 263-5040
14992,192868001655,JENSEN ELEMENTARY SCHOOL,6301 AURORA AVENUE,URBANDALE,IA,50322,2839,(515) 457-5100
15281,192958001687,EAST SAC COUNTY HIGH SCHOOL,801 JACKSON,LAKE VIEW,IA,51450,NOT AVAILABLE,(712) 665-5001
20202,191566000939,KEOTA HIGH SCHOOL,507 N ELLIS ST,KEOTA,IA,52248,NOT AVAILABLE,(641) 636-3491
21868,192211002034,PICKWICK EARLY CHILDHOOD CENTER,1306 W WILLIAMS ST,OTTUMWA,IA,52501,NOT AVAILABLE,(641) 684-7179
29267,192691001582,SPENCER HIGH SCHOOL,800 E 3RD ST,SPENCER,IA,51301,NOT AVAILABLE,(712) 262-1700
29855,191095000675,EMMETSBURG HIGH SCHOOL,205 KING ST,EMMETSBURG,IA,50536,NOT AVAILABLE,(712) 852-2966
29863,192799001630,TRI-CENTER ELEMENTARY SCHOOL,33980 310TH ST,NEOLA,IA,51559,NOT AVAILABLE,(712) 485-2271
51573,192748001603,STRATFORD ELEMENTARY,1000 SHAKESPEARE AVE,STRATFORD,IA,50249,0409,(515) 838-2208
51576,191134000694,FAIRFIELD MIDDLE SCHOOL,404 W FILLMORE,FAIRFIELD,IA,52556,NOT AVAILABLE,(641) 472-5019
53418,190654000252,KENWOOD LEADERSHIP ACADEMY SCHOOL,3700 E AVE NE,CEDAR RAPIDS,IA,52402,NOT AVAILABLE,(319) 558-2273
59517,190654000237,ERSKINE ELEMENTARY SCHOOL,600 36TH ST SE,CEDAR RAPIDS,IA,52403,NOT AVAILABLE,(319) 558-2364
59644,193093001798,WESTERN HILLS ELEMENTARY SCHOOL,600 39TH ST,WEST DES MOINES,IA,50265,NOT AVAILABLE,(515) 633-5900
60635,192598001473,EAST ELEMENTARY SCHOOL,501 NORMAL COLLEGE AVE,SHELDON,IA,51201,NOT AVAILABLE,(712) 324-4337
60836,190948000604,DUBUQUE SENIOR HIGH SCHOOL,1800 CLARKE DR,DUBUQUE,IA,52001,NOT AVAILABLE,(563) 552-5500
61098,193054001747,SOUTHEAST ELEMENTARY SCHOOL,809 4TH ST SE,WAVERLY,IA,50677,NOT AVAILABLE,(319) 352-3582
65980,190336000032,BRYANT ELEMENTARY SCHOOL,121 E NORTH,ALGONA,IA,50511,NOT AVAILABLE,(515) 295-7773
66475,192505001966,RUTHVEN-AYRSHIRE ELEMENTARY SCHOOL,1505 WASHINGTON ST,RUTHVEN,IA,51358,NOT AVAILABLE,(712) 837-5211
68087,190858000487,WEST HIGH SCHOOL,3505 W LOCUST,DAVENPORT,IA,52804,NOT AVAILABLE,(563) 723-5600
68584,193093001188,HILLSIDE ELEMENTARY SCHOOL,713 8TH ST,WEST DES MOINES,IA,50265,NOT AVAILABLE,(515) 633-6200
70477,192311001364,PLEASANT VALLEY HIGH SCHOOL,604 BELMONT ROAD,BETTENDORF,IA,52722,NOT AVAILABLE,(563) 332-5151
71368,190420000109,BALLARD EAST ELEMENTARY,505 W 4TH ST,CAMBRIDGE,IA,50046,7741,(515) 220-4306
71903,190624001975,CARDINAL ELEMENTARY,5414 HWY 16,ELDON,IA,52554,NOT AVAILABLE,(641) 652-3591
72364,191545000653,HORIZON ELEMENTARY,5905 N W 100TH STREET,JOHNSTON,IA,50131,NOT AVAILABLE,(515) 986-1121
73567,190486000144,GRANT WOOD ELEMENTARY SCHOOL,1423 HILLSIDE DR,BETTENDORF,IA,52722,NOT AVAILABLE,(563) 359-8277
73686,191533002057,PERRY #1 ELEMENTARY SCHOOL,1726 FAIRBANK AMISH BLVD,INDEPENDENCE,IA,50644,NOT AVAILABLE,(319) 827-1700
74152,191470002133,BUFORD GARNER ELEMENTARY,80 BIRCH STREET,NORTH LIBERTY,IA,52317,NOT AVAILABLE,(319) 688-1190
74452,190438000113,BAXTER ELEMENTARY SCHOOL,202 E STATE,BAXTER,IA,50028,NOT AVAILABLE,(641) 227-3102
74461,190858000474,JEFFERSON ELEMENTARY SCHOOL,1027 MARQUETTE ST,DAVENPORT,IA,52804,NOT AVAILABLE,(563) 723-6700
76107,191878001099,ALTERNATIVE SCHOOL,19 N. ILLINOIS AVE.,MASON CITY,IA,50401,NOT AVAILABLE,(641) 421-4426
78685,190486000145,HERBERT HOOVER ELEMENTARY SCHOOL,3223 S HAMPTON DR,BETTENDORF,IA,52722,NOT AVAILABLE,(563) 332-8636
79331,191320000790,DAVIS ELEMENTARY SCHOOL,818 HAMILTON AVENUE,GRINNELL,IA,50112,NOT AVAILABLE,(641) 236-2790
79783,193048001734,ORANGE ELEMENTARY SCHOOL,5805 KIMBALL AVE,WATERLOO,IA,50701,NOT AVAILABLE,(319) 433-2880
40596,191320000789,BAILEY PARK ELEMENTARY SCHOOL,210 8TH AVE,GRINNELL,IA,50112,NOT AVAILABLE,(641) 236-2770
40623,190897001596,CARVER ELEMENTARY,705 E UNIVERSITY AVE,DES MOINES,IA,50316,NOT AVAILABLE,(515) 242-8418
41832,191458000866,INDEPENDENCE JUNIOR SENIOR HIGH SCHOOL,700 20TH AVE SW,INDEPENDENCE,IA,50644,NOT AVAILABLE,(319) 334-7405
41833,190771000384,WHITTIER ELEMENTARY SCHOOL,1310 2ND AVE S,CLINTON,IA,52732,NOT AVAILABLE,(563) 243-3230
42022,190897000528,EAST HIGH SCHOOL,815 E 13TH ST,DES MOINES,IA,50316,NOT AVAILABLE,(515) 242-7788
42028,190822000431,ROOSEVELT ELEMENTARY SCHOOL,517 N 17TH ST,COUNCIL BLUFFS,IA,51501,NOT AVAILABLE,(712) 328-6528
44712,192592002101,WEST FORK MIDDLE SCHOOL,504 PARK STREET,SHEFFIELD,IA,50475,0060,(641) 892-4159
48301,192100001258,NORTH TAMA HIGH SCHOOL,605 WALNUT,TRAER,IA,50675,NOT AVAILABLE,(319) 478-2265
49325,191134000694,FAIRFIELD MIDDLE SCHOOL,404 W FILLMORE AVE,FAIRFIELD,IA,52556,NOT AVAILABLE,(641) 472-5019
82420,192058000713,NEWELL-FONDA MIDDLE SCH.,205 CLARK ST,NEWELL,IA,50568,NOT AVAILABLE,(712) 272-3324
85151,190831001421,CRESTON ELEMENTARY SCHOOL,805 ACADEMIC AVE,CRESTON,IA,50801,NOT AVAILABLE,(641) 782-1155
85357,190897002140,WOODLAWN EARLY CHILDHOOD CENTER,4000 LOWER BEAVER RD,DES MOINES,IA,50310,NOT AVAILABLE,(515) 242-8213
86634,190004000132,EAST MARSHALL ELEMENTARY SCHOOL,201 E WEISSENBERGER,LAUREL,IA,50141,NOT AVAILABLE,(641) 476-3342
21186,192760001610,SUMNER-FREDERICKSBURG HS,802 WEST SIXTH STREET,SUMNER,IA,50674,NOT AVAILABLE,(563) 578-3341
26243,192750001605,STUART ELEMENTARY SCHOOL,320 N.E. 3RD ST,STUART,IA,50250,NOT AVAILABLE,(515) 523-1018
26737,193129001822,WEST SIOUX MIDDLE SCHOOL,1300 FALCON DRIVE,HAWARDEN,IA,51023,NOT AVAILABLE,(712) 551-1022
26879,190513000163,PAGE ELEMENTARY SCHOOL,102 S BOONE ST,BOONE,IA,50036,NOT AVAILABLE,(515) 433-0840
29930,190579000181,BURLINGTON COMMUNITY HIGH SCHOOL,421 TERRACE DR,BURLINGTON,IA,52601,NOT AVAILABLE,(319) 753-2211
61694,192316001403,PLEASANTVILLE MIDDLE SCHOOL,415 JONES ST,PLEASANTVILLE,IA,50225,NOT AVAILABLE,(515) 848-0528
67117,191437000859,HUMBOLDT HIGH SCHOOL,1500 WILDCAT RD,HUMBOLDT,IA,50548,NOT AVAILABLE,(515) 332-1430
67811,193180001850,WILTON JR-SR HIGH SCHOOL,1000 CYPRESS ST,WILTON,IA,52778,NOT AVAILABLE,(563) 732-2629
68482,192013001195,WEST MIDDLE SCHOOL,600 KINDLER AVE,MUSCATINE,IA,52761,NOT AVAILABLE,(563) 263-0411
3020,192958001511,EAST SAC COUNTY MIDDLE SCHOOL,300 S. 11TH,SAC CITY,IA,50583,NOT AVAILABLE,(712) 662-3259
6524,191725001008,LISBON ELEMENTARY SCHOOL,235 W SCHOOL ST,LISBON,IA,52253,NOT AVAILABLE,(319) 455-2659
9075,192487001422,ROLAND-STORY ELEMENTARY SCHOOL,900 HILLCREST DR,STORY CITY,IA,50248,NOT AVAILABLE,(515) 733-4386
41831,193048001723,HOOVER MIDDLE SCHOOL,630 HILLCREST RD,WATERLOO,IA,50701,NOT AVAILABLE,(319) 433-2830
41991,190002102004,OKOBOJI ELEMENTARY SCHOOL,705 N AVE,MILFORD,IA,51351,NOT AVAILABLE,(712) 338-2458
45370,190738000347,CLARION-GOLDFIELD-DOWS HIGH SCHOOL,1111 WILLOW DR,CLARION,IA,50525,1246,(515) 532-2895
45515,192787001622,TIPTON HIGH SCHOOL,400 E 6TH ST,TIPTON,IA,52772,NOT AVAILABLE,(563) 886-6027
47263,190456000120,BEDFORD HIGH SCHOOL,906 PENNSYLVANIA ST,BEDFORD,IA,50833,NOT AVAILABLE,(712) 523-2656
90050,192211001322,OTTUMWA HIGH SCHOOL,501 E 2ND,OTTUMWA,IA,52501,NOT AVAILABLE,(641) 683-4444
90146,191266000764,GLADBROOK-REINBECK ELEMENTARY SCHOOL,300 CEDAR STREET,REINBECK,IA,50669,NOT AVAILABLE,(319) 345-2822
92455,191851001063,MAQUOKETA MIDDLE SCHOOL,200 EAST LOCUST STREET,MAQUOKETA,IA,52060,NOT AVAILABLE,(563) 652-4956
96622,192085001246,NORTH MAHASKA ELEMENTARY SCHOOL,2163 135TH STREET,NEW SHARON,IA,50207,0089,(641) 637-4041
50022,193051002190,WOODLAND HILLS ELEMENTARY SCHOOL,1120 SOUTH 95TH STREET,WEST DES MOINES,IA,50266,NOT AVAILABLE,(515) 987-5196
50052,192901001671,VAN METER ELEMENTARY SCHOOL,520 1ST AVE,VAN METER,IA,50261,NOT AVAILABLE,(515) 996-2221
52671,191185000736,LINCOLN ELEMENTARY SCHOOL,1326 AVE E,FORT MADISON,IA,52627,NOT AVAILABLE,(319) 372-2896
53213,191878001104,JEFFERSON ELEMENTARY SCHOOL,1421 4TH ST. SE,MASON CITY,IA,50401,NOT AVAILABLE,(641) 421-4411
54301,193201002223,WOODWARD-GRANGER EARLY LEARNING CENTER,2200 STATE STREET,GRANGER,IA,50109,NOT AVAILABLE,(515) 999-8058
56056,192061002233,AURORA HEIGHTS ELEMENTARY SCHOOL,310 E 23RD ST S,NEWTON,IA,50208,NOT AVAILABLE,(641) 792-7324
56797,193093001798,WESTERN HILLS ELEMENTARY SCHOOL,600 39TH ST,WEST DES MOINES,IA,50265,NOT AVAILABLE,(515) 633-5900
81149,190666000272,CENTER POINT-URBANA HIGH SCHOOL,145 IOWA STREET,CENTER POINT,IA,52213,0296,(319) 849-1102
81241,190627000215,CARLISLE HIGH SCHOOL,430 SCHOOL ST,CARLISLE,IA,50047,NOT AVAILABLE,(515) 989-0831
82027,191470000892,IOWA CITY HIGH SCHOOL,1900 MORNINGSIDE DR,IOWA CITY,IA,52245,NOT AVAILABLE,(319) 688-1040
82106,192184001303,OSAGE MIDDLE SCHOOL,820 SAWYER,OSAGE,IA,50461,NOT AVAILABLE,(641) 732-3127
82418,190654000263,THOMAS JEFFERSON HIGH SCHOOL,1243 20TH ST SW,CEDAR RAPIDS,IA,52404,NOT AVAILABLE,(319) 558-2435
86792,190696000306,CENTRAL LYON ELEMENTARY SCHOOL,1105 S STORY,ROCK RAPIDS,IA,51246,0471,(712) 472-2664
89505,191533002051,JESUP MIDDLE SCHOOL,531 PROSPECT,JESUP,IA,50648,0287,(319) 827-1700
11384,192640002165,LIBERTY ELEMENTARY SCHOOL,1623 REBECCA STREET,SIOUX CITY,IA,51103,NOT AVAILABLE,(712) 279-6845
13950,190336000030,ALGONA HIGH SCHOOL,601 S HALE,ALGONA,IA,50511,NOT AVAILABLE,(515) 295-7207
18907,190786000388,PRAIRIE HIGH SCHOOL,401 76TH AVE SW,CEDAR RAPIDS,IA,52404,NOT AVAILABLE,(319) 848-5340
71565,193096001801,WEST HARRISON HIGH SCHOOL WEST HARRISON MIDDLE SCH,410 PINE ST,MONDAMIN,IA,51557,NOT AVAILABLE,(712) 646-2231
72288,192637001496,SIOUX CENTER HIGH SCHOOL,550 9TH ST NE,SIOUX CENTER,IA,51250,NOT AVAILABLE,(712) 722-2981
73014,190001501486,SIBLEY OCHEYEDAN ELEMENTARY SCHOOL,416 9TH AVE,SIBLEY,IA,51249,NOT AVAILABLE,(712) 754-3636
73285,192562001464,SEYMOUR ELEMENTARY SCHOOL,100 SOUTH PARK,SEYMOUR,IA,52590,NOT AVAILABLE,(641) 898-2291
77578,192082001244,NORTH LINN ELEMENTARY,3033 LYNX DR,COGGON,IA,52218,NOT AVAILABLE,(319) 224-3291
78152,191746001014,LOGAN-MAGNOLIA JR-SR HIGH SCHOOL,1200 N 2ND AVE,LOGAN,IA,51546,1060,(712) 644-2250
90585,191335000806,CLAYTON RIDGE HIGH SCHOOL,131 S RIVER PARK DR,GUTTENBERG,IA,52052,0520,(563) 252-2342
94769,192061002123,THOMAS JEFFERSON ELEMENTARY SCHOOL,112 THOMAS JEFFERSON DR,NEWTON,IA,50208,NOT AVAILABLE,(641) 792-2498
97075,191854001067,MAQUOKETA VALLEY SENIOR HIGH SCHOOL,107 SOUTH ST,DELHI,IA,52223,NOT AVAILABLE,(563) 922-2091
97370,190894000513,DENVER MIDDLE SCHOOL,540 LINCOLN,DENVER,IA,50622,0384,(319) 984-6041
71335,193201002079,WOODWARD ACADEMY,1251 334TH ST,WOODWARD,IA,50276,NOT AVAILABLE,(515) 438-3150
72049,192760001609,DURANT ELEMENTARY SCHOOL,601 WEST FIFTH STREET,SUMNER,IA,50674,NOT AVAILABLE,(563) 578-5400
73016,190897000589,WRIGHT ELEMENTARY SCHOOL,5001 SW 14TH ST,DES MOINES,IA,50315,NOT AVAILABLE,(515) 242-8442
75007,191185000737,RICHARDSON ELEMENTARY SCHOOL,3301 AVENUE L,FORT MADISON,IA,52627,NOT AVAILABLE,(319) 372-2765
78072,190798000397,ROUNDY ELEMENTARY SCHOOL,1212 COLTON ST,COLUMBUS JUNCTION,IA,52738,NOT AVAILABLE,(319) 728-6218
82425,191644000981,LAWTON-BRONSON JUNIOR-SENIOR HIGH SCHOOL,100 TARA WAY,LAWTON,IA,51030,NOT AVAILABLE,(712) 944-5181
86723,191872001091,MARSHALLTOWN HIGH SCHOOL,1602 S 2ND AVE,MARSHALLTOWN,IA,50158,NOT AVAILABLE,(641) 754-1130
88515,191662000992,LENOX HIGH SCHOOL,600 S LOCUST ST,LENOX,IA,50851,NOT AVAILABLE,(641) 333-2244
89504,192931001550,TILFORD ELEMENTARY SCHOOL,308 E 13TH ST,VINTON,IA,52349,NOT AVAILABLE,(319) 436-4728
100339,192640001526,RIVERSIDE ELEMENTARY SCHOOL,2220 NASH,SIOUX CITY,IA,51109,NOT AVAILABLE,(712) 279-6811
104988,190759002265,OAK HILL ELEMENTARY,504 N PARK ROAD,TIFFIN,IA,52340,NOT AVAILABLE,(319) 545-2248
107151,192466002262,ROCK VALLEY MIDDLE SCHOOL,1712 20TH AVE,ROCK VALLEY,IA,51247,NOT AVAILABLE,(712) 476-2701
10007,190654000241,GEORGE WASHINGTON HIGH SCHOOL,2205 FOREST DR SE,CEDAR RAPIDS,IA,52403,NOT AVAILABLE,(319) 558-3011
11593,190852000705,DALLAS CENTER ELEMENTARY,1205 13TH ST,DALLAS CENTER,IA,50063,NOT AVAILABLE,(515) 992-3838
13476,192868001658,ROLLING GREEN ELEMENTARY SCHOOL,8100 AIRLINE AVENUE,URBANDALE,IA,50322,2446,(515) 457-5900
16500,191329000799,GRUNDY CENTER ELEMENTARY SCHOOL,903 9TH ST,GRUNDY CENTER,IA,50638,NOT AVAILABLE,(319) 825-5461
17032,191416000844,HINTON HIGH SCHOOL,315 W. GRAND,HINTON,IA,51024,NOT AVAILABLE,(712) 947-4328
19409,190651000226,LINCOLN ELEMENTARY SCHOOL,321 8TH STREET,CEDAR FALLS,IA,50613,NOT AVAILABLE,(319) 553-2950
34464,190651000221,CEDAR FALLS HIGH SCHOOL,1015 DIVISION ST,CEDAR FALLS,IA,50613,NOT AVAILABLE,(319) 553-2500
34580,190897000550,LINCOLN HIGH SCHOOL,2600 SW 9TH ST,DES MOINES,IA,50315,NOT AVAILABLE,(515) 242-7500
34624,190002601341,SOUTH O'BRIEN SECONDARY SCHOOL,307 W GROESBECK,PAULLINA,IA,51046,0638,(712) 949-3454
35074,191725001981,LISBON MIDDLE SCHOOL,235 W SCHOOL ST,LISBON,IA,52253,NOT AVAILABLE,(319) 455-2106
35505,191584000949,KNOXVILLE MIDDLE SCHOOL,102 N LINCOLN,KNOXVILLE,IA,50138,NOT AVAILABLE,(641) 842-3315
37539,192091001249,NORTH POLK WEST ELEMENTARY SCHOOL,1400 W BROADWAY,POLK CITY,IA,50226,NOT AVAILABLE,(515) 984-3400
51229,190888000505,DELWOOD ELEMENTARY SCHOOL,311 DELMAR AVE,DELMAR,IA,52037,NOT AVAILABLE,(563) 674-4164
51234,191185000734,FORT MADISON MIDDLE SCHOOL,502 48TH STREET,FORT MADISON,IA,52627,NOT AVAILABLE,(319) 372-4687
51475,192625001489,SIDNEY HIGH SCHOOL,2754 KNOX ROAD,SIDNEY,IA,51652,NOT AVAILABLE,(712) 374-2731
58683,191851001062,MAQUOKETA COMMUNITY HIGH SCHOOL,600 WASHINGTON,MAQUOKETA,IA,52060,NOT AVAILABLE,(563) 652-2451
59710,193048001165,LOU HENRY ELEMENTARY SCHOOL,312 RACHAEL ST,WATERLOO,IA,50701,NOT AVAILABLE,(319) 433-2860
23002,191467002196,INTERSTATE 35 HIGH SCHOOL,405 E NORTH ST,TRURO,IA,50257,0079,(641) 465-4818
25489,190654000261,TAFT MIDDLE SCHOOL,5200 E AVE NW,CEDAR RAPIDS,IA,52405,NOT AVAILABLE,(319) 558-2243
26800,190507002209,MORRIS ELEMENTARY,600 GARFIELD ST. SW,BONDURANT,IA,50035,NOT AVAILABLE,(515) 967-6361
28526,190002501334,PANORAMA HIGH SCHOOL,701 W. MAIN,PANORA,IA,50216,0039,(641) 755-2317
65729,192691002170,JOHNSON ELEMENTARY,724 WEST 9TH STREET,SPENCER,IA,51301,NOT AVAILABLE,(712) 262-2710
66424,191980001164,MOULTON-UDELL HIGH SCHOOL,305 E 8TH,MOULTON,IA,52572,NOT AVAILABLE,(641) 642-8131
42012,192013001192,MULBERRY ELEMENTARY SCHOOL,3211 MULBERRY AVE,MUSCATINE,IA,52761,NOT AVAILABLE,(563) 263-8143
42014,192319000377,POCAHONTAS AREA REGIONAL LEARNING CENTER,202 1ST AVE SW,POCAHONTAS,IA,50574,NOT AVAILABLE,(712) 335-5971
42017,190897000554,MADISON ELEMENTARY SCHOOL,806 E HOFFMAN ST,DES MOINES,IA,50316,NOT AVAILABLE,(515) 242-8420
46063,190354000053,FELLOWS ELEMENTARY SCHOOL,1235 20TH ST.,AMES,IA,50010,NOT AVAILABLE,(515) 239-3765
49470,193054002163,WAVERLY-SHELL ROCK MIDDLE SCHOOL,501 HERITAGE WAY,WAVERLY,IA,50677,NOT AVAILABLE,(319) 352-3632
49896,190705000313,CHARITON HIGH SCHOOL,501 N GRAND,CHARITON,IA,50049,NOT AVAILABLE,(641) 774-5066
6472,190348002251,AURELIA ELEMENTARY SCHOOL,300 ASH ST,AURELIA,IA,51005,NOT AVAILABLE,(712) 434-5595
13475,191653000983,CLARK ELEMENTARY SCHOOL,201 2ND AVE NW,LE MARS,IA,51031,NOT AVAILABLE,(712) 546-8121
13849,190831000446,CRESTON EARLY CHILDHOOD CENTER,901 N ELM ST,CRESTON,IA,50801,NOT AVAILABLE,(641) 782-2724
14379,191944001147,MISSOURI VALLEY MIDDLE SCHOOL,607 E LINCOLN HIGHWAY,MISSOURI VALLEY,IA,51555,NOT AVAILABLE,(712) 642-2707
15389,191965001155,SHANNON ELEMENTARY SCHOOL,321 W SOUTH ST,MONTICELLO,IA,52310,NOT AVAILABLE,(319) 465-5425
17028,193051001743,WAUKEE MIDDLE SCHOOL,905 S. WARRIOR LANE,WAUKEE,IA,50263,NOT AVAILABLE,(515) 987-5177
18501,193048001970,HIGHLAND ELEMENTARY SCHOOL,812 IDAHO ST,WATERLOO,IA,50703,NOT AVAILABLE,(319) 433-2630
5701,191974001158,MORMON TRAIL ELEMENTARY SCHOOL,403 S FRONT ST,HUMESTON,IA,50123,NOT AVAILABLE,(641) 877-2521
7655,190322001939,AKRON WESTFIELD SENIOR HIGH SCHOOL,850 KERR DRIVE,AKRON,IA,51001,NOT AVAILABLE,(712) 568-2020
8843,191710001000,NORTH CEDAR MECHANICSVILLE ELEM CTR,609 125TH ST.,MECHANICSVILLE,IA,52306,NOT AVAILABLE,(563) 432-6933
8844,190579000187,JAMES WILSON GRIMES SCHOOL,800 SOUTH ST.,BURLINGTON,IA,52601,NOT AVAILABLE,(319) 753-0420
8848,190897002011,COWLES ELEMENTARY SCHOOL,6401 COLLEGE AVE,DES MOINES,IA,50324,NOT AVAILABLE,(515) 242-7818
20639,192700001584,SPIRIT LAKE ELEMENTARY SCHOOL,2901 HILL AVE,SPIRIT LAKE,IA,51360,NOT AVAILABLE,(712) 336-2822
25490,190654000245,HARRISON ELEMENTARY SCHOOL,1310 11TH ST NW,CEDAR RAPIDS,IA,52405,NOT AVAILABLE,(319) 558-2269
25960,193093001792,FAIRMEADOWS ELEMENTARY SCHOOL,807 23RD ST,WEST DES MOINES,IA,50265,NOT AVAILABLE,(515) 633-6500
28361,190831001237,CRESTON MIDDLE SCHOOL,805 ACADEMIC AVE.,CRESTON,IA,50801,NOT AVAILABLE,(641) 782-2129
29549,190315000010,DESOTO INTERMEDIATE SCHOOL,317 SPRUCE ST,DESOTO,IA,50069,NOT AVAILABLE,(515) 834-2424
29859,191642000977,LAURENS-MARATHON ELEMENTARY SCHOOL,300 W GARFIELD,LAURENS,IA,50554,NOT AVAILABLE,(712) 841-5000
40144,193093001797,VALLEY HIGH SCHOOL,3650 WOODLAND AVE,WEST DES MOINES,IA,50266,NOT AVAILABLE,(515) 633-4000
41987,192253001355,PERRY HIGH SCHOOL,1200 18TH STREET,PERRY,IA,50220,NOT AVAILABLE,(515) 465-3503
42024,190822000414,CRESCENT ELEMENTARY SCHOOL,401 EAST WELCH STREET,CRESCENT,IA,51526,NOT AVAILABLE,(712) 545-3697
44479,190654000266,VAN BUREN ELEMENTARY SCHOOL,2525 29TH ST SW,CEDAR RAPIDS,IA,52404,NOT AVAILABLE,(319) 558-2377
30852,191223002122,GALVA-HOLSTEIN UPPER ELEMENTARY,207 NOLL,GALVA,IA,51020,NOT AVAILABLE,(712) 368-4353
37590,191470000885,ERNEST HORN ELEMENTARY SCHOOL,600 KOSER AVE,IOWA CITY,IA,52246,NOT AVAILABLE,(319) 688-1115
94459,193111001817,WEST MONONA HIGH SCHOOL,1314 15TH ST,ONAWA,IA,51040,NOT AVAILABLE,(712) 433-2453
94728,190897000548,JEFFERSON ELEMENTARY SCHOOL,2425 WATROUS AVE,DES MOINES,IA,50321,NOT AVAILABLE,(515) 242-8416
70308,191533002057,PERRY #1 ELEMENTARY SCHOOL,1726 FAIRBANK AMISH BLVD,INDEPENDENCE,IA,50644,NOT AVAILABLE,(319) 827-1700
70398,190771001519,EAGLE HEIGHTS ELEMENTARY SCHOOL,1350 MAIN AVE,CLINTON,IA,52732,NOT AVAILABLE,(563) 243-4288
70476,190897000516,HIATT MIDDLE SCHOOL,1430 E. UNIVERSITY AVE,DES MOINES,IA,50316,NOT AVAILABLE,(515) 242-7774
73981,192082001242,NORTH-LINN MIDDLE SCHOOL,3033 LYNX DRIVE,TROY MILLS,IA,52344,0200,(319) 224-3291
74449,193075001771,HOOVER ELEMENTARY SCHOOL,148 N OLIPHANT,WEST BRANCH,IA,52358,0637,(319) 643-7211
76788,190858002009,MID CITY HIGH,3801 MARQUETTE STREET,DAVENPORT,IA,52806,NOT AVAILABLE,(563) 336-7600
60980,190002402153,SOUTH CENTRAL CALHOUN MIDDLE SCHOOL,1000 TONAWANDA STREET,ROCKWELL CITY,IA,50579,1802,(712) 297-8111
67644,193048002024,CENTRAL MIDDLE SCHOOL,1350 KATOSKI DR,WATERLOO,IA,50701,NOT AVAILABLE,(319) 433-2100
69256,192076001238,CENTRAL SPRINGS ELEM. MANLY CAMPUS,105 S EAST ST,MANLY,IA,50456,NOT AVAILABLE,(641) 454-3283
82414,190708000320,CHARLES CITY MS,1200 1ST AVE.,CHARLES CITY,IA,50616,NOT AVAILABLE,(641) 257-6530
82675,190690000816,NORTH ELEMENTARY SCHOOL,1203 NE POPLAR STREET,LEON,IA,50144,NOT AVAILABLE,(641) 446-4452
83121,193063001765,WEBSTER CITY MIDDLE SCHOOL,1101 DES MOINES STREET,WEBSTER CITY,IA,50595,1948,(515) 832-9220
84828,191041000665,LANSING MIDDLE SCHOOL,569 CENTER ST.,LANSING,IA,52151,NOT AVAILABLE,(563) 538-4201
86403,190315001986,ADM MIDDLE SCHOOL,801 NILE KINNICK DR. S.,ADEL,IA,50003,NOT AVAILABLE,(515) 993-3490
86573,192316001369,PLEASANTVILLE HIGH SCHOOL,415 JONES ST,PLEASANTVILLE,IA,50225,NOT AVAILABLE,(515) 848-0541
88034,190786002110,PRAIRIE POINT,8015 KIRKWOOD BLVD,CEDAR RAPIDS,IA,52404,NOT AVAILABLE,(319) 848-5500
58538,192682001572,SOUTHEAST POLK HIGH SCHOOL,7945 NE UNIVERSITY AVE.,PLEASANT HILL,IA,50327,NOT AVAILABLE,(515) 967-6631
100402,190654000254,MCKINLEY STEAM ACADEMY,620 10TH ST SE,CEDAR RAPIDS,IA,52403,NOT AVAILABLE,(319) 558-2348
100802,193054001745,MARGARETTA CAREY ELEMENTARY SCHOOL,220 9TH AVE NW,WAVERLY,IA,50677,NOT AVAILABLE,(319) 352-2855
101975,191011000643,EAST BUCHANAN HIGH SCHOOL,414 5TH ST NORTH,WINTHROP,IA,50682,NOT AVAILABLE,(319) 935-3367
10575,191470000895,LONGFELLOW ELEMENTARY SCHOOL,1130 SEYMOUR AVE,IOWA CITY,IA,52240,NOT AVAILABLE,(319) 688-1135
10583,191416000843,HINTON ELEMENTARY SCHOOL,315 WEST GRAND,HINTON,IA,51024,NOT AVAILABLE,(712) 947-4327
13847,190858000461,CENTRAL HIGH SCHOOL,1120 MAIN ST,DAVENPORT,IA,52803,NOT AVAILABLE,(563) 723-5400
14794,190002102002,OKOBOJI HIGH SCHOOL,901 H. AVE.,MILFORD,IA,51351,NOT AVAILABLE,(712) 338-2446
14956,191464000875,INDIANOLA MIDDLE SCHOOL,403 S 15TH ST,INDIANOLA,IA,50125,NOT AVAILABLE,(515) 961-9530
15952,191332000804,GUTHRIE CENTER HIGH SCHOOL,906 SCHOOL ST,GUTHRIE CENTER,IA,50115,NOT AVAILABLE,(641) 332-2236
16501,191470000304,WEBER ELEMENTARY,3850 ROHRET ROAD,IOWA CITY,IA,52246,NOT AVAILABLE,(319) 688-1170
16505,191320000792,GRINNELL COMMUNITY SENIOR HIGH SCHOOL,1333 SUNSET ST,GRINNELL,IA,50112,NOT AVAILABLE,(641) 236-2720
16724,193056001755,WAYNE COMMUNITY JR-SR HIGH SCHOOL,102 N DEKALB ST,CORYDON,IA,50060,NOT AVAILABLE,(641) 872-2184
18212,190408000102,AHSTW HIGH SCHOOL,768 S MAPLE,AVOCA,IA,51521,NOT AVAILABLE,(712) 343-6364
81876,192541001451,SCHLESWIG MIDDLE SCHOOL,714 DATE STREET,SCHLESWIG,IA,51461,0250,(712) 676-3313
82415,190708000323,LINCOLN ELEMENTARY SCHOOL,600 5TH AVE,CHARLES CITY,IA,50616,NOT AVAILABLE,(641) 257-6560
85000,193135001829,EPWORTH ELEMENTARY SCHOOL,201 JACOBY DRIVE E,EPWORTH,IA,52045,NOT AVAILABLE,(563) 876-5514
87085,192637001497,SIOUX CENTER MIDDLE SCHOOL,950 4TH AVE NE,SIOUX CENTER,IA,51250,NOT AVAILABLE,(712) 722-3783
87864,192319001372,POCAHONTAS AREA ELEMENTARY SCHOOL,208 1ST AVE SW,POCAHONTAS,IA,50574,NOT AVAILABLE,(712) 335-4642
1349,192253000051,PERRY ELEMENTARY,1600 8TH STREET,PERRY,IA,50220,NOT AVAILABLE,(515) 465-5656
7657,193093000483,VALLEY SOUTHWOODS,625 S 35TH ST,WEST DES MOINES,IA,50265,NOT AVAILABLE,(515) 633-4500
40336,191896001121,MELCHER-DALLAS ELEM,1003 E PARK ST,DALLAS,IA,50062,NOT AVAILABLE,(641) 947-3151
40417,191533002016,PRAIRIE GROVE ELEMENTARY SCHOOL,1501 150TH ST,HAZELTON,IA,50641,NOT AVAILABLE,(319) 827-1700
41996,190000601232,NORTH FAYETTE VALLEY HIGH SCHOOL,600 N PINE ST,WEST UNION,IA,52175,NOT AVAILABLE,(563) 422-3851
42020,190897000556,KING ELEMENTARY SCHOOL,1849 FOREST AVE,DES MOINES,IA,50314,NOT AVAILABLE,(515) 242-8417
42037,191179000715,FOREST CITY ELEMENTARY SCHOOL,1405 W I ST,FOREST CITY,IA,50436,NOT AVAILABLE,(641) 585-2670
44729,191782002106,LOUISA-MUSCATINE JR HIGH,14354 170TH ST,LETTS,IA,52754,NOT AVAILABLE,(319) 726-3421
45824,190894000514,DENVER SENIOR HIGH SCHOOL,541 E EAGLE,DENVER,IA,50622,NOT AVAILABLE,(319) 984-5639
48021,191563002198,TORRENCE ELEMENTARY,1721 FULTON STREET,KEOKUK,IA,52632,NOT AVAILABLE,(319) 524-1402
49328,191470000886,GRANT WOOD ELEMENTARY SCHOOL,1930 LAKESIDE DR,IOWA CITY,IA,52240,NOT AVAILABLE,(319) 688-1180
92868,191473000908,PINEVIEW ELEMENTARY,1510 WASHINGTON AVE,IOWA FALLS,IA,50126,NOT AVAILABLE,(641) 648-6410
96574,191944001145,MISSOURI VALLEY ELEMENTARY,602 N 9TH ST,MISSOURI VALLEY,IA,51555,NOT AVAILABLE,(712) 642-2279
97393,192856002105,UNITED NORTH,1284 U AVE,BOONE,IA,50036,0589,(515) 432-5319
101096,191944001145,MISSOURI VALLEY ELEMENTARY,602 NORTH 9TH STREET,MISSOURI VALLEY,IA,51555,NOT AVAILABLE,(712) 642-2279
101977,191989001170,LINCOLN ELEMENTARY SCHOOL,501 S CORKHILL,MOUNT PLEASANT,IA,52641,NOT AVAILABLE,(319) 385-7765
104986,190579002271,CORSE EARLY CHILDHOOD CENTER,700 SOUTH STARR AVENUE,BURLINGTON,IA,52601,NOT AVAILABLE,(319) 753-2707
104995,191722002275,HAZEL POINT INTERMEDIATE SCHOOL,453 ECHO HILL ROAD,MARION,IA,52302,NOT AVAILABLE,(319) 447-3001
107149,190408002261,AHSTW INTERMEDIATE SCHOOL,768 S MAPLE ST,AVOCA,IA,51521,NOT AVAILABLE,(712) 343-6364
51231,193201001866,WOODWARD-GRANGER MIDDLE SCHOOL,306 W 3RD ST,WOODWARD,IA,50276,NOT AVAILABLE,(515) 438-4263
51749,192311001365,PLEASANT VIEW ELEMENTARY SCHOOL,6333 CROW CREEK RD,BETTENDORF,IA,52722,NOT AVAILABLE,(563) 332-5575
53084,190858000488,WILLIAMS INTERMEDIATE,3040 N DIVISION,DAVENPORT,IA,52804,NOT AVAILABLE,(563) 445-5250
54889,191920001563,MIDLAND MIDDLE/HIGH SCHOOL,106 W. WEBSTER STREET,WYOMING,IA,52362,NOT AVAILABLE,(563) 488-2292
58377,192094001256,NORTH SCOTT HIGH SCHOOL,200 S 1ST ST,ELDRIDGE,IA,52748,1904,(563) 285-9631
59520,190735000341,CLARINDA MIDDLE SCHOOL,305 E. GLENN MILLER DR.,CLARINDA,IA,51632,NOT AVAILABLE,(712) 542-2132
59529,192640001504,EAST HIGH SCHOOL,3200 S. CYPRESS ST.,SIOUX CITY,IA,51106,4528,(712) 274-4000
34499,190345000785,NORTH BUTLER JR/SR HIGH SCHOOL,201 N 5TH ST,GREENE,IA,50636,0190,(641) 816-5631
35504,192247001348,LINCOLN ELEMENTARY SCHOOL,1111 NORTH MAIN STREET,PELLA,IA,50219,NOT AVAILABLE,(641) 628-3970
39753,193093001793,INDIAN HILLS JUNIOR HIGH SCHOOL,9401 INDIAN HILLS DR,CLIVE,IA,50325,NOT AVAILABLE,(515) 633-4700
23550,191347000819,SOUTH SIDE ELEMENTARY SCHOOL,507 4TH AVE SE,HAMPTON,IA,50441,NOT AVAILABLE,(641) 456-2261
24505,192520001440,ST ANSGAR MIDDLE SCHOOL,206 EAST 8TH STREET,ST ANSGAR,IA,50472,NOT AVAILABLE,(641) 713-4720
26077,191470000890,HILLS ELEMENTARY SCHOOL,301 MAIN ST,HILLS,IA,52235,NOT AVAILABLE,(319) 688-1105
28110,191812001484,MCGREGOR INTERMEDIATE SCHOOL,920 W MAIN ST.,MCGREGOR,IA,52157,NOT AVAILABLE,(563) 873-2250
28697,191989001015,WISDOMQUEST EDUCATION CENTER,401 E. MONROE STREET,MOUNT PLEASANT,IA,52641,NOT AVAILABLE,(319) 385-7709
71579,192607001478,SHENANDOAH ELEMENTARY SCHOOL,601 DR. CREIGHTON CIRCLE,SHENANDOAH,IA,51601,NOT AVAILABLE,(712) 246-2520
73018,199901902077,DAYTON CENTER,104 2ND ST. NW,DAYTON,IA,50530,NOT AVAILABLE,(515) 547-2314
76694,193108001812,WEST MARSHALL HIGH SCHOOL,601 3RD STREET NW,STATE CENTER,IA,50247,NOT AVAILABLE,(641) 483-2136
60286,191722001002,BOWMAN WOODS ELEMENTARY SCHOOL,151 BOYSON RD NE,CEDAR RAPIDS,IA,52402,NOT AVAILABLE,(319) 447-3240
64322,193024001704,WASHINGTON HIGH SCHOOL,1111 S. AVE. B,WASHINGTON,IA,52353,NOT AVAILABLE,(319) 653-2143
68051,192682002134,SPRING CREEK - 6TH GRADE,8031 NE UNIVERSITY AVE.,PLEASANT HILL,IA,50327,NOT AVAILABLE,(515) 967-5533
69251,199901702060,PCM HIGH SCHOOL,400 EAST HIGHWAY 163,MONROE,IA,50170,0610,(641) 259-2315
31331,191833001052,MANSON NORTHWEST WEBSTER ELEMENTARY,303 PIERCE STREET,BARNUM,IA,50518,NOT AVAILABLE,(515) 542-3211
32242,191725001009,LISBON HIGH SCHOOL,235 W SCHOOL ST,LISBON,IA,52253,NOT AVAILABLE,(319) 455-2106
36589,191872001089,J C HOGLAN ELEMENTARY SCHOOL,2306 S 3RD AVE,MARSHALLTOWN,IA,50158,NOT AVAILABLE,(641) 754-1060
864,193051002222,TIMBERLINE SCHOOL,2605 SE LA GRANT PARKWAY,WAUKEE,IA,50263,NOT AVAILABLE,(515) 987-9444
1387,192083001887,NORTH KOSSUTH ELEMENTARY SCHOOL,203 5TH STREET NORTH,SWEA CITY,IA,50590,NOT AVAILABLE,(515) 272-4361
1650,191134000698,PENCE ELEMENTARY,1000 SOUTH 6TH STREET,FAIRFIELD,IA,52556,3940,(641) 472-2957
4242,192739000847,ST LAKE/IA CNTRL/BUENA VISTA EARLY COLLEGE HS,621 TORNADO DR,STORM LAKE,IA,50588,NOT AVAILABLE,(712) 732-8065
7260,190633000522,ADAMS ELEMENTARY SCHOOL,1026 N ADAMS ST,CARROLL,IA,51401,NOT AVAILABLE,(712) 792-8040
8075,191878001103,HOOVER ELEMENTARY SCHOOL,1123 8TH ST. NW,MASON CITY,IA,50401,NOT AVAILABLE,(641) 421-4408
8767,192802001635,TRI-COUNTY JUNIOR HIGH SCHOOL,3003 HWY 22,THORNBURG,IA,50255,NOT AVAILABLE,(641) 634-2636
23387,192817001641,TWIN CEDARS ELEMENTARY SCHOOL,2204 HIGHWAY G71,BUSSEY,IA,50044,7512,(641) 944-5245
10573,192541001452,SCHLESWIG ELEMENTARY SCHOOL,714 DATE STREET,SCHLESWIG,IA,51461,0250,(712) 676-3314
11726,190735000340,CLARINDA HIGH SCHOOL,100 N. CARDINAL DRIVE,CLARINDA,IA,51632,NOT AVAILABLE,(712) 542-5167
12449,190594000069,CAM NORTH ELEMENTARY,709 MCINTYRE DR,ANITA,IA,50020,NOT AVAILABLE,(712) 762-3231
13472,191632000975,LAMONI HIGH SCHOOL,202 N WALNUT ST,LAMONI,IA,50140,NOT AVAILABLE,(641) 784-3351
13477,190897000565,MOULTON ELEMENTARY SCHOOL,1541 8TH STREET,DES MOINES,IA,50314,NOT AVAILABLE,(515) 242-8427
13478,192682001571,RUNNELLS ELEMENTARY,6575 SE 116TH STREET,RUNNELLS,IA,50237,NOT AVAILABLE,(515) 966-2068
19280,190948000608,HEMPSTEAD HIGH SCHOOL,3715 PENNSYLVANIA AVE,DUBUQUE,IA,52002,NOT AVAILABLE,(563) 552-5200
70088,190651000222,CEDAR HEIGHTS ELEMENTARY SCHOOL,2417 RAINBOW DR,CEDAR FALLS,IA,50613,NOT AVAILABLE,(319) 553-2855
73015,190897000519,CALLANAN MIDDLE SCHOOL,3010 CENTER STREET,DES MOINES,IA,50312,NOT AVAILABLE,(515) 242-8101
74249,191533002017,TRIUMPH ELEMENTARY SCHOOL,1348 145TH ST,FAIRBANK,IA,50641,NOT AVAILABLE,(319) 827-1700
75153,190354000060,AMES MIDDLE SCHOOL,3915 MORTENSEN ROAD,AMES,IA,50014,NOT AVAILABLE,(515) 268-2400
77337,191584000948,KNOXVILLE HIGH SCHOOL,1811 W MADISON,KNOXVILLE,IA,50138,NOT AVAILABLE,(641) 842-2173
40356,190315000008,ADEL ELEMENTARY SCHOOL,1608 GROVE ST.,ADEL,IA,50003,NOT AVAILABLE,(515) 993-4285
41984,190345000042,NORTH BUTLER ELEMENTARY,513 BIRCH,ALLISON,IA,50602,0428,(319) 267-2212
41985,190741000351,CLARKE COMMUNITY ELEMENTARY SCHOOL,420 E JEFFERSON ST,OSCEOLA,IA,50213,NOT AVAILABLE,(641) 342-6320
41998,192625001488,SIDNEY ELEMENTARY SCHOOL,1004 ILLINOIS ST,SIDNEY,IA,51652,0609,(712) 374-2647
42026,192799001632,TRI-CENTER HIGH SCHOOL,33980 310TH ST,NEOLA,IA,51559,NOT AVAILABLE,(712) 485-2257
42031,190858000470,HAYES ELEMENTARY SCHOOL,622 S CONCORD ST,DAVENPORT,IA,52802,NOT AVAILABLE,(563) 723-6600
43389,190897002108,MCKEE ELEMENTARY SCHOOL,2115 E 39TH ST,DES MOINES,IA,50317,NOT AVAILABLE,(515) 323-8628
46973,191965002000,MONTICELLO MIDDLE SCHOOL,217 S MAPLE,MONTICELLO,IA,52310,NOT AVAILABLE,(319) 465-3575
47603,190444000119,BCLUW ELEMENTARY SCHOOL,414 LILLIAN AVE,CONRAD,IA,50621,NOT AVAILABLE,(641) 366-2811
81000,191428000848,CRESTWOOD ELEMENTARY SCHOOL,1000 4TH AVE EAST,CRESCO,IA,52136,NOT AVAILABLE,(563) 547-2001
84999,191614000967,HARRIS-LAKE PARK HIGH SCHOOL,905 SOUTH MARKET,LAKE PARK,IA,51347,NOT AVAILABLE,(712) 832-3809
86842,192598001475,SHELDON MIDDLE SCHOOL,310 23RD AVENUE,SHELDON,IA,51201,NOT AVAILABLE,(712) 324-4346
51583,192466001414,ROCK VALLEY ELEMENTARY SCHOOL,1712 20TH AVENUE,ROCK VALLEY,IA,51247,NOT AVAILABLE,(712) 476-2701
53082,192244001345,PEKIN ELEMENTARY SCHOOL,1062 BIRCH AVE,PACKWOOD,IA,52580,8542,(641) 661-2351
54276,190483002227,KEYSTONE ELEMENTARY SCHOOL,280 4TH ST,KEYSTONE,IA,52249,NOT AVAILABLE,(319) 442-3221
54298,190759002229,TIFFIN ELEMENTARY,104 N. PARK RD,TIFFIN,IA,52340,NOT AVAILABLE,(319) 545-2081
55810,190002500606,PANORAMA ELEMENTARY,401 PANTHER DRIVE,PANORA,IA,50216,0039,(641) 755-2021
58964,192004001178,MOUNT VERNON MIDDLE SCHOOL,525 PALISADES ROAD SW,MOUNT VERNON,IA,52314,NOT AVAILABLE,(319) 895-6254
59518,192013001187,JEFFERSON ELEMENTARY SCHOOL,1000 MULBERRY AVE,MUSCATINE,IA,52761,NOT AVAILABLE,(563) 263-8800
90664,191662000991,LENOX ELEMENTARY SCHOOL,600 S. LOCUST ST.,LENOX,IA,50851,NOT AVAILABLE,(641) 333-2244
94104,192187001309,OSKALOOSA HIGH SCHOOL,1816 N 3RD EXTENSION,OSKALOOSA,IA,52577,NOT AVAILABLE,(641) 673-3407
95172,190354001906,NORTHWOOD PRE-SCHOOL,3012 DUFF AVENUE,AMES,IA,50010,NOT AVAILABLE,(515) 268-2470
95936,193090001786,WEST DELAWARE HIGH SCHOOL,605 NEW ST,MANCHESTER,IA,52057,NOT AVAILABLE,(563) 927-3515
64449,190627000214,CARLISLE ELEMENTARY SCHOOL,430 SCHOOL ST,CARLISLE,IA,50047,NOT AVAILABLE,(515) 989-0339
65002,193186000369,WINTERSET JUNIOR HIGH SCHOOL,720 HUSKY DR,WINTERSET,IA,50273,2281,(515) 462-3336
65615,191107000684,DEMONEY ELEMENTARY,109 S 17TH STREET,ESTHERVILLE,IA,51334,NOT AVAILABLE,(712) 362-2181
66459,191521000919,GREENE COUNTY MIDDLE SCHOOL,101 RAM DRIVE,JEFFERSON,IA,50129,NOT AVAILABLE,(515) 386-8126
69250,192976001695,RURAL ELEMENTARY SCHOOL #1,1099 AMISH BLVD,FAIRBANK,IA,50629,NOT AVAILABLE,(319) 635-2071
100152,190375001337,APLINGTON PARKERSBURG HIGH SCHOOL,610 N JOHNSON ST,PARKERSBURG,IA,50665,NOT AVAILABLE,(319) 346-1571
100303,193063001763,SUNSET HEIGHTS ELEMENTARY SCHOOL,1101 BOONE ST,WEBSTER CITY,IA,50595,1948,(515) 832-9245
100416,190003101300,ALBERT CITY-TRUESDALE ELEMENTARY SCHOOL,300 ORCHARD,ALBERT CITY,IA,50510,NOT AVAILABLE,(712) 843-5416
104987,190654002272,CEDAR RAPIDS VIRTUAL ACADEMY,2500 EDGEWOOD RD,CEDAR RAPIDS,IA,52405,NOT AVAILABLE,(319) 558-1629
40864,190627000216,HARTFORD UPPER ELEMENTARY,500 N. VINE,HARTFORD,IA,50118,NOT AVAILABLE,(515) 989-0316
46807,190369000077,SOUTHEAST ELEMENTARY SCHOOL,1005 SE TRILEIN DR,ANKENY,IA,50021,NOT AVAILABLE,(515) 965-9650
47040,191437000861,TAFT ELEMENTARY SCHOOL,612 2ND AVE N,HUMBOLDT,IA,50548,NOT AVAILABLE,(515) 332-3216
48343,190813000403,CORNING ELEMENTARY SCHOOL,1012 10TH ST,CORNING,IA,50841,NOT AVAILABLE,(641) 322-4020
30160,191473000904,IOWA FALLS - ALDEN HIGH SCHOOL,1903 NORTH TAYLOR,IOWA FALLS,IA,50126,NOT AVAILABLE,(641) 648-6440
33571,191854001065,EARLVILLE ELEMENTARY SCHOOL,213 STOW ST,EARLVILLE,IA,52041,NOT AVAILABLE,(563) 923-3225
34582,192094001257,VIRGIL GRISSOM ELEMENTARY SCHOOL,500 LOST GROVE RD,PRINCETON,IA,52768,7731,(563) 285-3264
51226,190960000630,DURANT JUNIOR/SENIOR HIGH SCHOOL,408 7TH ST,DURANT,IA,52747,NOT AVAILABLE,(563) 785-4431
53271,191269000770,WEST ELEMENTARY SCHOOL,707 SHARP ST,GLENWOOD,IA,51534,NOT AVAILABLE,(712) 527-4886
57238,190624002246,CARDINAL JUNIOR HIGH,4045 ASHLAND ROAD,ELDON,IA,52554,NOT AVAILABLE,(641) 652-7531
59524,190897000578,STUDEBAKER ELEMENTARY SCHOOL,300 E COUNTY LINE RD,DES MOINES,IA,50315,NOT AVAILABLE,(515) 242-8436
59527,190495000151,BLAKESBURG ELEMENTARY,407 S WILSON,BLAKESBURG,IA,52536,NOT AVAILABLE,(641) 938-2203
24623,190873000501,DECORAH HIGH SCHOOL,100 CLAIBORNE DRIVE,DECORAH,IA,52101,NOT AVAILABLE,(563) 382-3643
29839,193090001787,WEST DELAWARE MIDDLE SCHOOL,1101 DOCTOR ST,MANCHESTER,IA,52057,NOT AVAILABLE,(563) 927-3515
82419,192400001397,RED OAK JUNIOR/SENIOR HIGH SCHOOL,2011 N 8TH ST,RED OAK,IA,51566,NOT AVAILABLE,(712) 623-6610
84998,190855000454,DANVILLE ELEMENTARY SCHOOL,419 SOUTH MAIN STREET,DANVILLE,IA,52623,NOT AVAILABLE,(319) 392-4221
87074,190690000300,SOUTH ELEMENTARY SCHOOL,201 SE 6TH ST,LEON,IA,50144,1246,(641) 446-6521
87079,190369000071,ANKENY HIGH SCHOOL,1155 SW CHERRY ST,ANKENY,IA,50023,NOT AVAILABLE,(515) 965-9630
87084,192958001686,EAST SAC COUNTY ELEMENTARY WALL LAKE,207 BOYER ST,WALL LAKE,IA,51466,NOT AVAILABLE,(712) 664-2627
87861,192976001693,FAIRBANK ELEMENTARY SCHOOL,311 N 5TH ST,FAIRBANK,IA,50629,NOT AVAILABLE,(319) 635-2071
88633,190822000419,GERALD W KIRN MIDDLE SCHOOL,100 NORTH AVE,COUNCIL BLUFFS,IA,51503,NOT AVAILABLE,(712) 328-6454
63724,191878002115,LINCOLN INTERMEDIATE,1625 S. PENNSYLVANIA AVE,MASON CITY,IA,50401,NOT AVAILABLE,(641) 421-4423
66104,191260000762,GILMORE CITY ELEMENTARY SCHOOL,402 SE E AVE,GILMORE CITY,IA,50541,NOT AVAILABLE,(515) 373-6124
66508,190858000458,BUCHANAN ELEMENTARY SCHOOL,4515 N. FAIRMOUNT,DAVENPORT,IA,52806,NOT AVAILABLE,(563) 723-6250
90120,192750000671,DEXTER ELEMENTARY SCHOOL,803 WASHINGTON STREET,DEXTER,IA,50070,NOT AVAILABLE,(515) 789-4480
91961,192319001372,POCAHONTAS AREA ELEMENTARY SCHOOL,208 1ST AVE SW,POCAHONTAS,IA,50574,NOT AVAILABLE,(712) 335-4642
92860,191488001050,IKM-MANNING HIGH SCHOOL,209 10TH ST,MANNING,IA,51455,NOT AVAILABLE,(712) 655-3781
94460,190897001143,WALNUT STREET SCHOOL,901 WALNUT ST,DES MOINES,IA,50309,NOT AVAILABLE,(515) 242-8438
97030,193111002195,WEST MONONA ELEMENTARY,611 4TH STREET,ONAWA,IA,51040,NOT AVAILABLE,(712) 433-1393
98437,193201001868,WOODWARD-GRANGER HIGH SCHOOL,306 W 3RD ST,WOODWARD,IA,50276,NOT AVAILABLE,(515) 438-2115
74451,190002501335,PANORAMA MIDDLE SCHOOL,701 W. MAIN,PANORA,IA,50216,0039,(641) 755-2317
75013,192640001500,CLARK EARLY CHILDHOOD CENTER,4315 HAMILTON BLVD,SIOUX CITY,IA,51104,NOT AVAILABLE,(712) 239-7030
76696,190468001436,BELMOND-KLEMME ALTERNATIVE SCHOOL,303 E. MAIN STREET,BELMOND,IA,50421,NOT AVAILABLE,(641) 444-4300
101248,193048001725,GEORGE WASHINGTON CARVER ACADEMY,1505 LOGAN AVE,WATERLOO,IA,50703,NOT AVAILABLE,(319) 433-2500
104992,191248002273,GEORGE PRESCHOOL,500 E INDIANA AVE,GEORGE,IA,51237,NOT AVAILABLE,(712) 475-3675
2222,192706001587,SPRINGVILLE SECONDARY SCHOOL,400 ACADEMY ST,SPRINGVILLE,IA,52336,NOT AVAILABLE,(319) 854-6196
3421,190999001537,EAGLE GROVE ELEMENTARY,425 NORTH FORT,EAGLE GROVE,IA,50533,NOT AVAILABLE,(515) 448-3126
4315,190495000668,EDDYVILLE-BLAKESBURG- FREMONT JR/SR HIGH,1301 BERDAN ST,EDDYVILLE,IA,52553,NOT AVAILABLE,(641) 969-4288
9116,190897001472,SOUTH UNION ELEMENTARY SCHOOL,4201 S UNION ST,DES MOINES,IA,50315,NOT AVAILABLE,(515) 242-8409
9373,192868002069,VALERIUS ELEMENTARY SCHOOL,3305 92ND STREET,URBANDALE,IA,50322,4092,(515) 457-6500
9743,190897001472,SOUTH UNION ELEMENTARY SCHOOL,4201 SOUTH UNION,DES MOINES,IA,50315,NOT AVAILABLE,(515) 242-8409
10580,191269000767,GLENWOOD SENIOR HIGH SCHOOL,504 EAST SHARP STREET,GLENWOOD,IA,51534,NOT AVAILABLE,(712) 527-4897
10581,192520001441,ST ANSGAR ELEMENTARY SCHOOL,206 E. 8TH STREET,ST ANSGAR,IA,50472,NOT AVAILABLE,(641) 713-2331
15614,192025001200,CENTRAL ELEMENTARY SCHOOL,925 H AVE,NEVADA,IA,50201,NOT AVAILABLE,(515) 382-2383
15954,192640001533,WEST HIGH SCHOOL,2001 CASSELMAN,SIOUX CITY,IA,51103,NOT AVAILABLE,(712) 279-6772
3438,191470001392,NORTH CENTRAL JUNIOR HIGH SCHOOL,180 E. FOREVERGREEN RD,NORTH LIBERTY,IA,52317,NOT AVAILABLE,(319) 688-1210
4098,190654000264,TRUMAN ELEMENTARY SCHOOL,441 WEST POST RD NW,CEDAR RAPIDS,IA,52405,NOT AVAILABLE,(319) 558-2375
7269,191281000776,GRAETTINGER-TERRIL HIGH SCHOOL,400 W LOST ISLAND ST,GRAETTINGER,IA,51342,0058,(712) 859-3286
9369,190483000137,BENTON COMMUNITY SENIOR HIGH SCHOOL,600 1ST ST,VAN HORNE,IA,52346,NOT AVAILABLE,(319) 228-8701
60062,190348000045,ALTA ELEMENTARY SCHOOL,1009 MAIN ST,ALTA,IA,51002,NOT AVAILABLE,(712) 200-1400
60174,190396000096,AUDUBON MIDDLE-HIGH SCHOOL,800 3RD AVE,AUDUBON,IA,50025,NOT AVAILABLE,(712) 563-2607
60338,191182000722,DUNCOMBE ELEMENTARY SCHOOL,1620 6TH AVENUE NORTH,FORT DODGE,IA,50501,NOT AVAILABLE,(515) 574-5623
60451,191710001001,NORTH CEDAR JR/SR HIGH SCHOOL,400 BALL STREET,CLARENCE,IA,52216,NOT AVAILABLE,(563) 452-3179
65127,191182000721,COOPER ELEMENTARY SCHOOL,2420 14TH AVENUE NORTH,FORT DODGE,IA,50501,NOT AVAILABLE,(515) 574-5602
65865,190858000462,EISENHOWER ELEMENTARY SCHOOL,2827 JERSEY RIDGE RD,DAVENPORT,IA,52803,NOT AVAILABLE,(563) 723-6350
66106,191965001153,MONTICELLO HIGH SCHOOL,850 EAST OAK STREET,MONTICELLO,IA,52310,NOT AVAILABLE,(319) 465-6597
66600,192691001583,SPENCER MIDDLE SCHOOL,1400 10TH AVENUE EAST,SPENCER,IA,51301,NOT AVAILABLE,(712) 262-3345
10006,190444000118,BCLUW HIGH SCHOOL,610 EAST CENTER STREET,CONRAD,IA,50621,0670,(641) 366-2810
11184,191095000676,EMMETSBURG MIDDLE SCHOOL,205 KING STREET,EMMETSBURG,IA,50536,NOT AVAILABLE,(712) 852-2892
11817,190444000087,BCLUW MIDDLE SCHOOL,704 COMMERCIAL ST,UNION,IA,50258,0010,(641) 486-5371
12880,191545002018,HENRY A WALLACE ELEMENTARY SCHOOL,6207 NW 62ND AVE,JOHNSTON,IA,50131,NOT AVAILABLE,(515) 278-6977
14539,190339000036,EAST CAMPUS ELEMENTARY SCHOOL,107 6TH ST NW,WAUKON,IA,52172,NOT AVAILABLE,(563) 568-6304
15642,190468002090,RICHARD O. JACOBSON ELEMENTARY SCHOOL,1004 SEVENTH STREET NE,BELMOND,IA,50421,1610,(641) 444-4300
15953,190858000465,GARFIELD ELEMENTARY SCHOOL,902 E 29TH ST,DAVENPORT,IA,52803,NOT AVAILABLE,(563) 723-6450
17029,190948000619,TABLE MOUND ELEMENTARY SCHOOL,100 TOWER DR,DUBUQUE,IA,52003,NOT AVAILABLE,(563) 552-4400
19281,192013001190,MCKINLEY ELEMENTARY SCHOOL,621 KINDLER AVE,MUSCATINE,IA,52761,NOT AVAILABLE,(563) 263-9049
42009,192520001442,ST ANSGAR HIGH SCHOOL,206 EAST 8TH STREET,ST ANSGAR,IA,50472,NOT AVAILABLE,(641) 713-4720
42023,190897000517,BRODY MIDDLE SCHOOL,2501 PARK AVE,DES MOINES,IA,50321,NOT AVAILABLE,(515) 242-8443
43850,193048001729,LINCOLN ELEMENTARY SCHOOL,302 CEDAR BEND ST,WATERLOO,IA,50703,NOT AVAILABLE,(319) 433-1990
45685,191869001078,VERNON MIDDLE SCHOOL,1350 4TH AVENUE,MARION,IA,52302,NOT AVAILABLE,(319) 377-9401
45731,190002600618,SOUTH O'BRIEN ELEM SCH PRIMGHAR CENTER,155 3RD ST NE,PRIMGHAR,IA,51245,NOT AVAILABLE,(712) 957-3755
47974,192664001549,SOUTH HAMILTON MIDDLE AND HIGH SCHOOL,315 DIVISION ST,JEWELL,IA,50130,NOT AVAILABLE,(515) 827-5418
48750,190873000502,WEST SIDE ELEMENTARY SCHOOL,301 CENTER STREET,DECORAH,IA,52101,NOT AVAILABLE,(563) 382-4451
49780,191134000701,WASHINGTON ELEMENTARY,406 EAST MADISON AVENUE,FAIRFIELD,IA,52556,3645,(641) 472-2110
30497,191182000723,FEELHAVER ELEMENTARY SCHOOL,1300 14TH AVE N,FORT DODGE,IA,50501,NOT AVAILABLE,(515) 574-5680
30991,190948000976,ELEANOR ROOSEVELT MIDDLE SCHOOL,2001 RADFORD RD,DUBUQUE,IA,52002,NOT AVAILABLE,(563) 552-5000
33599,191350000822,HARLAN COMMUNITY MIDDLE SCHOOL,2108 DURANT STREET,HARLAN,IA,51537,NOT AVAILABLE,(712) 755-3196
33871,191437000860,HUMBOLDT MIDDLE SCHOOL,1400 WILDCAT RD,HUMBOLDT,IA,50548,NOT AVAILABLE,(515) 332-2812
35756,191464000872,INDIANOLA HIGH SCHOOL,1304 E 1ST,INDIANOLA,IA,50125,NOT AVAILABLE,(515) 961-9510
37264,190831000444,CRESTON HIGH SCHOOL,601 W TOWNLINE,CRESTON,IA,50801,NOT AVAILABLE,(641) 782-2116
37360,190897002093,SAMUELSON ELEMENTARY SCHOOL,3929 BEL-AIRE RD,DES MOINES,IA,50310,NOT AVAILABLE,(515) 242-8441
52624,191470000899,ROBERT LUCAS ELEMENTARY SCHOOL,830 SOUTHLAWN DR,IOWA CITY,IA,52245,NOT AVAILABLE,(319) 688-1140
53408,191653001101,INDIVIDUALIZED LEARNING CENTER,940 LINCOLN STREET SW,LE MARS,IA,51031,NOT AVAILABLE,(712) 546-5858
54182,190897000537,SCAVO ALTERNATIVE HIGH SCHOOL,1800 GRAND AVE,DES MOINES,IA,50309,NOT AVAILABLE,(515) 242-7589
55524,191428000849,CRESTWOOD HIGH SCHOOL,1000 SCHRODER DR,CRESCO,IA,52136,NOT AVAILABLE,(563) 547-2764
56052,192061002239,WOODROW WILSON ELEMENTARY SCHOOL,801 S 8TH AVE WEST,NEWTON,IA,50208,NOT AVAILABLE,(641) 792-7311
59516,191470000887,HELEN LEMME ELEMENTARY SCHOOL,3100 WASHINGTON ST,IOWA CITY,IA,52245,NOT AVAILABLE,(319) 688-1125
59711,190822000440,WOODROW WILSON MIDDLE SCHOOL,712 N 21ST ST,COUNCIL BLUFFS,IA,51501,0902,(712) 328-6476
90150,192559001460,SERGEANT BLUFF-LUTON SENIOR HIGH SCHOOL,708 WARRIOR ROAD,SERGEANT BLUFF,IA,51054,NOT AVAILABLE,(712) 943-5561
91963,191884001114,HOSPERS ELEMENTARY SCHOOL,201 4TH AVE S,HOSPERS,IA,51238,NOT AVAILABLE,(712) 752-8480
93868,192181001298,ORIENT ELEMENTARY SCHOOL,201 S. SCHOOL STREET,ORIENT,IA,50858,0129,(641) 337-5061
98439,190858000456,ADAMS ELEMENTARY SCHOOL,3029 N DIVISION STREET,DAVENPORT,IA,52804,NOT AVAILABLE,(563) 723-6100
98440,192559001891,SERGEANT BLUFF-LUTON MIDDLE SCHOOL,208 PORT NEAL ROAD,SERGEANT BLUFF,IA,51054,NOT AVAILABLE,(712) 943-4235
26078,190897000728,RIVER WOODS ELEMENTARY SCHOOL,2929 SE 22ND ST,DES MOINES,IA,50320,NOT AVAILABLE,(515) 242-8433
26127,190873000498,DECORAH MIDDLE SCHOOL,405 WINNEBAGO ST.,DECORAH,IA,52101,NOT AVAILABLE,(563) 382-8427
27821,190651000224,HOLMES JUNIOR HIGH SCHOOL,505 HOLMES DR,CEDAR FALLS,IA,50613,NOT AVAILABLE,(319) 553-2650
29850,190654001490,GRANT ELEMENTARY SCHOOL,254 OUTLOOK DR SW,CEDAR RAPIDS,IA,52404,NOT AVAILABLE,(319) 558-2020
29851,190327000018,LINCOLN CENTER,222 N 2ND STREET,ALBIA,IA,52531,NOT AVAILABLE,(641) 932-2161
82412,191854001066,JOHNSTON ELEMENTARY SCHOOL,131 CULVER ROAD,HOPKINTON,IA,52237,NOT AVAILABLE,(563) 926-2701
83260,191611000965,LAKE MILLS SENIOR HIGH SCHOOL,102 S 4TH AVE E,LAKE MILLS,IA,50450,NOT AVAILABLE,(641) 592-0893
84121,192124001275,NORWALK SENIOR HIGH SCHOOL,1201 NORTH AVE,NORWALK,IA,50211,NOT AVAILABLE,(515) 981-4201
84139,191782001025,LOUISA-MUSCATINE JR/SR HIGH SCHOOL SCHOOL,14354 170TH ST,LETTS,IA,52754,NOT AVAILABLE,(319) 726-3421
85745,192058001217,NEWELL-FONDA ELEMENTARY,205 CLARK ST,NEWELL,IA,50568,0297,(712) 272-3324
86114,193099001804,WEST LIBERTY MIDDLE SCHOOL,203 E. 7TH ST,WEST LIBERTY,IA,52776,NOT AVAILABLE,(319) 627-2118
87081,190897000521,CATTELL ELEMENTARY SCHOOL,3101 E 12TH ST,DES MOINES,IA,50316,NOT AVAILABLE,(515) 242-8403
88967,190999000636,ROBERT BLUE SCHOOL,1015 NW 2ND ST,EAGLE GROVE,IA,50533,NOT AVAILABLE,(515) 448-4767
89643,190306000634,AGWSR MIDDLE SCHOOL,609 S MONROE,WELLSBURG,IA,50680,NOT AVAILABLE,(641) 869-5121
70168,191722001525,LINN GROVE ELEMENTARY SCHOOL,2301 50TH ST,MARION,IA,52302,NOT AVAILABLE,(319) 730-3500
75008,190654000250,JOHN F KENNEDY HIGH SCHOOL,4545 WENIG RD NE,CEDAR RAPIDS,IA,52405,NOT AVAILABLE,(319) 558-2251
75583,191464000874,IRVING ELEMENTARY SCHOOL,500 W CLINTON,INDIANOLA,IA,50125,NOT AVAILABLE,(515) 961-9560
75832,190357000061,ANAMOSA HIGH SCHOOL,209 SADIE ST,ANAMOSA,IA,52205,NOT AVAILABLE,(319) 462-3594
77338,193024001702,LINCOLN UPPER ELEMENTARY SCHOOL,606 S 4TH AVE,WASHINGTON,IA,52353,NOT AVAILABLE,(319) 653-3691
77682,190339000040,WEST CAMPUS ELEMENTARY SCHOOL,953 3RD AVE NW,WAUKON,IA,52172,NOT AVAILABLE,(563) 568-6375
79330,190322001938,AKRON WESTFIELD MIDDLE SCHOOL,850 KERR DR,AKRON,IA,51001,NOT AVAILABLE,(712) 568-2020
107147,190369002269,HERITAGE ELEMENTARY,301 SW PRAIRIE TRAIL PKY,ANKENY,IA,50023,NOT AVAILABLE,(515) 965-9600
31936,191347000817,NORTH SIDE ELEMENTARY SCHOOL,114 11TH PLACE NE,HAMPTON,IA,50441,NOT AVAILABLE,(641) 456-4481
33981,192496001430,RRMR ELEMENTARY SCHOOL,1460 210TH STREET?,ROCKFORD,IA,50468,0218,(641) 756-3508
37045,190543000171,WEST HANCOCK ELEMENTARY SCHOOL,510 9TH AVE SW,BRITT,IA,50423,0128,(641) 843-3833
37823,190894000831,K-5 ELEMENTARY SCHOOL LINCOLN STREET BUILDING,530 LINCOLN,DENVER,IA,50622,NOT AVAILABLE,(319) 984-5611
10190,190897000569,PARK AVE ELEMENTARY SCHOOL,3141 SW 9TH ST,DES MOINES,IA,50315,NOT AVAILABLE,(515) 242-8429
11497,193051000958,WALNUT HILLS ELEMENTARY SCHOOL,4240 156TH ST,URBANDALE,IA,50323,NOT AVAILABLE,(515) 987-3585
13473,191332000803,GUTHRIE CENTER ELEMENTARY SCHOOL,900 N 4TH ST,GUTHRIE CENTER,IA,50115,NOT AVAILABLE,(641) 332-2720
13844,192412001405,REMSEN-UNION ELEMENTARY SCHOOL,511 ROOSEVELT ST,REMSEN,IA,51050,NOT AVAILABLE,(712) 786-1101
16504,190897000546,HUBBELL ELEMENTARY,800 42ND ST,DES MOINES,IA,50312,NOT AVAILABLE,(515) 242-8414
19639,193192001862,WOODBINE HIGH SCHOOL,501 WEARE ST,WOODBINE,IA,51579,NOT AVAILABLE,(712) 647-2227
60241,192750000664,WEST CENTRAL VALLEY MIDDLE SCHOOL,1375 HIGH ST,REDFIELD,IA,50233,NOT AVAILABLE,(515) 833-2331
60837,191320000791,FAIRVIEW ELEMENTARY SCHOOL,1310 HOBART ST,GRINNELL,IA,50112,NOT AVAILABLE,(641) 236-2780
66140,191959001150,MONTEZUMA HIGH SCHOOL,504 N. 4TH ST.,MONTEZUMA,IA,50171,0580,(641) 623-5121
27831,190897000560,MEREDITH MIDDLE SCHOOL,4827 MADISON AVE,DES MOINES,IA,50310,NOT AVAILABLE,(515) 242-7250
29353,190684000292,CENTRAL MIDDLE SCHOOL/HIGH SCHOOL,400 1ST STREET NW,ELKADER,IA,52043,0070,(563) 245-1750
29853,190735000423,CLARINDA ACADEMY,1820 N 16TH,CLARINDA,IA,51632,NOT AVAILABLE,(712) 542-3103
90148,190897000540,HARDING MIDDLE SCHOOL,203 E EUCLID AVE,DES MOINES,IA,50313,NOT AVAILABLE,(515) 242-8445
94580,191401000842,HIGHLAND ELEMENTARY SCHOOL,220 SCHNOEBELEN STREET,RIVERSIDE,IA,52327,NOT AVAILABLE,(319) 648-2821
98450,190858000482,SUDLOW INTERMEDIATE,1414 E LOCUST ST,DAVENPORT,IA,52803,NOT AVAILABLE,(563) 445-5150
51574,190000900385,COLFAX-MINGO ELEMENTARY SCHOOL,20 WEST BROADWAY,COLFAX,IA,50054,NOT AVAILABLE,(515) 674-3465
54300,192640002220,MORNINGSIDE ELEMENTARY,3601 BUSHNELL AVE,SIOUX CITY,IA,51106,NOT AVAILABLE,(712) 274-4048
59512,190960000631,DURANT MIDDLE SCHOOL,408 7TH ST,DURANT,IA,52747,NOT AVAILABLE,(563) 785-4433
59523,192091001248,NORTH POLK HIGH SCHOOL,13930 NE 6TH ST,ALLEMAN,IA,50007,NOT AVAILABLE,(515) 984-3400
81101,191812001036,MFL MARMAC HS,700 S PAGE ST,MONONA,IA,52159,NOT AVAILABLE,(563) 539-2031
84106,190897000561,MERRILL MIDDLE SCHOOL,5301 GRAND AVE,DES MOINES,IA,50312,NOT AVAILABLE,(515) 242-8448
86819,191614000966,HARRIS-LAKE PARK ELEMENTARY SCHOOL,105 AVE A WEST,LAKE PARK,IA,51347,NOT AVAILABLE,(712) 832-3437
72394,192238001338,PATON-CHURDAN ELEMENTARY,606 ADRIAN ST.,CHURDAN,IA,50050,0157,(515) 389-3111
74454,191269000766,GLENWOOD MIDDLE SCHOOL,400 SIVERS ROAD,GLENWOOD,IA,51534,NOT AVAILABLE,(712) 527-4887
75677,190519000166,BOYDEN-HULL ELEMENTARY SCHOOL,818 LINCOLN ST.,BOYDEN,IA,51234,NOT AVAILABLE,(712) 725-2381
79327,192901001672,VAN METER HIGH SCHOOL,520 1ST AVE,VAN METER,IA,50261,NOT AVAILABLE,(515) 996-2221
3225,193135001825,CASCADE JUNIOR-SENIOR HIGH SCHOOL,505 JOHNSON ST NW,CASCADE,IA,52033,NOT AVAILABLE,(563) 852-3201
3967,191518000914,JANESVILLE JUNIOR-SENIOR HIGH SCHOOL,505 BARRICK RD,JANESVILLE,IA,50647,NOT AVAILABLE,(319) 987-2581
6476,192901002244,VAN METER MIDDLE SCHOOL,520 1ST AVE,VAN METER,IA,50261,NOT AVAILABLE,(515) 996-2221
7885,192085001245,NORTH MAHASKA JR-SR HIGH SCHOOL,2163 135TH ST,NEW SHARON,IA,50207,0089,(641) 637-4187
41828,190483001987,BENTON COMMUNITY MIDDLE SCHOOL,600 1ST ST,VAN HORNE,IA,52346,0070,(319) 228-8701
42001,190465000128,BELLEVUE ELEMENTARY SCHOOL,100 SOUTH 3RD STREET,BELLEVUE,IA,52031,1428,(563) 872-4001
104994,191722002274,BOULDER PEAK INTERMEDIATE SCHOOL,3920 35TH AVENUE,MARION,IA,52302,NOT AVAILABLE,(319) 447-3001
82124,192592001419,WEST FORK ELEMENTARY AT ROCKWELL,210 S 2ND ST,ROCKWELL,IA,50469,0060,(641) 822-3234
82421,190486000145,HERBERT HOOVER ELEMENTARY SCHOOL,3223 SOUTH HAMPTON DRIVE,BETTENDORF,IA,52722,NOT AVAILABLE,(563) 332-8636
85941,192817001642,TWIN CEDARS JR-SR HIGH SCHOOL,2204 HIGHWAY G71,BUSSEY,IA,50044,7512,(641) 944-5243
89255,190002700249,RIVERSIDE COMMUNITY CARSON ELEMENTARY,330 PLEASANT ST,CARSON,IA,51525,NOT AVAILABLE,(712) 484-2291
93379,192415001410,RICEVILLE HIGH SCHOOL,912 WOODLAND AVE,RICEVILLE,IA,50466,NOT AVAILABLE,(641) 985-2288
97651,190747002027,CLAY CENTRAL-EVERLY ELEMENTARY,401 CHURCH ST,ROYAL,IA,51357,0110,(712) 933-2241
100734,192673001556,SOUTH TAMA COUNTY HIGH SCHOOL,1715 HARDING ST,TAMA,IA,52339,NOT AVAILABLE,(641) 484-4345
51225,190912001207,DIKE-NEW HARTFORD JUNIOR HIGH SCHOOL,508 BEAVER,NEW HARTFORD,IA,50660,NOT AVAILABLE,(319) 983-2206
51236,190693000303,CENTRAL LEE MIDDLE SCHOOL,2642 HIGHWAY 218,DONNELLSON,IA,52625,NOT AVAILABLE,(319) 835-9510
54924,192311001363,CODY ELEMENTARY SCHOOL,2100 TERRITORIAL ROAD,LECLAIRE,IA,52753,NOT AVAILABLE,(563) 332-0210
55252,190897000568,ORCHARD PLACE SCHOOL,5412 SW 9TH STREET,DES MOINES,IA,50315,NOT AVAILABLE,(515) 287-9700
59525,190897000566,NORTH HIGH SCHOOL,501 HOLCOMB AVE,DES MOINES,IA,50313,NOT AVAILABLE,(515) 242-7200
1966,191851001060,BRIGGS ELEMENTARY SCHOOL,400 W QUARRY ST,MAQUOKETA,IA,52060,NOT AVAILABLE,(563) 652-4996
2818,192796002175,TREYNOR MIDDLE SCHOOL,102 E MAIN ST,TREYNOR,IA,51575,NOT AVAILABLE,(712) 487-3181
4175,190363002136,ANDREW MIDDLE SCHOOL,13 S MARION,ANDREW,IA,52030,NOT AVAILABLE,(563) 672-3221
9073,190822000409,ABRAHAM LINCOLN HIGH SCHOOL,1205 BONHAM AVE,COUNCIL BLUFFS,IA,51503,NOT AVAILABLE,(712) 328-6481
9281,192700001585,SPIRIT LAKE HIGH SCHOOL,2701 HILL AVE,SPIRIT LAKE,IA,51360,NOT AVAILABLE,(712) 336-3707
35359,193093001789,CLIVE LEARNING ACADEMY,1600 73RD ST,CLIVE,IA,50324,NOT AVAILABLE,(515) 633-5800
35507,192311001362,BRIDGEVIEW ELEMENTARY SCHOOL,316 S.TWELFTH STREET,LECLAIRE,IA,52753,NOT AVAILABLE,(563) 332-0215
37369,191722001005,EXCELSIOR MIDDLE SCHOOL,3555 N 10TH ST,MARION,IA,52302,NOT AVAILABLE,(319) 447-3130
37903,191584002114,WEST ELEMENTARY,306 S PARK LANE DR,KNOXVILLE,IA,50138,NOT AVAILABLE,(641) 842-2185
39424,192868001659,URBANDALE HIGH SCHOOL,7111 AURORA AVENUE,URBANDALE,IA,50322,1741,(515) 457-6800
62384,192607001482,SHENANDOAH HIGH SCHOOL,1000 MUSTANG DR,SHENANDOAH,IA,51601,NOT AVAILABLE,(712) 246-4727
63382,192787000290,TIPTON MIDDLE SCHOOL,725 WEST 7TH ST.,TIPTON,IA,52772,NOT AVAILABLE,(563) 886-6025
65863,192238001339,PATON-CHURDAN JR-SR HIGH SCHOOL,606 ADRIAN ST,CHURDAN,IA,50050,0157,(515) 389-3111
21198,190002102003,OKOBOJI MIDDLE SCHOOL,1800 6TH STREET,MILFORD,IA,51351,NOT AVAILABLE,(712) 338-4757
21559,190000602191,FAYETTE ELEMENTARY,200 N VOLGA,FAYETTE,IA,52142,NOT AVAILABLE,(563) 422-3851
24979,192928001675,SYLVIA ENARSON ELEMENTARY SCHOOL,219 CENTRAL AVENUE,VILLISCA,IA,50864,NOT AVAILABLE,(712) 826-5982
25806,191545001412,TIMBER RIDGE ELEMENTARY,7370 NW 54TH AVE,JOHNSTON,IA,50131,NOT AVAILABLE,(515) 331-4379
28437,191893001118,MEDIAPOLIS HIGH SCHOOL,725 N NORTHFIELD ST,MEDIAPOLIS,IA,52637,NOT AVAILABLE,(319) 394-3101
10005,190948000614,LINCOLN ELEMENTARY SCHOOL,555 NEVADA STREET,DUBUQUE,IA,52001,NOT AVAILABLE,(563) 552-4050
10584,190575000177,NORTH IOWA HIGH SCHOOL,111 3RD AVE NW,BUFFALO CENTER,IA,50424,NOT AVAILABLE,(641) 562-2525
11188,190822000411,BLOOMER ELEMENTARY SCHOOL,210 S 7TH STREET,COUNCIL BLUFFS,IA,51501,NOT AVAILABLE,(712) 328-6519
11381,193072001044,WEST BEND-MALLARD MIDDLE SCHOOL,300 3RD AVE. SW,WEST BEND,IA,50597,0247,(515) 887-7831
13195,190894000512,DENVER EARLY ELEMENTARY SCHOOL,401 E FRANKLIN ST,DENVER,IA,50622,NOT AVAILABLE,(319) 984-5611
17031,192247001351,PELLA MIDDLE SCHOOL,613 E 13TH,PELLA,IA,50219,NOT AVAILABLE,(641) 628-4784
70167,192658000707,SOLON MIDDLE SCHOOL,1775 RACINE AVE.,SOLON,IA,52333,NOT AVAILABLE,(319) 624-2381
70471,190396000095,AUDUBON ELEMENTARY SCHOOL,600 TRACY ST,AUDUBON,IA,50025,NOT AVAILABLE,(712) 563-3751
72283,190654000243,GRANT WOOD ELEMENTARY SCHOOL,645 26TH ST SE,CEDAR RAPIDS,IA,52403,NOT AVAILABLE,(319) 558-2467
73012,192109001265,NORTHEAST ELEMENTARY SCHOOL,1450 370TH AVE,GOOSE LAKE,IA,52750,NOT AVAILABLE,(563) 577-2249
73013,191329000801,GRUNDY CENTER HIGH SCHOOL,1006 M AVE,GRUNDY CENTER,IA,50638,NOT AVAILABLE,(319) 825-5449
75012,191986001166,MOUNT AYR ELEMENTARY,607 E JEFFERSON,MOUNT AYR,IA,50854,NOT AVAILABLE,(641) 464-0537
41904,193048001729,LINCOLN ELEMENTARY SCHOOL,302 CEDAR BEND ST,WATERLOO,IA,50703,NOT AVAILABLE,(319) 433-1990
42002,190465000129,BELLEVUE HIGH SCHOOL,1601 STATE ST,BELLEVUE,IA,52031,9766,(563) 872-4001
42011,192013001182,CENTRAL MIDDLE SCHOOL,901 CEDAR,MUSCATINE,IA,52761,NOT AVAILABLE,(563) 263-7784
42018,190897000563,MONROE ELEMENTARY SCHOOL,2250 30TH ST,DES MOINES,IA,50310,NOT AVAILABLE,(515) 242-8425
44025,191611000963,LAKE MILLS ELEMENTARY SCHOOL,102 S 4TH AVE E,LAKE MILLS,IA,50450,NOT AVAILABLE,(641) 592-1882
44356,190002202013,UNION MIDDLE SCHOOL,505 WEST,DYSART,IA,52224,0159,(319) 476-5100
44489,192061002052,WEST ACADEMY ALTERNATIVE SCHOOL,1302 1ST AVENUE WEST,NEWTON,IA,50208,NOT AVAILABLE,(641) 792-0335
45100,191248000758,GEORGE-LITTLE ROCK SENIOR HIGH SCHOOL,500 E INDIANA AVE,GEORGE,IA,51237,NOT AVAILABLE,(712) 475-3311
47260,192976001697,RURAL ELEMENTARY SCHOOL #3,1503 130TH ST,FAIRBANK,IA,50629,NOT AVAILABLE,(319) 635-2071
48003,190654000235,COOLIDGE ELEMENTARY SCHOOL,6225 1ST AVE SW,CEDAR RAPIDS,IA,52405,NOT AVAILABLE,(319) 558-2167
48513,192628001494,SIGOURNEY ELEMENTARY,509 S. JEFFERSON,SIGOURNEY,IA,52591,NOT AVAILABLE,(641) 622-2350
49835,190606000209,CAMANCHE ELEMENTARY,508 11TH PLACE,CAMANCHE,IA,52730,0170,(563) 259-3016
12113,190675002096,CENTERVILLE COMMUNITY PRESCHOOL BLDG,603 N 10TH ST.,CENTERVILLE,IA,52544,NOT AVAILABLE,(641) 856-0749
16135,190543000172,WEST HANCOCK HIGH SCHOOL,420 9TH AVE SW,BRITT,IA,50423,NOT AVAILABLE,(641) 843-3863
3615,192796001626,TREYNOR ELEMENTARY SCHOOL,2 ELEMENTARY DRIVE,TREYNOR,IA,51575,NOT AVAILABLE,(712) 487-3422
3987,190897000585,WILLARD ELEMENTARY SCHOOL,2941 DEAN AVENUE,DES MOINES,IA,50317,NOT AVAILABLE,(515) 242-8439
93531,191347000814,HAMPTON-DUMONT MIDDLE SCHOOL,601 12TH AVE NE,HAMPTON,IA,50441,NOT AVAILABLE,(641) 456-4735
95842,191722000368,WESTFIELD ELEMENTARY SCHOOL,901 E MAIN ST,ROBINS,IA,52328,NOT AVAILABLE,(319) 447-3350
95941,191884001112,MOC-FLOYD VALLEY HIGH SCHOOL,615 8TH ST SE,ORANGE CITY,IA,51041,NOT AVAILABLE,(712) 737-4871
80865,192724001588,STANTON ELEMENTARY SCHOOL,605 ELLIOTT STREET,STANTON,IA,51573,NOT AVAILABLE,(712) 829-2171
81494,193111000738,WEST MONONA MIDDLE SCH,1314 15TH ST,ONAWA,IA,51040,NOT AVAILABLE,(712) 433-9098
84505,190786000104,PRAIRIE EDGE,401 76TH AVE SW,CEDAR RAPIDS,IA,52404,NOT AVAILABLE,(319) 298-3406
86115,190897000540,HARDING MIDDLE SCHOOL,203 E EUCLID AVE,DES MOINES,IA,50313,NOT AVAILABLE,(515) 242-8445
87078,191104000682,ESSEX ELEMENTARY SCHOOL,111 FORBES ST,ESSEX,IA,51638,NOT AVAILABLE,(712) 379-3114
70225,190354000052,EDWARDS ELEMENTARY SCHOOL,820 MILLER AVE,AMES,IA,50014,NOT AVAILABLE,(515) 239-3760
72587,190960000629,DURANT ELEMENTARY SCHOOL,408 7TH ST,DURANT,IA,52747,NOT AVAILABLE,(563) 785-4433
74853,193051000699,BROOKVIEW ELEMENTARY SCHOOL,8000 E.P. TRUE PARKWAY,WEST DES MOINES,IA,50266,NOT AVAILABLE,(515) 987-5166
75937,190717000335,CHEROKEE MIDDLE SCHOOL,206 E. INDIAN STREET,CHEROKEE,IA,51012,NOT AVAILABLE,(712) 225-6750
77241,193048001731,LOWELL ELEMENTARY SCHOOL,1628 WASHINGTON ST,WATERLOO,IA,50702,NOT AVAILABLE,(319) 433-1900
77242,192163001288,OELWEIN HIGH SCHOOL,315 8TH AVE SE,OELWEIN,IA,50662,NOT AVAILABLE,(319) 283-2731
54925,193129001820,IRETON ELEMENTARY SCHOOL,303 OAK ST,IRETON,IA,51027,NOT AVAILABLE,(712) 278-2374
58855,192247001350,PELLA HIGH SCHOOL,212 E UNIVERSITY ST,PELLA,IA,50219,NOT AVAILABLE,(641) 628-3870
32425,192496001430,RRMR ELEMENTARY SCHOOL,1460 210TH ST,ROCKFORD,IA,50468,NOT AVAILABLE,(641) 756-3508
36098,190894000831,K-5 ELEMENTARY SCHOOL LINCOLN STREET BUILDING,530 LINCOLN ST,DENVER,IA,50622,NOT AVAILABLE,(319) 984-5611
37463,190543000928,WEST HANCOCK MIDDLE SCHOOL,423 E. 5TH ST.,KANAWHA,IA,50447,0130,(641) 762-3261
39490,190654000240,GARFIELD ELEMENTARY SCHOOL,1201 MAPLEWOOD DR NE,CEDAR RAPIDS,IA,52402,NOT AVAILABLE,(319) 558-2169
39844,190375000081,APLINGTON ELEMENTARY SCHOOL,215 10TH ST,APLINGTON,IA,50604,NOT AVAILABLE,(319) 347-6621
62599,191563000932,KEOKUK HIGH SCHOOL,2285 MIDDLE RD,KEOKUK,IA,52632,NOT AVAILABLE,(319) 524-2542
68367,190852002174,DC-G MEADOWS,2555 W 1ST ST SUITE 200,GRIMES,IA,50111,NOT AVAILABLE,(515) 986-0105
69165,190762000363,CLEAR LAKE HIGH SCHOOL,125 N 20TH ST,CLEAR LAKE,IA,50428,NOT AVAILABLE,(641) 357-5235
22910,190003201317,ALDEN ELEMENTARY SCHOOL,209 CENTER STREET,ALDEN,IA,50006,NOT AVAILABLE,(515) 859-3393
28441,192415001409,RICEVILLE ELEMENTARY SCHOOL,912 WOODLAND AVE,RICEVILLE,IA,50466,NOT AVAILABLE,(641) 985-2288
29845,191485000909,IOWA VALLEY ELEMENTARY SCHOOL,151 E MAY,MARENGO,IA,52301,NOT AVAILABLE,(319) 642-3812
42039,192640001522,NORTH HIGH SCHOOL,4200 CHEYENNE,SIOUX CITY,IA,51104,4340,(712) 239-7000
45782,190771002219,CLINTON MIDDLE SCHOOL,1350 14TH ST NW,CLINTON,IA,52732,NOT AVAILABLE,(563) 243-0466
100816,192316001367,PLEASANTVILLE ELEMENTARY,414 JONES ST,PLEASANTVILLE,IA,50225,NOT AVAILABLE,(515) 848-0566
101979,191545000926,JOHNSTON MIDDLE SCHOOL,6501 NW 62ND AVE,JOHNSTON,IA,50131,NOT AVAILABLE,(515) 278-0476
5509,191347000813,HAMPTON-DUMONT HIGH SCHOOL,101 12TH AVE NW,HAMPTON,IA,50441,NOT AVAILABLE,(641) 456-4893
8548,191366002065,HARTLEY-MELVIN-SANBORN MIDDLE SCHOOL,509 MAIN ST.,SANBORN,IA,51248,0557,(712) 930-3281
8847,193108001811,WEST MARSHALL ELEMENTARY SCHOOL,207 3RD ST SW,STATE CENTER,IA,50247,NOT AVAILABLE,(641) 483-2671
9682,192487001423,ROLAND-STORY HIGH SCHOOL,1009 STORY ST,STORY CITY,IA,50248,NOT AVAILABLE,(515) 733-4329
74457,192682001569,FOUR MILE ELEMENTARY,670 SE 68TH ST,PLEASANT HILL,IA,50327,NOT AVAILABLE,(515) 265-1972
77722,190771000597,BLUFF ELEMENTARY SCHOOL,1421 S BLUFF BLVD,CLINTON,IA,52732,NOT AVAILABLE,(563) 242-1606
78292,190792000395,COLO-NESCO MIDDLE/HIGH SCHOOL,919 WEST ST,COLO,IA,50056,NOT AVAILABLE,(641) 377-2282
83926,192538002121,SCHALLER-CRESTLAND RIDGE VIEW MIDDLE SCHOOL,310 W MAIN,EARLY,IA,50535,NOT AVAILABLE,(712) 273-5192
31176,191467000880,INTERSTATE 35 ELEMENTARY SCHOOL,445 EAST NORTH STREET,TRURO,IA,50257,0170,(641) 765-4901
34465,191563000930,HAWTHORNE ELEMENTARY SCHOOL,2940 DECATUR ST,KEOKUK,IA,52632,NOT AVAILABLE,(319) 524-3503
37049,193093001789,CLIVE LEARNING ACADEMY,1600 73RD STREET,DES MOINES,IA,50324,NOT AVAILABLE,(515) 633-5800
39489,190684000293,CENTRAL ELEMENTARY,400 1ST STREET NW,ELKADER,IA,52043,NOT AVAILABLE,(563) 245-1472
60176,192010001180,MURRAY ELEMENTARY SCHOOL,216 SHERMAN,MURRAY,IA,50174,0187,(641) 447-2517
60981,190897002218,JESSIE FRANKLIN TAYLOR,1801 16TH STREET,DES MOINES,IA,50314,NOT AVAILABLE,(515) 242-8424
61576,190813000404,SOUTHWEST VALLEY HIGH SCHOOL,904 8TH ST,CORNING,IA,50841,NOT AVAILABLE,(641) 322-4245
66658,191989001169,HARLAN ELEMENTARY SCHOOL,1001 N. MAIN STREET,MOUNT PLEASANT,IA,52641,NOT AVAILABLE,(319) 385-7762
100336,191722000368,WESTFIELD ELEMENTARY SCHOOL,901 E MAIN ST,ROBINS,IA,52328,NOT AVAILABLE,(319) 447-3350
104989,190786002263,PRAIRIE EARLY CHILDHOOD CENTER,125 PRAIRIE HILL CT SW,CEDAR RAPIDS,IA,52404,NOT AVAILABLE,(319) 848-5296
23549,191632002019,LAMONI MIDDLE SCHOOL,202 N WALNUT ST,LAMONI,IA,50140,NOT AVAILABLE,(641) 784-7299
25671,191005000641,EARLHAM SENIOR HIGH SCHOOL,535 N CHESTNUT AVE,EARLHAM,IA,50072,NOT AVAILABLE,(515) 758-2235
28525,193135001824,CASCADE ELEMENTARY SCHOOL,110 HARRISON ST SE,CASCADE,IA,52033,NOT AVAILABLE,(563) 852-3335
29215,192682001566,ALTOONA ELEMENTARY,301 6TH ST SW,ALTOONA,IA,50009,NOT AVAILABLE,(515) 967-3771
29320,193048001560,ELK RUN EARLY CHILDHOOD CENTER,316 MC COY RD,ELK RUN HEIGHTS,IA,50707,NOT AVAILABLE,(319) 433-2660
29837,190954000625,DUNKERTON HIGH SCHOOL,509 CANFIELD,DUNKERTON,IA,50626,NOT AVAILABLE,(319) 822-4295
29838,191893001119,MIDDLE SCHOOL,725 N. NORTHFIELD,MEDIAPOLIS,IA,52637,NOT AVAILABLE,(319) 394-3101
29844,192415001409,RICEVILLE ELEMENTARY SCHOOL,912 WOODLAND AVE,RICEVILLE,IA,50466,NOT AVAILABLE,(641) 985-2288
29849,190654000233,ARTHUR ELEMENTARY SCHOOL,2630 B AVE NE,CEDAR RAPIDS,IA,52402,NOT AVAILABLE,(319) 558-2264
92337,193051002116,SOUTH MIDDLE SCHOOL,2350 SE LA GRANT PARKWAY,WAUKEE,IA,50263,NOT AVAILABLE,(515) 987-3222
92825,191251000760,GILBERT HIGH SCHOOL,312 GRETTEN,GILBERT,IA,50105,NOT AVAILABLE,(515) 232-3738
98438,191107000685,ESTHERVILLE LINCOLN CENTRAL HIGH SCHOOL,1520 CENTRAL AVE,ESTHERVILLE,IA,51334,NOT AVAILABLE,(712) 362-2659
41391,191803001031,LYNNVILLE-SULLY HIGH SCHOOL,12476 HWY F62 E,SULLY,IA,50251,NOT AVAILABLE,(641) 594-4445
41989,193051000299,EASON ELEMENTARY SCHOOL,605 SE BOONE DR,WAUKEE,IA,50263,NOT AVAILABLE,(515) 987-5200
42005,191470000896,MARK TWAIN ELEMENTARY,1355 DEFOREST AVENUE,IOWA CITY,IA,52240,NOT AVAILABLE,(319) 688-1165
42628,192679001565,SOUTH WINNESHIEK HIGH SCHOOL,203 W SOUTH ST,CALMAR,IA,52132,NOT AVAILABLE,(563) 562-3226
43391,190594000070,CAM HIGH SCHOOL,1000 VICTORY PARK RD,ANITA,IA,50020,NOT AVAILABLE,(712) 762-3231
46806,192667001552,SOUTH PAGE SENIOR HIGH SCHOOL,606 IOWA AVE,COLLEGE SPRINGS,IA,51637,0098,(712) 582-3211
49302,190999000635,EAGLE GROVE HIGH SCHOOL,415 NW 2ND STREET,EAGLE GROVE,IA,50533,NOT AVAILABLE,(515) 448-5143
50441,192034001206,NEW HAMPTON HIGH SCHOOL,710 W MAIN,NEW HAMPTON,IA,50659,1004,(641) 394-2134
51224,193054001746,SHELL ROCK ELEMENTARY SCHOOL,214 N CHERRY ST,SHELL ROCK,IA,50670,NOT AVAILABLE,(319) 885-4311
51233,191470000901,SOUTHEAST JUNIOR HIGH SCHOOL,2501 BRADFORD DR,IOWA CITY,IA,52240,NOT AVAILABLE,(319) 688-1070
51237,193072001042,WEST BEND-MALLARD ELEMENTARY SCHOOL,300 3RD AVE SW,WEST BEND,IA,50597,NOT AVAILABLE,(515) 887-7821
51581,192682001567,CENTENNIAL ELEMENTARY,910 7TH AVE SE,ALTOONA,IA,50009,NOT AVAILABLE,(515) 967-2109
56054,190309002236,ADAIR-CASEY JR. HIGH SCHOOL,3384 INDIGO AVE.,ADAIR,IA,50002,NOT AVAILABLE,(641) 746-2241
57156,192160002247,ODEBOLT ARTHUR BATTLE CREEK IDA GROVE ELEMENTARY-IDA GROVE,403 BARNES ST,IDA GROVE,IA,51445,NOT AVAILABLE,(712) 364-2360
57311,190651002256,BESS STREETER ALDRICH ELEMENTARY,2526 ASHWORTH DRIVE,CEDAR FALLS,IA,50613,NOT AVAILABLE,(319) 553-2901
59701,191818001039,MADRID ELEMENTARY SCHOOL,213 W 1ST ST,MADRID,IA,50156,NOT AVAILABLE,(515) 795-3240
10287,193102001808,WEST LYON JUNIOR HIGH SCHOOL,1787 182ND STREET,INWOOD,IA,51240,NOT AVAILABLE,(712) 753-4917
10576,190708000319,CHARLES CITY HIGH SCHOOL,1 COMET DR,CHARLES CITY,IA,50616,NOT AVAILABLE,(641) 257-6510
11219,192004001179,WASHINGTON ELEMENTARY SCHOOL,615 5TH AVE SW,MOUNT VERNON,IA,52314,NOT AVAILABLE,(319) 895-6251
12841,193024001705,WASHINGTON MIDDLE SCHOOL,313 S. 4TH AVE.,WASHINGTON,IA,52353,NOT AVAILABLE,(319) 653-5414
13469,192166001293,OGDEN ELEMENTARY SCHOOL,313 W SYCAMORE,OGDEN,IA,50212,0250,(515) 275-2795
16874,191878001107,MASON CITY HIGH SCHOOL,1700 4TH ST. SE,MASON CITY,IA,50401,NOT AVAILABLE,(641) 421-4431
17637,191848001057,MAPLE VALLEY-ANTHON OTO HIGH SCHOOL,501 SOUTH 7TH STREET,MAPLETON,IA,51034,NOT AVAILABLE,(712) 881-1317
18210,190002301896,SIOUX CENTRAL HIGH,4440 U.S. HWY 71,SIOUX RAPIDS,IA,50585,NOT AVAILABLE,(712) 283-2571
41830,193048001714,EAST HIGH SCHOOL,214 HIGH ST,WATERLOO,IA,50703,NOT AVAILABLE,(319) 433-2400
42000,192061001226,NEWTON SENIOR HIGH SCHOOL,800 E 4TH ST S,NEWTON,IA,50208,NOT AVAILABLE,(641) 792-5797
46284,191366001963,HARTLEY-MELVIN-SANBORN HIGH SCHOOL,300 N 8TH AVE W,HARTLEY,IA,51346,NOT AVAILABLE,(712) 928-3406
49300,192739001600,STORM LAKE MIDDLE SCHOOL,1811 HYLAND DRIVE,STORM LAKE,IA,50588,NOT AVAILABLE,(712) 732-8080
49993,190606000207,CAMANCHE MIDDLE SCHOOL,1400 9TH ST,CAMANCHE,IA,52730,0170,(563) 259-3014
51580,191104000683,ESSEX JUNIOR-SENIOR HIGH SCHOOL,111 FORBES ST,ESSEX,IA,51638,NOT AVAILABLE,(712) 379-3115
52453,190002801382,SOUTHEAST VALLEY HIGH SCHOOL,1005 RIDDLE ST,GOWRIE,IA,50543,NOT AVAILABLE,(515) 352-3142
55637,190004000117,EAST MARSHALL SENIOR HIGH SCHOOL,201 N FRANKLIN,LE GRAND,IA,50142,NOT AVAILABLE,(641) 479-2785
58325,190002301541,SIOUX CENTRAL ELEMENTARY SCHOOL,4440 U.S. HWY 71,SIOUX RAPIDS,IA,50585,NOT AVAILABLE,(712) 283-2571
59514,193090001782,LAMBERT ELEMENTARY SCHOOL,1001 DOCTOR ST,MANCHESTER,IA,52057,NOT AVAILABLE,(563) 927-3515
860,191233002181,GARNER-HAYFIELD-VENTURA MIDDLE SCHOOL,620 W. 11TH ST.,GARNER,IA,50438,0449,(641) 923-2831
6473,190348002252,ALTA-AURELIA MIDDLE SCH,300 ASH ST,AURELIA,IA,51005,NOT AVAILABLE,(712) 434-5595
20642,192124001276,OVIATT ELEMENTARY SCHOOL,1130 NORTH AVENUE,NORWALK,IA,50211,NOT AVAILABLE,(515) 981-1005
21237,191401000840,HIGHLAND MIDDLE SCHOOL,1715 VINE AVENUE,RIVERSIDE,IA,52327,NOT AVAILABLE,(319) 648-2891
22388,190306002212,AGWSR ELEMENTARY AT WELLSBURG,609 S MONROE,WELLSBURG,IA,50680,NOT AVAILABLE,(641) 869-5121
25022,190519000167,BOYDEN-HULL HIGH SCHOOL,801 1ST ST,HULL,IA,51239,NOT AVAILABLE,(712) 439-2440
28130,192958001438,EAST SAC COUNTY ELEMENTARY SAC BUILDING,400 S 16TH ST,SAC CITY,IA,50583,NOT AVAILABLE,(712) 662-7200
28724,192898001670,VAN BUREN COUNTY COMMUNITY SCHOOL MIDDLE & HIGH SCHOOL,405 4TH STREET,KEOSAUQUA,IA,52565,NOT AVAILABLE,(319) 293-3183
29879,193147001835,WESTWOOD ELEMENTARY SCHOOL,1000 REBEL WAY,SLOAN,IA,51055,NOT AVAILABLE,(712) 428-3200
12737,191470001034,JAMES VAN ALLEN ELEMENTARY SCHOOL,170 ABIGAIL AVE,NORTH LIBERTY,IA,52317,NOT AVAILABLE,(319) 688-1185
16136,192247001351,PELLA MIDDLE SCHOOL,613 E 13TH ST,PELLA,IA,50219,NOT AVAILABLE,(641) 628-4784
19279,193048001727,KINGSLEY ELEMENTARY SCHOOL,201 SUNSET RD,WATERLOO,IA,50701,NOT AVAILABLE,(319) 433-2210
90062,192004001883,MOUNT VERNON HIGH SCHOOL,731 PALISADES RD SW,MOUNT VERNON,IA,52314,NOT AVAILABLE,(319) 895-8843
90143,191893001117,MEDIAPOLIS ELEMENTARY SCHOOL,725 N. NORTHFIELD,MEDIAPOLIS,IA,52637,NOT AVAILABLE,(319) 394-3101
90149,190906000593,DIAGONAL ELEMENTARY SCHOOL,403 W 2ND STREET,DIAGONAL,IA,50845,0094,(641) 734-5331
92452,190744000355,CLARKSVILLE HIGH SCHOOL,318 N. MATHER ST.,CLARKSVILLE,IA,50619,0689,(319) 278-4273
92457,192505001967,RUTHVEN-AYRSHIRE HIGH SCHOOL,1505 WASHINGTON ST,RUTHVEN,IA,51358,NOT AVAILABLE,(712) 837-5212
92845,191914001132,MID-PRAIRIE MIDDLE SCHOOL,713 F AVE,KALONA,IA,52247,NOT AVAILABLE,(319) 656-2241
93732,190474000134,BENNETT ELEMENTARY SCHOOL,300 CEDAR ST,BENNETT,IA,52721,NOT AVAILABLE,(563) 890-2226
93858,191428002088,CRESCO EARLY CHILDHOOD DEVELOPMENT CENTER,1135 CANTERBURY ST.,CRESCO,IA,52136,NOT AVAILABLE,(563) 547-5424
95257,193056001754,WAYNE ELEMENTARY SCHOOL,607 SOUTH WEST STREET,CORYDON,IA,50060,1403,(641) 872-1034
95934,190483000136,ATKINS ELEMENTARY SCHOOL,217 4TH AVE,ATKINS,IA,52206,NOT AVAILABLE,(319) 446-7525
95940,190858000457,BLUE GRASS ELEMENTARY SCHOOL,226 SYCAMORE ST,BLUE GRASS,IA,52726,NOT AVAILABLE,(563) 723-6200
96305,192025001202,NEVADA HIGH SCHOOL,1001 15TH ST,NEVADA,IA,50201,NOT AVAILABLE,(515) 382-3521
99921,193078001775,WEST BURLINGTON ELEM SCHOOL,545 RAMSEY ST,WEST BURLINGTON,IA,52655,NOT AVAILABLE,(319) 754-5726
99924,192400001395,INMAN ELEMENTARY SCHOOL,900 INMAN DRIVE,RED OAK,IA,51566,NOT AVAILABLE,(712) 623-6635
99925,192607001483,SHENANDOAH MIDDLE SCHOOL,601 DR. CREIGHTON CIRCLE,SHENANDOAH,IA,51601,NOT AVAILABLE,(712) 246-2520
73958,191722001003,INDIAN CREEK ELEMENTARY SCHOOL,2900 INDIAN CREEK RD,MARION,IA,52302,NOT AVAILABLE,(319) 447-3270
75553,191722001006,NOVAK ELEMENTARY SCHOOL,401 29TH AVENUE,MARION,IA,52302,NOT AVAILABLE,(319) 447-3300
78122,192187001094,OSKALOOSA ELEMENTARY SCHOOL,1801 ORCHARD AVE,OSKALOOSA,IA,52577,NOT AVAILABLE,(641) 673-8092
79328,191470000898,PENN ELEMENTARY SCHOOL,230 N DUBUQUE ST,NORTH LIBERTY,IA,52317,NOT AVAILABLE,(319) 688-1150
60101,192166001294,OGDEN MIDDLE SCHOOL,732 W. DIVISION ST.,OGDEN,IA,50212,0250,(515) 275-2912
60982,192640002211,LOESS HILLS ELEMENTARY,1717 CASSELMAN STREET,SIOUX CITY,IA,51103,NOT AVAILABLE,(712) 279-6843
61066,190948000610,IRVING ELEMENTARY SCHOOL,2520 PENNSYLVANIA AVE,DUBUQUE,IA,52001,NOT AVAILABLE,(563) 552-3800
66472,190654000259,METRO HIGH SCHOOL,1212 7TH ST SE,CEDAR RAPIDS,IA,52401,NOT AVAILABLE,(319) 558-2193
80325,190675000280,LAKEVIEW ELEMENTARY,1800 S 11TH ST,CENTERVILLE,IA,52544,2842,(641) 856-0637
80922,190790001951,COLLINS-MAXWELL MIDDLE/HIGH SCHOOL,400 METCALF ST.,MAXWELL,IA,50161,NOT AVAILABLE,(515) 387-1115
82417,190654000253,MADISON ELEMENTARY SCHOOL,1341 WOODSIDE DR NW,CEDAR RAPIDS,IA,52405,NOT AVAILABLE,(319) 555-2000
87083,190822000418,FRANKLIN ELEMENTARY SCHOOL,3130 AVE C,COUNCIL BLUFFS,IA,51501,NOT AVAILABLE,(712) 328-6469
100555,192094001253,JOHN GLENN ELEMENTARY SCHOOL,308 N. MAIN ST.,DONAHUE,IA,52746,7700,(563) 282-9627
101249,192109001266,NORTHEAST MIDDLE-HIGH SCHOOL,3690 HWY.136,GOOSE LAKE,IA,52750,NOT AVAILABLE,(563) 577-2249
22103,192739001597,EAST EARLY CHILDHOOD CTR,930 E 5TH,STORM LAKE,IA,50588,NOT AVAILABLE,(712) 732-8076
25955,191668000997,LEWIS CENTRAL MIDDLE SCHOOL,3820 HARRY LANGDON BLVD.,COUNCIL BLUFFS,IA,51503,NOT AVAILABLE,(712) 366-8252
26641,191005001956,EARLHAM MIDDLE SCHOOL,535 N CHESTNUT AVE,EARLHAM,IA,50072,NOT AVAILABLE,(515) 758-2214
29764,190831001237,CRESTON MIDDLE SCHOOL,805 ACADEMIC AVE.,CRESTON,IA,50801,NOT AVAILABLE,(641) 782-2129
29858,192319001373,POCAHONTAS AREA MIDDLE/ HIGH SCHOOL,205 2ND AVE NW,POCAHONTAS,IA,50574,NOT AVAILABLE,(712) 335-4848
4610,192061002240,BERG MIDDLE SCHOOL,1900 N 5TH AVE EAST,NEWTON,IA,50208,NOT AVAILABLE,(641) 792-7741
9426,190666002150,CENTER POINT-URBANA INTERMEDIATE SCHOOL,202 W MAIN STREET,URBANA,IA,52345,NOT AVAILABLE,(319) 849-1102
10570,191434000856,HUDSON ELEMENTARY SCHOOL,136 S WASHINGTON,HUDSON,IA,50643,NOT AVAILABLE,(319) 988-3239
16499,190861000493,DAVIS COUNTY MIDDLE SCHOOL,500 E NORTH ST,BLOOMFIELD,IA,52537,NOT AVAILABLE,(641) 664-2200
18906,192034001205,NEW HAMPTON ELEMENTARY SCHOOL,206 W MAIN,NEW HAMPTON,IA,50659,2037,(641) 394-5858
101507,193048001546,POYNER ELEMENTARY,1138 CENTRAL AVE,EVANSDALE,IA,50707,NOT AVAILABLE,(319) 433-1534
104993,191323002264,GRISWOLD ELEMENTARY,20 MADISON STREET,GRISWOLD,IA,51535,0280,(712) 778-2154
50900,191182002197,FORT DODGE MIDDLE SCHOOL,800 NORTH 32ND STREET,FORT DODGE,IA,50501,NOT AVAILABLE,(515) 574-5691
51582,190897000541,HILLIS ELEMENTARY SCHOOL,2401 56TH ST,DES MOINES,IA,50310,NOT AVAILABLE,(515) 242-8412
59513,193051001742,WAUKEE ELEMENTARY SCHOOL,850 6TH ST,WAUKEE,IA,50263,NOT AVAILABLE,(515) 987-5193
59522,191575000940,KINGSLEY ELEMENTARY SCHOOL,322 QUEST AVENUE,KINGSLEY,IA,51028,0520,(712) 378-2861
82413,190855000455,DANVILLE JUNIOR-SENIOR HIGH SCHOOL,419 SOUTH MAIN STREET,DANVILLE,IA,52623,NOT AVAILABLE,(319) 392-4222
82422,192487001424,ROLAND-STORY MIDDLE SCHOOL,206 S MAIN ST,ROLAND,IA,50236,NOT AVAILABLE,(515) 388-4348
82722,190675000275,CENTERVILLE HIGH SCHOOL,600 CHS DR,CENTERVILLE,IA,52544,NOT AVAILABLE,(641) 856-0813
87075,190948000602,AUDUBON ELEMENTARY SCHOOL,605 LINCOLN AVE,DUBUQUE,IA,52001,NOT AVAILABLE,(563) 552-3300
87080,191545000532,LAWSON ELEMENTARY SCHOOL,5450 NW 62ND AVE,JOHNSTON,IA,50131,NOT AVAILABLE,(515) 278-0478
87927,190549000173,BROOKLYN-GUERNSEY-MALCOM ELEMENTARY SCHOOL,1090 JACKSON STREET,BROOKLYN,IA,52211,9705,(641) 522-9268
90406,190354000049,SAWYER ELEMENTARY SCHOOL,4316 ONTARIO ST,AMES,IA,50010,NOT AVAILABLE,(515) 239-3790
91960,193183001851,WINFIELD ELEMENTARY SCHOOL,208 S OLIVE,WINFIELD,IA,52659,0285,(319) 257-7702
91964,192640001498,BRYANT ELEMENTARY SCHOOL,3040 JONES STREET,SIOUX CITY,IA,51104,NOT AVAILABLE,(712) 279-6819
92093,191872000372,FRANKLIN ELEMENTARY SCH,1315 W MAIN ST,MARSHALLTOWN,IA,50158,NOT AVAILABLE,(641) 754-1041
92453,190912001208,NEW HARTFORD ELEMENTARY SCHOOL,508 BEAVER,NEW HARTFORD,IA,50660,NOT AVAILABLE,(319) 983-2206
95938,191233000753,GARNER-HAYFIELD-VENTURA HIGH SCHOOL,605 WEST LYON STREET,GARNER,IA,50438,NOT AVAILABLE,(641) 923-2632
41829,190462000124,BELLE PLAINE JR/SR HIGH SCHOOL,610 13TH AVE SOUTH,BELLE PLAINE,IA,52208,NOT AVAILABLE,(319) 444-3720
41997,191329000415,GRUNDY CENTER MIDDLE SCHOOL,1006 M AVE,GRUNDY CENTER,IA,50638,NOT AVAILABLE,(319) 825-5464
41999,191233000752,GARNER-HAYFIELD-VENTURA ELEMENTARY SCHOOL,620 W 11TH ST,GARNER,IA,50438,0449,(641) 923-2831
42008,190654000256,PIERCE ELEMENTARY SCHOOL,4343 MARILYN DR NE,CEDAR RAPIDS,IA,52402,NOT AVAILABLE,(319) 558-2373
42021,190897000577,STOWE ELEMENTARY SCHOOL,1411 E 33RD ST,DES MOINES,IA,50317,NOT AVAILABLE,(515) 242-8435
42033,192637001495,KINSEY ELEMENTARY SCHOOL,397 10TH ST SE,SIOUX CENTER,IA,51250,NOT AVAILABLE,(712) 722-1541
44480,192013001189,MADISON ELEMENTARY SCHOOL,1820 1ST AVE,MUSCATINE,IA,52761,NOT AVAILABLE,(563) 263-6062
30040,190654000731,VIOLA GIBSON ELEMENTARY SCHOOL,6101 GIBSON DR NE,CEDAR RAPIDS,IA,52411,NOT AVAILABLE,(319) 558-2920
32163,190741000350,CLARKE MIDDLE SCHOOL,800 N JACKSON ST,OSCEOLA,IA,50213,NOT AVAILABLE,(641) 342-4221
33091,191848000080,ANTHON ELEMENTARY,110 W DIVISION,ANTHON,IA,51004,8192,(712) 373-5244
35667,190651000230,SOUTHDALE ELEMENTARY SCHOOL,627 ORCHARD DR,CEDAR FALLS,IA,50613,NOT AVAILABLE,(319) 553-2900
38198,192823001892,UNDERWOOD MIDDLE SCHOOL,601 THIRD STREET,UNDERWOOD,IA,51576,NOT AVAILABLE,(712) 566-2332
39488,190594000200,CAM MIDDLE SCHOOL,207 E. 6TH STREET,MASSENA,IA,50853,NOT AVAILABLE,(712) 779-2212
39755,190858000471,CHILDREN'S VILLAGE AT HOOVER,1002 SPRING STREET,DAVENPORT,IA,52802,NOT AVAILABLE,(563) 336-7850
60719,193129001819,HAWARDEN ELEMENTARY SCHOOL,806 13TH ST,HAWARDEN,IA,51023,NOT AVAILABLE,(712) 551-1454
62411,192799000309,TRI-CENTER MIDDLE SCHOOL,33980 310TH ST,NEOLA,IA,51559,NOT AVAILABLE,(712) 485-2211
62481,190897000746,BRUBAKER ELEMENTARY SCHOOL,2900 E 42ND STREET,DES MOINES,IA,50317,NOT AVAILABLE,(515) 242-8405
62482,191464000870,EMERSON ELEMENTARY SCHOOL,1109 E EUCLID,INDIANOLA,IA,50125,NOT AVAILABLE,(515) 961-9550
63235,192750000664,WEST CENTRAL VALLEY MIDDLE SCHOOL,1375 HIGH ST.,REDFIELD,IA,50233,NOT AVAILABLE,(515) 833-2331
65461,192607001482,SHENANDOAH HIGH SCHOOL,1000 MUSTANG DR,SHENANDOAH,IA,51601,NOT AVAILABLE,(712) 246-4727
67643,190462000127,LONGFELLOW ELEMENTARY SCHOOL,707 7TH ST,BELLE PLAINE,IA,52208,NOT AVAILABLE,(319) 444-3002
67960,190873000500,JOHN CLINE ELEMENTARY SCHOOL,101 CLAIBORNE DRIVE,DECORAH,IA,52101,NOT AVAILABLE,(563) 382-3125
70475,192532001447,SAYDEL HIGH SCHOOL,5601 NE 7TH ST,DES MOINES,IA,50313,NOT AVAILABLE,(515) 262-9325
74108,192076001236,CENTRAL SPRINGS MIDDLE SCHOOL,509 N IOWA AVE,NORA SPRINGS,IA,50458,0367,(641) 749-5301
74462,190858000473,JACKSON ELEMENTARY SCHOOL,1307 WISCONSIN,DAVENPORT,IA,52804,NOT AVAILABLE,(563) 723-6650
75834,190762000364,CLEAR LAKE MIDDLE SCHOOL,1601 3RD AVE NORTH,CLEAR LAKE,IA,50428,NOT AVAILABLE,(641) 357-6114
77946,190651000227,NORTH CEDAR ELEMENTARY SCHOOL,2419 FERN AVE,CEDAR FALLS,IA,50613,NOT AVAILABLE,(319) 553-2810
11187,190897000538,GREENWOOD ELEMENTARY SCHOOL,316 37TH STREET,DES MOINES,IA,50312,NOT AVAILABLE,(515) 242-8410
14952,190002401417,SOUTH CENTRAL CALHOUN ELEMENTARY BUILDING,330 BROWER STREET,ROCKWELL CITY,IA,50579,1709,(712) 297-8621
16498,190513000159,FRANKLIN ELEMENTARY SCHOOL,1903 CRAWFORD STREET,BOONE,IA,50036,NOT AVAILABLE,(515) 433-0860
19282,190858000459,BUFFALO ELEMENTARY SCHOOL,1000 JEFFERSON STREET,BUFFALO,IA,52728,NOT AVAILABLE,(563) 723-6300
51572,190741000349,CLARKE COMMUNITY HIGH SCHOOL,800 N JACKSON ST,OSCEOLA,IA,50213,NOT AVAILABLE,(641) 342-6505
51578,190438000114,BAXTER HIGH SCHOOL,202 E STATE,BAXTER,IA,50028,NOT AVAILABLE,(641) 227-3103
52225,191251001471,GILBERT MIDDLE SCHOOL,201 E. MATHEWS,GILBERT,IA,50105,NOT AVAILABLE,(515) 232-0540
52386,192727001591,STARMONT ELEMENTARY SCHOOL,3202 40TH ST,ARLINGTON,IA,50606,NOT AVAILABLE,(563) 933-2238
54275,190002710279,RIVERSIDE ELEMENTARY,708 GLASS ST,OAKLAND,IA,51560,NOT AVAILABLE,(712) 482-6296
54839,191338001993,H-L-V ELEMENTARY SCHOOL,402 5TH ST.,VICTOR,IA,52347,NOT AVAILABLE,(319) 647-2161
42013,191653000985,FRANKLIN ELEMENTARY SCHOOL,400 3RD AVE SE,LE MARS,IA,51031,NOT AVAILABLE,(712) 546-4185
42015,190369000074,NORTHWEST ELEMENTARY SCHOOL,1202 W FIRST ST,ANKENY,IA,50023,NOT AVAILABLE,(515) 965-9680
43479,192538001450,SCHALLER-CRESTLAND ELEMENTARY,300 S BERWICK,SCHALLER,IA,51053,NOT AVAILABLE,(712) 275-4267
44033,193168000611,MARY WELSH ELEMENTARY,2383 RAIDER DRIVE,WILLIAMSBURG,IA,52361,NOT AVAILABLE,(319) 668-2301
45156,190369002213,ROCK CREEK ELEMENTARY,3800 NW ABILENE RD,ANKENY,IA,50023,NOT AVAILABLE,(515) 965-9629
45183,192184001302,OSAGE HIGH SCHOOL,820 SAWYER DRIVE,OSAGE,IA,50461,NOT AVAILABLE,(641) 732-3102
47631,191248001011,GEORGE-LITTLE ROCK MIDDLE SCHOOL,500 E INDIANA AVE,GEORGE,IA,51237,NOT AVAILABLE,(712) 475-3311
48098,190330000025,ALBURNETT SENIOR HIGH SCHOOL,131 ROOSEVELT STREET,ALBURNETT,IA,52202,NOT AVAILABLE,(319) 842-2263
49779,190444000119,BCLUW ELEMENTARY SCHOOL,414 LILLIAN ST,CONRAD,IA,50621,NOT AVAILABLE,(641) 366-2811
2199,191977001161,MORNING SUN ELEMENTARY SCHOOL,311 DIVISION STREET,MORNING SUN,IA,52640,NOT AVAILABLE,(319) 868-7701
60325,191653000987,KLUCKHOHN ELEMENTARY SCHOOL,1338 CENTRAL AVE SE,LE MARS,IA,51031,NOT AVAILABLE,(712) 546-7064
61593,191335002206,IOWA VIRTUAL ACADEMY,306 S. 1ST STREET,GUTTENBERG,IA,52052,0249,(563) 748-1017
65616,191338000808,H-L-V JUNIOR-SENIOR HIGH SCHOOL,402 5TH STREET,VICTOR,IA,52347,NOT AVAILABLE,(319) 647-2161
67645,192091001923,NORTH POLK CENTRAL ELEMENTARY SCHOOL,311 NE 141ST AVE,ALLEMAN,IA,50007,NOT AVAILABLE,(515) 984-3400
20221,192211001319,HORACE MANN ELEMENTARY SCHOOL,1523 N COURT ST,OTTUMWA,IA,52501,NOT AVAILABLE,(641) 684-4661
20636,193048001719,CUNNINGHAM SCHOOL,1224 MOBILE ST,WATERLOO,IA,50703,NOT AVAILABLE,(319) 433-2600
21909,191965001152,CARPENTER ELEMENTARY SCHOOL,615 N GILL ST,MONTICELLO,IA,52310,NOT AVAILABLE,(319) 465-3551
23024,192211002034,PICKWICK EARLY CHILDHOOD CENTER,1306 W WILLIAMS,OTTUMWA,IA,52501,NOT AVAILABLE,(641) 684-7179
23091,193051002130,SHULER ELEMENTARY SCHOOL,16400 DOUGLAS PARKWAY,CLIVE,IA,50325,NOT AVAILABLE,(515) 987-8597
23724,192187001310,OSKALOOSA MIDDLE SCHOOL,1704 N 3RD ST,OSKALOOSA,IA,52577,NOT AVAILABLE,(641) 673-8308
23819,190858001416,CHILDREN'S VILLAGE HAYES,622 S. CONCORD ST,DAVENPORT,IA,52802,NOT AVAILABLE,(563) 723-6550
25491,190327000017,ALBIA HIGH SCHOOL,503 B AVE EAST,ALBIA,IA,52531,NOT AVAILABLE,(641) 932-2161
29843,190912000596,DIKE-NEW HARTFORD HIGH SCHOOL,330 MAIN ST,DIKE,IA,50624,NOT AVAILABLE,(319) 989-2485
35508,190858001881,TRUMAN ELEMENTARY SCHOOL,5506 N PINE,DAVENPORT,IA,52806,NOT AVAILABLE,(563) 723-6900
36230,190678000285,CENTRAL CITY HIGH SCHOOL,400 BARBER STREET,CENTRAL CITY,IA,52214,NOT AVAILABLE,(319) 438-6182
36326,190385001899,NORTH UNION HIGH SCHOOL,600 4TH AVE,ARMSTRONG,IA,50514,0075,(712) 868-3542
36545,192094001252,EDWARD WHITE ELEMENTARY SCHOOL,121 S 5TH ST,ELDRIDGE,IA,52748,1570,(563) 285-4544
37434,191041000666,NEW ALBIN ELEMENTARY SCHOOL,401 LOCUST SE,NEW ALBIN,IA,52160,NOT AVAILABLE,(563) 544-4246
39799,192949001683,WACO ELEMENTARY SCHOOL,200 S. MAIN STREET,CRAWFORDSVILLE,IA,52621,NOT AVAILABLE,(319) 658-2931
92456,190004000121,EAST MARSHALL MIDDLE SCHOOL,225 S ELM,GILMAN,IA,50106,NOT AVAILABLE,(641) 498-7483
97934,193183001852,WINFIELD-MT UNION JR-SR HIGH SCHOOL,208 S OLIVE,WINFIELD,IA,52659,NOT AVAILABLE,(319) 257-7701
98799,191323000796,GRISWOLD MIDDLE/HIGH SCHOOL,20 MADISON,GRISWOLD,IA,51535,0280,(712) 778-2154
72150,190468000130,BELMOND-KLEMME COMMUNITY JR-SR HIGH SCHOOL,411 10TH AVE NE,BELMOND,IA,50421,1698,(641) 444-4300
72280,191755001019,LONE TREE JUNIOR-SENIOR HIGH SCHOOL,303 S DEVOE ST,LONE TREE,IA,52755,NOT AVAILABLE,(319) 629-4610
72373,191185000733,FORT MADISON HIGH SCHOOL,2001 AVE B,FORT MADISON,IA,52627,NOT AVAILABLE,(319) 372-1862
72478,193093002055,WESTRIDGE ELEMENTARY,5500 EP TRUE PKWY,WEST DES MOINES,IA,50266,NOT AVAILABLE,(515) 633-5400
72568,190495000743,FREMONT ELEMENTARY,525 EAST MAIN STREET,FREMONT,IA,52561,NOT AVAILABLE,(641) 933-4211
73017,192685001576,SOUTHEAST WARREN JR-SR HIGH SCHOOL,16331 TYLER ST,LIBERTY CENTER,IA,50145,NOT AVAILABLE,(641) 466-3331
74455,190735000342,GARFIELD ELEMENTARY SCHOOL,901 S. 15TH,CLARINDA,IA,51632,NOT AVAILABLE,(712) 542-4510
74875,190594002169,IOWA CONNECTIONS ACADEMY HIGH SCHOOL,807 THIRD ST,ANITA,IA,50020,NOT AVAILABLE,(712) 581-0200
77895,190369000778,CROCKER ELEMENTARY SCHOOL,2910 SW APPLEWOOD ST,ANKENY,IA,50023,NOT AVAILABLE,(515) 965-9710
79333,190575000176,NORTH IOWA ELEM BUFFALO CENTER,111 3RD AVE NW,BUFFALO CENTER,IA,50424,NOT AVAILABLE,(641) 562-2525
79514,190393000090,ATLANTIC HIGH SCHOOL,1201 E 14TH ST,ATLANTIC,IA,50022,NOT AVAILABLE,(712) 243-5358
80331,191642000979,LAURENS-MARATHON MIDDLE SCHOOL,300 W GARFIELD,LAURENS,IA,50554,NOT AVAILABLE,(712) 841-5000
83845,191275000772,GLIDDEN-RALSTON JR-SR HIGH SCHOOL,602 IDAHO ST,GLIDDEN,IA,51443,NOT AVAILABLE,(712) 659-2205
87288,191872001082,ANSON ELEMENTARY SCHOOL,1016 S 3RD AVE,MARSHALLTOWN,IA,50158,NOT AVAILABLE,(641) 754-1020
87618,193078001776,WEST BURLINGTON HIGH SCHOOL,408 W VAN WEISS BLVD,WEST BURLINGTON,IA,52655,NOT AVAILABLE,(319) 752-7138
87954,193054001751,WEST CEDAR ELEMENTARY SCHOOL,221 15TH ST NW,WAVERLY,IA,50677,NOT AVAILABLE,(319) 352-2754
88181,192076001235,CENTRAL SPRINGS ELEM. SCHOOL - NORA SPRINGS,509 N IOWA AVE,NORA SPRINGS,IA,50458,0367,(641) 749-5301
89253,192727001592,STARMONT HIGH SCHOOL,3202 40TH ST,ARLINGTON,IA,50606,NOT AVAILABLE,(563) 933-4598
102666,193093002281,LEARNING RESOURCE CENTER,3350 MILLS CIVIC PARKWAY,WEST DES MOINES,IA,50265,NOT AVAILABLE,(515) 633-5071
41990,190579000194,SUNNYSIDE ELEMENTARY SCHOOL,2040 SUNNYSIDE AVE.,BURLINGTON,IA,52601,NOT AVAILABLE,(319) 753-5244
46817,191782002106,LOUISA-MUSCATINE JR HIGH,14354 170TH ST,LETTS,IA,52754,NOT AVAILABLE,(319) 726-3421
51575,190000900386,COLFAX-MINGO HIGH SCHOOL,204 N LEAGUE RD,COLFAX,IA,50054,NOT AVAILABLE,(515) 674-4111
52982,190600002042,CALAMUS-WHEATLAND SEC ATTENDANCE CENTER,110 E PARK RD,WHEATLAND,IA,52777,NOT AVAILABLE,(563) 374-1292
53374,191584002132,NORTHSTAR ELEMENTARY SCHOOL,407 W LARSON,KNOXVILLE,IA,50138,NOT AVAILABLE,(641) 842-6527
54840,191470000883,CENTRAL ELEMENTARY SCHOOL,501 6TH ST,CORALVILLE,IA,52241,NOT AVAILABLE,(319) 688-1100
57584,190000602253,VALLEY ELEMENTARY SCHOOL,23493 CANOE RD,ELGIN,IA,52141,9634,(563) 422-3851
58154,190948000610,IRVING ELEMENTARY SCHOOL,2520 PENNSYLVANIA AVE,DUBUQUE,IA,52001,NOT AVAILABLE,(563) 552-3800
30096,193180001849,WILTON ELEMENTARY SCHOOL,1210 CYPRESS ST,WILTON,IA,52778,NOT AVAILABLE,(563) 732-2880
31173,192750001607,WEST CENTRAL VALLEY HIGH SCHOOL,3299 WHITE POLE RD,STUART,IA,50250,NOT AVAILABLE,(515) 523-1313
35506,190897000574,ROOSEVELT HIGH SCHOOL,4419 CENTER ST,DES MOINES,IA,50312,NOT AVAILABLE,(515) 242-7272
39491,191914001134,MID-PRAIRIE WEST ELEM. SCHOOL,800 6TH AVE,WELLMAN,IA,52356,NOT AVAILABLE,(319) 646-2984
39754,192311001366,RIVERDALE HEIGHTS ELEM SCHOOL,2125 DEVILS GLEN ROAD,BETTENDORF,IA,52722,NOT AVAILABLE,(563) 332-0525
39800,191034000658,RIVER VALLEY JUNIOR- SENIOR HIGH SCHOOL,916 HACKBERRY ST,CORRECTIONVILLE,IA,51016,0008,(712) 372-4656
21196,190852000451,DALLAS CENTER-GRIMES HIGH SCHOOL,2555 W 1ST ST,GRIMES,IA,50111,NOT AVAILABLE,(515) 986-9747
22303,190786002113,PRAIRIE CREEK,380 SOUTH PRAIRIE RD SW,CEDAR RAPIDS,IA,52404,NOT AVAILABLE,(319) 848-5310
24477,193024001703,STEWART ELEMENTARY SCHOOL,821 N 4TH AVE,WASHINGTON,IA,52353,2407,(319) 653-3244
25486,190513000157,BOONE MIDDLE SCHOOL,1640 1ST,BOONE,IA,50036,NOT AVAILABLE,(515) 433-0020
26113,190486000150,NEIL ARMSTRONG ELEMENTARY SCHOOL,3311 CENTRAL AVENUE,BETTENDORF,IA,52722,NOT AVAILABLE,(563) 359-8275
27164,192973001691,WAPELLO ELEMENTARY SCHOOL,505 N CEDAR,WAPELLO,IA,52653,NOT AVAILABLE,(319) 523-5571
27229,192160001283,ODEBOLT ARTHUR BATTLE CREEK IDA GROVE ELEMENTARY-ODEBOLT,600 S. MAPLE,ODEBOLT,IA,51458,NOT AVAILABLE,(712) 668-2767
28531,190327000019,GRANT CENTER,520 SOUTH CLINTON STREET,ALBIA,IA,52531,NOT AVAILABLE,(641) 932-2161
29841,193078001777,WEST BURLINGTON JUNIOR HIGH SCHOOL,408 W VAN WEISS BLVD,WEST BURLINGTON,IA,52655,NOT AVAILABLE,(319) 752-7138
29842,190948000603,BRYANT ELEMENTARY SCHOOL,1280 RUSH ST,DUBUQUE,IA,52003,NOT AVAILABLE,(563) 552-3400
60958,190693000305,CENTRAL LEE ELEMENTARY SCHOOL,2642 HIGHWAY 218,DONNELLSON,IA,52625,NOT AVAILABLE,(319) 835-9510
65246,190858000479,MCKINLEY ELEMENTARY SCHOOL,1716 KENWOOD AVE,DAVENPORT,IA,52803,NOT AVAILABLE,(563) 723-6800
90147,190363000067,ANDREW ELEMENTARY SCHOOL,13 S MARION,ANDREW,IA,52030,NOT AVAILABLE,(563) 672-3221
92454,191854001064,DELHI ELEMENTARY SCHOOL,112 THIRD STREET,DELHI,IA,52223,0186,(563) 922-9411
93457,192973001927,WAPELLO JUNIOR HIGH SCHOOL,501 BUCHANAN ST,WAPELLO,IA,52653,NOT AVAILABLE,(319) 523-8131
95454,192607001483,SHENANDOAH MIDDLE SCHOOL,601 DR. CREIGHTON CIRCLE,SHENANDOAH,IA,51601,NOT AVAILABLE,(712) 246-2520
97026,191473000907,ROCK RUN ELEMENTARY,710 NORTH ST,IOWA FALLS,IA,50126,NOT AVAILABLE,(641) 648-6420
97260,191833001053,MANSON NORTHWEST WEBSTER JUNIOR HIGH/HIGH SCHOOL,1601 15TH ST,MANSON,IA,50563,NOT AVAILABLE,(712) 469-2245
863,191863002226,MMCRU MARCUS ELEMENTARY,500 E FENTON ST,MARCUS,IA,51035,NOT AVAILABLE,(712) 376-2615
1733,190330002193,ALBURNETT MIDDLE SCHOOL,131 ROOSEVELT STREET,ALBURNETT,IA,52202,NOT AVAILABLE,(319) 842-2263
8846,199901702063,MONROE ELEMENTARY SCHOOL,400 N JASPER,MONROE,IA,50170,NOT AVAILABLE,(641) 259-2314
8849,190858000485,WALCOTT INTERMEDIATE,545 E JAMES ST,WALCOTT,IA,52773,NOT AVAILABLE,(563) 445-5200
9487,191470000891,HORACE MANN ELEMENTARY SCHOOL,521 N DODGE ST,IOWA CITY,IA,52245,NOT AVAILABLE,(319) 688-1145
13479,191464000876,WHITTIER ELEMENTARY SCHOOL,1306 W SALEM,INDIANOLA,IA,50125,NOT AVAILABLE,(515) 961-9570
19175,192211001319,HORACE MANN ELEMENTARY SCHOOL,1523 N COURT ST,OTTUMWA,IA,52501,NOT AVAILABLE,(641) 684-4661
72921,192124001274,NORWALK MIDDLE SCHOOL,200 CHERRY STREET,NORWALK,IA,50211,NOT AVAILABLE,(515) 981-0435
75011,191959001149,MONTEZUMA ELEMENTARY SCHOOL,504 NORTH 4TH STREET,MONTEZUMA,IA,50171,NOT AVAILABLE,(641) 623-5129
75893,190549000174,BROOKLYN-GUERNSEY-MALCOM JR-SR HIGH SCHOOL,1090 JACKSON ST,BROOKLYN,IA,52211,9705,(641) 522-7058
77871,190633000218,CARROLL HIGH SCHOOL,2809 N GRANT RD,CARROLL,IA,51401,NOT AVAILABLE,(712) 792-8010
78041,193063001760,PLEASANT VIEW ELEMENTARY SCHOOL,1901 WILLSON AVE,WEBSTER CITY,IA,50595,1948,(515) 832-9241
80218,193051000931,PRAIRIEVIEW SCHOOL,655 SE UNIVERSITY AVE,WAUKEE,IA,50263,NOT AVAILABLE,(515) 987-2770
81416,191986001167,MOUNT AYR HIGH SCHOOL,1001 E COLUMBUS ST,MOUNT AYR,IA,50854,2229,(641) 464-0510
87787,191275000772,GLIDDEN-RALSTON JR-SR HIGH SCHOOL,602 IDAHO,GLIDDEN,IA,51443,NOT AVAILABLE,(712) 659-2205
88775,190330000024,ALBURNETT ELEMENTARY SCHOOL,131 ROOSEVELT STREET,ALBURNETT,IA,52202,NOT AVAILABLE,(319) 842-2261
89454,192949001684,WACO HIGH SCHOOL,706 N PEARL,WAYLAND,IA,52654,NOT AVAILABLE,(319) 256-6200
100642,190786000389,PRAIRIE CREST ELEMENTARY,301 76TH AVE SW,CEDAR RAPIDS,IA,52404,NOT AVAILABLE,(319) 848-5280
100972,191869002098,EMERSON LEARNING CENTER (HSAP),1400 10TH AVE,MARION,IA,52302,NOT AVAILABLE,(319) 373-9209
101978,191872001093,ROGERS ELEMENTARY SCHOOL,406 SUMMIT ST,MARSHALLTOWN,IA,50158,NOT AVAILABLE,(641) 754-1070
104997,191914002277,MID-PRAIRIE VIRTUAL ACADEMY,1636 HWY 22,WELLMAN,IA,52356,NOT AVAILABLE,(319) 646-6093
82674,193051001503,MAPLE GROVE ELEMENTARY SCHOOL,1455 98TH ST,WEST DES MOINES,IA,50266,NOT AVAILABLE,(515) 987-3363
85238,193099002109,WEST LIBERTY ELEMENTARY SCHOOL,806 N MILLER ST.,WEST LIBERTY,IA,52776,NOT AVAILABLE,(319) 627-4243
86633,190675000275,CENTERVILLE HIGH SCHOOL,600 CHS DRIVE,CENTERVILLE,IA,52544,2100,(641) 856-0813
100556,192094001255,NORTH SCOTT JUNIOR HIGH SCHOOL,502 S 5TH ST,ELDRIDGE,IA,52748,1521,(563) 285-8272
101852,191488000911,IRWIN ELEMENTARY SCHOOL,100 EVA STREET,IRWIN,IA,51446,NOT AVAILABLE,(712) 782-3126
22391,199901902217,SOUTHEAST WEBSTER-GRAND SOUTHEAST VALLEY MIDDLE,30850 PARAGON AVE.,BURNSIDE,IA,50521,0049,(515) 359-2235
24177,192811001639,TURKEY VALLEY ELEMENTARY SCHOOL,3219 ST HWY 24,JACKSON JUNCTION,IA,52171,NOT AVAILABLE,(563) 776-6011
25481,192976000520,RURAL ELEMENTARY SCHOOL #2,CR C57 AND AMISH BLVD,FAIRBANK,IA,50629,NOT AVAILABLE,(319) 635-2071
29881,193195001865,WOODBURY CENTRAL HIGH SCHOOL,408 SOUTH 4TH STREET,MOVILLE,IA,51039,NOT AVAILABLE,(712) 873-3128
71093,193180001850,WILTON JR-SR HIGH SCHOOL,1000 CYPRESS ST,WILTON,IA,52778,NOT AVAILABLE,(563) 732-2629
77432,192802001634,TRI-COUNTY JR/SR HIGH SCHOOL,3003 HWY 22,THORNBURG,IA,50255,NOT AVAILABLE,(641) 634-2636
78258,191223001959,GALVA-HOLSTEIN ELEMENTARY SCHOOL,519 E MAPLE,HOLSTEIN,IA,51025,NOT AVAILABLE,(712) 368-4353
78480,191311000170,NODAWAY VALLEY MIDDLE SCHOOL,112 1ST ST,FONTANELLE,IA,50846,NOT AVAILABLE,(641) 745-2291
62506,191350000821,HARLAN HIGH SCHOOL,2102 DURANT,HARLAN,IA,51537,NOT AVAILABLE,(712) 755-3101
63476,192691001583,SPENCER MIDDLE SCHOOL,1400 10TH AVE E,SPENCER,IA,51301,NOT AVAILABLE,(712) 262-3345
66018,191248001010,LITTLE ROCK ELEMENTARY SCHOOL,134 1ST AVE,LITTLE ROCK,IA,51243,NOT AVAILABLE,(712) 479-2771
68568,192019001196,NASHUA-PLAINFIELD ELEMENTARY SCHOOL,621 PANAMA ST,NASHUA,IA,50658,NOT AVAILABLE,(641) 435-4114
69253,190507000153,ANDERSON ELEMENTARY SCHOOL,400 GARFIELD ST. SW,BONDURANT,IA,50035,NOT AVAILABLE,(515) 967-7494
69335,191848001059,MAPLETON ELEMENTARY SCHOOL,501 SOUTH 7TH,MAPLETON,IA,51034,NOT AVAILABLE,(712) 881-1319
11727,190858000486,WASHINGTON ELEMENTARY SCHOOL,1608 E LOCUST ST,DAVENPORT,IA,52803,NOT AVAILABLE,(563) 723-6150
12859,193135001828,DYERSVILLE ELEMENTARY SCHOOL,813 12TH AVE SW,DYERSVILLE,IA,52040,NOT AVAILABLE,(563) 875-8484
17642,193056001755,WAYNE COMMUNITY JR-SR HIGH SCHOOL,102 N DEKALB STREET,CORYDON,IA,50060,1403,(641) 872-2184
18886,193162001841,WHITING ELEMENTARY SCHOOL,606 WEST ST,WHITING,IA,51063,NOT AVAILABLE,(712) 455-2468
31611,191350000825,HARLAN PRIMARY,2105 DURANT ST,HARLAN,IA,51537,NOT AVAILABLE,(712) 755-5903
35198,190597000203,CAL ELEMENTARY SCHOOL,1441 GULL AVE,LATIMER,IA,50452,NOT AVAILABLE,(641) 579-6085
37591,190822000433,RUE ELEMENTARY SCHOOL,3326 6TH AVENUE,COUNCIL BLUFFS,IA,51501,NOT AVAILABLE,(712) 328-6540
42887,191182000720,BUTLER ELEMENTARY SCHOOL,945 SOUTH 18TH STREET,FORT DODGE,IA,50501,NOT AVAILABLE,(515) 574-5882
45386,192100001260,NORTH TAMA ELEMENTARY,605 WALNUT ST,TRAER,IA,50675,NOT AVAILABLE,(319) 478-2265
47261,193051001744,WAUKEE HIGH SCHOOL,555 SE UNIVERSITY AVENUE,WAUKEE,IA,50263,NOT AVAILABLE,(515) 987-5163
52224,191098000679,ENGLISH VALLEYS JR-SR HIGH SCHOOL,765 WEST BROAD STREET,NORTH ENGLISH,IA,52316,0490,(319) 664-3631
54968,191458000865,EAST ELEMENTARY SCHOOL,1103 FIRST STREET WEST,INDEPENDENCE,IA,50644,NOT AVAILABLE,(319) 334-7425
55955,190948000620,GEORGE WASHINGTON MIDDLE SCHOOL,51 N GRANDVIEW AVE,DUBUQUE,IA,52001,NOT AVAILABLE,(563) 552-4800
57798,190897000587,WINDSOR ELEMENTARY,5912 UNIVERSITY AVENUE,DES MOINES,IA,50311,NOT AVAILABLE,(515) 242-8440
58854,190654000258,ROOSEVELT CREATIVE CORRIDOR BUSINESS ACADEMY,300 13TH ST NW,CEDAR RAPIDS,IA,52405,NOT AVAILABLE,(319) 558-2153
59272,190696000308,CENTRAL LYON SENIOR HIGH SCHOOL,1010 S GREENE STREET,ROCK RAPIDS,IA,51246,0471,(712) 472-2664
2355,192673001463,SOUTH TAMA COUNTY ELEMENTARY SCHOOL,1611 COUNTRY CLUB DR,TAMA,IA,52339,NOT AVAILABLE,(641) 484-3999
4609,192061002238,EMERSON HOUGH ELEMENTARY SCHOOL,700 N 4TH AVE EAST,NEWTON,IA,50208,NOT AVAILABLE,(641) 792-3982
8464,191005000640,EARLHAM ELEMENTARY SCHOOL,535 N CHESTNUT AVE,EARLHAM,IA,50072,NOT AVAILABLE,(515) 758-2213
90273,193111001817,WEST MONONA HIGH SCHOOL,1314 15TH ST,ONAWA,IA,51040,NOT AVAILABLE,(712) 433-2453
91665,190858000457,BLUE GRASS ELEMENTARY SCHOOL,226 W SYCAMORE ST,BLUE GRASS,IA,52726,NOT AVAILABLE,(563) 723-6200
96883,190369000073,PARKVIEW MIDDLE SCHOOL,105 NW PLEASANT ST,ANKENY,IA,50023,NOT AVAILABLE,(515) 965-9640
97021,190948000612,THOMAS JEFFERSON MIDDLE SCHOOL,1105 ALTHAUSER AVE,DUBUQUE,IA,52001,NOT AVAILABLE,(563) 552-4700
97621,191470000902,WEST SENIOR HIGH SCHOOL,2901 MELROSE AVE,IOWA CITY,IA,52246,NOT AVAILABLE,(319) 688-1050
1964,192739001601,STORM LAKE HIGH SCHOOL,621 TORNADO DR,STORM LAKE,IA,50588,NOT AVAILABLE,(712) 732-8065
41068,190654000268,WRIGHT ELEMENTARY SCHOOL,1524 HOLLYWOOD BLVD NE,CEDAR RAPIDS,IA,52402,NOT AVAILABLE,(319) 558-2278
41670,191878001109,ROOSEVELT ELEMENTARY SCHOOL,313 15TH ST. SE,MASON CITY,IA,50401,NOT AVAILABLE,(641) 421-4415
41992,190948000609,HOOVER ELEMENTARY SCHOOL,3259 ST ANNE DR,DUBUQUE,IA,52001,NOT AVAILABLE,(563) 552-3700
42032,191884000708,MOC-FLOYD VALLEY MIDDLE SCHOOL,1104 5TH AVE,ALTON,IA,51003,NOT AVAILABLE,(712) 756-4128
42431,191344000812,MARNIE SIMONS ELEMENTARY SCHOOL,309 S ST,HAMBURG,IA,51640,NOT AVAILABLE,(712) 382-2017
43578,191041000663,KEE HIGH SCHOOL,569 CENTER ST,LANSING,IA,52151,NOT AVAILABLE,(563) 538-4201
43929,192058001218,NEWELL-FONDA HIGH SCHOOL,205 CLARK ST,NEWELL,IA,50568,0297,(712) 272-3325
46269,192802001636,TRI-COUNTY ELEMENTARY SCHOOL,3003 HWY 22,THORNBURG,IA,50255,NOT AVAILABLE,(641) 634-2632
46600,190873000502,WEST SIDE ELEMENTARY SCHOOL,301 CENTER ST,DECORAH,IA,52101,NOT AVAILABLE,(563) 382-4451
47717,190705000313,CHARITON HIGH SCHOOL,501 N GRAND ST,CHARITON,IA,50049,NOT AVAILABLE,(641) 774-5066
73028,192184001301,LINCOLN ELEMENTARY SCHOOL,515 CHASE STREET,OSAGE,IA,50461,NOT AVAILABLE,(641) 732-5856
74456,190897000529,EDMUNDS FINE ARTS ACADEMY,950 15TH STREET,DES MOINES,IA,50314,NOT AVAILABLE,(515) 243-1174
74699,193054001749,WAVERLY-SHELL ROCK SENIOR HIGH SCHOOL,1405 4TH AVE SW,WAVERLY,IA,50677,NOT AVAILABLE,(319) 352-2087
75293,191722002092,ECHO HILL ELEMENTARY,400 ECHO HILL ROAD,MARION,IA,52302,NOT AVAILABLE,(319) 730-3560
76695,191035000661,EAST UNION MIDDLE-HIGH SCHOOL,1916 HIGH SCHOOL DR,AFTON,IA,50830,NOT AVAILABLE,(641) 347-8421
51228,190681000286,CENTRAL DEWITT HIGH SCHOOL,519 E. 11TH ST.,DE WITT,IA,52742,NOT AVAILABLE,(563) 659-0715
57937,191632000974,LAMONI ELEMENTARY SCHOOL,202 N WALNUT ST,LAMONI,IA,50140,NOT AVAILABLE,(641) 784-3422
80334,190486000146,PAUL NORTON ELEMENTARY SCHOOL,4485 GREENBRIER DR,BETTENDORF,IA,52722,NOT AVAILABLE,(563) 332-8936
82416,190759000048,AMANA ELEMENTARY SCHOOL,3023 220TH TRAIL,MIDDLE AMANA,IA,52203,NOT AVAILABLE,(319) 622-3255
83838,191878001102,HARDING ELEMENTARY SCHOOL,1239 N RHODE ISLAND AVE,MASON CITY,IA,50401,NOT AVAILABLE,(641) 421-4406
87076,190948000613,JOHN KENNEDY ELEMENTARY SCHOOL,2135 WOODLAND,DUBUQUE,IA,52002,NOT AVAILABLE,(563) 552-3900
89508,190357000062,ANAMOSA MIDDLE SCHOOL,410 OLD DUBUQUE ROAD,ANAMOSA,IA,52205,NOT AVAILABLE,(319) 462-3553
89511,190627001561,CARLISLE MIDDLE SCHOOL,325 SCOTCHRIDGE RD,CARLISLE,IA,50047,NOT AVAILABLE,(515) 989-0833
10200,190420000105,BALLARD HIGH SCHOOL,701 BALLARD DRIVE,HUXLEY,IA,50124,9416,(515) 597-2971
10577,191212000745,FREMONT-MILLS MIDDLE AND SENIOR HIGH SCHOOL,1114 US HWY 275,TABOR,IA,51653,0310,(712) 629-2325
11186,191545000478,BEAVER CREEK ELEMENTARY SCHOOL,8701 LYNDHURST,JOHNSTON,IA,50131,NOT AVAILABLE,(515) 278-6228
13474,191563000933,KEOKUK MIDDLE SCHOOL,2002 ORLEANS AVENUE,KEOKUK,IA,52632,NOT AVAILABLE,(319) 524-3737
18880,192187002087,WEBSTER BUILDING,508 S 7TH,OSKALOOSA,IA,52577,NOT AVAILABLE,(641) 673-8092
94603,190891000915,DENISON ALTERNATIVE HIGH SCHOOL,HWY 30 EAST,DENISON,IA,51442,NOT AVAILABLE,(712) 265-2349
96404,190786000391,PRAIRIE VIEW ELEMENTARY SCHOOL,251 PRAIRIE HILL CT SW,CEDAR RAPIDS,IA,52404,NOT AVAILABLE,(319) 848-5260
96899,192868001656,KAREN ACRES ELEMENTARY SCHOOL,3500 74TH STREET,URBANDALE,IA,50322,4102,(515) 457-5700
97446,190897000545,HOYT MIDDLE SCHOOL,2700 E 42ND ST,DES MOINES,IA,50317,NOT AVAILABLE,(515) 242-8446
97454,190002801381,PRAIRIE VALLEY ELEMENTARY SCHOOL,3116 ZEARING AVE,FARNHAMVILLE,IA,50538,NOT AVAILABLE,(515) 467-5700
60178,193135001830,FARLEY ELEMENTARY SCHOOL,405 3RD AVE NE,FARLEY,IA,52046,0279,(563) 744-3308
60324,190651000228,ORCHARD HILL ELEMENTARY SCHOOL,3909 ROWND ST,CEDAR FALLS,IA,50613,NOT AVAILABLE,(319) 553-2465
65245,190948000615,MARSHALL ELEMENTARY SCHOOL,1450 RHOMBERG AVE,DUBUQUE,IA,52001,NOT AVAILABLE,(563) 552-4100
66723,190666002041,CENTER POINT-URBANA MIDDLE SCHOOL,613 SUMMIT STREET,CENTER POINT,IA,52213,0296,(319) 849-1102
68536,190327001406,ALBIA MIDDLE SCHOOL,505 C AVE E,ALBIA,IA,52531,NOT AVAILABLE,(641) 932-2161
69042,191185000733,FORT MADISON HIGH SCHOOL,2001 AVENUE B,FORT MADISON,IA,52627,NOT AVAILABLE,(319) 372-1862
25488,192163001289,OELWEIN MIDDLE SCHOOL,300 12TH AVE SE,OELWEIN,IA,50662,NOT AVAILABLE,(319) 283-3015
26858,192311002164,HOPEWELL ELEMENTARY,3900 HOPEWELL AVE,BETTENDORF,IA,52722,NOT AVAILABLE,(563) 332-0250
29872,190858000463,FILLMORE ELEMENTARY SCHOOL,7307 N PACIFIC,DAVENPORT,IA,52806,NOT AVAILABLE,(563) 723-6400
29907,192124001273,LAKEWOOD ELEMENTARY SCHOOL,9210 HAPPY HOLLOW DR,NORWALK,IA,50211,NOT AVAILABLE,(515) 981-1850
31944,191710001947,NORTH CEDAR LOWDEN ELEMENTARY CENTER,703 PARK AVENUE,LOWDEN,IA,52255,NOT AVAILABLE,(563) 941-5383
101030,192658001542,LAKEVIEW ELEMENTARY,111 N CHABAL ST,SOLON,IA,52333,NOT AVAILABLE,(319) 624-3401
101069,192181001299,ORIENT-MACKSBURG SENIOR HIGH SCHOOL,201 S. SCHOOL STREET,ORIENT,IA,50858,0129,(641) 337-5061
50084,190420000106,BALLARD MIDDLE SCHOOL,509 N MAIN AVE,HUXLEY,IA,50124,9416,(515) 597-2815
51232,191485000910,IOWA VALLEY JR-SR HIGH SCHOOL,359 E HILTON ST,MARENGO,IA,52301,NOT AVAILABLE,(319) 642-3332
51579,191470000886,GRANT WOOD ELEMENTARY SCHOOL,1930 LAKESIDE DR,IOWA CITY,IA,52240,NOT AVAILABLE,(319) 688-1180
52936,191722001004,LINN-MAR HIGH SCHOOL,3111 N 10TH ST,MARION,IA,52302,NOT AVAILABLE,(319) 447-3040
53139,190858000484,WALCOTT ELEMENTARY SCHOOL,545 E JAMES ST,WALCOTT,IA,52773,NOT AVAILABLE,(563) 445-5200
54162,192311001365,PLEASANT VIEW ELEMENTARY SCHOOL,6333 CROW CREEK ROAD,BETTENDORF,IA,52722,NOT AVAILABLE,(563) 332-5575
54299,190897002228,MOORE ELEMENTARY SCHOOL,3725 52ND ST,DES MOINES,IA,50310,NOT AVAILABLE,(515) 242-8426
56830,190897000537,SCAVO ALTERNATIVE HIGH SCHOOL,1800 GRAND AVE,DES MOINES,IA,50309,NOT AVAILABLE,(515) 242-7589
59750,190002200956,LA PORTE CITY ELEMENTARY SCHOOL,515 FILLMORE,LA PORTE CITY,IA,50651,1412,(319) 342-3033
42004,191134000693,FAIRFIELD HIGH SCHOOL,605 E BROADWAY,FAIRFIELD,IA,52556,2996,(641) 472-2059
42030,190858000469,HARRISON ELEMENTARY SCHOOL,1032 W 53RD ST,DAVENPORT,IA,52806,NOT AVAILABLE,(563) 723-6500
42034,191251000759,GILBERT ELEMENTARY SCHOOL,109 ROTHMOOR,GILBERT,IA,50105,NOT AVAILABLE,(515) 232-3744
47786,192724001589,STANTON HIGH SCHOOL,605 ELLIOTT STREET,STANTON,IA,51573,NOT AVAILABLE,(712) 829-2162
48201,192928002207,SOUTHWEST VALLEY MIDDLE SCHOOL,406 E 3RD ST,VILLISCA,IA,50864,NOT AVAILABLE,(712) 826-2552
80330,191653000984,LE MARS MIDDLE SCHOOL,977 3RD AVE SW,LE MARS,IA,51031,NOT AVAILABLE,(712) 546-7022
81088,190897000570,PERKINS ELEMENTARY SCHOOL,4301 COLLEGE,DES MOINES,IA,50311,NOT AVAILABLE,(515) 242-8430
84230,191863001072,MMCRU HIGH SCHOOL,400 E FENTON ST,MARCUS,IA,51035,0667,(712) 376-4172
86080,191248000757,GEORGE-LITTLE ROCK ELEMENTARY SCHOOL,134 1ST AVE,LITTLE ROCK,IA,51243,NOT AVAILABLE,(712) 479-2771
86245,190873001501,CARRIE LEE ELEMENTARY,210 VERNON STREET,DECORAH,IA,52101,NOT AVAILABLE,(563) 382-3771
87073,191458000869,WEST ELEMENTARY SCHOOL,1301 1ST ST W,INDEPENDENCE,IA,50644,NOT AVAILABLE,(319) 334-7430
88928,192868001413,WEBSTER ELEMENTARY SCHOOL,12955 AURORA AVENUE,URBANDALE,IA,50323,2464,(515) 331-8600
75513,191611000964,LAKE MILLS MIDDLE SCHOOL,102 S 4TH AVE E,LAKE MILLS,IA,50450,NOT AVAILABLE,(641) 592-0894
79332,190858000477,MADISON ELEMENTARY SCHOOL,116 E LOCUST ST,DAVENPORT,IA,52803,NOT AVAILABLE,(563) 723-6750
94445,192664001547,SOUTH HAMILTON ELEM,404 BLAINE ST,JEWELL,IA,50130,NOT AVAILABLE,(515) 827-5096
94721,192931001681,VINTON-SHELLSBURG HIGH SCHOOL,210 W. 21ST ST.,VINTON,IA,52349,NOT AVAILABLE,(319) 436-4728
99257,190393000093,ATLANTIC MIDDLE SCHOOL,1100 LINN ST,ATLANTIC,IA,50022,NOT AVAILABLE,(712) 243-1330
99359,190393000094,WASHINGTON ELEMENTARY SCHOOL,500 E 14TH ST,ATLANTIC,IA,50022,NOT AVAILABLE,(712) 243-5234
61592,190369002186,SOUTHVIEW MIDDLE SCHOOL,1020 SW CHERRY ST,ANKENY,IA,50023,NOT AVAILABLE,(515) 965-9635
61594,192760000742,SUMNER-FREDERICKSBURG MIDDLE SCHOOL,300 MAIN ST,FREDERICKSBURG,IA,50630,NOT AVAILABLE,(563) 237-5334
65247,192640001934,LEEDS ELEMENTARY SCHOOL,3919 JEFFERSON ST,SIOUX CITY,IA,51108,1438,(712) 239-7034
69248,193048001724,IRVING ELEMENTARY SCHOOL,1115 W. 5TH STREET,WATERLOO,IA,50702,NOT AVAILABLE,(319) 433-2800
69254,192823001646,UNDERWOOD ELEMENTARY SCHOOL,601 THIRD STREET,UNDERWOOD,IA,51576,NOT AVAILABLE,(712) 566-2326
31612,192466001415,ROCK VALLEY HIGH SCHOOL,1712 20TH AVE,ROCK VALLEY,IA,51247,NOT AVAILABLE,(712) 476-2701
37753,191944001146,MISSOURI VALLEY HIGH SCHOOL,605 E LINCOLN HIGHWAY,MISSOURI VALLEY,IA,51555,NOT AVAILABLE,(712) 642-4149
39586,190807000401,CR-B ELEMENTARY SCHOOL,905 NORTH STREET,COON RAPIDS,IA,50058,NOT AVAILABLE,(712) 999-2845
39749,192019001197,NASHUA-PLAINFIELD JUNIOR-SENIORHIGH SCHOOL,612 GREELEY ST,NASHUA,IA,50658,NOT AVAILABLE,(641) 435-4166
39750,191851001061,CARDINAL ELEMENTARY SCHOOL,1003 PERSHING ROAD,MAQUOKETA,IA,52060,NOT AVAILABLE,(563) 652-5157
100153,191223001960,RIDGE VIEW HIGH SCHOOL,519 E MAPLE,HOLSTEIN,IA,51025,NOT AVAILABLE,(712) 368-4353
100154,193195001864,WOODBURY CENTRAL MIDDLE SCHOOL,408 S 4TH ST,MOVILLE,IA,51039,5000,(712) 873-3128
101250,190948001456,PRESCOTT ELEMENTARY SCHOOL,1151 WHITE ST,DUBUQUE,IA,52001,NOT AVAILABLE,(563) 552-4200
104991,190897002268,VIRTUAL CAMPUS,1000 PORTER AVENUE,DES MOINES,IA,50315,NOT AVAILABLE,(515) 242-8502
20394,191521000918,GREENE COUNTY HIGH SCHOOL,1901 NORTH GRIMMELL,JEFFERSON,IA,50129,NOT AVAILABLE,(515) 386-2188
21206,191473000905,RIVERBEND MIDDLE SCHOOL,1124 UNION ST.,IOWA FALLS,IA,50126,NOT AVAILABLE,(641) 648-6430
21710,190339000038,WAUKON HIGH SCHOOL,1061 3RD AVE NW,WAUKON,IA,52172,NOT AVAILABLE,(563) 568-3466
24176,193048001715,FRED BECKER ELEMENTARY SCHOOL,1239 SHELDON ST,WATERLOO,IA,50701,NOT AVAILABLE,(319) 433-2180
26895,192562001465,SEYMOUR HIGH SCHOOL,100 SOUTH PARK,SEYMOUR,IA,52590,NOT AVAILABLE,(641) 898-2291
28530,191824001046,EAST MILLS JR/SR HIGH SCHOOL,1505 E 15TH STREET,MALVERN,IA,51551,NOT AVAILABLE,(712) 624-8645
29836,191980001163,MOULTON ELEMENTARY SCHOOL,305 E 8TH,MOULTON,IA,52572,NOT AVAILABLE,(641) 642-3665
29876,193147001837,WESTWOOD HIGH SCHOOL,1000 REBEL WAY,SLOAN,IA,51055,NOT AVAILABLE,(712) 428-3303
10579,191755001018,LONE TREE ELEMENTARY SCHOOL,303 S DEVOE ST,LONE TREE,IA,52755,NOT AVAILABLE,(319) 629-4213
13471,190378000085,WESTSIDE JUNIOR-SENIOR HIGH SCHOOL,108 CLINTON ST,WESTSIDE,IA,51467,NOT AVAILABLE,(712) 663-4312
14443,191722001007,WILKINS ELEMENTARY SCHOOL,2127 27TH ST,MARION,IA,52302,NOT AVAILABLE,(319) 447-3380
15282,190858000464,FRANK L SMART INTERMEDIATE,1934 W 5TH ST,DAVENPORT,IA,52802,NOT AVAILABLE,(563) 445-5100
17345,193072001770,WEST BEND-MALLARD HIGH SCHOOL,300 3RD AVE SW,WEST BEND,IA,50597,0247,(515) 887-7831
17557,190594002180,IOWA CONNECTIONS ACADEMY ELEMENTARY,807 THIRD ST,ANITA,IA,50020,NOT AVAILABLE,(712) 581-0200
2781,192700001905,SPIRIT LAKE MIDDLE SCHOOL,609 28TH ST,SPIRIT LAKE,IA,51360,NOT AVAILABLE,(712) 336-1370
6475,191869002245,LONGFELLOW ELEMENTARY,2900 8TH AVE,MARION,IA,52302,NOT AVAILABLE,(319) 377-4691
60177,190579000191,ALDO LEOPOLD INTERMEDIATE SCHOOL,3075 SUNNYSIDE,BURLINGTON,IA,52601,NOT AVAILABLE,(319) 752-8390
61268,190858000490,WOOD INTERMEDIATE,5701 N DIVISION,DAVENPORT,IA,52806,NOT AVAILABLE,(563) 445-5300
69656,190001501486,SIBLEY OCHEYEDAN ELEMENTARY SCHOOL,416 9TH AVE,SIBLEY,IA,51249,NOT AVAILABLE,(712) 754-3636
100593,192868001660,URBANDALE MIDDLE SCHOOL,7701 AURORA AVENUE,URBANDALE,IA,50322,1764,(515) 457-6600
107154,192898000827,VAN BUREN COUNTY COMMUNITY SCHOOL DISTRICT HARMONY CENTER,33727 RTE J40,FARMINGTON,IA,52626,NOT AVAILABLE,(319) 592-3600
70953,190654000267,WILSON MIDDLE SCHOOL,2301 J ST SW,CEDAR RAPIDS,IA,52404,NOT AVAILABLE,(319) 558-3387
72284,192706001586,SPRINGVILLE ELEMENTARY SCHOOL,158 5TH ST. N.,SPRINGVILLE,IA,52336,NOT AVAILABLE,(319) 854-6195
72995,190579000186,EDWARD STONE MIDDLE SCHOOL,3000 MASON RD.,BURLINGTON,IA,52601,NOT AVAILABLE,(319) 752-4393
74458,191668000996,LEWIS CENTRAL SENIOR HIGH SCHOOL,3504 HARRY LANGDON BLVD.,COUNCIL BLUFFS,IA,51503,NOT AVAILABLE,(712) 366-8322
77101,191182000724,FORT DODGE HIGH SCHOOL,819 N 25TH ST,FORT DODGE,IA,50501,NOT AVAILABLE,(515) 955-1770
78259,190759001903,CLEAR CREEK AMANA MIDDLE SCHOOL,311 W MARENGO RD,TIFFIN,IA,52340,0530,(319) 545-4490
78527,191875001096,MARTENSDALE ELEMENTARY SCHOOL,390 BURLINGTON,MARTENSDALE,IA,50160,NOT AVAILABLE,(641) 764-2621
11041,190735000340,CLARINDA HIGH SCHOOL,100 N CARDINAL DR,CLARINDA,IA,51632,NOT AVAILABLE,(712) 542-5167
11185,190369002026,WESTWOOD ELEMENTARY SCHOOL,2920 NW 9TH,ANKENY,IA,50023,NOT AVAILABLE,(515) 965-9690
12795,190897000559,MCKINLEY ELEMENTARY SCHOOL,1610 SE 6TH STREET,DES MOINES,IA,50315,NOT AVAILABLE,(515) 242-8423
13845,192160001285,ODEBOLT ARTHUR BATTLE CREEK IDA GROVE MIDDLE SCHOOL,600 S. MAPLE,ODEBOLT,IA,51458,NOT AVAILABLE,(712) 668-2767
19530,193099001805,WEST LIBERTY HIGH SCHOOL,310 WEST MAXSON AVE.,WEST LIBERTY,IA,52776,NOT AVAILABLE,(319) 627-2115
1229,191818001040,MADRID HIGH SCHOOL,599 N KENNEDY,MADRID,IA,50156,NOT AVAILABLE,(515) 795-3240
1967,192013001193,MUSCATINE HIGH SCHOOL,2705 CEDAR,MUSCATINE,IA,52761,NOT AVAILABLE,(563) 263-6141
2331,191920002162,MIDLAND ELEMENTARY,510 3RD AVE NORTH,OXFORD JUNCTION,IA,52323,NOT AVAILABLE,(563) 488-2292
7658,192094001251,ALAN SHEPARD ELEMENTARY SCHOOL,220 WEST GROVE ST.,LONG GROVE,IA,52756,8761,(563) 285-8041
9068,191431001390,SOUTH HARDIN MIDDLE SCHOOL,200 E. CHESTNUT,HUBBARD,IA,50122,NOT AVAILABLE,(641) 864-2211
28474,193195001863,MOVILLE ELEMENTARY SCHOOL,408 S 4TH ST,MOVILLE,IA,51039,NOT AVAILABLE,(712) 873-3128
30644,192682001566,ALTOONA ELEMENTARY,301 6TH ST SW,ALTOONA,IA,50009,NOT AVAILABLE,(515) 967-3771
33977,192682001568,DELAWARE ELEMENTARY,4401 E 46TH ST,DES MOINES,IA,50317,NOT AVAILABLE,(515) 262-3197
35509,191350000826,HARLAN INTERMEDIATE SCHOOL,1401 19TH ST,HARLAN,IA,51537,NOT AVAILABLE,(712) 755-2725
39040,191335000751,CLAYTON RIDGE MIDDLE SCHOOL,131. S. RIVER PARK DRIVE,GUTTENBERG,IA,52052,0520,(563) 252-1747
39756,192640001530,SUNNYSIDE ELEMENTARY SCHOOL,2700 S MAPLE ST,SIOUX CITY,IA,51106,4127,(712) 274-4047
50560,192856001650,UNITED SOUTH,1284 U AVE,BOONE,IA,50036,0589,(515) 432-5319
50688,191848000079,MVAO MIDDLE SCHOOL,110 W DIVISION,ANTHON,IA,51004,0819,(712) 373-5244
51745,192172001296,OLIN ELEMENTARY SCHOOL,212 TRILBY ST,OLIN,IA,52320,NOT AVAILABLE,(319) 484-2170
55150,190000601234,WEST UNION ELEMENTARY SCHOOL,400 NORTH PINE,WEST UNION,IA,52175,NOT AVAILABLE,(563) 422-3851
87082,190408000101,AHSTW PRIMARY SCHOOL,768 S MAPLE,AVOCA,IA,51521,NOT AVAILABLE,(712) 343-6364
89074,190633001989,CARROLL MIDDLE SCHOOL,3203 N. GRANT ROAD,CARROLL,IA,51401,NOT AVAILABLE,(712) 792-8020
89999,190002300835,SIOUX CENTRAL MIDDLE SCHOOL,4440 U.S. HWY 71,SIOUX RAPIDS,IA,50585,NOT AVAILABLE,(712) 283-2571
91958,192976001693,FAIRBANK ELEMENTARY SCHOOL,311 5TH ST N,FAIRBANK,IA,50629,NOT AVAILABLE,(319) 635-2071
93397,193186001858,WINTERSET SENIOR HIGH SCHOOL,720 HUSKY DR,WINTERSET,IA,50273,2298,(515) 462-3320
93740,191034000657,RIVER VALLEY ELEMENTARY,100 SOUTH 5TH ST,WASHTA,IA,51061,NOT AVAILABLE,(712) 447-6318
94918,191812001068,MFL MARMAC MIDDLE SCHOOL,918 W. MAIN ST.,MCGREGOR,IA,52157,NOT AVAILABLE,(563) 873-2250
95810,193063001763,SUNSET HEIGHTS ELEMENTARY SCHOOL,1101 BOONE ST,WEBSTER CITY,IA,50595,NOT AVAILABLE,(515) 832-9245
97773,190897000583,MORRIS ELEMENTARY SCHOOL,1401 GEIL AVENUE,DES MOINES,IA,50315,NOT AVAILABLE,(515) 242-8421
98818,190897000547,JACKSON ELEMENTARY SCHOOL,3825 INDIANOLA AVE,DES MOINES,IA,50315,NOT AVAILABLE,(515) 242-8415
42007,190654000262,CEDAR RIVER ACADEMY AT TAYLOR,720 7TH AVE SW,CEDAR RAPIDS,IA,52404,NOT AVAILABLE,(319) 558-2477
42010,192013001186,GRANT ELEMENTARY SCHOOL,705 BARRY AVE,MUSCATINE,IA,52761,NOT AVAILABLE,(563) 263-7005
42025,190897000552,LOVEJOY ELEMENTARY SCHOOL,801 E KENYON AVE,DES MOINES,IA,50315,NOT AVAILABLE,(515) 242-8419
70478,192685001575,SOUTHEAST WARREN PRIMARY,316 N 5TH,MILO,IA,50166,NOT AVAILABLE,(641) 942-6216
70639,191869001077,STARRY ELEMENTARY SCHOOL,700 S 15TH STREET,MARION,IA,52302,NOT AVAILABLE,(319) 377-4698
73011,190717000333,WASHINGTON HIGH SCHOOL,600 W BLUFF ST,CHEROKEE,IA,51012,NOT AVAILABLE,(712) 225-6755
74450,191974001160,MORMON TRAIL JR-SR HIGH SCHOOL,502 E. MAIN ST,GARDEN GROVE,IA,50103,NOT AVAILABLE,(641) 443-3425
74453,191269000768,NORTHEAST ELEMENTARY SCHOOL,901 N. VINE STREET,GLENWOOD,IA,51534,NOT AVAILABLE,(712) 527-4875
74893,191872001404,LENIHAN INTERMEDIATE SCHOOL,212 W INGLEDUE ST,MARSHALLTOWN,IA,50158,NOT AVAILABLE,(641) 754-1160
75604,190306000004,AGWSR HIGH SCHOOL,918 4TH AVENUE,ACKLEY,IA,50601,NOT AVAILABLE,(641) 847-2633
77166,190897000535,GOODRELL MIDDLE SCHOOL,3300 E. 29TH STREET,DES MOINES,IA,50317,NOT AVAILABLE,(515) 242-8444
79451,190309000006,ADAIR-CASEY ELEMENTARY SCHOOL,3384 INDIGO AVE.,ADAIR,IA,50002,NOT AVAILABLE,(641) 746-2242
91962,190858000489,WILSON ELEMENTARY SCHOOL,2002 N CLARK ST,DAVENPORT,IA,52804,NOT AVAILABLE,(563) 723-6950
97443,191989001170,LINCOLN ELEMENTARY SCHOOL,501 S CORKHILL ST,MT PLEASANT,IA,52641,NOT AVAILABLE,(319) 385-7765
97554,190897000572,PLEASANT HILL ELEMENTARY SCHOOL,4801 E OAKWOOD DR,DES MOINES,IA,50327,NOT AVAILABLE,(515) 242-8432
99926,193129001821,WEST SIOUX HIGH SCHOOL,1300 FALCON DRIVE,HAWARDEN,IA,51023,NOT AVAILABLE,(712) 551-1181
63818,193135000205,DREXLER MIDDLE- INTERMEDIATE SCHOOL,405 3RD AVE NE,FARLEY,IA,52046,0279,(563) 744-3371
65864,191668000995,E A KREFT PRIMARY SCHOOL,3206 RENNER DR.,COUNCIL BLUFFS,IA,51501,NOT AVAILABLE,(712) 366-8292
68611,190339000039,WAUKON MIDDLE SCHOOL,1059 3RD AVE NW,WAUKON,IA,52172,NOT AVAILABLE,(563) 568-6321
41988,190957000599,BOYER VALLEY ELEMENTARY SCHOOL,212 SCHOOL ST,DOW CITY,IA,51528,NOT AVAILABLE,(712) 674-3248
42210,192640001287,NORTH MIDDLE SCHOOL,2101 OUTER DR N,SIOUX CITY,IA,51108,NOT AVAILABLE,(712) 279-6804
44186,191818001041,MADRID JUNIOR HIGH SCHOOL,599 N KENNEDY,MADRID,IA,50156,NOT AVAILABLE,(515) 795-3240
44414,193093000393,WALNUT CREEK CAMPUS,1020 8TH STREET,WEST DES MOINES,IA,50265,NOT AVAILABLE,(515) 633-6480
44490,190654000248,HOOVER ELEMENTARY SCHOOL,4141 JOHNSON AVE NW,CEDAR RAPIDS,IA,52405,NOT AVAILABLE,(319) 558-2369
49203,191437000861,TAFT ELEMENTARY SCHOOL,612 2ND AVE NORTH,HUMBOLDT,IA,50548,NOT AVAILABLE,(515) 332-3216
82684,190822000435,THOMAS JEFFERSON HIGH SCHOOL,2501 W BROADWAY,COUNCIL BLUFFS,IA,51501,3595,(712) 328-6493
84879,190369002139,PRAIRIE RIDGE MIDDLE SCHOOL,1010 NW PRAIRIE RIDGE DR,ANKENY,IA,50023,NOT AVAILABLE,(515) 965-9705
89254,190369000078,TERRACE ELEMENTARY SCHOOL,310 NW SCHOOL ST,ANKENY,IA,50021,0189,(515) 965-9670
10572,190717000332,ROOSEVELT ELEMENTARY SCHOOL,929 NORTH ROOSEVELT,CHEROKEE,IA,51012,NOT AVAILABLE,(712) 225-6760
16544,190654000255,NIXON ELEMENTARY SCHOOL,200 NIXON DR,HIAWATHA,IA,52233,NOT AVAILABLE,(319) 558-2188
51577,192244001343,PEKIN COMMUNITY JUNIOR/ SENIOR HIGH SCHOOL,1062 BIRCH AVE,PACKWOOD,IA,52580,8542,(319) 695-3705
55253,192121001271,NORTHWOOD-KENSETT JR-SR HIGH SCHOOL,704 7TH STREET NORTH,NORTHWOOD,IA,50459,0289,(641) 324-2142
56630,190711000327,CHARTER OAK-UTE ELEMENTARY SCHOOL,321 MAIN,CHARTER OAK,IA,51439,NOT AVAILABLE,(712) 678-3325
57585,192160002248,ODEBOLT ARTHUR BATTLE CREEK IDA GROVE HIGH SCHOOL,900 JOHN MONTGOMERY DR,IDA GROVE,IA,51445,NOT AVAILABLE,(712) 364-3371
57938,190948000604,DUBUQUE SENIOR HIGH SCHOOL,1800 CLARKE DR,DUBUQUE,IA,52001,NOT AVAILABLE,(563) 552-5500
58723,191437000858,CLYDE D MEASE ELEMENTARY SCHOOL,23 3RD ST NO,DAKOTA CITY,IA,50529,NOT AVAILABLE,(515) 332-3578
59984,191575000941,KINGSLEY-PIERSON HIGH SCHOOL,322 QUEST AVENUE,KINGSLEY,IA,51028,0520,(712) 378-2861
20006,190786002216,PRAIRIE HILL ELEMENTARY SCHOOL,151 PRAIRIE HILL CT SW,CEDAR RAPIDS,IA,52404,NOT AVAILABLE,(319) 848-5330
20640,190786000761,PRAIRIE RIDGE ELEMENTARY,278 SOUTH PRAIRIE RD SW,CEDAR RAPIDS,IA,52404,NOT AVAILABLE,(319) 848-5100
23548,190891000511,DENISON ELEMENTARY SCHOOL,38 N 20TH ST,DENISON,IA,51442,NOT AVAILABLE,(712) 263-3104
23551,192532001448,WOODSIDE MIDDLE SCHOOL,5810 NE 14TH ST,DES MOINES,IA,50313,NOT AVAILABLE,(515) 265-3451
25886,190306001383,THE COUGARS DEN,413 STATE ST,ACKLEY,IA,50601,NOT AVAILABLE,(641) 847-2699
27217,192091002095,NORTH POLK MIDDLE SCHOOL,315 NE 141ST AVE.,ALLEMAN,IA,50007,NOT AVAILABLE,(515) 984-3400
27436,192640002178,SPALDING PARK ELEMENTARY,4101 STONE AVENUE,SIOUX CITY,IA,51106,NOT AVAILABLE,(712) 274-4043
27706,192805001638,TRIPOLI MIDDLE/SR HIGH SCHOOL,209 8TH AVE SW,TRIPOLI,IA,50676,9662,(319) 882-4202
28527,191869000437,FRANCIS MARION INTERMEDIATE SCHOOL,2301 3RD AVE,MARION,IA,52302,NOT AVAILABLE,(319) 373-4766
29087,199901702062,PRAIRIE CITY ELEMENTARY SCHOOL,309 EAST PLAINSMEN ROAD,PRAIRIE CITY,IA,50228,NOT AVAILABLE,(515) 994-2377
29663,190357000064,STRAWBERRY HILL,203 HAMILTON COURT,ANAMOSA,IA,52205,NOT AVAILABLE,(319) 462-3549
36358,190897002166,MITCHELL EARLY CHILDHOOD CENTER,111 PORTER,DES MOINES,IA,50310,NOT AVAILABLE,(515) 242-8424
101,590019600091,MESKWAKI SETTLEMENT SCHOOL,1608 305TH ST,TAMA,IA,52339,NOT AVAILABLE,(641) 484-9000
3226,190759000361,CLEAR CREEK AMANA HIGH SCHOOL,551 W MARENGO RD,TIFFIN,IA,52340,0199,(319) 545-2361
102663,191467002267,INTERSTATE 35 MIDDLE SCHOOL,405 E NORTH STREET,TRURO,IA,50257,0079,(641) 765-4818
102664,191470002266,HERBERT HOOVER ELEMENTARY SCHOOL,1355 BARRINGTON RD,IOWA CITY,IA,52240,NOT AVAILABLE,(319) 688-1110
61424,191125002143,EXIRA-ELK HORN-KIMBALLTON ELEMENTARY,105 EAST SCHOOL ST,EXIRA,IA,50076,NOT AVAILABLE,(712) 268-5318
61692,190369002094,ASHLAND RIDGE ELEMENTARY,2600 NW ASH DRIVE,ANKENY,IA,50023,NOT AVAILABLE,(515) 965-9594
69249,192976001694,READLYN ELEMENTARY SCHOOL,200 E 4TH ST,READLYN,IA,50668,NOT AVAILABLE,(319) 279-3323
11680,190354000054,MITCHELL ELEMENTARY SCHOOL,3521 JEWEL DR,AMES,IA,50010,NOT AVAILABLE,(515) 239-3775
11827,191803001994,LYNNVILLE-SULLY MIDDLE SCHOOL,12476 HWY F62 E,SULLY,IA,50251,NOT AVAILABLE,(641) 594-4445
13751,192211001320,JAMES ELEMENTARY SCHOOL,1001 N BENTON,OTTUMWA,IA,52501,NOT AVAILABLE,(641) 684-5411
17030,190543000172,WEST HANCOCK HIGH SCHOOL,420 9TH AVE SW,BRITT,IA,50423,0278,(641) 843-3863
17034,192823001647,UNDERWOOD HIGH SCHOOL,629 NORTH STREET,UNDERWOOD,IA,51576,NOT AVAILABLE,(712) 566-2703
18516,193099001805,WEST LIBERTY HIGH SCHOOL,310 W MAXSON AVE,WEST LIBERTY,IA,52776,NOT AVAILABLE,(319) 627-2115
18887,192598001474,SHELDON HIGH SCHOOL,1700 EAST FOURTH STREET,SHELDON,IA,51201,NOT AVAILABLE,(712) 324-2501
19738,191182002171,RIVERSIDE ELC,733 F ST,FORT DODGE,IA,50501,NOT AVAILABLE,(515) 574-5740
40665,191470001030,ELIZABETH TATE ALT. HIGH SCHOOL,1528 MALL DRIVE,IOWA CITY,IA,52240,NOT AVAILABLE,(319) 688-1080
44995,190654000239,FRANKLIN MIDDLE SCHOOL,300 20TH ST NE,CEDAR RAPIDS,IA,52402,NOT AVAILABLE,(319) 558-2452
21187,191458001318,EARLY CHILDHOOD CENTER,1011 1ST ST W,INDEPENDENCE,IA,50644,NOT AVAILABLE,(319) 334-4780
21214,193102001807,WEST LYON HIGH SCHOOL,1787 182ND STREET,INWOOD,IA,51240,NOT AVAILABLE,(712) 753-4917
22389,190385001458,NORTH UNION ELEMENTARY,308 310TH STREET,FENTON,IA,50539,NOT AVAILABLE,(515) 889-2261
29670,192025002072,NEVADA MIDDLE SCHOOL,1035 15TH ST,NEVADA,IA,50201,NOT AVAILABLE,(515) 382-2751
70474,190369000148,NORTHEAST ELEMENTARY,1705 NE TRILEIN,ANKENY,IA,50021,NOT AVAILABLE,(515) 965-9620
72546,190705000314,CHARITON MIDDLE SCHOOL,1300 N 16TH,CHARITON,IA,50049,NOT AVAILABLE,(641) 774-5114
75009,191095000678,WEST ELEMENTARY SCHOOL,602 CALL ST,EMMETSBURG,IA,50536,NOT AVAILABLE,(712) 852-4485
75952,193093002055,WESTRIDGE ELEMENTARY,5500 E P TRUE PARKWAY,WEST DES MOINES,IA,50266,NOT AVAILABLE,(515) 633-5400
78682,190654000263,THOMAS JEFFERSON HIGH SCHOOL,1243 20TH ST SW,CEDAR RAPIDS,IA,52404,NOT AVAILABLE,(319) 558-2435
79329,192247000116,JEFFERSON INTERMEDIATE,801 E 13TH ST,PELLA,IA,50219,NOT AVAILABLE,(641) 628-8267
2067,191521000076,GREENE COUNTY ELEMENTARY,401 E RUSSELL,JEFFERSON,IA,50129,NOT AVAILABLE,(515) 386-3178
2150,192559001461,SERGEANT BLUFF-LUTON PRIMARY SCHOOL,206 SOUTH D STREET,SERGEANT BLUFF,IA,51054,NOT AVAILABLE,(712) 943-5563
8181,192739002107,STORM LAKE ELEMENTARY,1810 HYLAND DRIVE,STORM LAKE,IA,50588,NOT AVAILABLE,(712) 732-8074
8845,192046001210,NEW LONDON JR-SR HIGH SCHOOL,101 JACK WILSON DR,NEW LONDON,IA,52645,NOT AVAILABLE,(319) 367-0500
31613,192811001640,TURKEY VALLEY JR-SR HIGH SCHOOL,3219 ST HWY 24,JACKSON JUNCTION,IA,52171,NOT AVAILABLE,(563) 776-6011
35024,192976001700,WAPSIE VALLEY HIGH SCHOOL,RR 2 2535 VIKING AVE,FAIRBANK,IA,50629,NOT AVAILABLE,(319) 638-6711
36949,190852002099,NORTH RIDGE ELEMENTARY,400 NW 27TH ST,GRIMES,IA,50111,NOT AVAILABLE,(515) 986-5674
37208,193093001791,CROSSROADS PARK ELEMENTARY SCHOOL,1050 50TH ST,WEST DES MOINES,IA,50266,NOT AVAILABLE,(515) 633-5600
51850,190336000034,ALGONA MIDDLE SCHOOL,601 S. HALE,ALGONA,IA,50511,NOT AVAILABLE,(515) 295-7207
52333,192901001671,VAN METER ELEMENTARY SCHOOL,520 1ST AVE,VAN METER,IA,50261,NOT AVAILABLE,(515) 996-2221
52992,191470002168,NORMAN BORLAUG ELEMENTARY SCHOOL,1000 KENNEDY PARKWAY,CORALVILLE,IA,52241,NOT AVAILABLE,(319) 688-1155
53083,190654000244,HARDING MIDDLE SCHOOL,4801 GOLF ST NE,CEDAR RAPIDS,IA,52405,NOT AVAILABLE,(319) 558-2254
54542,190624002246,CARDINAL JUNIOR HIGH,4045 ASHLAND RD,ELDON,IA,52554,NOT AVAILABLE,(641) 652-7531
56055,191344002235,HAMBURG MIDDLE SCHOOL,309 S ST,HAMBURG,IA,51640,NOT AVAILABLE,(712) 382-2017
56057,193051002234,GRANT RAGAN ELEMENTARY SCHOOL,645 NE DARTMOOR DRIVE,WAUKEE,IA,50263,NOT AVAILABLE,(515) 987-0435
56671,191470000887,HELEN LEMME ELEMENTARY SCHOOL,3100 E WASHINGTON ST,IOWA CITY,IA,52245,NOT AVAILABLE,(319) 688-1125
57394,190852002242,HERITAGE ELEMENTARY,500 NE BEAVERBROOKE BLVD,GRIMES,IA,50111,NOT AVAILABLE,(515) 300-9627
80328,191470000881,BOHUMIL SHIMEK ELEMENTARY SCHOOL,1400 GRISSEL PLACE,IOWA CITY,IA,52245,NOT AVAILABLE,(319) 688-1160
80329,191869001075,MARION HIGH SCHOOL,675 S 15TH ST,MARION,IA,52302,NOT AVAILABLE,(319) 377-9891
83858,191431002038,HUBBARD-RADCLIFFE ELEMENTARY SCHOOL,501 ISABELLA,RADCLIFFE,IA,50230,NOT AVAILABLE,(515) 899-2111
87077,191470000893,KIRKWOOD ELEMENTARY SCHOOL,1401 9TH ST,CORALVILLE,IA,52241,NOT AVAILABLE,(319) 688-1120
87619,191013000647,EASTON VALLEY ELEMENTARY SCHOOL,439 WILSON,MILES,IA,52064,NOT AVAILABLE,(563) 682-7131
100056,190420000108,BALLARD WEST ELEMENTARY,105 E MAIN ST,SLATER,IA,50244,7783,(515) 228-3890
101412,193186001856,WINTERSET ELEMENTARY SCHOOL,404 S 2ND AVE,WINTERSET,IA,50273,2100,(515) 462-1551
101981,193093000168,JORDAN CREEK ELEMENTARY SCHOOL,4105 FULLER RD,WEST DES MOINES,IA,50265,NOT AVAILABLE,(515) 633-5200
104990,190897002260,RUBY VAN METER,710 28TH ST,DES MOINES,IA,50312,NOT AVAILABLE,(515) 242-8220
104998,193063001888,NORTHEAST HAMILTON ELEMENTARY SCHOOL,606 ILLINOIS ST,BLAIRSBURG,IA,50034,NOT AVAILABLE,(515) 325-6234
107148,190369002270,TERRACE LEARNING CENTER,310 NW SCHOOL ST,ANKENY,IA,50023,NOT AVAILABLE,(515) 965-9670
23626,190594000199,CAM SOUTH ELEMENTARY SCHOOL,207 6TH ST,MASSENA,IA,50853,NOT AVAILABLE,(712) 779-2211
24550,191545001412,TIMBER RIDGE ELEMENTARY,7370 NW 54TH AVE,JOHNSTON,IA,50131,NOT AVAILABLE,(515) 331-4379
25654,193186001857,WINTERSET MIDDLE SCHOOL,706 WEST SCHOOL STREET,WINTERSET,IA,50273,NOT AVAILABLE,(515) 462-3010
28436,193090001787,WEST DELAWARE MIDDLE SCHOOL,1101 DOCTOR ST,MANCHESTER,IA,52057,NOT AVAILABLE,(563) 927-3515
28723,190336000031,BERTHA GODFREY ELEMENTARY SCHOOL,124 N MAIN,ALGONA,IA,50511,NOT AVAILABLE,(515) 295-3586
29840,191893001118,MEDIAPOLIS HIGH SCHOOL,725 N. NORTHFIELD,MEDIAPOLIS,IA,52637,NOT AVAILABLE,(319) 394-3101
1969,190897000567,OAK PARK,3928 6TH AVENUE,DES MOINES,IA,50313,NOT AVAILABLE,(515) 242-8428
2631,192691002182,LINCOLN ELEMENTARY SCHOOL,615 4TH AVE. SW,SPENCER,IA,51301,NOT AVAILABLE,(712) 262-3752
4611,192640002237,PERRY CREEK ELEMENTARY SCHOOL,3601 COUNTRY CLUB BLVD,SIOUX CITY,IA,51104,NOT AVAILABLE,(712) 279-6836
5347,191533000924,JESUP HIGH SCHOOL,531 PROSPECT,JESUP,IA,50648,0287,(319) 827-1700
6474,191470002250,CHRISTINE GRANT ELEMENTARY,1000 NORTH BEND DRIVE,NORTH LIBERTY,IA,52317,NOT AVAILABLE,(319) 688-1500
30616,192898001667,VAN BUREN COUNTY COMMUNITY SCHOOL DISTRICT DOUDS CENTER,14574 JEFFERSON ST.,DOUDS,IA,52551,NOT AVAILABLE,(641) 936-4321
31610,190906000594,DIAGONAL JUNIOR-SENIOR HIGH SCHOOL,403 W 2ND STREET,DIAGONAL,IA,50845,0094,(641) 734-5331
34579,190654000251,JOHNSON STEAM ACADEMY SCHOOL,355 18TH ST SE,CEDAR RAPIDS,IA,52403,NOT AVAILABLE,(319) 558-2174
39039,190348000046,ALTA-AURELIA HIGH SCHOOL,1009 SOUTH MAIN STREET,ALTA,IA,51002,NOT AVAILABLE,(712) 200-1331
13965,190894000512,DENVER EARLY ELEMENTARY SCHOOL,401 EAST FRANKLIN STREET,DENVER,IA,50622,NOT AVAILABLE,(319) 984-5611
14734,193096000331,WEST HARRISON ELEMENTARY,410 PINE ST,MONDAMIN,IA,51557,NOT AVAILABLE,(712) 646-2016
16502,190322001937,AKRON WESTFIELD ELEMENTARY SCHOOL,850 KERR DR,AKRON,IA,51001,NOT AVAILABLE,(712) 568-3322
19756,192973001692,WAPELLO SENIOR HIGH SCHOOL,501 BUCHANAN ST,WAPELLO,IA,52653,NOT AVAILABLE,(319) 523-3241
61392,190948000607,FULTON ELEMENTARY SCHOOL,2540 CENTRAL AVE,DUBUQUE,IA,52001,NOT AVAILABLE,(563) 552-3650
63898,190696000307,CENTRAL LYON MIDDLE SCHOOL,1105 S STORY,ROCK RAPIDS,IA,51246,0471,(712) 472-2664
64332,190759002103,NORTH BEND ELEMENTARY,2230 ST ANDREWS DRIVE,NORTH LIBERTY,IA,52317,NOT AVAILABLE,(319) 626-3950
67889,191464002100,WILDER ELEMENTARY SCHOOL,2303 W. EUCLID,INDIANOLA,IA,50125,NOT AVAILABLE,(515) 961-9540
69246,190960000629,DURANT ELEMENTARY SCHOOL,408 7TH ST,DURANT,IA,52747,NOT AVAILABLE,(563) 785-4433
70473,190654000234,CLEVELAND ELEMENTARY SCHOOL,2200 1ST AVE NW,CEDAR RAPIDS,IA,52405,NOT AVAILABLE,(319) 558-2463
72126,190495000667,EDDYVILLE ELEMENTARY,702 VANCE STREET,EDDYVILLE,IA,52553,NOT AVAILABLE,(641) 969-4281
72279,190861000492,DAVIS COUNTY COMMUNITY HIGH SCHOOL,503 E. LOCUST,BLOOMFIELD,IA,52537,NOT AVAILABLE,(641) 664-2200
73185,191788001026,LUVERNE ELEMENTARY SCHOOL,405 HANNA AVE,LUVERNE,IA,50560,0069,(515) 882-3357
73497,190393000412,SCHULER ELEMENTARY SCHOOL,501 EAST 11TH ST.,ATLANTIC,IA,50022,NOT AVAILABLE,(712) 243-1370
75010,190822000424,LEWIS & CLARK ELEMENTARY SCHOOL,1603 GRAND AVE,COUNCIL BLUFFS,IA,51503,NOT AVAILABLE,(712) 328-6471
75232,193054000832,GREENVIEW ALTERNATIVE SCHOOL,106 16TH ST SW,WAVERLY,IA,50677,NOT AVAILABLE,(319) 352-9273
76535,190678000284,CENTRAL CITY ELEMENTARY SCHOOL,400 BARBER STREET,CENTRAL CITY,IA,52214,NOT AVAILABLE,(319) 438-6181
77243,190822000425,LONGFELLOW ELEMENTARY SCHOOL,2011 S 10TH ST,COUNCIL BLUFFS,IA,51501,NOT AVAILABLE,(712) 328-6522
42019,190897000531,FINDLEY ELEMENTARY SCHOOL,3025 OXFORD STREET,DES MOINES,IA,50313,NOT AVAILABLE,(515) 242-8407
44097,190705000317,VAN ALLEN ELEMENTARY SCHOOL,1129 ASHLAND,CHARITON,IA,50049,NOT AVAILABLE,(641) 774-5047
47159,191989001177,VAN ALLEN ELEMENTARY SCHOOL,801 E HENRY STREET,MOUNT PLEASANT,IA,52641,NOT AVAILABLE,(319) 385-7771
49301,192559000726,SERGEANT BLUFF-LUTON ELEMENTARY SCHOOL,201 PORT NEAL ROAD,SERGEANT BLUFF,IA,51054,NOT AVAILABLE,(712) 943-5563
80333,193093001790,CRESTVIEW SCHOOL OF INQUIRY,8355 FRANKLIN AVENUE,CLIVE,IA,50325,5512,(515) 633-5700
81260,192082001244,NORTH LINN ELEMENTARY,3033 LYNX DRIVE,TROY MILLS,IA,52344,0200,(319) 224-3291
81420,190897000557,MCCOMBS MIDDLE SCHOOL,201 SW COUNTY LINE RD,DES MOINES,IA,50320,NOT AVAILABLE,(515) 242-8447
81511,190336000033,LUCIA WALLACE ELEMENTARY SCHOOL,729 E KENNEDY ST,ALGONA,IA,50511,NOT AVAILABLE,(515) 295-7296
82424,192685001574,SOUTHEAST WARREN INTERMEDIATE,519 N WASHINGTON AVE,LACONA,IA,50139,NOT AVAILABLE,(641) 534-4701
82688,191401000839,HIGHLAND HIGH SCHOOL,1715 VINE AVENUE,RIVERSIDE,IA,52327,NOT AVAILABLE,(319) 648-2891
88373,192640001505,EAST MIDDLE SCHOOL,5401 LORRAINE AVE,SIOUX CITY,IA,51106,3837,(712) 274-4030
52221,190690000297,CENTRAL DECATUR MS/HS HIGH SCHOOL,1201 NE POPLAR ST,LEON,IA,50144,NOT AVAILABLE,(641) 446-4816
53462,190798000398,COLUMBUS COMMUNITY JUNIOR HIGH SCHOOL,1004 COLTON ST,COLUMBUS JUNCTION,IA,52738,NOT AVAILABLE,(319) 728-2233
91800,191335000807,CLAYTON RIDGE ELEMENTARY SCHOOL,502 W. WATSON STREET,GARNAVILLO,IA,52049,0009,(563) 964-2321
95670,193195001864,WOODBURY CENTRAL MIDDLE SCHOOL,408 S 4TH ST,MOVILLE,IA,51039,NOT AVAILABLE,(712) 873-3128
98326,191563000936,GEORGE WASHINGTON ELEMENTARY SCHOOL,116 N 8TH,KEOKUK,IA,52632,NOT AVAILABLE,(319) 524-1953
99920,191434000857,HUDSON HIGH SCHOOL,245 S WASHINGTON,HUDSON,IA,50643,NOT AVAILABLE,(319) 988-4226
100059,191488000912,IKM-MANNING MIDDLE SCHOOL,209 10TH ST,MANNING,IA,51455,NOT AVAILABLE,(712) 655-3781
62362,192211002200,DOUMA ELEMENTARY SCHOOL,307 W. MARY ST.,OTTUMWA,IA,52501,NOT AVAILABLE,(641) 684-4668
63729,193093001796,STILWELL JUNIOR HIGH SCHOOL,1601 VINE ST,WEST DES MOINES,IA,50265,NOT AVAILABLE,(515) 633-6000
63732,192640001514,IRVING ELEMENTARY SCHOOL,901 FLOYD BLVD,SIOUX CITY,IA,51105,1746,(712) 279-6834
65959,190762000363,CLEAR LAKE HIGH SCHOOL,125 N 20TH ST,CLEAR LAKE,IA,50428,NOT AVAILABLE,(641) 357-5235
10569,190675000279,HOWAR MIDDLE SCHOOL,850 S PARK STREET,CENTERVILLE,IA,52544,2130,(641) 856-0760
10571,191011000644,EAST BUCHANAN MIDDLE SCHOOL,414 5TH ST NORTH,WINTHROP,IA,50682,NOT AVAILABLE,(319) 935-3367
10582,190327000021,KENDALL CENTER,701 WASHINGTON AVE E,ALBIA,IA,52531,NOT AVAILABLE,(641) 932-2161
12161,191875001097,MARTENSDALE-ST MARYS JR-SR HIGH SCHOOL,390 BURLINGTON,MARTENSDALE,IA,50160,NOT AVAILABLE,(641) 764-2486
12188,192163000706,LITTLE HUSKY LEARNING CENTER,317 8TH AVE SE SUITE D,OELWEIN,IA,50622,NOT AVAILABLE,(319) 283-2302
12956,190891000508,DENISON HIGH SCHOOL,819 N 16TH ST,DENISON,IA,51442,NOT AVAILABLE,(712) 263-3101
17897,193162001841,WHITING ELEMENTARY SCHOOL,606 WEST ST,WHITING,IA,51063,NOT AVAILABLE,(712) 455-2468
80240,191668000994,TITAN HILL INTERMEDIATE SCHOOL,4125 HARRY LANGDON BLVD.,COUNCIL BLUFFS,IA,51503,NOT AVAILABLE,(712) 366-8289
80332,192532001445,CORNELL ELEMENTARY SCHOOL,5817 NE 3RD ST,DES MOINES,IA,50313,NOT AVAILABLE,(515) 244-8173
83640,190790001950,COLLINS-MAXWELL ELEMENTARY SCHOOL,416 FOURTH AVENUE,COLLINS,IA,50055,NOT AVAILABLE,(641) 385-2446
83884,190006000182,GMG ELEMENTARY SCHOOL,1710 WALLACE AVENUE,GREEN MOUNTAIN,IA,50632,8517,(641) 474-2251
225,191281002118,GRAETTINGER-TERRIL MIDDLE SCHOOL,400 W. LOST ISLAND ST.,GRAETTINGER,IA,51342,NOT AVAILABLE,(712) 859-3286
1965,190744000354,CLARKSVILLE ELEMENTARY SCHOOL,318 N MATHER,CLARKSVILLE,IA,50619,0689,(319) 278-4560
2322,192640001534,WEST MIDDLE SCHOOL,3301 W 19TH ST,SIOUX CITY,IA,51103,1615,(712) 279-6813
2780,192034001922,NEW HAMPTON MIDDLE SCHOOL,710 W MAIN,NEW HAMPTON,IA,50659,NOT AVAILABLE,(641) 394-2134
7656,190369000380,NORTHVIEW MIDDLE SCHOOL,1302 N ANKENY BLVD,ANKENY,IA,50023,NOT AVAILABLE,(515) 965-9700
8841,192931001476,SHELLSBURG ELEMENTARY SCHOOL,203 TOMAHAWK TRAIL,SHELLSBURG,IA,52332,NOT AVAILABLE,(319) 436-4728
10000,190681000288,EKSTRAND ELEMENTARY SCHOOL,1140 15TH ST,DE WITT,IA,52742,NOT AVAILABLE,(563) 659-0750
35630,190897000543,HOOVER HIGH SCHOOL,4800 AURORA AVE,DES MOINES,IA,50310,NOT AVAILABLE,(515) 242-7300
37062,190675000276,CENTRAL WARD ELEMENTARY SCHOOL,320 DRAKE AVE,CENTERVILLE,IA,52544,2244,(641) 856-0709
38794,192931001680,VINTON-SHELLSBURG MIDDLE SCHOOL,212 W. 15TH ST.,VINTON,IA,52349,NOT AVAILABLE,(319) 436-4728
39041,190897000571,PHILLIPS ELEMENTARY,1701 LAY ST,DES MOINES,IA,50317,NOT AVAILABLE,(515) 242-8431
42027,190822000416,EDISON ELEMENTARY SCHOOL,2218 3RD AVENUE,COUNCIL BLUFFS,IA,51501,NOT AVAILABLE,(712) 328-6516
42038,191644000980,BRONSON ELEMENTARY SCHOOL,113 WEST 1ST STREET,BRONSON,IA,51007,0141,(712) 948-3361
42041,191575000943,PIERSON MIDDLE SCHOOL,321 4TH ST,PIERSON,IA,51048,NOT AVAILABLE,(712) 375-5939
43395,192592001467,WEST FORK ELEMENTARY SHEFFIELD,504 PARK ST.,SHEFFIELD,IA,50475,0617,(641) 892-4461
46159,193162001842,WHITING SENIOR HIGH SCHOOL,606 WEST ST,WHITING,IA,51063,NOT AVAILABLE,(712) 455-2468
47259,190513000161,LINCOLN ELEMENTARY SCHOOL,711 W MAMIE EISENHOWER,BOONE,IA,50036,NOT AVAILABLE,(515) 433-0800
48123,190822002146,COLLEGE VIEW ELEMENTARY,1225 COLLEGE ROAD,COUNCIL BLUFFS,IA,51503,NOT AVAILABLE,(712) 328-6452
48712,192679001564,SOUTH WINNESHIEK MIDDLE SCHOOL,208 E BROOKS ST,OSSIAN,IA,52161,0298,(563) 532-9365
50687,190369002183,PRAIRIE TRAIL ELEMENTARY,1850 SW COLLEGE AVE,ANKENY,IA,50023,NOT AVAILABLE,(515) 965-9605
50853,192787001621,TIPTON ELEMENTARY SCHOOL,601 LEMON,TIPTON,IA,52772,NOT AVAILABLE,(563) 886-6131
54297,190708002221,WASHINGTON ELEMENTARY SCHOOL,1406 N GRAND,CHARLES CITY,IA,50616,NOT AVAILABLE,(641) 257-6570
59519,192667001551,SOUTH PAGE ELEMENTARY SCHOOL,606 IOWA AVE,COLLEGE SPRINGS,IA,51637,NOT AVAILABLE,(712) 582-3212
70060,190486000143,BETTENDORF MIDDLE SCHOOL,2030 MIDDLE ROAD,BETTENDORF,IA,52722,NOT AVAILABLE,(563) 359-3686
70170,192311001361,PLEASANT VALLEY JUNIOR HIGH SCHOOL,3501 WISCONSIN STREET,LECLAIRE,IA,52753,NOT AVAILABLE,(563) 332-0200
71389,192691002184,FAIRVIEW PARK ELEMENTARY,1508 5TH AVE. EAST,SPENCER,IA,51301,NOT AVAILABLE,(712) 262-4842
72112,190897000518,CAPITOL VIEW ELEMENTARY SCHOOL,320 E. 16TH,DES MOINES,IA,50316,NOT AVAILABLE,(515) 242-8402
74460,190486000149,MARK TWAIN ELEMENTARY SCHOOL,1620 LINCOLN RD,BETTENDORF,IA,52722,NOT AVAILABLE,(563) 359-8263
75154,192211001328,WILSON ELEMENTARY SCHOOL,1102 E. 4TH ST.,OTTUMWA,IA,52501,NOT AVAILABLE,(641) 684-5441
76221,190486000142,BETTENDORF HIGH SCHOOL,3333 18TH STREET,BETTENDORF,IA,52722,NOT AVAILABLE,(563) 332-7001
76876,191050000670,EDGEWOOD-COLESBURG HIGH SCHOOL,403 W UNION,EDGEWOOD,IA,52042,NOT AVAILABLE,(563) 928-6412
78256,191971001157,MORAVIA HIGH SCHOOL,505 N TRUSSELL AVENUE,MORAVIA,IA,52571,NOT AVAILABLE,(641) 724-3311
79334,190575001620,NORTH IOWA MIDDLE SCHOOL,111 3RD AVE NW,BUFFALO CENTER,IA,50424,NOT AVAILABLE,(641) 562-2525
24178,192076001239,CENTRAL SPRINGS HIGH SCHOOL,105 S EAST ST,MANLY,IA,50456,NOT AVAILABLE,(641) 454-2208
24466,190002400961,SOUTH CENTRAL CALHOUN HIGH SCHOOL,709 W MAIN ST,LAKE CITY,IA,51449,1500,(712) 464-7211
25007,191878001105,JOHN ADAMS MIDDLE SCHOOL,29 S ILLINOIS AVE,MASON CITY,IA,50401,NOT AVAILABLE,(641) 421-4420
25321,191011000642,EAST BUCHANAN ELEMENTARY SCHOOL,414 5TH ST NORTH,WINTHROP,IA,50682,NOT AVAILABLE,(319) 935-3660
90694,191533000923,JESUP ELEMENTARY SCHOOL,531 PROSPECT,JESUP,IA,50648,NOT AVAILABLE,(319) 827-1700
92584,191722000810,OAK RIDGE SCHOOL,4901 ALBURNETT ROAD,MARION,IA,52302,NOT AVAILABLE,(319) 447-3410
93550,191545000749,SUMMIT MIDDLE SCHOOL,9500 WINDSOR PARKWAY,JOHNSTON,IA,50131,NOT AVAILABLE,(515) 986-0318
94155,190798000396,COLUMBUS COMMUNITY HIGH SCHOOL,1004 COLTON ST,COLUMBUS JUNCTION,IA,52738,NOT AVAILABLE,(319) 728-2231
94435,192082001243,NORTH-LINN SENIOR HIGH SCHOOL,3033 LYNX DRIVE,TROY MILLS,IA,52344,0200,(319) 224-3291
94530,193087001353,WEST CENTRAL CHARTER HIGH SCHOOL,305 PEMBER,MAYNARD,IA,50655,NOT AVAILABLE,(563) 637-2283
96510,192658001542,LAKEVIEW ELEMENTARY,111 N CHABAL ST,SOLON,IA,52333,NOT AVAILABLE,(319) 624-3401
97120,191251002192,GILBERT INTERMEDIATE SCHOOL,103 MATHEWS DR,GILBERT,IA,50105,NOT AVAILABLE,(515) 232-3748
97453,190001501485,SIBLEY-OCHEYEDAN MIDDLE SCHOOL,120 11TH AVE NE,SIBLEY,IA,51249,NOT AVAILABLE,(712) 754-2542
101974,191971001156,MORAVIA ELEMENTARY SCHOOL,507 N TRUSSELL AVE,MORAVIA,IA,52571,NOT AVAILABLE,(641) 724-3311
101980,190897000545,HOYT MIDDLE SCHOOL,2700 E 42ND ST,DES MOINES,IA,50317,NOT AVAILABLE,(515) 242-8446
107152,192607002259,LOGAN PRESCHOOL,304 WEST NISHNA ROAD,SHENANDOAH,IA,51601,2039,(712) 246-1581
107153,192625002280,SIDNEY VIRTUAL SAC SCHOOL,2754 KNOX ROAD,SIDNEY,IA,51652,NOT AVAILABLE,(712) 374-2141
