OBJECTID,NCESID,NAME,ADDRESS,CITY,STATE,ZIP,ZIP4,TELEPHONE
10267,240048000797,CANNON ROAD ELEMENTARY,901 CANNON ROAD,SILVER SPRING,MD,20904,NOT AVAILABLE,(240) 740-0520
11353,240012000457,RANDALLSTOWN ELEMENTARY,9013 LIBERTY RD,RANDALLSTOWN,MD,21133,3909,(410) 887-0746
11363,240042090449,WAVERLY ELEMENTARY,10220 WETHERBURN RD,ELLICOTT CITY,MD,21042,1682,(410) 313-2819
12087,240051090458,GLADYS NOON SPELLMAN ELEMENTARY,3324 64TH AVE,CHEVERLY,MD,20785,1304,(301) 925-1944
13215,240009001153,HARFORD HEIGHTS ELEMENTARY,2050 N WOLFE STREET,BALTIMORE,MD,21213,NOT AVAILABLE,(410) 396-9341
14302,110008700213,MAYA ANGELOU ACADEMY AT NEW BEGINNINGS FORMERLY OAK HILL,8400 RIVER RD,LAUREL,MD,20724,NOT AVAILABLE,(202) 299-5362
14679,240051000988,BOND MILL ELEMENTARY,16001 SHERWOOD AVE,LAUREL,MD,20707,5437,(301) 497-3600
14755,240042000488,MANOR WOODS ELEMENTARY,11575 FREDERICK RD,ELLICOTT CITY,MD,21042,NOT AVAILABLE,(410) 313-7165
15159,240009000161,THE BELAIR-EDISON SCHOOL,3536 BREHMS LANE,BALTIMORE,MD,21213,1853,(410) 396-9150
18306,240048000913,ROLLING TERRACE ELEMENTARY,705 BAYFIELD ST,TAKOMA PARK,MD,20912,7307,(240) 740-1950
19649,240027000594,DR. JAMES CRAIK ELEMENTARY SCHOOL,7725 MARSHALL CORNER RD,POMFRET,MD,20675,NOT AVAILABLE,(301) 934-4270
413,240051001469,STEPHEN DECATUR MIDDLE,8200 PINEWOOD DR,CLINTON,MD,20735,1487,(301) 449-4950
1110,240048010502,S. CHRISTA MCAULIFFE ELEMENTARY,12500 WISTERIA DR,GERMANTOWN,MD,20874,5338,(240) 740-4920
2056,240051001419,MARGARET BRENT REGIONAL CENTER,5816 LAMONT TER,NEW CARROLLTON,MD,20784,3541,(301) 918-8780
2439,240024001491,KENMORE ELEMENTARY,2475 SINGERLY RD,ELKTON,MD,21921,2733,(410) 996-5060
4946,240051001540,EXCEL ACADEMY PUBLIC CHARTER,7910 SCOTT RD,LANDOVER,MD,20785,NOT AVAILABLE,(301) 925-2320
8131,240012001435,WHITE OAK SCHOOL,8401 LEEFIELD RD,PARKVILLE,MD,21234,3817,(410) 887-5378
8176,240012000400,HARFORD HILLS ELEMENTARY,8902 OLD HARFORD RD,BALTIMORE,MD,21234,2646,(410) 887-5236
43579,240066001260,CLEAR SPRING HIGH,12630 BROADFORDING RD,CLEAR SPRING,MD,21722,1361,(301) 766-8082
46371,240060001231,MARGARET BRENT MIDDLE,29675 POINT LOOKOUT RD,MECHANICSVILLE,MD,20659,NOT AVAILABLE,(301) 884-4635
47017,240072001328,POCOMOKE ELEMENTARY,2119 POCOMOKE BELTWAY,POCOMOKE CITY,MD,21851,3025,(410) 632-5130
60212,240042000754,STEVENS FOREST ELEMENTARY,6045 STEVENS FOREST RD,COLUMBIA,MD,21045,3828,(410) 313-6900
61001,240012000366,COCKEYSVILLE MIDDLE,10401 GREENSIDE DR,COCKEYSVILLE,MD,21030,3327,(443) 809-7626
61442,240072001335,STEPHEN DECATUR HIGH,9913 SEAHAWK RD,BERLIN,MD,21811,3551,(410) 641-2171
61959,240027000609,WALTER J. MITCHELL ELEMENTARY SCHOOL,400 WILLOW LN,LA PLATA,MD,20646,3916,(301) 934-4687
62197,240012000362,CHESAPEAKE HIGH,1801 TURKEY POINT RD,BALTIMORE,MD,21221,1734,(443) 809-0100
69725,240051001024,DWIGHT D. EISENHOWER MIDDLE,13725 BRIARWOOD DR,LAUREL,MD,20708,1301,(301) 497-3620
23648,240006000064,EASTPORT ELEMENTARY,420 5TH AVENUE,ANNAPOLIS,MD,21403,2537,(410) 222-1605
27442,240051001077,KENILWORTH ELEMENTARY,12520 KEMBRIDGE DR,BOWIE,MD,20715,2759,(301) 805-6600
81011,240003000030,CENTER FOR CAREER & TECHNICAL EDUCATION,14211 MCMULLEN HWY SW,CRESAPTOWN,MD,21502,5671,(301) 729-6486
83312,240048000809,COLD SPRING ELEMENTARY,9201 FALLS CHAPEL WAY,POTOMAC,MD,20854,3059,(301) 279-8480
84439,240021001105,CRANBERRY STATION ELEMENTARY,505 NORTH CENTER STREET,WESTMINSTER,MD,21157,5146,(410) 386-4440
84855,240021001185,WINTERS MILL HIGH,560 GORSUCH ROAD,WESTMINSTER,MD,21157,6530,(410) 386-1500
87772,240051001112,NICHOLAS OREM MIDDLE,6100 EDITORS PARK DR,HYATTSVILLE,MD,20782,1986,(301) 853-0840
89739,240009000246,HILTON ELEMENTARY,3301 CARLISLE AVENUE,BALTIMORE,MD,21216,1837,(410) 396-0634
30305,240006000094,MARLEY GLEN SCHOOL,200 SCOTT AVE,GLEN BURNIE,MD,21060,7760,(410) 222-6940
31071,240048000792,BROWN STATION ELEMENTARY,851 QUINCE ORCHARD BLVD,GAITHERSBURG,MD,20878,NOT AVAILABLE,(240) 740-0260
31091,240012000424,MARS ESTATES ELEMENTARY,1500 E HOMBERG AVE,BALTIMORE,MD,21221,3717,(410) 887-0154
34213,240009000243,HIGHLANDTOWN ELEMENTARY/MIDDLE #215,3223 E PRATT STREET,BALTIMORE,MD,21224,NOT AVAILABLE,(410) 396-9381
34246,240012000456,PRETTYBOY ELEMENTARY,19810 MIDDLETOWN RD,FREELAND,MD,21053,9403,(410) 887-1900
38352,240009000151,BALTIMORE POLYTECHNIC INSTITUTE,1400 W COLD SPRING LANE,BALTIMORE,MD,21209,4904,(410) 396-7026
92734,240012000478,STEMMERS RUN MIDDLE,201 STEMMERS RUN RD,BALTIMORE,MD,21221,NOT AVAILABLE,(410) 887-0177
99381,240048000789,BROOKHAVEN ELEMENTARY,4610 RENN ST,ROCKVILLE,MD,20853,2707,(240) 740-0500
99745,240060001226,GREENVIEW KNOLLS ELEMENTARY,45711 MILITARY LN,GREAT MILLS,MD,20634,9742,(301) 863-4095
53055,240045000765,H. H. GARNETT ELEMENTARY,320 CALVERT ST,CHESTERTOWN,MD,21620,1304,(410) 778-6890
59735,240048000869,LUXMANOR ELEMENTARY,6201 TILDEN LN,ROCKVILLE,MD,20852,NOT AVAILABLE,(240) 740-0820
72589,240051001718,COLLEGE PARK ACADEMY,5751 RIVERTECH CT,RIVERDALE,MD,20737,NOT AVAILABLE,(240) 696-3206
72886,240033001166,THURMONT PRIMARY,7989 ROCKY RIDGE RD,THURMONT,MD,21788,NOT AVAILABLE,(240) 236-2800
72973,240009001478,CITY NEIGHBORS CHARTER SCHOOL,4301 RASPE AVENUE,BALTIMORE,MD,21206,NOT AVAILABLE,(410) 325-2627
75466,240051000414,JUDITH P. HOYER MONTESSORI,929 HILL RD,LANDOVER,MD,20785,NOT AVAILABLE,(301) 808-4420
75514,240039001642,PATTERSON MILL MIDDLE SCHOOL,85 PATTERSON MILL RD,BEL AIR,MD,21015,NOT AVAILABLE,(410) 638-4640
76502,240042000728,ELKRIDGE ELEMENTARY,7075 MONTGOMERY RD,ELKRIDGE,MD,21075,5414,(410) 313-5006
77317,240006000068,FORT SMALLWOOD ELEMENTARY,1720 POPLAR RIDGE RD,PASADENA,MD,21122,3718,(410) 222-6450
77386,240012001405,WOODHOLME ELEMENTARY,300 MT WILSON LN,BALTIMORE,MD,21208,NOT AVAILABLE,(410) 887-6762
78574,240015001655,BARSTOW ELEMENTARY,295 WILLIAMS RD,PRINCE FREDERICK,MD,20678,NOT AVAILABLE,(443) 550-9510
79067,240051001034,DREW FREEMAN MIDDLE,2600 BROOKS DR,SUITLAND,MD,20746,1105,(301) 817-0900
79686,240042001700,LAKE ELKHORN MIDDLE,6680 CRADLEROCK WAY,COLUMBIA,MD,21045,NOT AVAILABLE,(410) 313-7600
2189,240009000194,EDMONDSON-WESTSIDE HIGH,501 N ATHOL AVENUE,BALTIMORE,MD,21229,2740,(410) 396-0685
2395,240024000578,PERRYVILLE MIDDLE,850 AIKEN AVE,PERRYVILLE,MD,21903,2738,(410) 996-6010
3820,240012001696,WEST TOWSON ELEMENTARY,6916 NORTH CHARLES STREET,BALTIMORE,MD,21204,NOT AVAILABLE,(410) 887-3893
4709,240051001573,ROSA L. PARKS ELEMENTARY,6111 AGER RD,HYATTSVILLE,MD,20782,NOT AVAILABLE,(301) 445-8090
7989,240021000534,FREEDOM DISTRICT ELEMENTARY,5626 SYKESVILLE ROAD,SYKESVILLE,MD,21784,7016,(410) 751-3525
9819,240042001382,CLEMENS CROSSING ELEMENTARY,10320 QUARTERSTAFF RD,COLUMBIA,MD,21044,4138,(410) 313-6866
41691,240039000678,ABERDEEN MIDDLE,111 MOUNT ROYAL AVE,ABERDEEN,MD,21001,2492,(410) 273-5510
42745,240066001295,WILLIAMSPORT HIGH,5 S CLIFTON DR,WILLIAMSPORT,MD,21795,1124,(301) 766-8423
43718,240021000535,HAMPSTEAD ELEMENTARY,3737 SHILOH ROAD,HAMPSTEAD,MD,21074,1634,(410) 751-3420
48524,240009001662,JOSEPH C. BRISCOE ACADEMY,900 DRUID HILL AVENUE,BALTIMORE,MD,21201,NOT AVAILABLE,(410) 396-0774
49423,240021001652,EBB VALLEY ELEMENTARY,3100 SWIPER ROAD,MANCHESTER,MD,21102,1448,(410) 386-1550
60549,240027001416,NORTH POINT HIGH SCHOOL,2500 DAVIS RD,WALDORF,MD,20603,NOT AVAILABLE,(301) 753-1759
63845,240048001572,ROSCOE R NIX ELEMENTARY,1100 CORLISS ST,SILVER SPRING,MD,20903,NOT AVAILABLE,(301) 422-5070
66288,240015001344,CALVERT COUNTY ALTERNATIVE SCHOOL,330 DORSEY ROAD,PRINCE FREDERICK,MD,20678,4000,(443) 550-7164
67136,240021000554,WILLIAM WINCHESTER ELEMENTARY,70 MONROE STREET,WESTMINSTER,MD,21157,4567,(410) 751-3230
67744,240048000932,TAKOMA PARK ELEMENTARY,7511 HOLLY AVE,TAKOMA PARK,MD,20912,NOT AVAILABLE,(240) 740-0980
50215,240045000768,KENT COUNTY HIGH,25301 LAMBS MEADOW RD,WORTON,MD,21678,1924,(410) 778-4540
52023,240021000555,WINFIELD ELEMENTARY,4401 SALEM BOTTOM ROAD,WESTMINSTER,MD,21157,7937,(410) 751-3242
52434,240021000532,ELMER A. WOLFE ELEMENTARY,119 NORTH MAIN STREET,UNION BRIDGE,MD,21791,9101,(410) 751-3307
52484,240048000814,CRESTHAVEN ELEMENTARY,1234 CRESTHAVEN DR,SILVER SPRING,MD,20903,NOT AVAILABLE,(240) 740-0580
53153,240021000052,FRIENDSHIP VALLEY ELEMENTARY,1100 GIST ROAD,WESTMINSTER,MD,21157,5754,(410) 751-3650
53322,240006000119,RIDGEWAY ELEMENTARY,1440 EVERGREEN RD,SEVERN,MD,21144,2612,(410) 222-6524
58150,240051001029,FAIRMONT HEIGHTS HIGH,6501 COLUMBIA PARK RD,LANDOVER,MD,20785,NOT AVAILABLE,(301) 925-1360
59006,240042000744,NORTHFIELD ELEMENTARY,9125 NORTHFIELD RD,ELLICOTT CITY,MD,21042,5903,(410) 313-2806
93081,240009000210,FURLEY ELEMENTARY,5001 SINCLAIR LANE,BALTIMORE,MD,21206,NOT AVAILABLE,(410) 396-9094
94394,240009000184,DALLAS F. NICHOLAS SR. ELEMENTARY,201 E 21ST STREET,BALTIMORE,MD,21218,6118,(410) 396-4525
95120,240012000358,CHAPEL HILL ELEMENTARY,5200 E JOPPA RD,PERRY HALL,MD,21128,9318,(410) 887-5119
95295,240006000140,WEST MEADE EARLY EDUCATION CENTER,7722 RAY STREET,FT MEADE,MD,20755,NOT AVAILABLE,(410) 222-6545
97350,240006000043,BELLE GROVE ELEMENTARY,4502 BELLE GROVE ROAD,BALTIMORE,MD,21225,2698,(410) 222-6589
98167,240048000934,THOMAS S. WOOTTON HIGH,2100 WOOTTON PKWY,ROCKVILLE,MD,20850,3037,(240) 740-1500
99280,240042000745,OAKLAND MILLS HIGH,9410 KILIMANJARO RD,COLUMBIA,MD,21045,3955,(410) 313-6945
99285,240027000583,BENJAMIN STODDERT MIDDLE SCHOOL,2040 SAINT THOMAS DR,WALDORF,MD,20602,2101,(301) 645-1334
82607,240012000491,WARREN ELEMENTARY,900 BOSLEY RD,COCKEYSVILLE,MD,21030,3112,(410) 887-7665
100182,240048000819,DUFIEF ELEMENTARY,15001 DUFIEF DR,GAITHERSBURG,MD,20878,2499,(301) 279-4980
100231,240060001685,EVERGREEN ELEMENTARY SCHOOL,43765 WILDEWOOD PARKWAY,CALIFORNIA,MD,20619,NOT AVAILABLE,(301) 863-4060
12394,240048000808,COL. ZADOK MAGRUDER HIGH,5939 MUNCASTER MILL RD,ROCKVILLE,MD,20855,1735,(240) 740-5550
12586,240051001119,OVERLOOK ELEMENTARY,3298 CURTIS DR,TEMPLE HILLS,MD,20748,1218,(301) 702-3831
15485,240042002949,APPLICATIONS AND RESEARCH LABORATORY,10920 CLARKSVILLE PIKE,ELLICOTT CITY,MD,21042,NOT AVAILABLE,(410) 313-6698
15574,240048001513,STONE MILL ELEMENTARY,14323 STONEBRIDGE VIEW DR,NORTH POTOMAC,MD,20878,NOT AVAILABLE,(240) 740-5450
30600,240048000793,BURNING TREE ELEMENTARY,7900 BEECH TREE RD,BETHESDA,MD,20817,NOT AVAILABLE,(240) 740-1750
35075,240009000284,MORRELL PARK ELEMENTARY/MIDDLE,2601 TOLLEY STREET,BALTIMORE,MD,21230,1537,(410) 396-3426
35965,240006000085,LAKE SHORE ELEMENTARY,4531 MOUNTAIN RD,PASADENA,MD,21122,5305,(410) 222-6465
37840,240012000386,FIFTH DISTRICT ELEMENTARY,3725 MOUNT CARMEL RD,UPPERCO,MD,21155,9570,(410) 887-1726
70559,240048000779,BANNOCKBURN ELEMENTARY,6520 DALROY LN,BETHESDA,MD,20817,5410,(240) 740-1270
75451,240006000129,SOLLEY ELEMENTARY,7608 SOLLEY RD,GLEN BURNIE,MD,21060,8308,(410) 222-6473
75476,240051001034,DREW FREEMAN MIDDLE,2600 BROOKS DR,SUITLAND,MD,20746,1105,(301) 817-0900
77866,240009000273,WILDWOOD ELEMENTARY/MIDDLE,621 WILDWOOD PARKWAY,BALTIMORE,MD,21229,1811,(410) 396-0503
79928,240039000693,HALLS CROSS ROADS ELEMENTARY,203 E BEL AIR AVE,ABERDEEN,MD,21001,3897,(410) 273-5524
22478,240048090456,SEQUOYAH ELEMENTARY,17301 BOWIE MILL RD,DERWOOD,MD,20855,1672,(240) 740-5880
26994,240012000361,CHATSWORTH SCHOOL,222 NEW AVE,REISTERSTOWN,MD,21136,1322,(410) 887-1103
29218,240030000614,HURLOCK ELEMENTARY SCHOOL,301 CHARLES ST.,HURLOCK,MD,21643,NOT AVAILABLE,(410) 943-3303
73498,240012000481,SUMMIT PARK ELEMENTARY,6920 DIANA RD,BALTIMORE,MD,21209,1527,(410) 887-1210
76491,240012000012,CAMPFIELD EARLY CHILDHOOD CENTER,6834 N ALTER ST,BALTIMORE,MD,21207,NOT AVAILABLE,(410) 887-1227
91200,240069001303,FRUITLAND INTERMEDIATE,208 W MAIN ST,FRUITLAND,MD,21826,NOT AVAILABLE,(410) 677-5805
91270,240054001195,QUEEN ANNE'S COUNTY HIGH SCHOOL,125 RUTHSBURG RD,CENTREVILLE,MD,21617,NOT AVAILABLE,(410) 758-0500
95181,240009000186,DICKEY HILL ELEMENTARY/MIDDLE,5025 DICKEY HILL ROAD,BALTIMORE,MD,21207,7239,(410) 396-0610
97833,240012000342,ARBUTUS MIDDLE,5525 SHELBOURNE RD,BALTIMORE,MD,21227,2736,(410) 887-1402
98208,240051001150,SAMUEL CHASE ELEMENTARY,5700 FISHER RD,TEMPLE HILLS,MD,20748,4710,(301) 702-7660
98928,240048001541,CLARKSBURG HIGH,22500 WIMS RD,CLARKSBURG,MD,20871,NOT AVAILABLE,(240) 740-6000
99349,240051001056,HEATHER HILLS ELEMENTARY,12605 HEMING LN,BOWIE,MD,20716,1117,(301) 805-2730
99508,240051001009,CHILLUM ELEMENTARY,1420 CHILLUM RD,HYATTSVILLE,MD,20782,2435,(301) 853-0825
100103,240033090472,SPRING RIDGE ELEMENTARY,9051 RIDGEFIELD DR,FREDERICK,MD,21701,5828,(240) 236-1600
105154,240048001747,BAYARD RUSTIN ELEMENTARY,322 W EDMONSTON DR,ROCKVILLE,MD,20852,NOT AVAILABLE,(240) 740-4320
80055,240042000735,HAMMOND HIGH,8800 GUILFORD RD,COLUMBIA,MD,21046,1408,(410) 313-7615
80907,240051001706,IMAGINE FOUNDATIONS AT MORNINGSIDE PCS,6900 AMES ST,MORNINGSIDE,MD,20746,NOT AVAILABLE,(301) 817-0544
83748,240033000637,LIBERTY ELEMENTARY,11820 LIBERTY RD,FREDERICK,MD,21701,NOT AVAILABLE,(240) 236-1800
83791,240048000409,ARGYLE MIDDLE,2400 BEL PRE RD,SILVER SPRING,MD,20906,NOT AVAILABLE,(301) 460-2400
86053,240002701669,THE SEED SCHOOL OF MARYLAND,200 FONT HILL AVENUE,BALTIMORE,MD,21223,NOT AVAILABLE,(410) 843-9477
89089,240042000758,WATERLOO ELEMENTARY,5940 WATERLOO RD,COLUMBIA,MD,21045,NOT AVAILABLE,(410) 313-5014
52959,240009001736,BALTIMORE COLLEGIATE SCHOOL FOR BOYS,2525 KIRK AVENUE,BALTIMORE,MD,21218,NOT AVAILABLE,(443) 642-5320
53168,240066001255,BOONSBORO MIDDLE,1 J-H WADE DR,BOONSBORO,MD,21713,1141,(301) 766-8038
54568,240012001730,LYONS MILL ELEMENTARY,9435 LYONS MILL RD,OWINGS MILLS,MD,21117,NOT AVAILABLE,(443) 809-1719
59378,240009000293,NORTHWOOD ELEMENTARY,5201 LOCH RAVEN BOULEVARD,BALTIMORE,MD,21239,3522,(410) 396-6377
21646,240006000069,FOUR SEASONS ELEMENTARY,979 WAUGH CHAPEL RD,GAMBRILLS,MD,21054,1446,(410) 222-6501
23666,240051001136,PRINCETON ELEMENTARY,6101 BAXTER DR,SUITLAND,MD,20746,4509,(301) 702-7650
26713,240012000429,MIDDLEBOROUGH ELEMENTARY,313 WEST RD,BALTIMORE,MD,21221,3051,(410) 887-0160
60533,240039000694,HARFORD TECHNICAL HIGH,200 THOMAS RUN RD,BEL AIR,MD,21015,1699,(410) 638-3804
62260,240015000517,CALVERT ELEMENTARY,1450 DARES BEACH RD,PRINCE FREDERICK,MD,20678,4209,(443) 550-9550
63145,240021000544,ROBERT MOTON ELEMENTARY,1413 WASHINGTON ROAD,WESTMINSTER,MD,21157,6940,(410) 751-3610
66824,240006000108,OLD MILL MIDDLE SOUTH,620 PATRIOT LN,MILLERSVILLE,MD,21108,1355,(410) 969-7000
30620,240021000368,RUNNYMEDE ELEMENTARY,3000 LANGDON DRIVE,WESTMINSTER,MD,21158,2503,(410) 751-3203
31925,240006000051,CAPE ST. CLAIRE ELEMENTARY,931 BLUE RIDGE DR,ANNAPOLIS,MD,21409,NOT AVAILABLE,(410) 222-1685
39300,240012000412,KENWOOD HIGH,501 STEMMERS RUN RD,BALTIMORE,MD,21221,3333,(443) 809-0153
39429,240009000182,CROSS COUNTRY ELEMENTARY/MIDDLE,6900 PARK HEIGHTS AVENUE,BALTIMORE,MD,21215,NOT AVAILABLE,(410) 396-0602
12325,240027000599,MATTHEW HENSON MIDDLE SCHOOL,3535 LIVINGSTON RD,INDIAN HEAD,MD,20640,NOT AVAILABLE,(301) 375-8550
12342,240012000415,LANSDOWNE ELEMENTARY,2301 ALMA RD,BALTIMORE,MD,21227,1837,(443) 809-1408
14718,240015000511,HUNTINGTOWN ELEMENTARY,4345 HUNTINGTOWN RD,HUNTINGTOWN,MD,20639,8506,(443) 550-9360
17233,240012000376,DUNDALK MIDDLE,7400 DUNMANWAY,BALTIMORE,MD,21222,5352,(410) 887-7018
42943,240048000888,OAKLAND TERRACE ELEMENTARY,2720 PLYERS MILL RD,SILVER SPRING,MD,20902,NOT AVAILABLE,(240) 740-4880
43338,240009001675,BLUFORD DREW JEMISON STEM ACADEMY WEST,1500 HARLEM AVENUE,BALTIMORE,MD,21217,NOT AVAILABLE,(443) 642-2110
43503,240060001237,SPRING RIDGE MIDDLE,19856 THREE NOTCH RD,LEXINGTON PARK,MD,20653,NOT AVAILABLE,(301) 863-4031
43743,240033000626,BRUNSWICK ELEMENTARY,400 CENTRAL AVE,BRUNSWICK,MD,21716,1022,(240) 236-2900
44726,240054001070,KENNARD ELEMENTARY SCHOOL,420 LITTLE KIDWELL AVE,CENTREVILLE,MD,21617,NOT AVAILABLE,(410) 758-1166
46568,240054000202,BAYSIDE ELEMENTARY SCHOOL,301 CHURCH ST,STEVENSVILLE,MD,21666,NOT AVAILABLE,(410) 643-6181
47457,240018000522,GREENSBORO ELEMENTARY SCHOOL,625 N MAIN ST,GREENSBORO,MD,21639,1469,(410) 479-3885
48787,240069001319,WICOMICO MIDDLE,635 E MAIN ST,SALISBURY,MD,21804,NOT AVAILABLE,(410) 677-5145
1586,240060001483,GEORGE WASHINGTON CARVER ELEMENTARY,46155 CARVER SCHOOL BLVD,GREAT MILLS,MD,20634,NOT AVAILABLE,(301) 863-4076
4034,240051001473,KENMOOR MIDDLE,2500 KENMOOR DR,LANDOVER,MD,20785,2709,(301) 925-2300
4273,240012000936,WESTCHESTER ELEMENTARY,2300 OLD FREDERICK RD,BALTIMORE,MD,21228,NOT AVAILABLE,(410) 887-1088
8957,240012000410,JOHNNYCAKE ELEMENTARY,5910 CRAIGMONT RD,BALTIMORE,MD,21228,1207,(410) 887-0823
91452,240006000111,PARK ELEMENTARY,201 EAST 11TH AVE,BALTIMORE,MD,21225,3043,(410) 222-6593
93211,240009000205,FRANCIS SCOTT KEY ELEMENTARY/MIDDLE,1425 E FORT AVENUE,BALTIMORE,MD,21230,5215,(410) 396-1503
95102,240048090480,DR. CHARLES R. DREW ELEMENTARY,1200 SWINGINGDALE DR,SILVER SPRING,MD,20905,7049,(240) 740-5670
96585,240027000141,MARY H. MATULA ELEMENTARY SCHOOL,6025 RADIO STATION RD,LA PLATA,MD,20646,NOT AVAILABLE,(301) 934-5412
97891,240006000079,HIGH POINT ELEMENTARY,924 DUVALL HWY,PASADENA,MD,21122,1809,(410) 222-6454
97897,240033000652,URBANA ELEMENTARY,3554 URBANA PIKE,FREDERICK,MD,21704,NOT AVAILABLE,(240) 236-2200
99733,240048000830,FLOWER VALLEY ELEMENTARY,4615 SUNFLOWER DR,ROCKVILLE,MD,20853,1751,(240) 740-1780
60593,240057001535,CARTER G WOODSON ELEMENTARY,281A WOODSON SCHOOL RD,CRISFIELD,MD,21817,NOT AVAILABLE,(410) 968-1295
63731,240066000308,WASHINGTON COUNTY TECHNICAL HIGH,50 W OAK RIDGE DR,HAGERSTOWN,MD,21740,7302,(301) 766-8050
64600,240012000437,OREMS ELEMENTARY,711 HIGHVILLA RD,BALTIMORE,MD,21221,3261,(410) 887-0172
66189,240003001546,MT. SAVAGE ELEMENTARY,13201 NEW SCHOOL RD NW,MT SAVAGE,MD,21545,9801,(301) 264-3220
66836,240012001432,HEREFORD HIGH,17301 YORK RD,PARKTON,MD,21120,9714,(443) 809-1905
69662,240006000109,OLD MILL HIGH,600 PATRIOT LN,MILLERSVILLE,MD,21108,1355,(410) 969-9010
83234,240048000836,GAITHERSBURG ELEMENTARY,35 N SUMMIT AVE,GAITHERSBURG,MD,20877,2921,(240) 740-4900
83773,240048000781,BELLS MILL ELEMENTARY,8225 BELLS MILL RD,POTOMAC,MD,20854,4066,(240) 740-0480
87681,240009000313,SINCLAIR LANE ELEMENTARY,3880 SINCLAIR LANE,BALTIMORE,MD,21213,2142,(410) 396-9117
52830,240033001429,CENTERVILLE ELEMENTARY,3601 CARRIAGE HILL DR,FREDERICK,MD,21704,NOT AVAILABLE,(240) 566-0100
55183,240048001460,ROCK TERRACE SCHOOL,11400 MARCLIFF RD,ROCKVILLE,MD,20852,NOT AVAILABLE,(240) 740-4650
57809,240048000810,COLLEGE GARDENS ELEMENTARY,1700 YALE PLACE,ROCKVILLE,MD,20850,NOT AVAILABLE,(301) 279-8470
59790,240006000099,MEADE HIGH,1100 CLARK ROAD,FT MEADE,MD,20755,NOT AVAILABLE,(410) 674-7710
42159,240048001494,CLOPPER MILL ELEMENTARY,18501 CINNAMON DR,GERMANTOWN,MD,20874,2060,(240) 740-2180
42744,240003000007,WESTMAR MIDDLE,16915 LOWER GEORGE'S CREEK RD SW,LONACONING,MD,21539,NOT AVAILABLE,(301) 463-5751
43756,240042001720,THOMAS VIADUCT,7000 BANBURY DRIVE,HANOVER,MD,21076,NOT AVAILABLE,(410) 313-8711
49480,240048001040,NORTHWEST HIGH,13501 RICHTER FARM RD,GERMANTOWN,MD,20874,NOT AVAILABLE,(301) 601-4660
71659,240072001326,CEDAR CHAPEL SPECIAL SCHOOL,510 COULBOURNE LN,SNOW HILL,MD,21863,NOT AVAILABLE,(410) 632-5230
74115,240012001547,NEW TOWN HIGH,4931 NEW TOWN BLVD,OWINGS MILLS,MD,21117,NOT AVAILABLE,(410) 887-0000
75855,240048000918,SENECA VALLEY HIGH,19401 CRYSTAL ROCK DR,GERMANTOWN,MD,20874,1599,(240) 740-6400
79305,240033000643,NEW MARKET ELEMENTARY,93 W MAIN ST,NEW MARKET,MD,21774,NOT AVAILABLE,(240) 236-1300
31953,240021000546,SOUTH CARROLL HIGH,1300 WEST OLD LIBERTY ROAD,SYKESVILLE,MD,21784,9329,(410) 751-3575
32070,240048000947,BEALL ELEMENTARY,451 BEALL AVE,ROCKVILLE,MD,20850,1844,(240) 740-1220
32576,240048000876,MONOCACY ELEMENTARY,18801 BARNESVILLE ROAD,DICKERSON,MD,20842,NOT AVAILABLE,(240) 740-5790
34747,240048000937,TRAVILAH ELEMENTARY,13801 DUFIEF MILL RD,NORTH POTOMAC,MD,20878,3844,(240) 740-4300
39209,240048000783,BENJAMIN BANNEKER MIDDLE,14800 PERRYWOOD DR,BURTONSVILLE,MD,20866,1828,(240) 740-6250
39400,240066001269,HANCOCK ELEMENTARY,290 W MAIN ST,HANCOCK,MD,21750,1338,(301) 766-8178
11113,240051001053,H. W. WHEATLEY EARLY CHILDHOOD CENTER,8801 RITCHIE DR,CAPITOL HEIGHTS,MD,20743,4911,(301) 808-8100
12018,240009000571,STADIUM SCHOOL,1400 EXETER HALL AVENUE,BALTIMORE,MD,21218,NOT AVAILABLE,(443) 984-2682
13727,240048000827,FALLSMEAD ELEMENTARY,1800 GREENPLACE TER,ROCKVILLE,MD,20850,2942,(240) 740-3545
14182,240048000817,DARNESTOWN ELEMENTARY,15030 TURKEY FOOT RD,GAITHERSBURG,MD,20878,3901,(301) 284-4260
14719,240051001472,KETTERING MIDDLE,65 HERRINGTON DR,UPPER MARLBORO,MD,20774,1545,(301) 808-4060
15129,240012000446,PERRY HALL HIGH,4601 EBENEZER RD,BALTIMORE,MD,21236,1906,(443) 809-5108
15507,240051000988,BOND MILL ELEMENTARY,16001 SHERWOOD AVE,LAUREL,MD,20707,5437,(301) 497-3600
17552,240009001693,VANGUARD COLLEGIATE MIDDLE,5000 TRUESDALE AVENUE,BALTIMORE,MD,21206,NOT AVAILABLE,(443) 642-2069
18259,240033001379,NEW MARKET MIDDLE,125 W MAIN ST,NEW MARKET,MD,21774,NOT AVAILABLE,(240) 236-4600
62,240006001728,STUDIO 39,291 LOCUST AVENUE,ANNAPOLIS,MD,21401,NOT AVAILABLE,(410) 280-1501
5299,240033000647,ROCK CREEK,191 WAVERLEY DR,FREDERICK,MD,21702,3853,(240) 236-8700
7464,240039000683,BEL AIR HIGH,100 HEIGHE ST,BEL AIR,MD,21014,4196,(410) 638-4600
9726,240033000658,WEST FREDERICK MIDDLE,515 W PATRICK ST,FREDERICK,MD,21701,NOT AVAILABLE,(240) 236-4000
100621,240066001290,SPRINGFIELD MIDDLE,334 SUNSET AVE,WILLIAMSPORT,MD,21795,NOT AVAILABLE,(301) 766-8389
100651,240024000572,LEEDS ELEMENTARY,615 DEAVER RD,ELKTON,MD,21921,3234,(410) 996-5070
102198,240048090453,FRANCIS SCOTT KEY MIDDLE,910 SCHINDLER DRIVE,SILVER SPRING,MD,20903,NOT AVAILABLE,(301) 422-5700
90458,240021001414,PARR'S RIDGE ELEMENTARY,202 WATERSVILLE ROAD,MT AIRY,MD,21771,5519,(410) 751-3559
92042,240012000405,HERNWOOD ELEMENTARY,9919 MARRIOTTSVILLE RD,RANDALLSTOWN,MD,21133,1503,(410) 887-0732
94121,240066001293,WESTERN HEIGHTS MIDDLE,1300 MARSHALL ST,HAGERSTOWN,MD,21740,3509,(301) 766-8403
96568,240048001127,SHADY GROVE MIDDLE,8100 MIDCOUNTY HGWY,GAITHERSBURG,MD,20877,NOT AVAILABLE,(240) 740-1440
97305,240009000330,WESTERN HIGH,4600 FALLS ROAD,BALTIMORE,MD,21209,4915,(410) 396-7040
98109,240048001366,NORTHWOOD HIGH SCHOOL,919 UNIVERSITY BLVD W,SILVER SPRING,MD,20901,NOT AVAILABLE,(301) 649-8088
98281,240006000142,WOODSIDE ELEMENTARY,160 FUNKE RD,GLEN BURNIE,MD,21061,4201,(410) 222-6910
99207,240033001165,OAKDALE ELEMENTARY,5830 OAKDALE SCHOOL ROAD,IJAMSVILLE,MD,21754,NOT AVAILABLE,(240) 236-3300
99564,240006000074,GERMANTOWN ELEMENTARY,200 WINDELL AVENUE,ANNAPOLIS,MD,21401,3201,(410) 222-1615
30446,240006000051,CAPE ST. CLAIRE ELEMENTARY,931 BLUE RIDGE DR,ANNAPOLIS,MD,21409,NOT AVAILABLE,(410) 222-1685
33815,240048000496,STEPHEN KNOLLS SCHOOL,10731 ST. MARGARET'S WAY,KENSINGTON,MD,20895,2831,(240) 740-0050
34615,240030000989,JUDITH P. HOYER EARLY CHILDHOOD CENTER,1405 GLASGOW ROAD,CAMBRIDGE,MD,21613,NOT AVAILABLE,(410) 221-5268
34992,240051001211,G. JAMES GHOLSON MIDDLE,900 NALLEY RD,LANDOVER,MD,20785,4506,(301) 883-8390
36212,240048001508,WATERS LANDING ELEMENTARY,13100 WATERS LANDING DR,GERMANTOWN,MD,20874,3800,(240) 740-1020
36606,240042000724,CLARKSVILLE ELEMENTARY,12041 CLARKSVILLE PIKE,CLARKSVILLE,MD,21029,NOT AVAILABLE,(410) 313-7050
39514,240021000977,LINTON SPRINGS ELEMENTARY,375 RONSDALE ROAD,SYKESVILLE,MD,21784,8956,(410) 751-3280
10727,240009000270,LIBERTY ELEMENTARY,3901 MAINE AVENUE,BALTIMORE,MD,21207,7421,(410) 396-0571
11828,240066001253,BESTER ELEMENTARY,385 MILL ST,HAGERSTOWN,MD,21740,NOT AVAILABLE,(301) 766-8001
13789,240027000604,PICCOWAXEN MIDDLE SCHOOL,12834 ROCK POINT RD,NEWBURG,MD,20664,2514,(301) 934-1977
14754,240039000702,JARRETTSVILLE ELEMENTARY,3818 NORRISVILLE RD,JARRETTSVILLE,MD,21084,1499,(410) 692-7800
15021,240048001510,GREENCASTLE ELEMENTARY,13611 ROBEY RD,SILVER SPRING,MD,20904,4829,(240) 740-1420
15393,240069001318,WESTSIDE PRIMARY,6046 QUANTICO RD,QUANTICO,MD,21856,NOT AVAILABLE,(410) 677-5117
16133,240048001045,THOMAS EDISON HIGH SCHOOL OF TECHNOLOGY,12501 DALEWOOD DR,SILVER SPRING,MD,20906,NOT AVAILABLE,(240) 740-2000
16783,240051001723,EDWARD M. FELEGY ES,6110 EDITORS PARK DR,HYATTSVILLE,MD,20782,NOT AVAILABLE,(301) 386-1610
17190,240012000455,POWHATAN ELEMENTARY,3300 KELOX RD,BALTIMORE,MD,21207,6225,(410) 887-1330
19633,240039000698,HICKORY ELEMENTARY,2100 CONOWINGO RD,BEL AIR,MD,21014,1824,(410) 638-4170
21763,240006000056,CENTRAL SPECIAL SCHOOL,140 STEPNEY LN,EDGEWATER,MD,21037,NOT AVAILABLE,(410) 956-5885
24826,240012000479,STONELEIGH ELEMENTARY,900 PEMBERTON RD,BALTIMORE,MD,21212,1620,(443) 809-3600
27292,240033000641,MIDDLETOWN HIGH,200 SCHOOLHOUSE DR,MIDDLETOWN,MD,21769,7958,(240) 236-7400
50442,240015001342,HUNTINGTOWN HIGH SCHOOL,4125 N SOLOMONS ISLAND RD,HUNTINGTOWN,MD,20639,NOT AVAILABLE,(443) 550-8810
50879,240051001027,ELEANOR ROOSEVELT HIGH,7601 HANOVER PKWY,GREENBELT,MD,20770,2099,(301) 513-5400
52286,240054001191,CENTREVILLE ELEMENTARY SCHOOL,213 HOMEWOOD AVE,CENTREVILLE,MD,21617,NOT AVAILABLE,(410) 758-1320
52539,240012000374,DUMBARTON MIDDLE,300 DUMBARTON RD,BALTIMORE,MD,21212,1562,(443) 809-3176
56835,240048001451,ALTERNATIVE PROGRAMS,14501 AVERY ROAD,ROCKVILLE,MD,20853,NOT AVAILABLE,(240) 740-5000
64356,240009000883,MIDTOWN ACADEMY,1398 W MOUNT ROYAL AVENUE,BALTIMORE,MD,21217,NOT AVAILABLE,(410) 225-3257
67093,240012000476,SPARKS ELEMENTARY,601 BELFAST RD,SPARKS,MD,21152,9129,(410) 887-7900
67894,240003001359,SOUTH PENN ELEMENTARY,500 E 2ND ST,CUMBERLAND,MD,21502,4249,(301) 777-1755
70817,240060001224,GREAT MILLS HIGH,21130 GREAT MILLS RD,GREAT MILLS,MD,20634,NOT AVAILABLE,(301) 863-4001
70844,240051000982,BENJAMIN TASKER MIDDLE SCHOOL,4901 COLLINGTON RD,BOWIE,MD,20715,2537,(301) 805-2660
72600,240036000664,BROAD FORD ELEMENTARY,607 HARVEY WINTERS RD,OAKLAND,MD,21550,4350,(301) 334-9445
73164,240009000312,SARAH M. ROACH ELEMENTARY,3434 OLD FREDERICK ROAD,BALTIMORE,MD,21229,3825,(410) 396-0511
76425,240042000735,HAMMOND HIGH,8800 GUILFORD RD,COLUMBIA,MD,21046,1408,(410) 313-7615
79264,240009000183,CURTIS BAY ELEMENTARY,4301 W BAY AVENUE,BALTIMORE,MD,21225,2518,(410) 396-1397
79431,240030000612,CAMBRIDGE-SOUTH DORCHESTER HIGH SCHOOL,2475 CAMBRIDGE BELTWAY,CAMBRIDGE,MD,21613,NOT AVAILABLE,(410) 228-9224
45940,240042000737,HARPERS CHOICE MIDDLE,5450 BEAVERKILL RD,COLUMBIA,MD,21044,1945,(410) 313-6929
48989,240048000891,PARKLAND MIDDLE,4610 WEST FRANKFORT DR,ROCKVILLE,MD,20853,NOT AVAILABLE,(240) 740-6800
49117,240003000024,NORTHEAST ELEMENTARY,11001 FOREST AVE NE,CUMBERLAND,MD,21502,8817,(301) 724-3285
49204,240051001023,DUVAL HIGH,9880 GOOD LUCK RD,LANHAM,MD,20706,3350,(301) 918-8600
6782,240069001299,BENNETT MIDDLE,532 S. DIVISION STREET,FRUITLAND,MD,21826,NOT AVAILABLE,(410) 677-5140
80135,240015000514,MUTUAL ELEMENTARY,1455 BALL RD,PORT REPUBLIC,MD,20676,2150,(443) 550-9650
83704,240042090448,DEEP RUN ELEMENTARY,6925 OLD WATERLOO RD,ELKRIDGE,MD,21075,6529,(410) 313-5000
84506,240009000336,WILLIAM S. BAER SCHOOL,2001 N WARWICK AVENUE,BALTIMORE,MD,21216,NOT AVAILABLE,(410) 396-0833
85658,240048000821,EAST SILVER SPRING ELEMENTARY,631 SILVER SPRING AVE,SILVER SPRING,MD,20910,4607,(240) 740-0620
88429,240009001381,ACADEMY FOR COLLEGE AND CAREER EXPLORATION,1300 W 36TH STREET,BALTIMORE,MD,21211,NOT AVAILABLE,(410) 396-7607
101695,240042000761,LAUREL WOODS ELEMENTARY,9250 N LAUREL RD,LAUREL,MD,20723,1660,(410) 880-5960
105143,240009001752,BALTIMORE INTERNATIONAL ACADEMY WEST,4300 SIDEHILL ROAD,BALTIMORE,MD,21214,NOT AVAILABLE,(443) 278-9417
105158,240051001764,LEGEND PUBLIC CHARTER SCHOOL,9700 PHILADELPHIA COURT,LANHAM,MD,20706,NOT AVAILABLE,(240) 455-5900
20502,240051001117,OAKLANDS ELEMENTARY,13710 LAUREL BOWIE RD,LAUREL,MD,20708,1360,(301) 497-3110
21274,240009000884,NEW SONG ACADEMY,1530 PRESSTMAN STREET,BALTIMORE,MD,21217,NOT AVAILABLE,(410) 728-2091
21445,240051000992,BRANDYWINE ELEMENTARY,14101 BRANDYWINE RD,BRANDYWINE,MD,20613,3003,(301) 372-0100
21511,240009001689,TUNBRIDGE PUBLIC CHARTER SCHOOL,5504 YORK ROAD,BALTIMORE,MD,21212,NOT AVAILABLE,(410) 323-8692
22217,240012001434,RIDGELY MIDDLE,121 RIDGELY ROAD,LUTHERVILLE,MD,21093,NOT AVAILABLE,(443) 809-7650
26958,240042000741,LISBON ELEMENTARY,15901 FREDERICK RD,WOODBINE,MD,21797,NOT AVAILABLE,(410) 313-5506
27423,240048001122,SLIGO CREEK ELEMENTARY,500 SCHUYLER RD,SILVER SPRING,MD,20910,NOT AVAILABLE,(240) 740-2800
28043,240048000773,ALBERT EINSTEIN HIGH,11135 NEWPORT MILL RD,KENSINGTON,MD,20895,1699,(240) 740-2700
28069,240048000912,ROCKVILLE HIGH,2100 BALTIMORE RD,ROCKVILLE,MD,20851,NOT AVAILABLE,(240) 740-6600
60970,240012000421,LOGAN ELEMENTARY,7601 DUNMANWAY,BALTIMORE,MD,21222,5435,(410) 887-7052
69567,240027000586,EVA TURNER ELEMENTARY SCHOOL,1000 BANNISTER CIR,WALDORF,MD,20602,1643,(301) 645-4828
2063,240039000697,HAVRE DE GRACE HIGH,445 LEWIS LANE,HAVRE DE GRACE,MD,21078,3089,(410) 939-6600
4290,240006000092,MANOR VIEW ELEMENTARY,2900 MACARTHUR RD,FT MEADE,MD,20755,NOT AVAILABLE,(410) 222-6504
5949,240060001745,ST. MARY'S COUNTY EVENING HIGH,20833 GREAT MILLS ROAD,LEXINGTON PARK,MD,20653,NOT AVAILABLE,(301) 863-4090
8596,240012000369,DEEP CREEK ELEMENTARY,1101 E HOMBERG AVE,BALTIMORE,MD,21221,3744,(410) 887-0110
47212,240012000349,BERKSHIRE ELEMENTARY,7431 POPLAR AVE,BALTIMORE,MD,21224,3220,(410) 887-7008
48531,240048001673,WILLIAM B. GIBBS JR. ELEMENTARY,12615 ROYAL CROWN DRIVE,GERMANTOWN,MD,20876,NOT AVAILABLE,(240) 740-0740
48716,240069001307,NORTH SALISBURY ELEMENTARY,1213 EMERSON AVE,SALISBURY,MD,21801,NOT AVAILABLE,(410) 677-5807
49737,240009000329,WAVERLY ELEMENTARY/MIDDLE,3400 ELLERSLIE AVENUE,BALTIMORE,MD,21218,2940,(410) 396-6394
90888,240051001222,CORA L. RICE ELEMENTARY,950 NALLEY RD,LANDOVER,MD,20785,4506,(301) 636-6340
93263,240066001287,SMITHSBURG MIDDLE,68 N MAIN ST,SMITHSBURG,MD,21783,9606,(301) 766-8353
94058,240054001194,KENT ISLAND ELEMENTARY SCHOOL,110 ELEMENTARY WAY,STEVENSVILLE,MD,21666,NOT AVAILABLE,(410) 643-2392
95180,240042000763,WILDE LAKE MIDDLE,10481 CROSS FOX LN,COLUMBIA,MD,21044,2141,(410) 313-6957
95608,240012000498,WINFIELD ELEMENTARY,8300 CARLSON LN,BALTIMORE,MD,21207,NOT AVAILABLE,(410) 887-0766
97865,240012000492,WELLWOOD INTERNATIONAL SCHOOL,2901 SMITH AVE,PIKESVILLE,MD,21208,4540,(410) 887-1212
98590,240015000505,BEACH ELEMENTARY,7900 OLD BAYSIDE RD,CHESAPEAKE BEACH,MD,20732,3158,(443) 550-9520
56533,240051000865,ANNAPOLIS ROAD ACADEMY,2112 CHURCH RD,BOWIE,MD,20721,NOT AVAILABLE,(301) 209-3580
56711,240006000899,ANNE ARUNDEL EVENING HIGH,60 ROBINSON ROAD,SEVERNA PARK,MD,21146,NOT AVAILABLE,(410) 544-0182
57965,240051001047,GREEN VALLEY ACADEMY AT EDGAR ALLAN POE,2001 SHADYSIDE AVE,SUITLAND,MD,20746,NOT AVAILABLE,(301) 817-3100
58224,240006000125,SEVERNA PARK ELEMENTARY,6 RIGGS AVE,SEVERNA PARK,MD,21146,1689,(410) 222-6577
58405,240051001154,SEABROOK ELEMENTARY,6001 SEABROOK RD,SEABROOK,MD,20706,4017,(301) 918-8542
58908,240015000790,WINDY HILL ELEMENTARY,9550 BOYDS TURN RD,OWINGS,MD,20736,NOT AVAILABLE,(443) 550-9790
80078,240042000723,CENTENNIAL LANE ELEMENTARY,3825 CENTENNIAL LN,ELLICOTT CITY,MD,21042,4901,(410) 313-2800
81838,240009001571,THE GREEN SCHOOL OF BALTIMORE,2851 KENTUCKY AVENUE,BALTIMORE,MD,21213,NOT AVAILABLE,(410) 488-5312
83188,240009000303,ROBERT W. COLEMAN ELEMENTARY,1807 HARLEM AVENUE,BALTIMORE,MD,21217,NOT AVAILABLE,(410) 396-0764
84527,240012000381,EDGEMERE ELEMENTARY,7201 NORTH POINT RD,BALTIMORE,MD,21219,1303,(410) 887-7507
85769,240012090440,PADONIA INTERNATIONAL ELEMENTARY,9834 GREENSIDE DR,COCKEYSVILLE,MD,21030,5006,(410) 887-7646
86320,240009000196,EUTAW-MARSHBURN ELEMENTARY,1624 EUTAW PLACE,BALTIMORE,MD,21217,NOT AVAILABLE,(410) 396-0779
87229,240042000755,SWANSFIELD ELEMENTARY,5610 CEDAR LN,COLUMBIA,MD,21044,2737,(410) 313-6907
89823,240009000331,WESTPORT ACADEMY,2401 NEVADA STREET,BALTIMORE,MD,21230,3012,(410) 396-3396
89896,240006000035,ANNAPOLIS ELEMENTARY,180 GREEN STREET,ANNAPOLIS,MD,21401,NOT AVAILABLE,(410) 222-1600
101567,240051001683,ANDREW JACKSON ACADEMY,3500 REGENCY PKWY,FORESTVILLE,MD,20747,NOT AVAILABLE,(301) 817-0310
105155,240048001758,SNOWDEN FARM ELEMENTARY,22500 SWEETSPIRE DRIVE,CLARKSBURG,MD,20871,NOT AVAILABLE,(240) 740-5800
14872,240009000335,SANDTOWN-WINCHESTER ACHIEVEMENT ACADEMY,701 GOLD STREET,BALTIMORE,MD,21217,2729,(410) 396-0800
15185,240012000408,HOLABIRD MIDDLE,1701 DELVALE AVE,BALTIMORE,MD,21222,1235,(443) 809-7049
18466,240009000209,FREDERICK DOUGLASS HIGH,2301 GWYNNS FALLS PARKWAY,BALTIMORE,MD,21217,1339,(410) 396-7821
19632,240027000607,THOMAS STONE HIGH SCHOOL,3785 LEONARDTOWN RD,WALDORF,MD,20601,NOT AVAILABLE,(301) 645-2601
34355,240042001522,PATUXENT VALLEY MIDDLE,9151 VOLLMERHAUSEN RD,JESSUP,MD,20794,9517,(410) 880-5840
70111,240066000418,EASTERN ELEMENTARY,1320 YALE DR,HAGERSTOWN,MD,21742,NOT AVAILABLE,(301) 766-8122
70178,240009000149,DR. NATHAN A. PITTS-ASHBURTON ELEMENTARY/MIDDLE,3935 HILTON ROAD,BALTIMORE,MD,21215,7559,(410) 396-0636
72898,240051001130,PHYLLIS E. WILLIAMS ELEMENTARY,9601 PRINCE PL,UPPER MARLBORO,MD,20774,1009,(301) 499-3373
72923,240027000586,EVA TURNER ELEMENTARY SCHOOL,1000 BANNISTER CIR,WALDORF,MD,20602,1643,(301) 645-4828
75515,240009000307,ROSEMONT ELEMENTARY/MIDDLE,2777 PRESSTMAN STREET,BALTIMORE,MD,21216,4025,(410) 396-0574
75655,240048001452,NORTH CHEVY CHASE ELEMENTARY,3700 JONES BRIDGE RD,CHEVY CHASE,MD,20815,5799,(240) 204-5280
77479,240009001680,CITY NEIGHBORS HAMILTON,5609 SEFTON AVENUE,BALTIMORE,MD,21214,NOT AVAILABLE,(443) 642-2052
94156,240006000058,CHESAPEAKE HIGH,4798 MOUNTAIN RD,PASADENA,MD,21122,5814,(410) 255-9600
98993,240048000829,FIELDS ROAD ELEMENTARY,1 SCHOOL DR,GAITHERSBURG,MD,20878,2809,(240) 740-7000
99300,240048001537,SARGENT SHRIVER ELEMENTARY,12518 GREENLY ST,SILVER SPRING,MD,20906,NOT AVAILABLE,(240) 740-6330
99360,240009000281,MONTEBELLO ELEMENTARY/MIDDLE,2500 E NORTHERN PARKWAY,BALTIMORE,MD,21214,NOT AVAILABLE,(410) 396-6576
73505,240039000684,CHURCHVILLE ELEMENTARY,2935 LEVEL RD,CHURCHVILLE,MD,21028,1899,(410) 638-3800
74390,240051000866,PERRYWOOD ELEMENTARY,501 WATKINS PARK DR,UPPER MARLBORO,MD,20774,NOT AVAILABLE,(301) 218-3040
78459,240054001192,CHURCH HILL ELEMENTARY SCHOOL,631 MAIN ST,CHURCH HILL,MD,21623,NOT AVAILABLE,(410) 556-6681
82220,240024000573,NORTH EAST ELEMENTARY,301 THOMAS AVE,NORTH EAST,MD,21901,4039,(410) 996-6220
83064,240033000643,NEW MARKET ELEMENTARY,93 W MAIN ST,NEW MARKET,MD,21774,NOT AVAILABLE,(240) 236-1300
83314,240051001121,OXON HILL ELEMENTARY,7701 LIVINGSTON RD,OXON HILL,MD,20745,1797,(301) 749-4290
84833,240003000015,FORT HILL HIGH,500 GREENWAY AVE,CUMBERLAND,MD,21502,3856,(301) 777-2570
88204,240048000919,SEVEN LOCKS ELEMENTARY,9500 SEVEN LOCKS ROAD,BETHESDA,MD,20817,NOT AVAILABLE,(240) 740-0940
88346,240048000944,WATKINS MILL ELEMENTARY,19001 WATKINS MILL RD,MONTGOMERY VILLAGE,MD,20886,NOT AVAILABLE,(240) 740-5280
88851,240009000340,YORKWOOD ELEMENTARY,5931 YORKWOOD ROAD,BALTIMORE,MD,21239,2425,(410) 396-6364
88951,240048000896,POOLESVILLE ELEMENTARY,19565 FISHER AVE,POOLESVILLE,MD,20837,2067,(240) 740-5870
89905,240060001239,TOWN CREEK ELEMENTARY,45805 DENT DR,LEXINGTON PARK,MD,20653,9314,(301) 863-4044
100181,240042001115,LIME KILN MIDDLE,11650 SCAGGSVILLE RD,FULTON,MD,20759,NOT AVAILABLE,(410) 880-5988
100590,240012000364,CHURCH LANE ELEMENTARY,3820 FERNSIDE RD,RANDALLSTOWN,MD,21133,4618,(410) 887-0717
105147,240012001754,NORTHEAST EDLP AT PARKVILLE HIGH SCHOOL,105 W CHESAPEAKE AVE,TOWSON,MD,21204,NOT AVAILABLE,(443) 809-2270
105150,240012001760,CENTRAL EDLP AT LOCH RAVEN HIGH SCHOOL,105 W CHESAPEAKE AVE,TOWSON,MD,21204,NOT AVAILABLE,(443) 809-2270
10714,240051001042,GLASSMANOR ELEMENTARY,1011 MARCY AVE,OXON HILL,MD,20745,2526,(301) 749-4240
12891,240039000686,DEERFIELD ELEMENTARY,2307 WILLOUGHBY BEACH RD,EDGEWOOD,MD,21040,3498,(410) 612-1535
14729,240048000924,SOUTH LAKE ELEMENTARY,18201 CONTOUR RD,GAITHERSBURG,MD,20877,2601,(301) 337-3450
18398,240006000823,MEADE MIDDLE,1103 26TH ST,FORT MEADE,MD,20755,NOT AVAILABLE,(410) 674-2355
34348,240009000234,HAMPSTEAD HILL ACADEMY,500 S LINWOOD AVENUE,BALTIMORE,MD,21224,3856,(410) 396-9146
50668,240048001450,TILDEN MIDDLE SCHOOL,6300 TILDEN LN,ROCKVILLE,MD,20852,NOT AVAILABLE,(240) 740-6700
52957,240006001729,MARY MOSS AT ADAMS ACADEMY,245 CLAY STREET,ANNAPOLIS,MD,21401,NOT AVAILABLE,(410) 222-1639
54574,240051001738,INTERNATIONAL HIGH SCHOOL @ LANGLEY PARK,5150 ANNAPOLIS RD,BLADENSBURG,MD,20710,NOT AVAILABLE,(301) 702-3910
55473,240009000156,BELMONT ELEMENTARY,1406 N ELLAMONT STREET,BALTIMORE,MD,21216,3815,(410) 396-0579
56893,240009000236,ACHIEVEMENT ACADEMY AT HARBOR CITY HIGH,2201 PINEWOOD AVENUE,BALTIMORE,MD,21214,NOT AVAILABLE,(410) 396-6241
58840,240009000176,CLAREMONT SCHOOL,5301 ERDMAN AVENUE,BALTIMORE,MD,21205,3334,(410) 545-3380
58845,240012000497,WINAND ELEMENTARY,8301 SCOTTS LEVEL RD,BALTIMORE,MD,21208,2104,(410) 887-0763
22792,240012000395,GRANGE ELEMENTARY,2000 CHURCH RD,BALTIMORE,MD,21222,3209,(410) 887-7043
24338,240039000690,EDGEWOOD HIGH,2415 WILLOUGHBY BEACH RD,EDGEWOOD,MD,21040,3496,(410) 612-1500
27875,240009001663,THE REACH! PARTNERSHIP SCHOOL,2555 HARFORD ROAD,BALTIMORE,MD,21218,NOT AVAILABLE,(443) 642-2291
67843,240051000993,BUCK LODGE MIDDLE,2611 BUCK LODGE RD,ADELPHI,MD,20783,1519,(301) 431-6290
69105,240012000430,MIDDLESEX ELEMENTARY,142 BENNETT RD,BALTIMORE,MD,21221,1316,(410) 887-0170
42969,240054001644,MATAPEAKE MIDDLE SCHOOL,671 ROMANCOKE ROAD,STEVENSVILLE,MD,21666,NOT AVAILABLE,(410) 643-7330
996,240048010502,S. CHRISTA MCAULIFFE ELEMENTARY,12500 WISTERIA DR,GERMANTOWN,MD,20874,5338,(240) 740-4920
2154,240042000753,ST. JOHNS LANE ELEMENTARY,2960 SAINT JOHNS LN,ELLICOTT CITY,MD,21042,2510,(410) 313-2813
3250,240060001234,PARK HALL ELEMENTARY,20343 HERMANVILLE RD,PARK HALL,MD,20667,NOT AVAILABLE,(301) 863-4054
5253,240048001365,MCPS TRANSITIONS SCHOOL,11721 KEMP MILL RD,SILVER SPRING,MD,20902,NOT AVAILABLE,(240) 740-5900
6499,240048001741,SILVER CREEK MIDDLE,3701 SAUL RD,KENSINGTON,MD,20895,NOT AVAILABLE,(240) 740-2200
8034,240048000801,CEDAR GROVE ELEMENTARY,24001 RIDGE RD,GERMANTOWN,MD,20876,4636,(240) 740-6190
10151,240021000543,NORTHWEST MIDDLE,99 KINGS DRIVE,TANEYTOWN,MD,21787,2331,(410) 751-3270
13053,240012001440,MIDDLE RIVER MIDDLE,800 MIDDLE RIVER RD,BALTIMORE,MD,21220,2513,(410) 887-0165
14887,240048001441,LAKELANDS PARK MIDDLE,1200 MAIN ST,GAITHERSBURG,MD,20878,NOT AVAILABLE,(301) 670-1400
15529,240009000328,WALTER P. CARTER ELEMENTARY/MIDDLE,1101 WINSTON AVENUE,BALTIMORE,MD,21212,NOT AVAILABLE,(410) 396-6271
16291,240051001461,WHITEHALL ELEMENTARY,3901 WOODHAVEN LN,BOWIE,MD,20715,1276,(301) 805-1000
19440,240051001117,OAKLANDS ELEMENTARY,13710 LAUREL BOWIE RD,LAUREL,MD,20708,1360,(301) 497-3110
980,240033000628,CARROLL MANOR ELEMENTARY,5624 ADAMSTOWN RD,ADAMSTOWN,MD,21710,9617,(240) 236-3800
8503,240009001387,AUGUSTA FELLS SAVAGE INSTITUTE OF VISUAL ARTS,1500 HARLEM AVENUE,BALTIMORE,MD,21217,NOT AVAILABLE,(410) 396-7701
8958,240042000736,HAMMOND MIDDLE SCHOOL,8100 ALADDIN DR,LAUREL,MD,20723,1166,(410) 880-5830
9435,240021000550,WESTMINSTER EAST MIDDLE,121 LONGWELL AVENUE,WESTMINSTER,MD,21157,2101,(410) 751-3656
20481,240051001106,MELWOOD ELEMENTARY,7100 WOODYARD RD,UPPER MARLBORO,MD,20772,4316,(301) 599-2500
21421,240012000359,CHARLESMONT ELEMENTARY,7800 W COLLINGHAM DR,BALTIMORE,MD,21222,2530,(410) 887-7004
23417,240012000447,PERRY HALL MIDDLE,4300 EBENEZER RD,BALTIMORE,MD,21236,2142,(443) 809-5100
23618,240051001004,CHARLES CARROLL MIDDLE,6130 LAMONT DR,NEW CARROLLTON,MD,20784,3418,(301) 918-8640
41901,240021002947,SHILOH MIDDLE,3675 WILLOW STREET,HAMPSTEAD,MD,21074,1863,(410) 386-4570
42953,240039000707,MEADOWVALE ELEMENTARY,910 GRACE VIEW DR,HAVRE DE GRACE,MD,21078,2329,(410) 939-6622
46064,240048000890,PAINT BRANCH HIGH,14121 OLD COLUMBIA PIKE,BURTONSVILLE,MD,20866,1799,(301) 388-9900
49659,240024000563,CHARLESTOWN ELEMENTARY,550 BALTIMORE STREET,CHARLESTOWN,MD,21914,NOT AVAILABLE,(410) 996-6240
37741,240051001035,FRANCIS T. EVANS ELEMENTARY,6720 OLD ALEXANDRIA FERRY RD,CLINTON,MD,20735,1741,(301) 599-2480
37968,240012000434,NORWOOD ELEMENTARY,1700 DELVALE AVE,BALTIMORE,MD,21222,1234,(410) 887-7055
38530,240021000529,CARROLLTOWNE ELEMENTARY,6542 RIDGE ROAD,SYKESVILLE,MD,21784,6205,(410) 751-3530
39639,240012000386,FIFTH DISTRICT ELEMENTARY,3725 MOUNT CARMEL RD,UPPERCO,MD,21155,9570,(443) 809-1726
94047,240021000835,OKLAHOMA ROAD MIDDLE,6300 OKLAHOMA ROAD,SYKESVILLE,MD,21784,6604,(410) 751-3600
95333,240051001140,RIVERDALE ELEMENTARY,5006 RIVERDALE RD,RIVERDALE,MD,20737,1916,(301) 985-1850
97384,240036000665,CRELLIN ELEMENTARY,115 KENDALL DR,OAKLAND,MD,21550,5307,(301) 334-4704
99274,240012001346,GLYNDON ELEMENTARY,445 GLYNDON DR,REISTERSTOWN,MD,21136,1605,(410) 887-1130
76412,240033000847,DEER CROSSING ELEMENTARY,10601 FINN DR,NEW MARKET,MD,21774,NOT AVAILABLE,(240) 236-5900
77303,240009000179,COLLINGTON SQUARE ELEMENTARY/MIDDLE,1409 N COLLINGTON AVENUE,BALTIMORE,MD,21213,3418,(410) 396-9198
79968,240051000510,COOL SPRING ELEMENTARY,8910 RIGGS RD,ADELPHI,MD,20783,1698,(301) 431-6200
63876,240024000562,CECILTON ELEMENTARY,251 WEST MAIN ST,CECILTON,MD,21913,1000,(410) 275-1000
64450,240036000674,SOUTHERN GARRETT HIGH SCHOOL,345 OAKLAND DR,OAKLAND,MD,21550,3216,(301) 334-9447
66464,240009000247,HOLABIRD ACADEMY,1500 IMLA STREET,BALTIMORE,MD,21224,6142,(410) 396-9086
67111,240006000041,WILEY H. BATES MIDDLE,701 CHASE STREET,ANNAPOLIS,MD,21401,NOT AVAILABLE,(410) 263-0270
69055,240012000439,OWINGS MILLS ELEMENTARY,10824 REISTERTOWN ROAD,OWINGS MILLS,MD,21117,NOT AVAILABLE,(410) 887-1710
81151,240009001391,BALTIMORE SCHOOL FOR THE ARTS,712 CATHEDRAL STREET,BALTIMORE,MD,21201,NOT AVAILABLE,(443) 642-5165
83942,240051001660,VANSVILLE ELEMENTARY,6813 AMMENDALE RD,BELTSVILLE,MD,20705,NOT AVAILABLE,(301) 931-2830
89556,240051001002,CENTRAL HIGH,7001 BELTZ DR,FORESTVILLE,MD,20747,NOT AVAILABLE,(301) 499-7080
52641,240072001498,SHOWELL ELEMENTARY,11318 SHOWELL SCHOOL RD,BERLIN,MD,21811,3250,(410) 632-5350
53290,240060001221,GREEN HOLLY ELEMENTARY SCHOOL,46060 MILLSTONE LANDING RD,LEXINGTON PARK,MD,20653,9435,(301) 863-4064
57622,240057001742,PRINCESS ANNE ELEMENTARY SCHOOL,11576 LANKFORD STREET,PRINCESS ANNE,MD,21853,NOT AVAILABLE,(410) 651-0481
100868,240051001272,BERWYN HEIGHTS ELEMENTARY,6200 PONTIAC ST,BERWYN HEIGHTS,MD,20740,2756,(240) 684-6210
101424,240048000950,WESTOVER ELEMENTARY,401 HAWKESBURY LN,SILVER SPRING,MD,20904,6305,(301) 989-5676
11806,240039000708,NORRISVILLE ELEMENTARY,5302 NORRISVILLE RD,WHITE HALL,MD,21161,8995,(410) 692-7810
13988,240039001638,PATTERSON MILL HIGH SCHOOL,85 PATTERSON MILL RD,BEL AIR,MD,21015,NOT AVAILABLE,(410) 638-4640
16356,240012000411,SOUTHWEST ACADEMY,6200 JOHNNYCAKE RD,BALTIMORE,MD,21207,3929,(410) 887-0825
18519,240048000828,FARMLAND ELEMENTARY,7000 OLD GATE ROAD,ROCKVILLE,MD,20852,NOT AVAILABLE,(240) 740-0660
83130,240033000620,GLADE ELEMENTARY,9525 GLADE RD,WALKERSVILLE,MD,21793,NOT AVAILABLE,(240) 236-2100
83158,240006000078,HEBRON - HARMAN ELEMENTARY,7660 RIDGE CHAPEL ROAD,HANOVER,MD,21076,NOT AVAILABLE,(410) 222-6930
83313,240048000948,WESTBROOK ELEMENTARY,5110 ALLAN TER,BETHESDA,MD,20816,1612,(240) 740-1040
86140,240006000906,CENTER OF APPLIED TECHNOLOGY-SOUTH,211 CENTRAL AVE E,EDGEWATER,MD,21037,2802,(410) 956-5900
86447,240066001294,WILLIAMSPORT ELEMENTARY,1 S CLIFTON DR,WILLIAMSPORT,MD,21795,1124,(301) 766-8415
87754,240042000860,MURRAY HILL MIDDLE,9989 WINTER SUN RD,LAUREL,MD,20723,NOT AVAILABLE,(410) 880-5897
1760,240006000138,WAUGH CHAPEL ELEMENTARY,840 SUNFLOWER DR,ODENTON,MD,21113,2243,(410) 222-6542
4585,240015001102,DOWELL ELEMENTARY,12680 H G TRUEMAN RD,LUSBY,MD,20657,NOT AVAILABLE,(443) 550-9480
4707,240060001235,PINEY POINT ELEMENTARY,44550 TALL TIMBERS RD,TALL TIMBERS,MD,20690,NOT AVAILABLE,(301) 994-2205
6828,240051001554,MAYA ANGELOU FRENCH IMMERSION,2000 CALLAWAY ST,TEMPLE HILLS,MD,20748,NOT AVAILABLE,(301) 702-3950
8177,240039090447,RING FACTORY ELEMENTARY,1400 EMMORTON RD,BEL AIR,MD,21014,5580,(410) 638-4186
9439,240051001033,FORT FOOTE ELEMENTARY,8300 OXON HILL RD,FORT WASHINGTON,MD,20744,4719,(301) 749-4230
42789,240063001247,ST. MICHAELS ELEMENTARY,100 SEYMOUR AVE,ST MICHAELS,MD,21663,NOT AVAILABLE,(410) 745-2882
46029,240039000710,NORTH HARFORD HIGH,211 PYLESVILLE RD,PYLESVILLE,MD,21132,1398,(410) 638-3650
46512,240024000564,CHERRY HILL MIDDLE,2535 SINGERLY RD,ELKTON,MD,21921,2734,(410) 996-5020
46841,240003001338,CASH VALLEY ELEMENTARY,10601 CASH VALLEY RD NW,LAVALE,MD,21502,9801,(301) 724-6632
47540,240030000994,DORCHESTER COUNTY CAREER AND TECHNOLOGY CENTER,2465 CAMBRIDGE BYPASS,CAMBRIDGE,MD,21613,NOT AVAILABLE,(410) 901-6950
47633,240051001036,FREDERICK DOUGLASS HIGH,8000 CROOM RD,UPPER MARLBORO,MD,20772,9748,(301) 952-2400
91387,240051001019,DISTRICT HEIGHTS ELEMENTARY,2200 COUNTY RD,DISTRICT HEIGHTS,MD,20747,NOT AVAILABLE,(301) 817-0484
92973,240051001071,JAMES MCHENRY ELEMENTARY,8909 MCHENRY LN,LANHAM,MD,20706,4149,(301) 918-8760
98580,240012000347,BEAR CREEK ELEMENTARY,1601 MELBOURNE RD,BALTIMORE,MD,21222,3404,(410) 887-7007
50813,240018000519,COLONEL RICHARDSON MIDDLE SCHOOL,25390 RICHARDSON RD,FEDERALSBURG,MD,21632,2403,(410) 479-1462
50817,240051001089,LARGO HIGH,505 LARGO RD,UPPER MARLBORO,MD,20774,2121,(301) 808-8880
53102,240048000873,FLORA M. SINGER ELEMENTARY SCHOOL,2600 HAYDEN DRIVE,SILVER SPRING,MD,20902,NOT AVAILABLE,(240) 740-0330
55486,240042001646,VETERANS ELEMENTARY,4355 MONTGOMERY ROAD,ELLICOTT CITY,MD,21043,NOT AVAILABLE,(410) 313-1700
34638,240012000459,RED HOUSE RUN ELEMENTARY,1717 WEYBURN RD,BALTIMORE,MD,21237,1722,(410) 887-0506
34689,240048001567,GREAT SENECA CREEK ELEMENTARY,13010 DAIRYMAID DR,GERMANTOWN,MD,20874,NOT AVAILABLE,(301) 353-8500
23209,240051001708,CHESAPEAKE MATH AND IT PUBLIC CHARTER,14800 SWEITZER LN,LAUREL,MD,20707,NOT AVAILABLE,(301) 350-6051
24327,240012000389,FRANKLIN MIDDLE,10 COCKEYSMILL RD,REISTERSTOWN,MD,21136,NOT AVAILABLE,(410) 887-1114
24518,240063001252,WHITE MARSH ELEMENTARY,4322 LOVERS LN,TRAPPE,MD,21673,NOT AVAILABLE,(410) 476-3144
26260,240012000451,PINE GROVE MIDDLE,9200 OLD HARFORD RD,BALTIMORE,MD,21234,1710,(443) 809-5270
28817,240018000524,PRESTON ELEMENTARY SCHOOL,225 MAIN ST,PRESTON,MD,21655,NOT AVAILABLE,(410) 479-2897
70165,240027000585,DR. SAMUEL A. MUDD ELEMENTARY SCHOOL,820 STONE AVE,WALDORF,MD,20602,2844,(301) 645-3686
70866,240006000082,JACOBSVILLE ELEMENTARY,3801 MOUNTAIN RD,PASADENA,MD,21122,2026,(410) 222-6460
71228,240012000401,HAWTHORNE ELEMENTARY,125 KINGSTON RD,BALTIMORE,MD,21220,4815,(410) 887-0138
73162,240006000062,DAVIDSONVILLE ELEMENTARY,962 CENTRAL AVE WEST,DAVIDSONVILLE,MD,21035,2316,(410) 222-1655
78951,240012000406,HILLCREST ELEMENTARY,1500 FREDERICK RD,BALTIMORE,MD,21228,5019,(410) 887-0820
62039,240039090475,FALLSTON MIDDLE SCHOOL,2303 CARRS MILL RD,FALLSTON,MD,21047,1899,(410) 638-4129
62915,240009000260,LOCKERMAN BUNDY ELEMENTARY,301 N PULASKI STREET,BALTIMORE,MD,21223,1557,(410) 396-1364
65274,240051001386,WOODRIDGE ELEMENTARY,5001 FLINTRIDGE DR,HYATTSVILLE,MD,20784,1651,(301) 918-8585
67124,240042000719,ATHOLTON HIGH,6520 FREETOWN RD,COLUMBIA,MD,21044,4002,(410) 313-7065
67779,240009000187,DR. BERNARD HARRIS SR. ELEMENTARY,1400 N CAROLINE STREET,BALTIMORE,MD,21213,2802,(410) 396-1452
69569,240024000575,NORTH EAST HIGH,300 IRISHTOWN RD,NORTH EAST,MD,21901,4308,(410) 996-6200
31926,240048000846,GREENWOOD ELEMENTARY,3336 GOLD MINE RD,BROOKEVILLE,MD,20833,2713,(240) 740-3420
35146,240069001309,PARKSIDE HIGH,1015 BEAGLIN PARK DR,SALISBURY,MD,21804,NOT AVAILABLE,(410) 677-5143
38937,240012000482,SUSSEX ELEMENTARY,515 S WOODWARD DR,BALTIMORE,MD,21221,6863,(410) 887-0182
2038,240048000920,SHERWOOD ELEMENTARY,1401 OLNEY-SANDY SPRING RD,SANDY SPRING,MD,20860,1328,(240) 740-0960
7348,240033000640,MIDDLETOWN MIDDLE,100 MARTHA MASON ST,MIDDLETOWN,MD,21769,7957,(240) 236-4200
7742,240033000654,WALKERSVILLE ELEMENTARY,83 W FREDERICK STREET,WALKERSVILLE,MD,21793,NOT AVAILABLE,(240) 236-1000
8186,240051001108,MONTPELIER ELEMENTARY,9200 MUIRKIRK RD,LAUREL,MD,20708,2842,(301) 497-3670
9465,240060001639,CHESAPEAKE CHARTER SCHOOL,20945 GREAT MILLS ROAD,LEXINGTON PARK,MD,20653,NOT AVAILABLE,(301) 863-9585
21426,240006000055,SOUTH RIVER HIGH,201 CENTRAL AVE E,EDGEWATER,MD,21037,2802,(410) 956-5600
23667,240051001170,TAYAC ELEMENTARY,8600 ALLENTOWN RD,FORT WASHINGTON,MD,20744,1499,(301) 449-4840
29363,240048000897,POOLESVILLE HIGH,17501 W WILLARD RD,POOLESVILLE,MD,20837,2006,(240) 740-2400
29874,240006001687,MONARCH ACADEMY,6730 BAYMEADOW DRIVE,GLEN BURNIE,MD,21060,NOT AVAILABLE,(410) 760-2072
10818,240048001446,A. MARIO LOIEDERMAN MIDDLE,12701 GOODHILL RD,SILVER SPRING,MD,20906,NOT AVAILABLE,(240) 740-5830
11103,240048000931,SUMMIT HALL ELEMENTARY,101 W DEER PARK RD,GAITHERSBURG,MD,20877,1850,(301) 284-4150
11410,240033000648,SABILLASVILLE ELEMENTARY,16210-B SABILLASVILLE RD,SABILLASVILLE,MD,21780,9004,(240) 236-6000
14175,240039000680,BAKERFIELD ELEMENTARY,36 BAKER ST,ABERDEEN,MD,21001,2499,(410) 273-5518
15455,240039000704,JOPPATOWNE ELEMENTARY,407 TRIMBLE RD,JOPPA,MD,21085,4099,(410) 612-1546
72512,240048000941,WALT WHITMAN HIGH,7100 WHITTIER BLVD,BETHESDA,MD,20817,6199,(240) 740-4800
72738,240006000053,CENTRAL ELEMENTARY,130 STEPNEY LN,EDGEWATER,MD,21037,2801,(410) 222-1075
72756,240012000461,RELAY ELEMENTARY,5885 SELFORD RD,BALTIMORE,MD,21227,4213,(443) 809-1426
74625,240006000105,OAKWOOD ELEMENTARY,330 OAK MANOR DR,GLEN BURNIE,MD,21061,5509,(410) 222-6420
78836,240036000668,GRANTSVILLE ELEMENTARY,120 GRANT ST,GRANTSVILLE,MD,21536,NOT AVAILABLE,(301) 895-5173
79531,240048001417,MARTIN LUTHER KING JR. MIDDLE,13737 WISTERIA DR,GERMANTOWN,MD,20874,4140,(301) 353-8080
41706,240012000490,VILLA CRESTA ELEMENTARY,2600 RADER AVE,BALTIMORE,MD,21234,5523,(410) 887-5275
41949,240060001216,BENJAMIN BANNEKER ELEMENTARY,27180 POINT LOOKOUT RD,LOVEVILLE,MD,20656,9801,(301) 475-0260
42552,240051001183,ROBERT R. GRAY ELEMENTARY,4949 ADDISON RD,CAPITAL HEIGHTS,MD,20743,1111,(301) 636-8400
45049,240036000662,ACCIDENT ELEMENTARY,534 ACCIDENT-BITTINGER RD,ACCIDENT,MD,21520,1340,(301) 746-8863
47016,240036000673,ROUTE 40 ELEMENTARY,17764 NATIONAL PIKE,FROSTBURG,MD,21532,6015,(301) 689-6132
47217,240009000168,CARVER VOCATIONAL-TECHNICAL HIGH,2201 PRESSTMAN STREET,BALTIMORE,MD,21216,4106,(410) 396-0553
48422,240009000212,GARDENVILLE ELEMENTARY,5300 BELAIR ROAD,BALTIMORE,MD,21206,5100,(410) 396-6382
48714,240018000520,DENTON ELEMENTARY SCHOOL,303 SHARP RD,DENTON,MD,21629,1481,(410) 479-1660
49725,240051001180,WALDON WOODS ELEMENTARY,10301 THRIFT RD,CLINTON,MD,20735,3730,(301) 599-2540
86791,240048000839,GALWAY ELEMENTARY,12612 GALWAY DR,SILVER SPRING,MD,20904,1799,(301) 595-2930
87317,240006000077,GLENDALE ELEMENTARY,105 CARROLL RD,GLEN BURNIE,MD,21060,6900,(410) 222-6404
87748,240051001058,HIGH BRIDGE ELEMENTARY,7011 HIGH BRIDGE RD,BOWIE,MD,20720,5237,(301) 805-2690
89018,240012000356,CEDARMERE ELEMENTARY,17 NICODEMUS RD,REISTERSTOWN,MD,21136,3224,(410) 887-1100
89797,240006000122,ROLLING KNOLLS ELEMENTARY,1985 VALLEY RD,ANNAPOLIS,MD,21401,6753,(410) 222-5820
89885,240048001511,GOSHEN ELEMENTARY,8701 WARFIELD RD,GAITHERSBURG,MD,20882,NOT AVAILABLE,(240) 740-6170
58492,240009000258,JOHNSTON SQUARE ELEMENTARY,1101 VALLEY STREET,BALTIMORE,MD,21202,5542,(410) 396-1477
91177,240030000618,NORTH DORCHESTER HIGH SCHOOL,5875 CLOVERDALE ROAD,HURLOCK,MD,21643,NOT AVAILABLE,(410) 943-4511
92216,240051001453,SUITLAND ELEMENTARY,4650 TOWNE PARK RD,SUITLAND,MD,20746,NOT AVAILABLE,(301) 817-3770
92340,240033000634,GOV. THOMAS JOHNSON HIGH,1501 N MARKET ST,FREDERICK,MD,21701,4430,(240) 236-8200
93121,240006000104,OAK HILL ELEMENTARY,34 TRUCKHOUSE RD,SEVERNA PARK,MD,21146,2715,(410) 222-6568
93262,240021000548,TANEYTOWN ELEMENTARY,100 KINGS DRIVE,TANEYTOWN,MD,21787,2383,(410) 751-3260
93852,240009001681,KIPP HARMONY ACADEMY,2000 EDGEWOOD STREET,BALTIMORE,MD,21216,NOT AVAILABLE,(410) 291-2583
95276,240042001507,BOLLMAN BRIDGE ELEMENTARY,8200 SAVAGE-GUILFORD ROAD,JESSUP,MD,20794,NOT AVAILABLE,(410) 880-5920
96969,240009001691,GREEN STREET ACADEMY,125 N HILTON STREET,BALTIMORE,MD,21229,NOT AVAILABLE,(443) 642-2068
97372,240051001124,PAINT BRANCH ELEMENTARY,5101 PIERCE AVE,COLLEGE PARK,MD,20740,2528,(301) 513-5300
98131,240003000016,FROST ELEMENTARY,260 SHAW ST,FROSTBURG,MD,21532,1114,(301) 689-5168
98164,240045000770,ROCK HALL ELEMENTARY,21203 SHARP ST,ROCK HALL,MD,21661,1517,(410) 639-2265
99372,240051000978,BELTSVILLE ACADEMY,4300 WICOMICO AVE,BELTSVILLE,MD,20705,2673,(301) 572-0630
99865,240012001756,NORTHWEST EDLP AT MILFORD MILL ACADEMY,105 W CHESAPEAKE AVE,TOWSON,MD,21204,NOT AVAILABLE,(443) 809-2270
60366,240048000857,JULIUS WEST MIDDLE,651 GREAT FALLS RD,ROCKVILLE,MD,20850,NOT AVAILABLE,(301) 337-3400
60500,240048000930,STRATHMORE ELEMENTARY,3200 BEAVERWOOD LN,SILVER SPRING,MD,20906,3015,(301) 460-2135
66575,240021001350,FLEXIBLE STUDENT SUPPORT,45 KATE WAGNER ROAD,WESTMINSTER,MD,21157,6957,(410) 751-3691
66598,240012001341,BALTIMORE COUNTY HOME & HOSPITAL,105 W. CHESAPEAKE AVENUE,TOWSON,MD,21204,NOT AVAILABLE,(410) 887-3222
66953,240066001266,FOUNTAINDALE ELEMENTARY,901 NORTHERN AVE,HAGERSTOWN,MD,21742,2727,(301) 766-8156
67195,240069001301,EAST SALISBURY ELEMENTARY,1201 OLD OCEAN CITY RD,SALISBURY,MD,21804,NOT AVAILABLE,(410) 677-5803
67430,240051001129,PATUXENT ELEMENTARY,4410 BISHOPMILL DR,UPPER MARLBORO,MD,20772,3411,(301) 952-7700
69789,240048000843,GERMANTOWN ELEMENTARY,19110 LIBERTY MILL RD,GERMANTOWN,MD,20874,1496,(301) 353-8050
100643,240012000471,SCOTTS BRANCH ELEMENTARY,8220 TAWNMOORE RD,BALTIMORE,MD,21207,NOT AVAILABLE,(410) 887-0761
101299,240012000501,WOODLAWN MIDDLE,3033 SAINT LUKES LN,BALTIMORE,MD,21207,4475,(410) 887-1304
105145,240012001751,SOUTHWEST EDLP AT WOODLAWN HIGH SCHOOL,105 W CHESAPEAKE AVE,TOWSON,MD,21204,NOT AVAILABLE,(443) 809-2270
41888,240048000927,STEDWICK ELEMENTARY,10631 STEDWICK RD,MONTGOMERY VILLAGE,MD,20886,NOT AVAILABLE,(301) 840-7187
43368,240051001648,IMAGINE LINCOLN PUBLIC CHARTER,4207 NORCROSS ST,TEMPLE HILLS,MD,20748,NOT AVAILABLE,(301) 808-5600
43599,240051001697,BARACK OBAMA ELEMENTARY,12700 BROOKE LN,UPPER MARLBORO,MD,20772,9359,(301) 574-4020
44064,240072001325,BUCKINGHAM ELEMENTARY,100 BUCKINGHAM RD,BERLIN,MD,21811,1499,(410) 632-5300
45328,240051001014,COOPER LANE ELEMENTARY,3817 COOPER LN,LANDOVER HILLS,MD,20784,2452,(301) 925-1350
45788,240042001720,THOMAS VIADUCT,7000 BANBURY DRIVE,HANOVER,MD,21076,NOT AVAILABLE,(410) 313-8711
46166,240054001197,SUDLERSVILLE ELEMENTARY SCHOOL,300 S CHURCH STREET,SUDLERSVILLE,MD,21668,NOT AVAILABLE,(410) 438-3164
48444,240048000916,ROSEMONT ELEMENTARY,16400 ALDEN AVE,GAITHERSBURG,MD,20877,NOT AVAILABLE,(301) 840-7123
48717,240072000880,STEPHEN DECATUR MIDDLE,9815 SEAHAWK RD,BERLIN,MD,21811,2956,(410) 641-2846
49351,240063001241,CHAPEL DISTRICT ELEMENTARY,11430 CORDOVA RD,CORDOVA,MD,21625,NOT AVAILABLE,(410) 822-2391
30295,240033000651,THURMONT MIDDLE,408 E MAIN ST,THURMONT,MD,21788,2014,(240) 236-5100
33919,240048000959,WOODFIELD ELEMENTARY,24200 WOODFIELD RD,GAITHERSBURG,MD,20882,NOT AVAILABLE,(240) 207-2550
34247,240048000861,JOHN H. POOLE MIDDLE,17014 TOM FOX AVE,POOLESVILLE,MD,20837,NOT AVAILABLE,(240) 740-4200
34854,240051001424,TALL OAKS HIGH,2112 CHURCH RD,BOWIE,MD,20721,3060,(301) 390-0230
37951,240015000027,PLUM POINT MIDDLE,1475 PLUM POINT RD,HUNTINGTOWN,MD,20639,9250,(443) 550-9170
50542,240051001133,POTOMAC HIGH,5211 BOYDELL AVE,OXON HILL,MD,20745,3700,(301) 702-3900
51804,240009000220,GEORGE WASHINGTON ELEMENTARY,800 SCOTT STREET,BALTIMORE,MD,21230,2510,(410) 396-1445
52717,240021000551,WESTMINSTER ELEMENTARY,811 UNIONTOWN ROAD,WESTMINSTER,MD,21158,4225,(410) 751-3222
54572,240051001737,INTERNATIONAL HIGH SCHOOL @ LARGO,505 LARGO RD,UPPER MARLBORO,MD,20772,NOT AVAILABLE,(301) 702-3810
56523,240048001635,PEP - ITINERANT,850 HUNGERFORD DR ROOM 204,ROCKVILLE,MD,20850,NOT AVAILABLE,(240) 740-3125
58369,240027001727,ST. CHARLES HIGH SCHOOL,5305 PINEY CHURCH RD,WALDORF,MD,20602,NOT AVAILABLE,(301) 753-2090
58398,240033001409,BRUNSWICK MIDDLE,301 CUMMINGS DR,BRUNSWICK,MD,21716,1836,(240) 236-5400
58716,240069001145,SALISBURY MIDDLE,607 MORRIS ST,SALISBURY,MD,21801,NOT AVAILABLE,(410) 677-5149
20454,240039000703,JOHN ARCHER SCHOOL,100 THOMAS RUN RD,BEL AIR,MD,21015,1616,(410) 638-3810
21323,240048000929,STONEGATE ELEMENTARY,14811 NOTLEY RD,SILVER SPRING,MD,20905,NOT AVAILABLE,(301) 989-5668
22075,240051001085,LAMONT ELEMENTARY,7101 GOOD LUCK RD,NEW CARROLLTON,MD,20784,3622,(301) 513-5205
23838,240033001355,TUSCARORA ELEMENTARY,6321 LAMBERT DR,FREDERICK,MD,21703,NOT AVAILABLE,(240) 566-0000
24825,240012000435,OAKLEIGH ELEMENTARY,1900 WHITE OAK AVE,BALTIMORE,MD,21234,NOT AVAILABLE,(410) 887-5238
25574,240066000752,PARAMOUNT ELEMENTARY,19410 LONGMEADOW RD,HAGERSTOWN,MD,21742,NOT AVAILABLE,(301) 766-8289
26699,240048000773,ALBERT EINSTEIN HIGH,11135 NEWPORT MILL RD,KENSINGTON,MD,20895,1699,(240) 720-2700
83333,240051001063,HOLLYWOOD ELEMENTARY,9811 49TH AVE,COLLEGE PARK,MD,20740,1431,(301) 513-5900
87660,240042000633,ELKRIDGE LANDING MIDDLE,7085 MONTGOMERY RD,ELKRIDGE,MD,21075,NOT AVAILABLE,(410) 313-5040
88292,240012000474,SHADY SPRING ELEMENTARY,8868 GOLDENWOOD RD,BALTIMORE,MD,21237,2221,(410) 887-0509
89760,240051001641,NORTHVIEW ELEMENTARY,3700 NORTHVIEW DR,BOWIE,MD,20716,NOT AVAILABLE,(301) 218-1520
89873,240048000923,SOMERSET ELEMENTARY,5811 WARWICK PL,CHEVY CHASE,MD,20815,NOT AVAILABLE,(240) 740-1100
60806,240048000943,WASHINGTON GROVE ELEMENTARY,8712 OAKMONT ST,GAITHERSBURG,MD,20877,1236,(240) 740-0300
61469,240033000636,LEWISTOWN ELEMENTARY,11119 HESSONG BRIDGE RD,THURMONT,MD,21788,NOT AVAILABLE,(240) 236-3750
62711,240051001050,FRANCIS SCOTT KEY ELEMENTARY,2301 SCOTT KEY DR,DISTRICT HEIGHTS,MD,20747,1231,(301) 817-7970
62829,240006000061,CROFTON WOODS ELEMENTARY,1750 URBY DR,CROFTON,MD,21114,2331,(410) 222-5805
62953,240051001134,FRANCES FUCHS EARLY CHILDHOOD CENTER,11011 CHERRY HILL RD,BELTSVILLE,MD,20705,3852,(301) 572-0600
63462,240051000995,CALVERTON ELEMENTARY,3400 BELTSVILLE RD,BELTSVILLE,MD,20705,3312,(301) 572-0640
63877,240069001300,DELMAR ELEMENTARY,811 S SECOND STREET,DELMAR,MD,21875,NOT AVAILABLE,(410) 677-5178
64507,240033000636,LEWISTOWN ELEMENTARY,11119 HESSONG BRIDGE RD,THURMONT,MD,21788,NOT AVAILABLE,(240) 236-3750
67012,240051001176,THOMAS S. STONE ELEMENTARY,4500 34TH ST,MT RAINIER,MD,20712,1600,(301) 985-1890
67072,240048000893,PINE CREST ELEMENTARY,201 WOODMOOR DR,SILVER SPRING,MD,20901,2517,(240) 740-1970
67790,240048000837,GAITHERSBURG MIDDLE,2 TEACHERS' WAY,GAITHERSBURG,MD,20877,3499,(240) 740-4950
90035,240015002946,MILL CREEK MIDDLE,12200 SOUTHERN CONNECTOR BLVD,LUSBY,MD,20657,NOT AVAILABLE,(443) 550-9190
90762,240048009000,THOMAS W. PYLE MIDDLE SCHOOL,6311 WILSON LANE,BETHESDA,MD,20817,NOT AVAILABLE,(240) 740-3500
95084,240051000999,CAROLE HIGHLANDS ELEMENTARY,1610 HANNON ST,TAKOMA PARK,MD,20912,NOT AVAILABLE,(301) 431-5660
95495,240039000713,RIVERSIDE ELEMENTARY,211 STILLMEADOW DR,JOPPA,MD,21085,4799,(410) 612-1560
96498,240048000845,GLENALLAN ELEMENTARY,12520 HEURICH RD,SILVER SPRING,MD,20902,NOT AVAILABLE,(240) 740-0760
71188,240042001699,CRADLEROCK ELEMENTARY,6700 CRADLEROCK WAY,COLUMBIA,MD,21045,NOT AVAILABLE,(410) 319-7601
71617,240006000136,TYLER HEIGHTS ELEMENTARY,200 JANWALL ST,ANNAPOLIS,MD,21403,1919,(410) 222-1630
75387,240009001364,LOIS T. MURRAY ELEMENTARY/MIDDLE,1600 ARLINGTON AVENUE,BALTIMORE,MD,21239,4007,(410) 396-7463
75543,240009000264,LAKELAND ELEMENTARY/MIDDLE,2921 STRANDEN ROAD,BALTIMORE,MD,21230,2941,(410) 396-1406
78859,240069001322,WILLARDS ELEMENTARY,36161 RICHLAND RD,WILLARDS,MD,21874,NOT AVAILABLE,(410) 677-5819
79210,240042000856,HOLLIFIELD STATION ELEMENTARY,8701 STONEHOUSE DR,ELLICOTT CITY,MD,21043,NOT AVAILABLE,(410) 313-2550
105142,240006001761,CROFTON HIGH SCHOOL,2291 DAVIDSONVILLE ROAD,GAMBRILLS,MD,21054,NOT AVAILABLE,(410) 451-5300
1764,240051001021,DOSWELL E. BROOKS ELEMENTARY,1301 BROOKE RD,CAPITAL HEIGHTS,MD,20743,NOT AVAILABLE,(301) 817-0480
8729,240009000282,MORAVIA PARK ELEMENTARY,6001 FRANKFORD AVENUE,BALTIMORE,MD,21206,NOT AVAILABLE,(410) 396-9096
10105,240012000345,BATTLE GROVE ELEMENTARY,7828 ST PATRICIA LN,BALTIMORE,MD,21222,3517,(410) 887-7500
11822,240027000144,WESTLAKE HIGH SCHOOL,3300 MIDDLETOWN RD,WALDORF,MD,20603,NOT AVAILABLE,(301) 645-8857
12277,240012000466,MAIDEN CHOICE SCHOOL,4901 SHELBOURNE RD,BALTIMORE,MD,21227,NOT AVAILABLE,(410) 887-1431
14730,240048000844,GLEN HAVEN ELEMENTARY,10900 INWOOD AVE,SILVER SPRING,MD,20902,NOT AVAILABLE,(301) 649-8051
14957,240066001271,HICKORY ELEMENTARY,11101 HICKORY SCHOOL RD,WILLIAMSPORT,MD,21795,NOT AVAILABLE,(301) 766-8198
17695,240009000253,JAMES MCHENRY ELEMENTARY/MIDDLE,31 S SCHROEDER STREET,BALTIMORE,MD,21223,2559,(410) 396-1621
18554,240051000729,WILLIAM PACA ELEMENTARY,7801 SHERRIFF RD,LANDOVER,MD,20785,4403,(301) 925-1330
1103,240009001734,LILLIE MAY CARROLL JACKSON SCHOOL,2200 SINCLAIR LANE,BALTIMORE,MD,21213,NOT AVAILABLE,(443) 320-9499
5136,240024000984,CECIL COUNTY SCHOOL OF TECHNOLOGY,912 APPLETON RD,ELKTON,MD,21921,3805,(410) 392-8879
7536,240006000039,ARUNDEL MIDDLE,1179 HAMMOND LN,ODENTON,MD,21113,2017,(410) 674-6900
9020,240066001284,SHARPSBURG ELEMENTARY,17525 SHEPHERDSTOWN PIKE,SHARPSBURG,MD,21782,1630,(301) 766-8321
9450,240042000740,JEFFERS HILL ELEMENTARY,6001 TAMAR DR,COLUMBIA,MD,21045,4049,(410) 313-6872
61205,240012000442,PARKVILLE MIDDLE,8711 AVONDALE ROAD,BALTIMORE,MD,21234,NOT AVAILABLE,(443) 809-5250
62234,240006000063,DEALE ELEMENTARY,759 MASONS BEACH RD,DEALE,MD,20751,9726,(410) 222-1695
62642,240027001492,MT HOPE/NANJEMOY ELEMENTARY SCHOOL,9275 IRONSIDES RD,NANJEMOY,MD,20662,NOT AVAILABLE,(301) 246-4383
64480,240072001335,STEPHEN DECATUR HIGH,9913 SEAHAWK RD,BERLIN,MD,21811,3551,(410) 641-2171
64517,240006000116,POINT PLEASANT ELEMENTARY,1035 DUMBARTON RD,GLEN BURNIE,MD,21060,7038,(410) 222-6425
11326,240009000256,DOROTHY I. HEIGHT ELEMENTARY,2011 LINDEN AVENUE,BALTIMORE,MD,21217,NOT AVAILABLE,(410) 396-0837
11835,240066001281,POTOMAC HEIGHTS ELEMENTARY,301 E MAGNOLIA AVE,HAGERSTOWN,MD,21742,3431,(301) 766-8305
11945,240021000539,MOUNT AIRY MIDDLE,102 WATERSVILLE ROAD,MOUNT AIRY,MD,21771,5510,(410) 751-3554
12474,240051001368,PORT TOWNS ELEMENTARY,4351 58TH AVE,BLADENSBURG,MD,20710,NOT AVAILABLE,(301) 985-1480
16346,240042002949,APPLICATIONS AND RESEARCH LABORATORY,10920 CLARKSVILLE PIKE,ELLICOTT CITY,MD,21042,NOT AVAILABLE,(410) 313-6698
42113,240009000145,ALEXANDER HAMILTON ELEMENTARY,800 POPLAR GROVE STREET,BALTIMORE,MD,21216,4347,(410) 396-0520
44562,240009000320,TENCH TILGHMAN ELEMENTARY/MIDDLE,600 N PATTERSON PARK AVENUE,BALTIMORE,MD,21205,2425,(410) 396-9247
45829,240018000526,LOCKERMAN MIDDLE SCHOOL,410 LOCKERMAN ST,DENTON,MD,21629,1048,(410) 479-2760
46370,240006000093,MARLEY ELEMENTARY,715 COOPER RD,GLEN BURNIE,MD,21060,NOT AVAILABLE,(410) 222-6414
46567,240003000026,PARKSIDE ELEMENTARY,50 PARKSIDE BLVD,LAVALE,MD,21502,7424,(301) 729-0085
46569,240060001356,LEONARDTOWN HIGH,23995 POINT LOOKOUT RD,LEONARDTOWN,MD,20650,NOT AVAILABLE,(301) 475-0200
48718,240072001332,SNOW HILL ELEMENTARY,515 COULBOURNE LN,SNOW HILL,MD,21863,NOT AVAILABLE,(410) 632-5210
48785,240024000577,PERRYVILLE HIGH,1696 PERRYVILLE RD,PERRYVILLE,MD,21903,2541,(410) 996-6000
49518,240024000565,CHESAPEAKE CITY ELEMENTARY,214 THIRD ST,CHESAPEAKE CITY,MD,21915,1137,(410) 885-2085
32593,240012000424,MARS ESTATES ELEMENTARY,1500 E HOMBERG AVE,BALTIMORE,MD,21221,3717,(410) 887-0154
33102,240027000595,JOHN HANSON MIDDLE SCHOOL,3165 JOHN HANSON DR,WALDORF,MD,20601,NOT AVAILABLE,(301) 645-4520
34616,240048000892,KENSINGTON PARKWOOD ELEMENTARY,4710 SAUL RD,KENSINGTON,MD,20895,4299,(240) 740-3700
36204,240012000372,DEER PARK MIDDLE MAGNET SCHOOL,9830 WINANDS RD,RANDALLSTOWN,MD,21133,2022,(410) 887-0726
37945,240051000200,YORKTOWN ELEMENTARY,7301 RACE TRACK RD,BOWIE,MD,20715,1437,(301) 805-6610
37969,240039000715,WILLIAM S. JAMES ELEMENTARY,1 LAURENTUM PKW,ABINGDON,MD,21009,1709,(410) 638-3900
50669,240009000203,FOREST PARK HIGH,3701 ELDORADO AVENUE,BALTIMORE,MD,21207,NOT AVAILABLE,(410) 396-0753
52061,240051001087,LANGLEY PARK/MCCORMICK ELEMENTARY,8201 15TH AVE,HYATTSVILLE,MD,20783,2429,(301) 445-8423
54242,240009000236,ACHIEVEMENT ACADEMY AT HARBOR CITY HIGH,2201 PINEWOOD AVENUE,BALTIMORE,MD,21214,NOT AVAILABLE,(410) 396-6241
54744,240066001264,EMMA K. DOUB ELEMENTARY,1221 S POTOMAC ST,HAGERSTOWN,MD,21740,7324,(301) 766-8130
90355,240039000696,HAVRE DE GRACE MIDDLE,445 LEWIS LANE,HAVRE DE GRACE,MD,21078,3799,(410) 939-6608
93155,240012000356,CEDARMERE ELEMENTARY,17 NICODEMUS RD,REISTERSTOWN,MD,21136,3224,(410) 887-1100
93565,240006000065,EDGEWATER ELEMENTARY,121 WASHINGTON RD,EDGEWATER,MD,21037,1403,(410) 222-1660
94827,240009001657,BALTIMORE MONTESSORI PUBLIC CHARTER SCHOOL,1600 GUILFORD AVENUE,BALTIMORE,MD,21202,NOT AVAILABLE,(410) 528-5393
95358,240033000159,TWIN RIDGE ELEMENTARY,1106 LEAFY HOLLOW CIRCLE,MT AIRY,MD,21771,NOT AVAILABLE,(240) 236-2300
95378,240048001458,SLIGO MIDDLE,1401 DENNIS AVE,SILVER SPRING,MD,20902,3827,(301) 287-8890
21290,240048001543,LITTLE BENNETT ELEMENTARY,23930 BURDETTE FOREST RD,CLARKSBURG,MD,20871,NOT AVAILABLE,(240) 740-5660
25679,240051000974,BARNABY MANOR ELEMENTARY,2411 OWENS RD,OXON HILL,MD,20745,3619,(301) 702-7560
27483,240033000638,LINGANORE HIGH,12013 OLD ANNAPOLIS RD,FREDERICK,MD,21701,NOT AVAILABLE,(240) 566-9700
28520,240042000727,DUNLOGGIN MIDDLE,9129 NORTHFIELD RD,ELLICOTT CITY,MD,21042,5903,(410) 313-2831
80455,240051000991,BRADBURY HEIGHTS ELEMENTARY,1401 GLACIER AVE,CAPITAL HEIGHTS,MD,20743,NOT AVAILABLE,(301) 817-0570
80933,240048000855,JOHN F. KENNEDY HIGH,1901 RANDOLPH RD,SILVER SPRING,MD,20902,NOT AVAILABLE,(240) 740-0100
81673,240051000965,ADELPHI ELEMENTARY,8820 RIGGS RD,ADELPHI,MD,20783,1630,(301) 431-6250
82458,240042001437,MARRIOTTS RIDGE HIGH,12100 WOODFORD DR,MARRIOTTSVILLE,MD,21104,NOT AVAILABLE,(410) 313-5568
86277,240012001649,CROSSROADS CENTER,11640 CROSSROADS CIRCLE,BALTIMORE,MD,21220,NOT AVAILABLE,(443) 809-2275
88809,240027000615,MATTAWOMAN MIDDLE SCHOOL,10145 BERRY RD,WALDORF,MD,20603,NOT AVAILABLE,(301) 645-7708
89038,240012000448,PIKESVILLE MIDDLE,7701 SEVEN MILE LN,BALTIMORE,MD,21208,4326,(443) 809-1207
71997,240006000129,SOLLEY ELEMENTARY,7608 SOLLEY RD,GLEN BURNIE,MD,21060,8308,(410) 222-6473
72856,240009000193,EDGEWOOD ELEMENTARY,1900 EDGEWOOD STREET,BALTIMORE,MD,21216,2534,(410) 396-0532
74658,240066001263,E. RUSSELL HICKS MIDDLE,1321 S POTOMAC ST,HAGERSTOWN,MD,21740,7326,(301) 766-8110
75127,240009000143,ABBOTTSTON ELEMENTARY,1300 GORSUCH AVENUE,BALTIMORE,MD,21218,3620,(443) 984-2685
75482,240051001495,GLENRIDGE ELEMENTARY,7200 GALLATIN ST,LANDOVER HILLS,MD,20784,1620,(301) 918-8740
75549,240012000462,RIDERWOOD ELEMENTARY,1711 LANDRAKE RD,TOWSON,MD,21204,1822,(410) 887-3568
75760,240018000525,RIDGELY ELEMENTARY SCHOOL,118 N CENTRAL AVE,RIDGELY,MD,21660,1345,(410) 479-3243
78594,240006000084,JONES ELEMENTARY,122 HOYLE LN,SEVERNA PARK,MD,21146,NOT AVAILABLE,(410) 222-6565
79750,240054001193,GRASONVILLE ELEMENTARY SCHOOL,5435 MAIN ST,GRASONVILLE,MD,21638,NOT AVAILABLE,(410) 827-8070
105157,240051001763,JAMES RYDER RANDALL EARLY CHILDHOOD CENTER,5410 KIRBY RD,CLINTON,MD,20735,NOT AVAILABLE,(301) 449-4980
30069,240006090441,NORTH COUNTY HIGH,10 EAST 1ST AVENUE,GLEN BURNIE,MD,21061,NOT AVAILABLE,(410) 222-6970
31690,240015000507,CALVERT MIDDLE,655 CHESAPEAKE BLVD,PRINCE FREDERICK,MD,20678,3910,(443) 550-8970
32154,240006000127,SEVERNA PARK HIGH,60 ROBINSON RD,SEVERNA PARK,MD,21146,2899,(410) 544-0900
34617,240060001399,LETTIE MARSHALL DENT ELEM,37840 NEW MARKET TURNER RD,MECHANICSVILLE,MD,20659,3049,(301) 472-4500
35288,240012000453,PLEASANT PLAINS ELEMENTARY,8300 PLEASANT PLAINS RD,TOWSON,MD,21286,8239,(443) 809-3549
37971,240051001031,FOREST HEIGHTS ELEMENTARY,6360 OXON HILL RD,OXON HILL,MD,20745,NOT AVAILABLE,(301) 749-4220
10731,240012001159,NEW TOWN ELEMENTARY,4924 NEW TOWN BLVD,OWINGS MILLS,MD,21117,NOT AVAILABLE,(410) 887-1541
11473,240006000036,ANNAPOLIS MIDDLE,1399 FOREST DR,ANNAPOLIS,MD,21403,1423,(410) 267-8658
12121,240048000858,KEMP MILL ELEMENTARY,411 SISSON ST,SILVER SPRING,MD,20902,NOT AVAILABLE,(240) 740-5970
16223,240033001357,CRESTWOOD MIDDLE,7100 FOXCROFT DR,FREDERICK,MD,21703,NOT AVAILABLE,(240) 566-9000
16368,240027000591,INDIAN HEAD ELEMENTARY SCHOOL,4200 INDIAN HEAD HWY,INDIAN HEAD,MD,20640,NOT AVAILABLE,(301) 743-5454
17726,240009001527,SOUTHWEST BALTIMORE CHARTER SCHOOL,1300 HERKIMER STREET,BALTIMORE,MD,21223,NOT AVAILABLE,(443) 984-3385
18896,240054001076,KENT ISLAND HIGH SCHOOL,900 LOVE POINT RD,STEVENSVILLE,MD,21666,NOT AVAILABLE,(410) 604-2070
19562,240066001283,SALEM AVENUE ELEMENTARY,1323 SALEM AVE EXT,HAGERSTOWN,MD,21740,3542,(301) 766-8313
63078,240069001314,PRINCE STREET SCHOOL,400 PRINCE STREET,SALISBURY,MD,21804,NOT AVAILABLE,(410) 677-5813
63410,240042000813,ILCHESTER ELEMENTARY,4981 ILCHESTER RD,ELLICOTT CITY,MD,21043,NOT AVAILABLE,(410) 313-2524
69779,240006001516,WINDSOR FARM ELEMENTARY,591 BROADNECK RD,ANNAPOLIS,MD,21409,5503,(410) 222-1690
20185,240006000139,WEST ANNAPOLIS ELEMENTARY,505 MELVIN AVENUE,ANNAPOLIS,MD,21401,NOT AVAILABLE,(410) 222-1635
22438,240003000019,JOHN HUMBIRD ELEMENTARY,120 MARY ST,CUMBERLAND,MD,21502,7341,(301) 724-8842
27352,240060001220,ESPERANZA MIDDLE,22790 MAPLE RD,LEXINGTON PARK,MD,20653,9447,(301) 863-4016
27384,240048000942,WALTER JOHNSON HIGH,6400 ROCK SPRING DR,BETHESDA,MD,20814,1991,(240) 740-6900
27458,240009001291,THE CROSSROADS SCHOOL,802 S CAROLINE STREET,BALTIMORE,MD,21231,NOT AVAILABLE,(410) 276-4924
90205,240051001686,ACCOKEEK ACADEMY,14400 BERRY RD,ACCOKEEK,MD,20607,NOT AVAILABLE,(301) 203-3200
93638,240027000601,MILTON M. SOMERS MIDDLE SCHOOL,300 WILLOW LANE,LA PLATA,MD,20646,0166,(301) 934-4663
95580,240051001132,POTOMAC LANDING ELEMENTARY,12500 FORT WASHINGTON RD,FORT WASHINGTON,MD,20744,6263,(301) 203-1114
96340,240072001091,WORCESTER TECHNICAL HIGH SCHOOL,6290 WORCESTER HWY,NEWARK,MD,21841,2224,(410) 632-5050
96362,240054001198,SUDLERSVILLE MIDDLE SCHOOL,600 CHARLES STREET,SUDLERSVILLE,MD,21668,NOT AVAILABLE,(410) 438-3151
96639,240009000268,LEITH WALK ELEMENTARY/MIDDLE,5915 GLENNOR ROAD,BALTIMORE,MD,21239,NOT AVAILABLE,(410) 396-6380
97243,240042000751,RUNNING BROOK ELEMENTARY,5215 W RUNNING BROOK RD,COLUMBIA,MD,21044,1741,(410) 313-6893
98537,240036000676,SWAN MEADOW SCHOOL,6709 GARRETT HIGHWAY,OAKLAND,MD,21550,2139,(301) 334-2059
80800,240048000863,KINGSVIEW MIDDLE,18909 KINGSVIEW RD,GERMANTOWN,MD,20874,NOT AVAILABLE,(301) 601-4611
84586,240006000048,BROCK BRIDGE ELEMENTARY,405 BROCK BRIDGE RD,LAUREL,MD,20724,NOT AVAILABLE,(301) 498-6280
84776,240003001636,MOUNTAIN RIDGE HIGH SCHOOL,100 DR. NANCY S. GRASMICK,FROSTBURG,MD,21532,NOT AVAILABLE,(301) 689-3377
87891,240051001660,VANSVILLE ELEMENTARY,6813 AMMENDALE RD,BELTSVILLE,MD,20705,NOT AVAILABLE,(301) 931-2830
75459,240009000319,STEUART HILL ACADEMIC ACADEMY,30 S GILMOR STREET,BALTIMORE,MD,21223,2455,(410) 396-1387
77873,240006000066,FERNDALE EARLY EDUCATION CENTER,105 PACKARD AVE,GLEN BURNIE,MD,21061,NOT AVAILABLE,(410) 222-6927
78052,240006001515,FREETOWN ELEMENTARY,7904 FREETOWN RD,GLEN BURNIE,MD,21060,8208,(410) 222-6900
41867,240009000160,BOOKER T. WASHINGTON MIDDLE,1301 MCCULLOH STREET,BALTIMORE,MD,21217,3044,(410) 396-7734
46109,240054001557,MATAPEAKE ELEMENTARY SCHOOL,651 ROMANCOKE RD,STEVENSVILLE,MD,21666,NOT AVAILABLE,(410) 643-3105
48430,240051000998,CARMODY HILLS ELEMENTARY,401 JADELEAF AVE,CAPITOL HEIGHTS,MD,20743,2573,(301) 808-8180
48468,240027000592,J. C. PARKS ELEMENTARY SCHOOL,3505 LIVINGSTON RD,INDIAN HEAD,MD,20640,NOT AVAILABLE,(301) 375-7444
100191,240012000387,FORT GARRISON ELEMENTARY,3310 WOODVALLEY DR,BALTIMORE,MD,21208,1955,(410) 887-1203
80690,240009000336,WILLIAM S. BAER SCHOOL,2001 N WARWICK AVENUE,BALTIMORE,MD,21216,NOT AVAILABLE,(410) 396-0833
81275,240048000803,CHEVY CHASE ELEMENTARY,4015 ROSEMARY ST,CHEVY CHASE,MD,20815,NOT AVAILABLE,(301) 657-4994
83662,240021000542,NORTH CARROLL MIDDLE,2401 HANOVER PIKE,HAMPSTEAD,MD,21074,1148,(410) 751-3440
84875,240015000508,CALVERT HIGH,520 FOX RUN BLVD,PRINCE FREDERICK,MD,20678,4202,(443) 550-8880
91405,240012000443,PARKVILLE HIGH,2600 PUTTY HILL AVE,BALTIMORE,MD,21234,4309,(443) 809-5257
91901,240048001128,SILVER SPRING INTERNATIONAL MIDDLE,313 WAYNE AVE,SILVER SPRING,MD,20910,NOT AVAILABLE,(240) 740-2750
94265,240051002950,WILLIAM SCHMIDT ENVIRONMENTAL CENTER,18501 AQUASCO RD,BRANDYWINE,MD,20613,3915,(301) 888-1185
94885,240012001722,MAYS CHAPEL ELEMENTARY,12250 ROUNDWOOD ROAD,TIMONIUM,MD,21093,NOT AVAILABLE,(443) 809-4134
95169,240006000098,MEADE HEIGHTS ELEMENTARY,1925 REECE ROAD,FT. MEADE,MD,20755,NOT AVAILABLE,(410) 222-6509
101331,240066001265,FOUNTAIN ROCK ELEMENTARY,17145 LAPPANS RD,HAGERSTOWN,MD,21740,NOT AVAILABLE,(301) 766-8146
105149,240012001759,SOUTHEAST EDLP AT DUNDALK HIGH SCHOOL,105 W CHESAPEAKE AVE,TOWSON,MD,21204,NOT AVAILABLE,(443) 809-2270
52859,240051001188,WOODMORE ELEMENTARY,12500 WOODMORE RD,MITCHELLVILLE,MD,20721,4116,(301) 390-0239
53017,240042001717,DUCKETTS LANE,6501 DUCKETTS LN,ELKRIDGE,MD,21075,NOT AVAILABLE,(410) 313-5050
56079,240072001323,BERLIN INTERMEDIATE,309 FRANKLIN AVE,BERLIN,MD,21811,1211,(410) 632-5320
57860,240012000925,HOME ASSIGNMENTS-ELEMENTARY,105 W. CHESAPEAKE AVENUE,TOWSON,MD,21204,NOT AVAILABLE,(410) 887-3222
58411,240048000826,FAIRLAND ELEMENTARY,14315 FAIRDALE RD,SILVER SPRING,MD,20905,NOT AVAILABLE,(240) 740-0640
2496,240021001349,PRIDE SCHOOL,1100 GIST ROAD,WESTMINSTER,MD,21157,5754,(410) 751-3653
7053,240009000221,GILMOR ELEMENTARY,1311 N GILMOR ST,BALTIMORE,MD,21217,NOT AVAILABLE,(410) 396-0820
8156,240009000602,NORTH BEND ELEMENTARY/MIDDLE,181 NORTH BEND ROAD,BALTIMORE,MD,21229,3203,(410) 396-0376
8556,240006000133,SOUTHGATE ELEMENTARY,290 SHETLANDS LN,GLEN BURNIE,MD,21061,6170,(410) 222-6445
9584,240048000862,LAKEWOOD ELEMENTARY,2534 LINDLEY TERRACE,ROCKVILLE,MD,20850,NOT AVAILABLE,(301) 279-8465
33941,240009000155,BEECHFIELD ELEMENTARY/MIDDLE,301 S BEECHFIELD AVENUE,BALTIMORE,MD,21229,4034,(410) 396-0525
34746,240006000047,BROADNECK ELEMENTARY,470 SHORE ACRES RD,ARNOLD,MD,21012,1904,(410) 222-1680
38158,240048000788,JOANN LELECK AT BROAD ACRES ELEMENTARY,710 BEACON RD,SILVER SPRING,MD,20903,NOT AVAILABLE,(240) 740-1900
60469,240006000089,LOTHIAN ELEMENTARY,5175 SOLOMONS ISLAND RD,LOTHIAN,MD,20711,9701,(410) 222-1697
66854,240009000280,MERGENTHALER VOCATIONAL-TECHNICAL HIGH,3500 HILLEN ROAD,BALTIMORE,MD,21218,2227,(410) 396-6496
21523,240033001712,CARROLL CREEK MONTESSORI PUBLIC CHARTER,7215 CORPORATE COURT,FREDERICK,MD,21703,NOT AVAILABLE,(301) 663-7970
22466,240027001647,THEODORE G. DAVIS MIDDLE SCHOOL,2495 DAVIS ROAD,WALDORF,MD,20603,NOT AVAILABLE,(301) 753-2082
22660,240027000606,T. C. MARTIN ELEMENTARY SCHOOL,6315 OLIVERS SHOP RD,BRYANTOWN,MD,20617,NOT AVAILABLE,(301) 274-3182
22772,240051001138,RIDGECREST ELEMENTARY,6120 RIGGS RD,HYATTSVILLE,MD,20783,3103,(301) 853-0820
23999,240009000257,JOHN RUHRAH ELEMENTARY/MIDDLE,701 RAPPOLLA STREET,BALTIMORE,MD,21224,NOT AVAILABLE,(410) 396-9125
24425,240012000438,OVERLEA HIGH,5401 KENWOOD AVE,BALTIMORE,MD,21206,1418,(443) 809-5241
25113,240006001714,PHOENIX ACADEMY,1411 CEDAR PARK ROAD,ANNAPOLIS,MD,21401,NOT AVAILABLE,(410) 222-5000
27651,240051001095,ISAAC J. GOURDINE MIDDLE,8700 ALLENTOWN RD,FORT WASHINGTON,MD,20744,1498,(301) 449-4940
27722,240051000985,BLADENSBURG ELEMENTARY,4915 ANNAPOLIS RD,BLADENSBURG,MD,20710,1224,(301) 985-1450
28045,240033000649,LINCOLN ELEMENTARY,200 MADISON ST,FREDERICK,MD,21701,6563,(240) 236-2650
10215,240012000460,REISTERSTOWN ELEMENTARY,223 WALGROVE RD,REISTERSTOWN,MD,21136,2315,(410) 887-1133
11807,240042000743,MOUNT HEBRON HIGH,9440 OLD FREDERICK ROAD,ELLICOTT CITY,MD,21042,NOT AVAILABLE,(410) 313-2880
18909,240012000373,DULANEY HIGH,255 E PADONIA ROAD,TIMONIUM,MD,21093,NOT AVAILABLE,(443) 809-7633
19230,240048090454,RACHEL CARSON ELEMENTARY,100 TSCHIFFELY SQUARE RD,GAITHERSBURG,MD,20878,5630,(240) 740-1840
19475,240048000796,CANDLEWOOD ELEMENTARY,7210 OSPREY DRIVE,ROCKVILLE,MD,20855,1978,(301) 284-4200
71385,240003000006,BRADDOCK MIDDLE,909 HOLLAND ST,CUMBERLAND,MD,21502,1460,(301) 777-7990
73975,240066001289,MARSHALL STREET SCHOOL,1350 MARSHALL ST,HAGERSTOWN,MD,21740,3509,(301) 766-8214
75400,240006000134,SUNSET ELEMENTARY,8572 FORT SMALLWOOD RD,PASADENA,MD,21122,2600,(410) 222-6478
77493,240048000933,TAKOMA PARK MIDDLE SCHOOL,7611 PINEY BRANCH RD,SILVER SPRING,MD,20910,NOT AVAILABLE,(240) 740-5220
78378,240021001694,CROSSROADS MIDDLE SCHOOL,45 KATE WAGNER ROAD,WESTMINSTER,MD,21157,6957,(410) 751-3691
79209,240012000391,FULLERTON ELEMENTARY,4400 FULLERTON AVE,BALTIMORE,MD,21236,4615,(410) 887-5234
43882,240006000054,CENTRAL MIDDLE,221 CENTRAL AVE E,EDGEWATER,MD,21037,2802,(410) 956-5800
47495,240054001190,CENTREVILLE MIDDLE SCHOOL,231 RUTHSBURG RD,CENTREVILLE,MD,21617,NOT AVAILABLE,(410) 758-0883
48715,240018000523,NORTH CAROLINE HIGH SCHOOL,10990 RIVER RD,RIDGELY,MD,21660,1815,(410) 479-2332
49118,240069001310,PEMBERTON ELEMENTARY,1300 PEMBERTON DR,SALISBURY,MD,21801,NOT AVAILABLE,(410) 677-5809
11282,240009000169,CECIL ELEMENTARY,2000 CECIL AVENUE,BALTIMORE,MD,21218,NOT AVAILABLE,(410) 396-6385
11499,240033000807,ORCHARD GROVE ELEMENTARY,5898 HANNOVER DR,FREDERICK,MD,21703,NOT AVAILABLE,(240) 236-2400
12497,240039000679,ABERDEEN HIGH,251 PARADISE RD,ABERDEEN,MD,21001,2399,(410) 273-5500
15357,240033001187,MONOCACY VALLEY MONTESSORI,217 DILL AVE,FREDERICK,MD,21701,NOT AVAILABLE,(240) 236-6100
15456,240051001110,MT RAINIER ELEMENTARY,4011 32ND ST,MT RAINIER,MD,20712,1902,(301) 985-1810
16053,240009001363,MAREE GARNETT FARRING ELEMENTARY/MIDDLE,300 PONTIAC AVENUE,BALTIMORE,MD,21225,2042,(410) 396-1404
17218,240009001369,SHARP-LEADENHALL ELEMENTARY,150 W WEST STREET,BALTIMORE,MD,21230,3739,(410) 396-4325
18999,240021001548,GATEWAY SCHOOL,45 KATE WAGNER ROAD,WESTMINSTER,MD,21157,6957,(410) 751-3691
1765,240012000420,LOCH RAVEN HIGH,1212 COWPENS AVE,BALTIMORE,MD,21286,1720,(410) 887-3525
1928,240048000850,HIGHLAND ELEMENTARY,3100 MEDWAY ST,SILVER SPRING,MD,20902,2225,(240) 740-1770
5626,240009001385,VIVIEN T. THOMAS MEDICAL ARTS ACADEMY,100 N CALHOUN STREET,BALTIMORE,MD,21223,NOT AVAILABLE,(443) 984-2831
9661,240048000776,ASHBURTON ELEMENTARY,6314 LONE OAK DR,BETHESDA,MD,20817,1746,(240) 740-1300
92893,240012000350,LUTHERVILLE LABORATORY,1700 NORTH YORK RD,LUTHERVILLE,MD,21093,NOT AVAILABLE,(410) 887-7800
94402,240060001233,OAKVILLE ELEMENTARY,26410 THREE NOTCH ROAD,MECHANICSVILLE,MD,20659,NOT AVAILABLE,(301) 373-4365
95107,240015000513,MOUNT HARMONY ELEMENTARY,900 W MOUNT HARMONY RD,OWINGS,MD,20736,8919,(443) 550-9620
95847,240006001724,MONARCH GLOBAL ACADEMY PCS LAUREL CAMPUS,430 BROCK BRIDGE ROAD,LAUREL,MD,20724,NOT AVAILABLE,(410) 222-5000
96700,240012000450,PINE GROVE ELEMENTARY,2701 SUMMIT AVE,BALTIMORE,MD,21234,1610,(410) 887-5267
97969,240003000010,CRESAPTOWN ELEMENTARY,13202 6TH AVE,CRESAPTOWN,MD,21502,5568,(301) 729-0212
99823,240060001230,LEXINGTON PARK ELEMENTARY,46763 SHANGRI LA DR,LEXINGTON PARK,MD,20653,1137,(301) 863-4085
80415,240048000958,WOOD ACRES ELEMENTARY,5800 CROMWELL DRIVE,BETHESDA,MD,20816,NOT AVAILABLE,(240) 740-1120
81674,240009000233,HAMPDEN ELEMENTARY/MIDDLE,3608 CHESTNUT AVENUE,BALTIMORE,MD,21211,2529,(410) 396-6004
82053,240030000619,NORTH DORCHESTER MIDDLE SCHOOL,5745 CLOVERDALE ROAD,HURLOCK,MD,21643,NOT AVAILABLE,(410) 943-3322
83269,240009000213,GARRETT HEIGHTS ELEMENTARY/MIDDLE,2800 AILSA AVENUE,BALTIMORE,MD,21214,2521,(410) 396-6361
71739,240024000574,NORTH EAST MIDDLE,200 E CECIL AVE,NORTH EAST,MD,21901,4010,(410) 996-6210
73356,240009001531,RENAISSANCE ACADEMY,1301 MCCULLOH STREET,BALTIMORE,MD,21217,NOT AVAILABLE,(443) 984-3164
76570,240048000953,WHETSTONE ELEMENTARY,19201 THOMAS FARM RD,GAITHERSBURG,MD,20879,2018,(240) 740-1060
77065,240012000379,EASTERN TECHNICAL HIGH SCHOOL,1100 MACE AVE,BALTIMORE,MD,21221,3315,(443) 809-0190
77327,240015000504,PATUXENT APPEAL ELEMENTARY CAMPUS,11655 HG TRUEMAN RD,LUSBY,MD,20657,2900,(443) 550-9710
79804,240003000014,FLINTSTONE ELEMENTARY,22000 NATIONAL PIKE NE,FLINTSTONE,MD,21530,NOT AVAILABLE,(301) 478-2434
50117,240033000632,FREDERICK HIGH,650 CARROLL PKY,FREDERICK,MD,21701,NOT AVAILABLE,(240) 236-7000
50836,240012000458,RANDALLSTOWN HIGH,4000 OFFUTT RD,RANDALLSTOWN,MD,21133,3399,(443) 809-0748
52605,240066001667,ROCKLAND WOODS ELEMENTARY,18201 ROCKLAND DRIVE,HAGERSTOWN,MD,21740,NOT AVAILABLE,(301) 766-8485
52958,240042001646,VETERANS ELEMENTARY,4355 MONTGOMERY ROAD,ELLICOTT CITY,MD,21043,NOT AVAILABLE,(410) 313-1700
55093,240048000926,SPRINGBROOK HIGH,201 VALLEY BROOK DR,SILVER SPRING,MD,20904,NOT AVAILABLE,(240) 740-3800
30143,240048000818,DIAMOND ELEMENTARY,4 MARQUIS DR,GAITHERSBURG,MD,20878,1838,(240) 740-2120
32353,240009000326,VIOLETVILLE ELEMENTARY/MIDDLE,1207 PINE HEIGHTS AVENUE,BALTIMORE,MD,21229,5129,(410) 396-1416
33107,240033001015,WHITTIER ELEMENTARY,2400 WHITTIER DR,FREDERICK,MD,21702,NOT AVAILABLE,(240) 236-3100
37970,240048000799,CARL SANDBURG CENTER,1002 FIRST ST,ROCKVILLE,MD,20850,NOT AVAILABLE,(240) 740-4340
61415,240036000674,SOUTHERN GARRETT HIGH SCHOOL,345 OAKLAND DR,OAKLAND,MD,21550,3216,(301) 334-9447
63560,240012000341,ARBUTUS ELEMENTARY,1300 SULPHUR SPRING RD,BALTIMORE,MD,21227,NOT AVAILABLE,(410) 887-1400
63945,240003000032,WEST SIDE ELEMENTARY,425 PACA ST,CUMBERLAND,MD,21502,2818,(301) 724-0340
68308,240048000798,CARDEROCK SPRINGS ELEMENTARY,7401 PERSIMMON TREE LANE,BETHESDA,MD,20817,NOT AVAILABLE,(240) 740-0540
68725,240042000757,THUNDER HILL ELEMENTARY,9357 MELLENBROOK RD,COLUMBIA,MD,21045,1838,(410) 313-6922
22793,240027000805,BERRY ELEMENTARY SCHOOL,10155 BERRY RD,WALDORF,MD,20603,NOT AVAILABLE,(301) 638-2330
27412,240051000972,AVALON ELEMENTARY,7302 WEBSTER LN,FORT WASHINGTON,MD,20744,NOT AVAILABLE,(301) 449-4970
41877,240066001276,NORTHERN MIDDLE,701 NORTHERN AVE,HAGERSTOWN,MD,21742,2723,(301) 766-8258
43572,240051001038,FRIENDLY HIGH,10000 ALLENTOWN RD,FORT WASHINGTON,MD,20744,3999,(301) 449-4900
43611,240024000580,RISING SUN MIDDLE SCHOOL,289 PEARL STREET,RISING SUN,MD,21911,NOT AVAILABLE,(410) 658-5535
45250,240012000353,CATONSVILLE ELEMENTARY,106 BLOOMSBURY AVE,CATONSVILLE,MD,21228,5249,(443) 809-0800
46314,240006000117,QUARTERFIELD ELEMENTARY,7967 QUARTERFIELD RD,SEVERN,MD,21144,2126,(410) 222-6430
101724,240042001026,TRIADELPHIA RIDGE ELEMENTARY,13400 TRIADELPHIA RD,ELLICOTT CITY,MD,21042,NOT AVAILABLE,(410) 313-2560
105148,240012001756,NORTHWEST EDLP AT MILFORD MILL ACADEMY,105 W CHESAPEAKE AVE,TOWSON,MD,21204,NOT AVAILABLE,(443) 809-2270
1486,240012000248,WESTERN SCHOOL OF TECHNOLOGY,100 KENWOOD AVE,BALTIMORE,MD,21228,3610,(443) 809-0840
1587,240060001218,CHOPTICON HIGH,25390 COLTON POINT RD,MORGANZA,MD,20660,9999,(301) 475-0215
2176,240048000921,SHERWOOD HIGH,300 OLNEY-SANDY SPRING RD,SANDY SPRING,MD,20860,NOT AVAILABLE,(301) 924-3200
3982,240048001448,LAKE SENECA ELEMENTARY,13600 WANEGARDEN DR,GERMANTOWN,MD,20874,1056,(240) 740-0280
5028,240060001235,PINEY POINT ELEMENTARY,44550 TALL TIMBERS RD,TALL TIMBERS,MD,20690,NOT AVAILABLE,(301) 994-2205
72855,240042000173,BURLEIGH MANOR MIDDLE SCHOOL,4200 CENTENNIAL LANE,ELLICOTT CITY,MD,21042,NOT AVAILABLE,(410) 313-2507
76649,240051001030,FLINTSTONE ELEMENTARY,800 COMANCHE DR,OXON HILL,MD,20745,1910,(301) 749-4210
81932,240051000975,BEACON HEIGHTS ELEMENTARY,6929 FURMAN PKWY,RIVERDALE,MD,20737,3016,(301) 918-8700
82894,240069001306,MARDELA MIDDLE & HIGH,24940 DELMAR RD,MARDELA SPRINGS,MD,21837,NOT AVAILABLE,(410) 677-5142
83113,240051001251,ROBERT GODDARD MONTESSORI,9850 GOOD LUCK RD,SEABROOK,MD,20706,3350,(301) 918-3515
86037,240021001672,MANCHESTER VALLEY HIGH,3300 MAPLE GROVE ROAD,MANCHESTER,MD,21102,1960,(410) 386-1673
86494,240048001523,CAPTAIN JAMES E. DALY ELEMENTARY,20301 BRANDERMILL DR,GERMANTOWN,MD,20876,5644,(240) 740-0600
88420,240009000279,MEDFIELD HEIGHTS ELEMENTARY,900 WOODBOURNE AVENUE,BALTIMORE,MD,21212,NOT AVAILABLE,(410) 396-6460
88455,240012000021,SEVEN OAKS ELEMENTARY,9220 SEVEN COURTS DR,BALTIMORE,MD,21236,NOT AVAILABLE,(410) 887-6257
30587,240039000687,DUBLIN ELEMENTARY,1527 WHITEFORD RD,STREET,MD,21154,1929,(410) 638-3703
35976,240033000639,MIDDLETOWN ELEMENTARY,201 E GREEN ST,MIDDLETOWN,MD,21769,7956,(240) 236-1100
61183,240036000667,FRIENDSVILLE ELEMENTARY,841 FIRST AVE,FRIENDSVILLE,MD,21531,0059,(301) 746-5100
62299,240012000431,MILBROOK ELEMENTARY,4300 CREST HEIGHTS RD,BALTIMORE,MD,21215,1310,(410) 887-1225
63268,240006000130,SOUTH SHORE ELEMENTARY,1376 FAIRFIELD LOOP RD,CROWNSVILLE,MD,21032,NOT AVAILABLE,(410) 222-3865
63846,240018000521,FEDERALSBURG ELEMENTARY SCHOOL,302 S UNIVERSITY AVE,FEDERALSBURG,MD,21632,1437,(410) 479-2761
64817,240048090450,BRIGGS CHANEY MIDDLE,1901 RAINBOW DR,SILVER SPRING,MD,20905,NOT AVAILABLE,(301) 288-8300
65385,240006000073,GEORGETOWN EAST ELEMENTARY,111 DOGWOOD RD,ANNAPOLIS,MD,21403,2701,(410) 222-1610
69156,240012000388,FRANKLIN ELEMENTARY,33 COCKEYSMILL RD,REISTERSTOWN,MD,21136,1207,(410) 887-1111
100261,240012000495,WESTOWNE ELEMENTARY,401 HARLEM LN,CATONSVILLE,MD,21228,1656,(443) 809-0854
102057,240057001377,SOMERSET 6/7 INTERMEDIATE SCHOOL,7970 TAWES CAMPUS ROAD,WESTOVER,MD,21871,NOT AVAILABLE,(410) 621-0161
20542,240051001123,OXON HILL HIGH,6701 LEYTE DR,OXON HILL,MD,20745,2199,(301) 749-4300
21308,240033001566,MIDDLETOWN PRIMARY,403 FRANKLIN ST,MIDDLETOWN,MD,21769,NOT AVAILABLE,(240) 566-0200
21480,240048001447,ROBERT FROST MIDDLE SCHOOL,9201 SCOTT DR,ROCKVILLE,MD,20850,3441,(301) 279-3949
22246,240012000447,PERRY HALL MIDDLE,4300 EBENEZER RD,BALTIMORE,MD,21236,2142,(443) 809-5100
22813,240009000257,JOHN RUHRAH ELEMENTARY/MIDDLE,6820 FAIT AVENUE,BALTIMORE,MD,21224,NOT AVAILABLE,(410) 396-9125
23936,240051001067,COMMUNITY BASED CLASSROOMS,5150 ANNAPOLIS RD,BLADENSBURG,MD,20710,NOT AVAILABLE,(301) 985-5149
27594,240054001196,STEVENSVILLE MIDDLE SCHOOL,610 MAIN ST,STEVENSVILLE,MD,21666,NOT AVAILABLE,(410) 643-3194
27691,240048000834,FOX CHAPEL ELEMENTARY,19315 ARCHDALE RD,GERMANTOWN,MD,20876,NOT AVAILABLE,(240) 740-0680
28430,240024000567,ELKTON MIDDLE,615 NORTH ST,ELKTON,MD,21921,5611,(410) 996-5010
94141,240009000323,THOMAS JOHNSON ELEMENTARY/MIDDLE,100 E HEATH STREET,BALTIMORE,MD,21230,4936,(410) 396-1575
95275,240021000533,FRANCIS SCOTT KEY HIGH,3825 BARK HILL ROAD,UNION BRIDGE,MD,21791,9225,(410) 751-3320
99612,240051001049,GREENBELT MIDDLE,6301 BREEZEWOOD DR,GREENBELT,MD,20770,1099,(301) 513-5040
43538,240024000557,BAY VIEW ELEMENTARY,910 NORTH EAST RD,NORTH EAST,MD,21901,1903,(410) 996-6230
43734,240006001401,CHESAPEAKE SCIENCE POINT,7321 PARKWAY DRIVE SOUTH,HANOVER,MD,21076,NOT AVAILABLE,(443) 757-5277
43866,240009000223,GOVANS ELEMENTARY,900 WOODBOURNE AVENUE,BALTIMORE,MD,21212,NOT AVAILABLE,(410) 396-6396
47739,240051001072,JAMES RYDER RANDALL ELEMENTARY,5410 KIRBY RD,CLINTON,MD,20735,1421,(301) 449-4980
52447,240048090455,RONALD MCNAIR ELEMENTARY,13881 HOPKINS RD,GERMANTOWN,MD,20874,6111,(301) 353-0854
53161,240012000458,RANDALLSTOWN HIGH,4000 OFFUTT RD,RANDALLSTOWN,MD,21133,3399,(443) 809-0748
55746,240006000045,BENFIELD ELEMENTARY,365 LYNWOOD DR,SEVERNA PARK,MD,21146,1535,(410) 222-6555
58729,240048000784,BETHESDA-CHEVY CHASE HIGH,4301 EAST-WEST HWY,BETHESDA,MD,20814,NOT AVAILABLE,(240) 740-0400
10125,240042000746,OAKLAND MILLS MIDDLE,9540 KILIMANJARO RD,COLUMBIA,MD,21045,3956,(410) 313-6937
10137,240021000552,WESTMINSTER HIGH,1225 WASHINGTON ROAD,WESTMINSTER,MD,21157,5803,(410) 751-3630
12189,240009000211,FURMAN TEMPLETON PREPARATORY ACADEMY,1200 PENNSYLVANIA AVENUE,BALTIMORE,MD,21217,3045,(410) 396-0882
12587,240009000306,ROLAND PARK ELEMENTARY/MIDDLE,5207 ROLAND AVENUE,BALTIMORE,MD,21210,1926,(410) 396-6420
12765,240012001347,OWINGS MILLS HIGH,124 TOLLGATE RD,OWINGS MILLS,MD,21117,3350,(443) 809-1700
13923,240051001043,GLENARDEN WOODS ELEMENTARY,7801 GLENARDEN PKWY,LANHAM,MD,20706,NOT AVAILABLE,(301) 925-1300
14534,240033001187,MONOCACY VALLEY MONTESSORI,217 DILL AVE,FREDERICK,MD,21701,NOT AVAILABLE,(240) 236-6100
14795,240012000351,CARNEY ELEMENTARY,3131 E JOPPA RD,BALTIMORE,MD,21234,3240,(410) 887-5228
18076,240066001674,BARBARA INGRAM SCHOOL FOR THE ARTS,7-11 S. POTOMAC STREET,HAGERSTOWN,MD,21740,NOT AVAILABLE,(301) 766-8840
18824,240024000576,PERRYVILLE ELEMENTARY,901 MAYWOOD AVE,PERRYVILLE,MD,21903,NOT AVAILABLE,(410) 642-6540
19151,240012000384,ESSEX ELEMENTARY,100 MACE AVE,BALTIMORE,MD,21221,6925,(410) 887-0117
41638,240042000732,GLENWOOD MIDDLE,2680 RT 97,GLENWOOD,MD,21738,NOT AVAILABLE,(410) 313-5520
41936,240060001219,DYNARD ELEMENTARY,23510 BUSHWOOD RD,CHAPTICO,MD,20621,NOT AVAILABLE,(301) 769-4804
44561,240051001135,HIGHLAND PARK ELEMENTARY,6501 LOWLAND DR,LANDOVER,MD,20785,4359,(301) 333-0980
47588,240024000560,CECIL MANOR ELEMENTARY,971 ELK MILLS RD,ELKTON,MD,21921,3805,(410) 996-5090
49051,240048000955,WILLIAM TYLER PAGE ELEMENTARY,13400 TAMARACK RD,SILVER SPRING,MD,20904,NOT AVAILABLE,(301) 989-5672
50035,240030000624,VIENNA ELEMENTARY SCHOOL,4905 OCEAN GATEWAY,VIENNA,MD,21869,NOT AVAILABLE,(410) 943-3775
50561,240063001242,EASTON HIGH,723 MECKLENBURG AVE,EASTON,MD,21601,NOT AVAILABLE,(410) 822-4180
52960,240012010500,SPARROWS POINT MIDDLE,7400 NORTH POINT RD,BALTIMORE,MD,21219,1307,(443) 809-7524
53042,240033001715,FREDERICK CLASSICAL CHARTER,8445 SPIRES WAY SUITE CC,FREDERICK,MD,21701,NOT AVAILABLE,(240) 236-1200
53527,240063001248,ST. MICHAELS MIDDLE/HIGH SCHOOL,200 SEYMOUR AVE,ST MICHAELS,MD,21663,NOT AVAILABLE,(410) 745-2852
55961,240006000096,MARYLAND CITY ELEMENTARY,3359 CRUMPTON SOUTH,LAUREL,MD,20724,2245,(301) 725-4256
57489,240048000857,JULIUS WEST MIDDLE,651 GREAT FALLS RD,ROCKVILLE,MD,20850,NOT AVAILABLE,(301) 337-3400
59332,240048000963,WYNGATE ELEMENTARY,9300 WADSWORTH DR,BETHESDA,MD,20817,NOT AVAILABLE,(240) 740-1080
30976,240051001184,WILLIAM BEANES ELEMENTARY,5108 DIANNA DR,SUITLAND,MD,20746,2222,(301) 817-0533
36199,240027000600,MAURICE J. MCDONOUGH HIGH SCHOOL,7165 MARSHALL CORNER RD,POMFRET,MD,20675,NOT AVAILABLE,(301) 934-2944
38203,240066001484,WASHINGTON COUNTY JOB DEVELOPMENT CENTER,1350 MARSHALL ST,HAGERSTOWN,MD,21740,3509,(301) 766-8214
39515,240048001526,CABIN JOHN MIDDLE SCHOOL,10701 GAINSBOROUGH ROAD,POTOMAC,MD,20854,NOT AVAILABLE,(240) 406-1600
3196,240066001086,EVENING HIGH SCHOOL,40 W. OAK RIDGE DRIVE,HAGERSTOWN,MD,21740,7322,(301) 766-8460
3268,240021000979,CARROLL COUNTY CAREER & TECHNOLOGY CENTER,1229 WASHINGTON ROAD,WESTMINSTER,MD,21157,5803,(410) 751-3669
5833,240051001476,PREKINDERGARTEN OFFSITES,1616 OWENS RD,OXON HILL,MD,20745,NOT AVAILABLE,(240) 724-1924
9476,240039000162,ABINGDON ELEMENTARY,399 SINGER RD,ABINGDON,MD,21009,1614,(410) 638-3910
9833,240006000097,MAYO ELEMENTARY,1260 MAYO RIDGE RD,EDGEWATER,MD,21037,4205,(410) 222-1666
20565,240024000559,CALVERT ELEMENTARY,79 BRICK MEETINGHOUSE RD,RISING SUN,MD,21911,1704,(410) 658-5335
20765,240045001695,GALENA ELEMENTARY SCHOOL,114 S MAIN STREET,GALENA,MD,21635,1525,(410) 648-5132
21030,240051001100,MARLTON ELEMENTARY,8506 OLD COLONY DR S,UPPER MARLBORO,MD,20772,5099,(301) 952-7780
21786,240006001403,CROFTON MIDDLE,2301 DAVIDSONVILLE RD,GAMBRILLS,MD,21054,1924,(410) 793-0280
22729,240009001480,PATTERSON PARK PUBLIC CHARTER SCHOOL,27 N LAKEWOOD AVENUE,BALTIMORE,MD,21224,NOT AVAILABLE,(410) 558-1230
24926,240051001146,ROGERS HEIGHTS ELEMENTARY,4301 58TH AVE,BLADENSBURG,MD,20710,1903,(301) 985-1860
25263,240051000973,BADEN ELEMENTARY,13601 BADEN-WESTWOOD RD,BRANDYWINE,MD,20613,8422,(301) 888-1188
26398,240039000692,FOREST LAKES ELEMENTARY,100 OSBORNE PKWY,FOREST HILL,MD,21050,1650,(410) 638-4262
26539,240009000286,THE MOUNT WASHINGTON SCHOOL,1801 SULGRAVE AVENUE,BALTIMORE,MD,21209,4515,(410) 396-6354
26633,240051001003,CHAPEL FORGE EARLY CHILDHOOD CENTER,12711 MILAN WAY,BOWIE,MD,20715,1611,(301) 805-2740
26714,240042000403,MOUNT VIEW MIDDLE,12101 WOODFORD DR,MARRIOTTSVILLE,MD,21104,NOT AVAILABLE,(410) 313-5545
28136,240048001398,JOHN L GILDNER REGIONAL INST FOR CHILDREN & ADOL,15000 BROSCHART RD,ROCKVILLE,MD,20850,3303,(301) 251-6900
28519,240033001550,TUSCARORA HIGH,5312 BALLENGER CREEK PK,FREDERICK,MD,21703,NOT AVAILABLE,(240) 236-6400
10906,240048000908,ROCK VIEW ELEMENTARY,3901 DENFELD AVE,KENSINGTON,MD,20895,NOT AVAILABLE,(240) 740-0920
11483,240027000380,C. PAUL BARNHART ELEMENTARY SCHOOL,4800 LANCASTER CIRCLE,WALDORF,MD,20603,NOT AVAILABLE,(301) 645-9053
14242,240009000163,CALLAWAY ELEMENTARY,3701 FERNHILL AVENUE,BALTIMORE,MD,21215,6133,(410) 396-0604
15482,240012000487,TOWSON HIGH,69 CEDAR AVE,TOWSON,MD,21286,7844,(443) 809-3608
16345,240039000717,YOUTHS BENEFIT ELEMENTARY,1901 FALLSTON RD,FALLSTON,MD,21047,1497,(410) 638-4190
18744,240039000705,JOPPATOWNE HIGH,555 JOPPA FARM RD,JOPPA,MD,21085,4698,(410) 612-1510
19114,240066001286,SMITHSBURG ELEMENTARY,67 N MAIN ST,SMITHSBURG,MD,21783,9609,(301) 766-8329
90842,240051001097,MAGNOLIA ELEMENTARY,8400 NIGHTINGALE DR,LANHAM,MD,20706,3929,(301) 918-8770
91324,240048001455,DAMASCUS HIGH,25921 RIDGE RD,DAMASCUS,MD,20872,1846,(240) 207-2400
91383,240066001261,CLEAR SPRING MIDDLE,12628 BROADFORDING RD,CLEAR SPRING,MD,21722,1361,(301) 766-8094
93677,240066001288,SOUTH HAGERSTOWN HIGH,1101 S POTOMAC ST,HAGERSTOWN,MD,21740,7322,(301) 766-8369
95136,240051001556,PANORAMA ELEMENTARY,2002 CALLAWAY ST,TEMPLE HILLS,MD,20748,NOT AVAILABLE,(301) 702-3870
95249,240039001352,MAGNOLIA MIDDLE,299 FORT HOYLE RD,JOPPA,MD,21085,4899,(410) 612-1525
96638,240009000219,GEORGE W. F. MCMECHEN HIGH,4411 GARRISON BOULEVARD,BALTIMORE,MD,21215,5624,(410) 396-0980
97769,240069001308,NORTHWESTERN ELEMENTARY,9975 SHARPTOWN RD,MARDELA SPRINGS,MD,21837,NOT AVAILABLE,(410) 677-5808
99371,240039000701,HOMESTEAD/WAKEFIELD ELEMENTARY,900 S MAIN ST,BEL AIR,MD,21014,4199,(410) 638-4175
99422,240012000503,WOODMOOR ELEMENTARY,3200 ELBA DR,BALTIMORE,MD,21207,4401,(410) 887-1318
70605,240039000681,BEL AIR ELEMENTARY,30 E LEE ST,BEL AIR,MD,21014,3529,(410) 638-4160
71572,240009001430,FREDERICK ELEMENTARY,2501 FREDERICK AVENUE,BALTIMORE,MD,21223,NOT AVAILABLE,(410) 396-0830
71663,240024000791,BOHEMIA MANOR MIDDLE,2757 AUGUSTINE HERMAN HWY,CHESAPEAKE CITY,MD,21915,NOT AVAILABLE,(410) 885-2095
72739,240009000201,FEDERAL HILL PREPARATORY ACADEMY,1040 WILLIAM STREET,BALTIMORE,MD,21230,NOT AVAILABLE,(410) 396-1207
73536,240006001402,BROADNECK HIGH,1265 GREEN HOLLY DR,ANNAPOLIS,MD,21409,4676,(410) 757-1300
77398,240027001565,WILLIAM A. DIGGS ELEMENTARY SCHOOL,2615 DAVIS RD,WALDORF,MD,20603,NOT AVAILABLE,(301) 753-2081
78389,240069001320,WICOMICO HIGH,201 LONG AVENUE,SALISBURY,MD,21804,NOT AVAILABLE,(410) 677-5146
79100,240015000967,WINDY HILL MIDDLE,9560 BOYD'S TURN RD,OWINGS,MD,20736,NOT AVAILABLE,(443) 550-9310
79947,240048001181,SPARK M. MATSUNAGA ELEMENTARY SCHOOL,13902 BROMFIELD RD,GERMANTOWN,MD,20874,NOT AVAILABLE,(301) 601-4350
65419,240048000759,NEELSVILLE MIDDLE,11700 NEELSVILLE CHURCH RD,GERMANTOWN,MD,20876,NOT AVAILABLE,(301) 353-8064
66019,240009000260,LOCKERMAN BUNDY ELEMENTARY,301 N PULASKI STREET,BALTIMORE,MD,21223,1557,(410) 396-1364
81132,240021090467,SPRING GARDEN ELEMENTARY,700 BOXWOOD DRIVE,HAMPSTEAD,MD,21074,3144,(410) 751-3433
81497,240048001456,JOHN T. BAKER MIDDLE SCHOOL,25400 OAK DR,DAMASCUS,MD,20872,1814,(240) 207-2440
86141,240039090476,NORTH BEND ELEMENTARY,1445 N BEND RD,JARRETTSVILLE,MD,21084,1333,(410) 692-7815
88813,240012000432,MILFORD MILL ACADEMY,3800 WASHINGTON AVE,BALTIMORE,MD,21207,NOT AVAILABLE,(443) 809-0660
100226,240027000597,HENRY E. LACKEY HIGH SCHOOL,3000 CHICAMUXEN RD,INDIAN HEAD,MD,20640,NOT AVAILABLE,(301) 743-5431
101723,240006000087,LINDALE MIDDLE,415 ANDOVER RD,LINTHICUM,MD,21090,NOT AVAILABLE,(410) 691-4344
22136,240051001092,LAUREL HIGH,8000 CHERRY LN,LAUREL,MD,20707,3663,(301) 497-2050
24328,240027001395,ROBERT D. STETHEM EDUCATIONAL CENTER,7775 MARSHALL CORNER RD,POMFRET,MD,20675,NOT AVAILABLE,(301) 932-1003
24993,240066001268,GREENBRIER ELEMENTARY,21222 SAN MAR RD,BOONSBORO,MD,21713,1643,(301) 766-8170
25376,240033000616,URBANA HIGH,3471 CAMPUS DR,IJAMSVILLE,MD,21754,NOT AVAILABLE,(240) 236-7600
26995,240012000464,RIVERVIEW ELEMENTARY,3298 KESSLER RD,BALTIMORE,MD,21227,NOT AVAILABLE,(410) 887-1428
28432,240057001083,SOMERSET COUNTY TECHNICAL HIGH SCHOOL,79894 TAWES CAMPUS ROAD,WESTOVER,MD,21871,NOT AVAILABLE,(410) 651-2285
28815,240051001684,BENJAMIN D. FOULOIS ACADEMY,4601 BEAUFORD RD,MORNINGSIDE,MD,20746,NOT AVAILABLE,(301) 817-0300
3725,240048001448,LAKE SENECA ELEMENTARY,13600 WANEGARDEN DR,GERMANTOWN,MD,20874,1056,(240) 740-0280
8971,240033000635,GREEN VALLEY ELEMENTARY,11501 FINGERBOARD RD,MONROVIA,MD,21770,9009,(240) 236-3400
9261,240051001041,GAYWOOD ELEMENTARY,6701 97TH AVE,LANHAM,MD,20706,NOT AVAILABLE,(301) 918-8730
9537,240012000473,SEVENTH DISTRICT ELEMENTARY,20300 YORK RD,PARKTON,MD,21120,9234,(443) 809-1902
10037,240009000337,WINDSOR HILLS ELEMENTARY/MIDDLE,4001 ALTO ROAD,BALTIMORE,MD,21216,2002,(410) 396-0595
10261,240006000067,FOLGER MCKINSEY ELEMENTARY,175 ARUNDEL BEACH ROAD,SEVERNA PARK,MD,21146,NOT AVAILABLE,(410) 222-6560
10832,240006000113,PASADENA ELEMENTARY,401 EAST PASADENA RD,PASADENA,MD,21122,4364,(410) 222-6573
13590,240048000889,OLNEY ELEMENTARY,3401 QUEEN MARY DR,OLNEY,MD,20832,2204,(301) 924-3126
16265,240006000128,SHADY SIDE ELEMENTARY,4859 ATWELL RD,SHADY SIDE,MD,20764,9737,(410) 222-1621
17849,240009001559,NEW ERA ACADEMY,2700 SEAMON AVENUE,BALTIMORE,MD,21225,NOT AVAILABLE,(443) 984-2415
18836,240051001544,MIDDLETON VALLEY ACADEMY,4815 DALTON STREET,CAMP SPRINGS,MD,20478,NOT AVAILABLE,(301) 552-0164
19113,240051000997,CAPITOL HEIGHTS ELEMENTARY,601 SUFFOLK AVE,CAPITOL HEIGHTS,MD,20743,3028,(301) 817-0494
52578,240048000926,SPRINGBROOK HIGH,201 VALLEY BROOK DR,SILVER SPRING,MD,20904,NOT AVAILABLE,(240) 740-3800
52694,240042001444,ELLICOTT MILLS MIDDLE,4445 MONTGOMERY RD,ELLICOTT CITY,MD,21043,NOT AVAILABLE,(410) 313-2839
53346,240051001018,DEERFIELD RUN ELEMENTARY,13000 LAUREL-BOWIE RD,LAUREL,MD,20708,2136,(301) 497-3610
54570,240051001731,KENMOOR EARLY CHILDHOOD CENTER,3211 82ND AVE,LANDOVER,MD,20785,NOT AVAILABLE,(301) 925-1970
57884,240009000164,CALVERTON ELEMENTARY/MIDDLE,201 NORTH BEND ROAD,BALTIMORE,MD,21229,NOT AVAILABLE,(410) 396-0581
58084,240009001632,INDEPENDENCE SCHOOL LOCAL I,1300 W 36TH STREET,BALTIMORE,MD,21211,NOT AVAILABLE,(443) 642-2504
58777,240006000096,MARYLAND CITY ELEMENTARY,3359 CRUMPTON SOUTH,LAUREL,MD,20724,2245,(301) 725-4256
80033,240027000589,GENERAL SMALLWOOD MIDDLE SCHOOL,4990 INDIAN HEAD HWY,INDIAN HEAD,MD,20640,NOT AVAILABLE,(301) 743-5422
87308,240009000229,GWYNNS FALLS ELEMENTARY,2700 GWYNNS FALLS PARKWAY,BALTIMORE,MD,21216,2920,(410) 396-0638
88272,240048000878,MONTGOMERY KNOLLS ELEMENTARY,807 DALEVIEW DR,SILVER SPRING,MD,20901,3699,(240) 740-0840
88347,240009000255,JAMES MOSHER ELEMENTARY,3910 BARRINGTON ROAD,BALTIMORE,MD,21207,NOT AVAILABLE,(410) 396-0506
94163,240051001103,MATTAPONI ELEMENTARY,11701 DULEY STATION RD,UPPER MARLBORO,MD,20772,7955,(301) 599-2442
95123,240006000120,RIPPLING WOODS ELEMENTARY,530 NOLFIELD DR,GLEN BURNIE,MD,21061,5311,(410) 222-6440
95313,240012000499,WOODBRIDGE ELEMENTARY,1410 PLEASANT VALLEY DR,BALTIMORE,MD,21228,2539,(410) 887-0857
96139,240012000471,SCOTTS BRANCH ELEMENTARY,8220 TAWNMOORE RD,BALTIMORE,MD,21207,NOT AVAILABLE,(410) 887-0761
96335,240030000841,CHOPTANK ELEMENTARY SCHOOL,1103 MACE'S LANE,CAMBRIDGE,MD,21613,NOT AVAILABLE,(410) 228-4950
98078,240066001288,SOUTH HAGERSTOWN HIGH,1101 S POTOMAC ST,HAGERSTOWN,MD,21740,7322,(301) 766-8369
99400,240048000840,GARRETT PARK ELEMENTARY,4810 OXFORD STREET,KENSINGTON,MD,20895,NOT AVAILABLE,(240) 740-0700
43730,240048000854,JACKSON ROAD ELEMENTARY,900 JACKSON RD,SILVER SPRING,MD,20904,2807,(240) 740-0800
46462,240048000800,CASHELL ELEMENTARY,17101 CASHELL RD,ROCKVILLE,MD,20853,1054,(240) 740-0560
47722,240006000046,BODKIN ELEMENTARY,8320 VENTNOR RD,PASADENA,MD,21122,5798,(410) 437-0464
48448,240006000117,QUARTERFIELD ELEMENTARY,7967 QUARTERFIELD RD,SEVERN,MD,21144,2126,(410) 222-6430
33821,240048001118,NORTH BETHESDA MIDDLE,8935 BRADMOOR DR,BETHESDA,MD,20817,NOT AVAILABLE,(240) 740-2100
34228,240012000463,CROMWELL VALLEY ELEMENTARY REGIONAL MAGNET,825 PROVIDENCE RD,BALTIMORE,MD,21286,NOT AVAILABLE,(410) 887-4888
34656,240051001090,LAUREL ELEMENTARY,516 MONTGOMERY ST,LAUREL,MD,20707,4204,(301) 497-3660
34697,240048000794,BURTONSVILLE ELEMENTARY,15516 OLD COLUMBIA PIKE,BURTONSVILLE,MD,20866,NOT AVAILABLE,(301) 989-5654
34915,240006001517,CROFTON MEADOWS ELEMENTARY,2020 TILGHMAN DR,CROFTON,MD,21114,1742,(410) 721-9453
36072,240051001148,ROSE VALLEY ELEMENTARY,9800 JACQUELINE DR,FORT WASHINGTON,MD,20744,2575,(301) 449-4990
60441,240012000383,ELMWOOD ELEMENTARY,531 DALE AVE,BALTIMORE,MD,21206,1303,(410) 887-5232
61623,240006000106,ODENTON ELEMENTARY,1290 ODENTON RD,ODENTON,MD,21113,NOT AVAILABLE,(410) 222-6514
63578,240048000887,OAK VIEW ELEMENTARY,400 E WAYNE AVE,SILVER SPRING,MD,20901,3811,(301) 650-6434
63741,240012000416,LANSDOWNE HIGH,3800 HOLLINS FERRY RD,BALTIMORE,MD,21227,2022,(443) 809-1415
63928,240063001250,TILGHMAN ELEMENTARY,21374 FOSTER AVE,TILGHMAN,MD,21671,NOT AVAILABLE,(410) 886-2391
68267,240048000181,ROSA M. PARKS MIDDLE,19200 OLNEY MILL RD,OLNEY,MD,20832,NOT AVAILABLE,(240) 740-3300
70223,240012090444,JOPPA VIEW ELEMENTARY,8727 HONEYGO BLVD,BALTIMORE,MD,21128,9687,(410) 887-5065
72956,240012000489,VICTORY VILLA ELEMENTARY,500 COMPASS RD,BALTIMORE,MD,21220,3530,(443) 809-0184
78181,240012000367,COLGATE ELEMENTARY,7735 GOUGH STREET,BALTIMORE,MD,21224,NOT AVAILABLE,(443) 809-7010
79148,240012001431,NORTHWEST ACADEMY OF HEALTH SCIENCES,4627 OLD COURT RD,BALTIMORE,MD,21208,2402,(410) 887-0742
13223,240051001093,LEWISDALE ELEMENTARY,2400 BANNING PL,HYATTSVILLE,MD,20783,2712,(301) 445-8433
15737,240009000222,GLENMOUNT ELEMENTARY/MIDDLE,6211 WALTHER AVENUE,BALTIMORE,MD,21206,NOT AVAILABLE,(410) 396-6366
16085,240048000849,HERBERT HOOVER MIDDLE,8810 POST OAK RD,POTOMAC,MD,20854,NOT AVAILABLE,(301) 968-3740
17191,240066001277,OLD FORGE ELEMENTARY,21615 OLD FORGE RD,HAGERSTOWN,MD,21742,NOT AVAILABLE,(301) 766-8273
18929,240051000990,BOWIE HIGH,15200 ANNAPOLIS RD,BOWIE,MD,20715,1897,(301) 805-2600
50251,240012000374,DUMBARTON MIDDLE,300 DUMBARTON RD,BALTIMORE,MD,21212,1562,(410) 887-3176
51879,240021000536,MANCHESTER ELEMENTARY,3224 YORK STREET,MANCHESTER,MD,21102,2071,(410) 751-3410
57040,240006001744,MONARCH ACADEMY ANNAPOLIS ES,2000 CAPITAL DRIVE,ANNAPOLIS,MD,21401,NOT AVAILABLE,(443) 449-2757
57908,240048000943,WASHINGTON GROVE ELEMENTARY,8712 OAKMONT ST,GAITHERSBURG,MD,20877,1236,(240) 740-0300
58607,240027001656,MARY B. NEAL ELEMENTARY SCHOOL,12105 ST. GEORGE'S DR,WALDORF,MD,20602,NOT AVAILABLE,(301) 638-2617
59366,240006002944,PINEY ORCHARD ELEMENTARY,2641 STRAWBERRY LAKE WAY,ODENTON,MD,21113,NOT AVAILABLE,(410) 672-7591
41908,240012000407,HALSTEAD ACADEMY,1111 HALSTEAD RD,BALTIMORE,MD,21234,6660,(410) 887-3210
42756,240069001304,GLEN AVENUE SCHOOL,1615 GLEN AVE,SALISBURY,MD,21804,NOT AVAILABLE,(410) 677-5806
43206,240048001721,WILSON WIMS ELEMENTARY SCHOOL,12520 BLUE SKY DRIVE,CLARKSBURG,MD,20871,NOT AVAILABLE,(240) 406-1670
43647,240069001149,WESTSIDE INTERMEDIATE,8000 QUANTICO RD,HEBRON,MD,21830,NOT AVAILABLE,(410) 677-5118
44519,240051001183,ROBERT R. GRAY ELEMENTARY,4949 ADDISON RD,CAPITAL HEIGHTS,MD,20743,1111,(301) 636-8400
47802,240012000385,FEATHERBED LANE ELEMENTARY,6700 RICHARDSON RD,BALTIMORE,MD,21207,4234,(410) 887-1302
48786,240069001298,BEAVER RUN SCHOOL,31481 OCEAN CITY RD,SALISBURY,MD,21804,NOT AVAILABLE,(410) 677-5101
2130,240009001313,DIGITAL HARBOR HIGH SCHOOL,1100 COVINGTON STREET,BALTIMORE,MD,21230,NOT AVAILABLE,(443) 984-1256
2536,240009000224,GRACELAND PARK/O'DONNELL HEIGHTS ELEMENTARY/MIDDLE,6300 O'DONNELL STREET,BALTIMORE,MD,21224,3661,(410) 396-9083
2679,240030000617,MAPLE ELEMENTARY SCHOOL,5225 EGYPT RD.,CAMBRIDGE,MD,21613,NOT AVAILABLE,(410) 228-8577
5531,240033001007,FREDERICK COUNTY VIRTUAL,1799 SCHIFFERSTADT BLVD,FREDERICK,MD,21701,NOT AVAILABLE,(240) 236-8450
5780,240033001549,GOV. THOMAS JOHNSON MIDDLE,1799 SCHIFFERSTADT BLVD,FREDERICK,MD,21701,NOT AVAILABLE,(240) 236-4900
7333,240012000425,MARTIN BOULEVARD ELEMENTARY,210 RIVERTON RD,BALTIMORE,MD,21220,NOT AVAILABLE,(410) 887-0158
9299,240033001521,MONOCACY ELEMENTARY,7421 HAYWARD RD,FREDERICK,MD,21702,3007,(240) 236-1400
60889,240015000515,NORTHERN MIDDLE,2954 CHANEYVILLE RD,OWINGS,MD,20736,9665,(443) 550-9230
61214,240021000537,MECHANICSVILLE ELEMENTARY,3838 SYKESVILLE ROAD,SYKESVILLE,MD,21784,9541,(410) 751-3510
62311,240066001254,BOONSBORO ELEMENTARY,5 CAMPUS AVE,BOONSBORO,MD,21713,1137,(301) 766-8013
62640,240012000346,BATTLE MONUMENT SCHOOL,7801 E COLLINGHAM DR,BALTIMORE,MD,21222,2503,(410) 887-7000
62856,240033000656,WALKERSVILLE MIDDLE,55 W FREDERICK STREET,WALKERSVILLE,MD,21793,NOT AVAILABLE,(240) 236-4400
62900,240012000502,WOODLAWN HIGH,1801 WOODLAWN DR,BALTIMORE,MD,21207,4008,(443) 809-1309
69068,240009000153,CHARLES CARROLL BARRISTER ELEMENTARY,1327 WASHINGTON BOULEVARD,BALTIMORE,MD,21230,NOT AVAILABLE,(410) 396-5973
20118,240024000569,GILPIN MANOR ELEMENTARY,203 NEWARK AVE,ELKTON,MD,21921,5478,(410) 996-5040
22856,240012000454,POT SPRING ELEMENTARY,2410 SPRING LAKE DR,TIMONIUM,MD,21093,2645,(410) 887-7648
24000,240009001390,CALVIN M. RODWELL ELEMENTARY/MIDDLE,3501 HILLSDALE ROAD,BALTIMORE,MD,21207,NOT AVAILABLE,(410) 396-0940
24020,240012000399,HAMPTON ELEMENTARY,1115 CHARMUTH RD,LUTHERVILLE,MD,21093,6402,(410) 887-3205
27967,240066001256,BOONSBORO HIGH,10 CAMPUS AVE,BOONSBORO,MD,21713,1108,(301) 766-8022
28787,240072001330,POCOMOKE HIGH,1817 OLD VIRGINIA RD,POCOMOKE CITY,MD,21851,3049,(410) 632-5180
29438,240033000649,LINCOLN ELEMENTARY,200 MADISON ST,FREDERICK,MD,21701,6563,(240) 236-2650
30273,240012000360,CHASE ELEMENTARY,11701 EASTERN AVE,BALTIMORE,MD,21220,1606,(410) 887-5940
31072,240009000299,PIMLICO ELEMENTARY/MIDDLE,4849 PIMLICO ROAD,BALTIMORE,MD,21215,NOT AVAILABLE,(410) 396-0876
32069,240015000962,CAREER AND TECHNOLOGY ACADEMY,330 DORSEY ROAD,PRINCE FREDERICK,MD,20678,4000,(443) 550-9940
33881,240048000909,ROCK CREEK VALLEY ELEMENTARY,5121 RUSSETT RD,ROCKVILLE,MD,20853,2550,(240) 740-1240
34678,240048000907,ROCK CREEK FOREST ELEMENTARY,8330 GRUBB ROAD,CHEVY CHASE,MD,20815,3021,(240) 839-3201
37767,240006000121,RIVIERA BEACH ELEMENTARY,8515 JENKINS RD,PASADENA,MD,21122,3026,(410) 222-6469
90459,240042000722,CENTENNIAL HIGH,4300 CENTENNIAL LN,ELLICOTT CITY,MD,21042,6214,(410) 313-2856
90780,240012000483,RIDGE/RUXTON SCHOOL,6916 CHARLES ST,BALTIMORE,MD,21204,NOT AVAILABLE,(410) 887-3594
91128,240036000671,NORTHERN GARRETT HIGH SCHOOL,86 PRIDE PKWY,ACCIDENT,MD,21520,2006,(301) 746-8668
94430,240051001142,ROBERT FROST ELEMENTARY,6419 85TH AVE,NEW CARROLLTON,MD,20784,3301,(301) 918-8792
71555,240051001208,DODGE PARK ELEMENTARY,3401 HUBBARD RD,LANDOVER,MD,20785,2057,(301) 883-4220
73777,240009000179,COLLINGTON SQUARE ELEMENTARY/MIDDLE,1409 N COLLINGTON AVENUE,BALTIMORE,MD,21213,3418,(410) 396-9198
76174,240012001422,HEREFORD MIDDLE,712 CORBETT RD,MONKTON,MD,21111,1538,(443) 809-7902
81766,240027000610,DR. THOMAS L. HIGDON ELEMENTARY SCHOOL,12872 ROCK POINT RD,NEWBURG,MD,20664,2514,(301) 934-4091
82109,240051001164,SUITLAND HIGH,5200 SILVER HILL RD,SUITLAND,MD,20746,NOT AVAILABLE,(301) 817-0500
83038,240039000712,PROSPECT MILL ELEMENTARY,101 PROSPECT MILL RD,BEL AIR,MD,21015,1513,(410) 638-3817
84935,240018000518,COLONEL RICHARDSON HIGH SCHOOL,25320 RICHARDSON RD,FEDERALSBURG,MD,21632,2403,(410) 479-3678
85783,240006000040,ARUNDEL HIGH,1001 ANNAPOLIS RD,GAMBRILLS,MD,21054,1033,(410) 674-6500
86111,240024000573,NORTH EAST ELEMENTARY,301 THOMAS AVE,NORTH EAST,MD,21901,4039,(410) 996-6220
87598,240018000968,CAROLINE CAREER & TECHNOLOGY CENTER,10855 CENTRAL AVE,RIDGELY,MD,21660,1730,(410) 479-0100
88902,240048001512,STRAWBERRY KNOLL ELEMENTARY,18820 STRAWBERRY KNOLL RD,GAITHERSBURG,MD,20879,1700,(301) 840-7112
89663,240048001525,WATKINS MILL HIGH,10301 APPLE RIDGE RD,GAITHERSBURG,MD,20879,NOT AVAILABLE,(301) 284-4400
44554,240009000204,FORT WORTHINGTON ELEMENTARY/MIDDLE,2710 E HOFFMAN STREET,BALTIMORE,MD,21213,NOT AVAILABLE,(410) 396-9161
45976,240069001305,JAMES M. BENNETT HIGH,300 E COLLEGE AVENUE,SALISBURY,MD,21804,NOT AVAILABLE,(410) 677-5141
47181,240048000851,HIGHLAND VIEW ELEMENTARY,9010 PROVIDENCE AVE,SILVER SPRING,MD,20901,4912,(240) 740-1990
49949,240036000675,SOUTHERN MIDDLE SCHOOL,605 HARVEY WINTERS ROAD,OAKLAND,MD,21550,4350,(301) 334-8881
55296,240069001315,CHARLES H. CHIPMAN ELEMENTARY,711 LAKE ST,SALISBURY,MD,21801,NOT AVAILABLE,(410) 677-5814
55424,240039000485,EMMORTON ELEMENTARY,2502 TOLLGATE RD,BEL AIR,MD,21014,6199,(410) 638-3920
56507,240012001711,BCDC EDUCATIONAL CENTER,105 W. CHESAPEAKE AVENUE,TOWSON,MD,21204,NOT AVAILABLE,(410) 887-4360
30087,240051001384,C. ELIZABETH RIEG REGIONAL CENTER,15542 PEACH WALKER DR,MITCHELLVILLE,MD,20716,1412,(301) 390-0200
32799,240051001174,THOMAS G. PULLEN SCHOOL,700 BRIGHTSEAT RD,LANDOVER,MD,20785,4720,(301) 808-8160
36929,240009001670,ELMER A. HENDERSON: A JOHNS HOPKINS PARTNERSHIP,2100 ASHLAND AVENUE,BALTIMORE,MD,21205,NOT AVAILABLE,(443) 642-2060
37374,240006001421,SHIPLEY'S CHOICE ELEMENTARY,310 GOVERNOR STONE PKY,MILLERSVILLE,MD,21108,2433,(410) 222-3851
37934,240012000372,DEER PARK MIDDLE MAGNET SCHOOL,9830 WINANDS RD,RANDALLSTOWN,MD,21133,2022,(410) 887-0726
38122,240033001536,URBANA MIDDLE,3511 PONTIUS CT,IJAMSVILLE,MD,21754,NOT AVAILABLE,(240) 566-9200
38687,240009001670,ELMER A. HENDERSON: A JOHNS HOPKINS PARTNERSHIP,2100 ASHLAND AVENUE,BALTIMORE,MD,21205,NOT AVAILABLE,(443) 642-2060
39428,240012000370,DEEP CREEK MIDDLE,1000 S MARLYN AVE,BALTIMORE,MD,21221,5939,(443) 809-0112
20513,240030000621,SANDY HILL ELEMENTARY,1503 GLASGOW ROAD,CAMBRIDGE,MD,21613,NOT AVAILABLE,(410) 228-7978
22787,240048000874,MEADOW HALL ELEMENTARY,951 TWINBROOK PKWY,ROCKVILLE,MD,20851,1431,(240) 740-5260
22834,240051001066,INDIAN QUEEN ELEMENTARY,9551 FORT FOOTE RD,FORT WASHINGTON,MD,20744,5726,(301) 749-4250
27413,240072001330,POCOMOKE HIGH,1817 OLD VIRGINIA RD,POCOMOKE CITY,MD,21851,3049,(410) 632-5180
27945,240051001052,GWYNN PARK HIGH,13800 BRANDYWINE RD,BRANDYWINE,MD,20613,5802,(301) 372-0140
64686,240069001151,FRUITLAND PRIMARY,301 N DIVISION ST,FRUITLAND,MD,21826,NOT AVAILABLE,(410) 677-5171
64937,240048090479,JUDITH A. RESNIK ELEMENTARY,7301 HADLEY FARMS DRIVE,GAITHERSBURG,MD,20879,NOT AVAILABLE,(240) 740-3240
65195,240048000660,ROCKY HILL MIDDLE,22401 BRICK HAVEN WAY,CLARKSBURG,MD,20871,NOT AVAILABLE,(301) 353-8282
66053,240009000147,ARMISTEAD GARDENS ELEMENTARY/MIDDLE,5001 E EAGER STREET,BALTIMORE,MD,21205,NOT AVAILABLE,(410) 396-9090
96525,240051001094,LONGFIELDS ELEMENTARY,3300 NEWKIRK AVE,FORESTVILLE,MD,20747,4360,(301) 817-0455
96660,240039001443,NORTH HARFORD ELEMENTARY,120 PYLESVILLE RD,PYLESVILLE,MD,21132,1305,(410) 638-3670
97561,240051000966,ALLENWOOD ELEMENTARY,6300 HARLEY LN,TEMPLE HILLS,MD,20748,3815,(301) 702-3930
99734,240048000881,NEW HAMPSHIRE ESTATES ELEM,8720 CARROLL AVE,SILVER SPRING,MD,20903,3149,(240) 740-1580
3971,240048000786,BEVERLY FARMS ELEMENTARY,8501 POST OAK ROAD,POTOMAC,MD,20854,3548,(240) 740-0200
4632,240066001740,JONATHAN HAGER ELEMENTARY,12615 SEDGWICK WAY,HAGERSTOWN,MD,21740,NOT AVAILABLE,(301) 766-8440
9019,240051001160,SPRINGHILL LAKE ELEMENTARY,6060 SPRINGHILL DR,GREENBELT,MD,20770,3103,(301) 513-5996
9724,240006000107,OLD MILL MIDDLE NORTH,610 PATRIOT LN,MILLERSVILLE,MD,21108,1355,(410) 969-5950
10757,240012000345,BATTLE GROVE ELEMENTARY,7828 ST PATRICIA LN,BALTIMORE,MD,21222,3517,(410) 887-7500
11847,240033000657,WAVERLEY ELEMENTARY,201 WAVERLEY DR,FREDERICK,MD,21702,3802,(240) 236-3900
11848,240033000646,PARKWAY ELEMENTARY,300 CARROLL PKY,FREDERICK,MD,21701,4872,(240) 236-2600
11910,240006000080,HILLSMERE ELEMENTARY,3052 ARUNDEL ON THE BAY RD,ANNAPOLIS,MD,21403,4302,(410) 222-1622
11997,240006000131,SOUTHERN MIDDLE,5235 SOLOMONS ISLAND RD,LOTHIAN,MD,20711,9702,(410) 222-1659
12206,240009000152,BARCLAY ELEMENTARY/MIDDLE,2900 BARCLAY STREET,BALTIMORE,MD,21218,4117,(410) 396-6387
18138,240051001068,J. FRANK DENT ELEMENTARY,2700 CORNING AVE,FORT WASHINGTON,MD,20744,3043,(301) 702-3850
74593,240033000631,EMMITSBURG ELEMENTARY,300 S SETON AVE,EMMITSBURG,MD,21727,9227,(240) 236-1750
75495,240006000112,WALTER S. MILLS - PAROLE ELEMENTARY,1 GEORGE AND MARION PHELPS LANE,ANNAPOLIS,MD,21401,4003,(410) 222-1626
76803,240048000780,BEL PRE ELEMENTARY,13801 RIPPLING BROOK DRIVE,SILVER SPRING,MD,20906,NOT AVAILABLE,(301) 287-8870
77537,240051001217,LAKE ARBOR ELEMENTARY,10205 LAKE ARBOR WAY,MITCHELLVILLE,MD,20721,3179,(301) 808-5940
79591,240003000001,ALLEGANY HIGH,900 SETON DR,CUMBERLAND,MD,21502,2051,(301) 777-8110
86810,240069001306,MARDELA MIDDLE & HIGH,24940 DELMAR RD,MARDELA SPRINGS,MD,21837,NOT AVAILABLE,(410) 677-5142
86848,240072001329,POCOMOKE MIDDLE,800 8TH ST,POCOMOKE CITY,MD,21851,1573,(410) 632-5150
89728,240012000382,EDMONDSON HEIGHTS ELEMENTARY,1600 LANGFORD RD,BALTIMORE,MD,21207,4959,(410) 887-0818
105156,240051001755,CAREER AND TECHNICAL EDUCATION EVENING HIGH,4200 57TH AVE,BLADENSBURG,MD,20710,NOT AVAILABLE,(240) 573-7354
82544,240042001415,CEDAR LANE SPECIAL CENTER,11630 SCAGGSVILLE RD,FULTON,MD,20759,1946,(410) 888-8800
83277,240006000090,MACARTHUR MIDDLE,3500 ROCKENBACH ROAD,FORT MEADE,MD,20755,NOT AVAILABLE,(410) 674-0032
85635,240048000940,VIERS MILL ELEMENTARY,11711 JOSEPH MILL RD,SILVER SPRING,MD,20906,NOT AVAILABLE,(240) 740-1000
86609,240027001519,WILLIAM B. WADE ELEMENTARY SCHOOL,2300 SMALLWOOD DR W,WALDORF,MD,20603,4431,(301) 932-4304
87494,240036001351,NORTHERN MIDDLE SCHOOL,371 PRIDE PKWY,ACCIDENT,MD,21520,2007,(301) 746-8165
88321,240012000363,CHESAPEAKE TERRACE ELEMENTARY,2112 LODGE FARM RD,BALTIMORE,MD,21219,2131,(410) 887-7505
88384,240042000748,PATAPSCO MIDDLE,8885 OLD FREDERICK RD,ELLICOTT CITY,MD,21043,1923,(410) 313-2848
88449,240006000100,MILLERSVILLE ELEMENTARY,1601 MILLERSVILLE RD,MILLERSVILLE,MD,21108,2119,(410) 222-3800
88484,240051000714,SCOTCHTOWN HILLS ELEMENTARY,15950 DORSET RD,LAUREL,MD,20707,5313,(301) 497-3994
105152,240033001762,SUGARLOAF ELEMENTARY,3400 STONE BARN DRIVE,FREDERICK,MD,21704,NOT AVAILABLE,(240) 566-0500
21960,240042000396,ROCKBURN ELEMENTARY,6145 MONTGOMERY RD,ELKRIDGE,MD,21075,NOT AVAILABLE,(410) 313-5030
22414,240012000397,GUNPOWDER ELEMENTARY,9540 HOLIDAY MANOR RD,BALTIMORE,MD,21236,1414,(410) 887-5121
24231,240048000185,LOIS P. ROCKWELL ELEMENTARY,24555 CUTSAIL DR,DAMASCUS,MD,20872,NOT AVAILABLE,(240) 740-5180
24838,240012000465,RODGERS FORGE ELEMENTARY,250 DUMBARTON RD,BALTIMORE,MD,21212,NOT AVAILABLE,(410) 887-3582
29220,240048000838,GAITHERSBURG HIGH,101 EDUCATION BLVD,GAITHERSBURG,MD,20877,2392,(301) 284-4500
70675,240051001069,JAMES H. HARRISON ELEMENTARY,13200 LARCHDALE RD,LAUREL,MD,20708,1744,(301) 497-3650
71695,240009000143,ABBOTTSTON ELEMENTARY,1300 GORSUCH AVENUE,BALTIMORE,MD,21218,3620,(443) 984-2685
73537,240039000468,CHURCH CREEK ELEMENTARY,4299 CHURCH CREEK RD,BELCAMP,MD,21017,1394,(410) 273-5550
74147,240003000033,WESTERNPORT ELEMENTARY,172 CHURCH ST,WESTERNPORT,MD,21562,1419,(301) 359-0511
76051,240012000470,SANDY PLAINS ELEMENTARY,8330 KAVANAGH RD,BALTIMORE,MD,21222,5621,(410) 887-7070
76335,240012000444,PATAPSCO HIGH AND CENTER FOR ARTS,8100 WISE AVE,BALTIMORE,MD,21222,4844,(443) 809-7060
76569,240006000137,VAN BOKKELEN ELEMENTARY,1140 REECE RD,SEVERN,MD,21144,2422,(410) 222-6535
77503,240039000394,FOUNTAIN GREEN ELEMENTARY,517 FOUNTAIN GREEN RD,BEL AIR,MD,21015,4708,(410) 638-4220
78104,240048000898,POTOMAC ELEMENTARY,10311 RIVER RD,POTOMAC,MD,20854,NOT AVAILABLE,(240) 740-4360
61338,240069001088,WICOMICO COUNTY EVENING HIGH,916 S. SCHUMAKER DR,SALISBURY,MD,21804,NOT AVAILABLE,(410) 677-4537
61948,240042000744,NORTHFIELD ELEMENTARY,9125 NORTHFIELD RD,ELLICOTT CITY,MD,21042,5903,(410) 313-2806
62583,240042001189,HOMEWOOD SCHOOL,10914 CLARKSVILLE PIKE,ELLICOTT CITY,MD,21042,NOT AVAILABLE,(410) 313-7081
62687,240051001039,FORT WASHINGTON FOREST ELEMENTARY,1300 FILLMORE RD,FORT WASHINGTON,MD,20744,2935,(301) 203-1123
64234,240048000877,MONTGOMERY BLAIR HIGH,51 UNIVERSITY BLVD E,SILVER SPRING,MD,20901,NOT AVAILABLE,(301) 649-2800
66898,240027000598,MALCOLM ELEMENTARY SCHOOL,14760 POPLAR HILL RD,WALDORF,MD,20601,NOT AVAILABLE,(301) 645-2691
67289,240048000956,WINSTON CHURCHILL HIGH,11300 GAINSBOROUGH RD,POTOMAC,MD,20854,3799,(240) 740-5400
11301,240066001258,CASCADE ELEMENTARY,14519 PENNERSVILLE RD,CASCADE,MD,21719,1802,(301) 766-8066
13828,240012001439,GOLDEN RING MIDDLE,6700 KENWOOD AVE,BALTIMORE,MD,21237,1818,(443) 809-0130
16357,240051001075,JOHN H. BAYNE ELEMENTARY,7010 WALKER MILL RD,CAPITOL HEIGHTS,MD,20743,4656,(301) 499-7020
19479,240051001123,OXON HILL HIGH,6701 LEYTE DR,OXON HILL,MD,20745,2199,(301) 749-4300
19701,240006000072,GEORGE FOX MIDDLE,7922 OUTING AVE,PASADENA,MD,21122,1415,(410) 437-5512
31462,240006001658,NANTUCKET ELEMENTARY,2350 NANTUCKET DR,CROFTON,MD,21114,NOT AVAILABLE,(410) 451-6120
35325,240012000831,ROSEDALE CENTER,7090 GOLDEN RING ROAD SUITE 103,BALTIMORE,MD,21237,NOT AVAILABLE,(443) 809-0133
39152,240051001223,ERNEST EVERETT JUST MIDDLE,1300 CAMPUS WAY N,MITCHELLVILLE,MD,20721,1856,(301) 808-4040
44016,240051001175,THOMAS JOHNSON MIDDLE,5401 BARKER PL,LANHAM,MD,20706,2413,(301) 918-8680
44286,240060001229,LEONARDTOWN MIDDLE,24015 POINT LOOKOUT RD,LEONARDTOWN,MD,20650,NOT AVAILABLE,(301) 475-0230
48234,240048000951,WHEATON HIGH,12401 DALEWOOD DR,SILVER SPRING,MD,20906,4114,(301) 321-3400
49040,240009001302,CONNEXIONS: A COMMUNITY BASED ARTS SCHOOL,2801 N DUKELAND STREET,BALTIMORE,MD,21216,NOT AVAILABLE,(443) 984-1418
49661,240051001017,CROSSLAND HIGH,6901 TEMPLE HILL RD,TEMPLE HILLS,MD,20748,5207,(301) 449-4800
50544,240051001188,WOODMORE ELEMENTARY,12500 WOODMORE RD,MITCHELLVILLE,MD,20721,4116,(301) 390-0239
50640,240009001733,BANNEKER BLAKE ACADEMY OF ARTS AND SCIENCES,1101 WINSTON AVENUE,BALTIMORE,MD,21212,NOT AVAILABLE,(443) 642-5420
52969,240009001735,BARD HIGH SCHOOL EARLY COLLEGE,2801 N DUKELAND STREET,BALTIMORE,MD,21216,NOT AVAILABLE,(443) 642-5040
55376,240042001551,BELLOWS SPRING ELEMENTARY,8125 OLD STOCKBRIDGE DR,ELLICOTT CITY,MD,21043,NOT AVAILABLE,(410) 313-5057
59064,240051001155,SEAT PLEASANT ELEMENTARY,6411 G ST,CAPITAL HEIGHTS,MD,20743,1714,(301) 925-2330
1111,240048010503,JONES LANE ELEMENTARY,15110 JONES LN,GAITHERSBURG,MD,20878,3719,(240) 740-4260
2328,240006000088,LINTHICUM ELEMENTARY,101 SCHOOL LN,LINTHICUM,MD,21090,2527,(410) 222-6935
2783,240033000629,CATOCTIN HIGH,14745 SABILLASVILLE RD,THURMONT,MD,21788,1618,(240) 236-8100
3584,240009000277,MARY E. RODMAN ELEMENTARY,3510 W MULBERRY,BALTIMORE,MD,21229,NOT AVAILABLE,(410) 396-0508
3691,240051001139,CESAR CHAVEZ ELEMENTARY,6609 RIGGS RD,HYATTSVILLE,MD,20782,1526,(301) 853-5694
4795,240006000081,HILLTOP ELEMENTARY,415 MELROSE AVE,GLEN BURNIE,MD,21061,NOT AVAILABLE,(410) 222-6409
5453,240051001060,HILLCREST HEIGHTS ELEMENTARY,4305 22ND PL,TEMPLE HILLS,MD,20748,7000,(301) 702-3800
6021,240057001743,GREENWOOD ELEMENTARY SCHOOL,11412 DRYDEN ROAD,PRINCESS ANNE,MD,21853,NOT AVAILABLE,(410) 651-0931
9751,240021001348,POST SECONDARY PROGRAM,495 SOUTH CENTER STREET,WESTMINSTER,MD,21157,5635,(410) 751-3620
90801,240006000102,NORTH GLEN ELEMENTARY,615 WEST FURNACE BRANCH RD,GLEN BURNIE,MD,21061,2215,(410) 222-6416
91855,240048000875,MILL CREEK TOWNE ELEMENTARY,17700 PARK MILL DR,ROCKVILLE,MD,20855,NOT AVAILABLE,(240) 740-1820
92058,240015000509,CALVERT COUNTRY SCHOOL,1350 DARES BEACH RD,PRINCE FREDERICK,MD,20678,4207,(443) 550-9910
92159,240012000417,LANSDOWNE MIDDLE,2400 LANSDOWNE RD,BALTIMORE,MD,21227,2019,(410) 887-1411
94140,240051001013,CONCORD ELEMENTARY,2004 CONCORD LN,DISTRICT HEIGHTS,MD,20747,1217,(301) 817-0488
96659,240021000527,CARROLL SPRINGS SCHOOL,495 SOUTH CENTER STREET,WESTMINSTER,MD,21157,5635,(410) 751-3620
99518,240009000339,WOODHOME ELEMENTARY/MIDDLE,7300 MOYER AVENUE,BALTIMORE,MD,21234,7126,(410) 396-6398
2888,240009001690,CITY NEIGHBORS HIGH,5609 SEFTON AVENUE,BALTIMORE,MD,21214,NOT AVAILABLE,(443) 642-2119
7014,240006000038,ARNOLD ELEMENTARY,95 JOYCE LANE E,ARNOLD,MD,21012,2344,(410) 457-4400
8039,240033000392,WINDSOR KNOLLS MIDDLE,11150 WINDSOR RD,IJAMSVILLE,MD,21754,NOT AVAILABLE,(240) 236-5000
8413,240042000859,FULTON ELEMENTARY,11600 SCAGGSVILLE RD,FULTON,MD,20759,NOT AVAILABLE,(410) 880-5957
43129,240042001200,RESERVOIR HIGH,11550 SCAGGSVILLE RD,FULTON,MD,20759,NOT AVAILABLE,(410) 888-8850
44316,240033001688,OAKDALE HIGH,5850 EAGLEHEAD DRIVE,IJAMSVILLE,MD,21754,NOT AVAILABLE,(240) 566-9400
45522,240024090469,RISING SUN HIGH,100 TIGER DR,NORTH EAST,MD,21901,1139,(410) 658-9115
47542,240063001244,EASTON ELEMENTARY,307 GLENWOOD AVE,EASTON,MD,21601,NOT AVAILABLE,(410) 822-0686
76108,240021000538,MOUNT AIRY ELEMENTARY,405 NORTH MAIN STREET,MOUNT AIRY,MD,21771,7440,(410) 751-3540
78418,240009000297,PATTERSON HIGH,100 KANE STREET,BALTIMORE,MD,21224,1726,(410) 396-9276
79992,240006000135,TRACEYS ELEMENTARY,20 DEALE RD,TRACEYS LANDING,MD,20779,NOT AVAILABLE,(410) 222-1633
80978,240024000570,HOLLY HALL ELEMENTARY,233 WHITE HALL RD,ELKTON,MD,21921,NOT AVAILABLE,(410) 996-5050
81522,240012000419,LOCH RAVEN TECHNICAL ACADEMY,8101 LA SALLE RD,BALTIMORE,MD,21286,8023,(443) 809-3518
86499,240009001631,BALTIMORE INTERNATIONAL ACADEMY,4410 FRANKFORD AVENUE,BALTIMORE,MD,21206,NOT AVAILABLE,(410) 426-3650
86822,240036000852,YOUGH GLADES ELEMENTARY,70 WOLF ACRES DR,OAKLAND,MD,21550,2022,(301) 334-3334
88502,240048001207,NEWPORT MILL MIDDLE,11311 NEWPORT MILL RD,KENSINGTON,MD,20895,NOT AVAILABLE,(301) 929-2244
89703,240048000868,LUCY V. BARNSLEY ELEMENTARY,14516 NADINE DR,ROCKVILLE,MD,20853,NOT AVAILABLE,(240) 740-3260
10266,240015001505,SUNDERLAND ELEMENTARY,150 CLYDE JONES RD,SUNDERLAND,MD,20689,9684,(443) 550-9390
11498,240015000611,PATUXENT HIGH,12485 SOUTHERN CONNECTOR BOULEVARD,LUSBY,MD,20657,NOT AVAILABLE,(443) 550-8840
13304,240057001202,DEAL ISLAND SCHOOL,23275 LOLA WHEATLEY RD,DEAL ISLAND,MD,21821,NOT AVAILABLE,(410) 784-2449
14349,240066001278,PANGBORN ELEMENTARY,195 PANGBORN BLVD,HAGERSTOWN,MD,21740,5042,(301) 766-8282
16786,240060001227,HOLLYWOOD ELEMENTARY,44345 JOY CHAPEL RD,HOLLYWOOD,MD,20636,NOT AVAILABLE,(301) 373-4350
17515,240009000188,DR. MARTIN LUTHER KING JR. ELEMENTARY/MIDDLE,3750 GREENSPRING AVENUE,BALTIMORE,MD,21211,1308,(410) 396-0756
19071,240042000733,GUILFORD ELEMENTARY,7335 OAKLAND MILLS RD,COLUMBIA,MD,21046,1639,(410) 880-5930
91819,240009000231,HAMILTON ELEMENTARY/MIDDLE,6101 OLD HARFORD ROAD,BALTIMORE,MD,21214,NOT AVAILABLE,(410) 396-6375
92188,240048001643,ARCOLA ELEMENTARY,1820 FRANWALL AVE,SILVER SPRING,MD,20902,NOT AVAILABLE,(301) 287-8585
93103,240033001413,MONOCACY MIDDLE,8009 OPOSSUMTOWN PIKE,FREDERICK,MD,21702,2974,(240) 236-4700
61013,240069001312,PITTSVILLE ELEMENTARY & MIDDLE,34404 OLD OCEAN CITY RD,PITTSVILLE,MD,21850,NOT AVAILABLE,(410) 677-5811
61556,240006000103,NORTHEAST HIGH,1121 DUVALL HWY,PASADENA,MD,21122,1909,(410) 437-6400
63107,240051001245,DORA KENNEDY FRENCH IMMERSION,8950 EDMONSTON RD,GREENBELT,MD,20770,NOT AVAILABLE,(301) 918-8660
63448,240012000383,ELMWOOD ELEMENTARY,531 DALE AVE,BALTIMORE,MD,21206,1303,(410) 887-5232
63461,240012000426,MCCORMICK ELEMENTARY,5101 HAZELWOOD AVE,BALTIMORE,MD,21206,2226,(410) 887-0500
63577,240033000661,YELLOW SPRINGS ELEMENTARY,8717 YELLOW SPRINGS RD,FREDERICK,MD,21702,2443,(240) 236-1700
64597,240006000103,NORTHEAST HIGH,1121 DUVALL HWY,PASADENA,MD,21122,1909,(410) 437-6400
66934,240042000731,GLENELG HIGH,14025 BURNT WOODS RD,GLENELG,MD,21737,9718,(410) 313-5528
67112,240009000208,FRANKLIN SQUARE ELEMENTARY/MIDDLE,1400 W LEXINGTON STREET,BALTIMORE,MD,21223,1854,(410) 396-0795
67572,240051000982,BENJAMIN TASKER MIDDLE SCHOOL,4901 COLLINGTON RD,BOWIE,MD,20715,2537,(301) 805-2660
69407,240033000655,WALKERSVILLE HIGH,81 W FREDERICK STREET,WALKERSVILLE,MD,21793,NOT AVAILABLE,(240) 236-7200
69896,240003000031,WASHINGTON MIDDLE,200 MASSACHUSETTS AVE,CUMBERLAND,MD,21502,3855,(301) 777-5360
21460,240009000199,FALLSTAFF ELEMENTARY/MIDDLE,3801 FALLSTAFF ROAD,BALTIMORE,MD,21215,1502,(410) 396-0682
22301,240048000903,RIDGEVIEW MIDDLE,16600 RAVEN ROCK DR,GAITHERSBURG,MD,20878,2054,(240) 740-3330
22545,240012000449,PIKESVILLE HIGH,7621 LABYRINTH RD,BALTIMORE,MD,21208,4411,(443) 809-1217
23349,240009000171,THE HISTORIC CHERRY HILL ELEMENTARY/MIDDLE,801 BRIDGEVIEW ROAD,BALTIMORE,MD,21225,NOT AVAILABLE,(410) 396-1392
38983,240048001454,FLOWER HILL ELEMENTARY,18425 FLOWER HILL WAY,GAITHERSBURG,MD,20879,4600,(301) 840-7161
101423,240015001392,SOUTHERN MIDDLE,9615 H G TRUEMAN RD,LUSBY,MD,20657,2804,(443) 550-9250
105146,240012001753,WATERSHED PUBLIC CHARTER,6946 DOGWOOD RD,WOODLAWN,MD,21244,NOT AVAILABLE,(410) 944-1810
105153,240042001749,HANOVER HILLS,7030 BANBURY DRIVE,HANOVER,MD,21076,NOT AVAILABLE,(410) 313-8066
50667,240024090468,ELK NECK ELEMENTARY,41 RACINE SCHOOL RD,ELKTON,MD,21921,7546,(410) 996-5030
52425,240012001372,GLENMAR ELEMENTARY,9700 COMMUNITY DR,BALTIMORE,MD,21220,2512,(410) 887-0127
54569,240027010501,DANIEL OF ST. THOMAS JENIFER ELEMENTARY SCHOOL,2820 JENIFER SCHOOL LN,WALDORF,MD,20603,NOT AVAILABLE,(301) 932-9603
55660,240048000952,WHEATON WOODS ELEMENTARY,4510 FAROE PL,ROCKVILLE,MD,20853,NOT AVAILABLE,(240) 740-0220
43941,240060001240,WHITE MARSH ELEMENTARY,29090 THOMPSON CORNER RD,MECHANICSVILLE,MD,20659,4046,(301) 472-4600
45048,240006000132,SOUTHERN HIGH,4400 SOLOMONS ISLAND RD,HARWOOD,MD,20776,9504,(410) 867-7100
47496,240066001270,HANCOCK MIDDLE SENIOR HIGH,289 W MAIN ST,HANCOCK,MD,21750,1333,(301) 766-8186
48382,240021000553,WESTMINSTER WEST MIDDLE,60 MONROE STREET,WESTMINSTER,MD,21157,4567,(410) 751-3661
48443,240039002948,FOREST HILL ELEMENTARY,2407 ROCKS RD,FOREST HILL,MD,21050,1625,(410) 638-4166
48964,240051001471,OXON HILL MIDDLE,9570 FORT FOOTE RD,FORT WASHINGTON,MD,20744,5703,(301) 749-4270
49005,240051001462,WILLIAM W. HALL ACADEMY,5200 MARLBORO PK,CAPITOL HEIGHTS,MD,20743,5424,(301) 817-2933
81657,240012000777,MEADOWOOD EDUCATION CENTER,1849 GYWNN OAK AVE,BALTIMORE,MD,21207,NOT AVAILABLE,(443) 809-6888
81933,240009001530,COPPIN ACADEMY,2500 W NORTH AVENUE,BALTIMORE,MD,21216,NOT AVAILABLE,(443) 642-5060
87235,240051001131,POINTER RIDGE ELEMENTARY,1110 PARKINGTON LN,BOWIE,MD,20716,1718,(301) 390-0220
87735,240006000083,JESSUP ELEMENTARY,2798 CHAMPION FOREST AVENUE,JESSUP,MD,20794,9712,(410) 799-1200
89573,240069001311,PINEHURST ELEMENTARY,520 S PINEHURST AVE,SALISBURY,MD,21801,NOT AVAILABLE,(410) 677-5810
71661,240051001167,SURRATTSVILLE HIGH,6101 GARDEN DR,CLINTON,MD,20735,2541,(301) 599-2453
72384,240048000918,SENECA VALLEY HIGH,19401 CRYSTAL ROCK DR,GERMANTOWN,MD,20874,1599,(301) 353-8000
72748,240051001001,CATHERINE T. REED ELEMENTARY,9501 GREENBELT RD,LANHAM,MD,20706,3303,(301) 918-8716
75926,240012000352,CARROLL MANOR ELEMENTARY,4434 CARROLL MANOR RD,BALDWIN,MD,21013,9773,(410) 887-5947
77546,240012000377,DUNDALK HIGH,1901 DELVALE AVE,BALTIMORE,MD,21222,3119,(443) 809-7023
91169,240066001285,SMITHSBURG HIGH,66 N MAIN ST,SMITHSBURG,MD,21783,9606,(301) 766-8337
94673,240042000742,LONGFELLOW ELEMENTARY,5470 HESPERUS DR,COLUMBIA,MD,21044,1801,(410) 313-6879
97892,240051001179,VALLEY VIEW ELEMENTARY,5500 DANBY AVE,OXON HILL,MD,20745,3211,(301) 749-4350
97999,240051001704,ACADEMY OF HEALTH SCIENCES AT PGCC,301 LARGO RD,LARGO,MD,20774,NOT AVAILABLE,(301) 546-7247
61235,240051001054,NORTHWESTERN EVENING/SATURDAY HIGH,7000 ADELPHI ROAD,HYATTSVILLE,MD,20782,1497,(301) 985-1460
61609,240033001011,FREDERICK COUNTY CAREER & TECHNOLOGY CENTER,7922 OPOSSUMTOWN PIKE,FREDERICK,MD,21702,NOT AVAILABLE,(240) 236-8500
62333,240051001555,SAMUEL P. MASSIE ACADEMY,3301 REGENCY PKWY,FORESTVILLE,MD,20747,NOT AVAILABLE,(301) 669-1120
62665,240051002951,CHARLES HERBERT FLOWERS HIGH,10001 ARDWICK-ARDMORE RD,SPRINGDALE,MD,20774,2640,(301) 636-8000
62688,240009000215,WOLFE STREET ACADEMY,245 S WOLFE STREET,BALTIMORE,MD,21231,2622,(410) 396-9140
68241,240009000154,BAY-BROOK ELEMENTARY/MIDDLE,4301 10TH STREET,BALTIMORE,MD,21225,NOT AVAILABLE,(410) 396-1357
33882,240051000969,APPLE GROVE ELEMENTARY,7400 BELLEFIELD AVE,FORT WASHINGTON,MD,20744,3399,(301) 449-4966
34970,240021000545,SANDYMOUNT ELEMENTARY,2222 OLD WESTMINSTER PIKE,FINKSBURG,MD,21048,1636,(410) 751-3215
39114,240009001678,N.A.C.A. FREEDOM AND DEMOCRACY ACADEMY II,2500 E NORTHERN PARKWAY,BALTIMORE,MD,21214,NOT AVAILABLE,(443) 642-2031
100605,240051001474,GLENN DALE ELEMENTARY,6700 GLENN DALE RD,GLENN DALE,MD,20769,9407,(301) 805-2750
101397,240012000230,GEORGE W. CARVER CENTER FOR ARTS & TECHNOLOGY,938 YORK RD,TOWSON,MD,21204,2513,(443) 809-2775
22042,240033000653,VALLEY ELEMENTARY,3519 JEFFERSON PIKE,JEFFERSON,MD,21755,8204,(240) 236-3000
22808,240051001000,CARROLLTON ELEMENTARY,8300 QUINTANA ST,NEW CARROLLTON,MD,20784,3420,(301) 918-8708
24847,240009001558,EMPOWERMENT ACADEMY,851 BRADDISH AVENUE,BALTIMORE,MD,21216,NOT AVAILABLE,(443) 984-2381
25995,240009001716,CREATIVE CITY PUBLIC CHARTER SCHOOL,2810 SHIRLEY AVENUE,BALTIMORE,MD,21215,NOT AVAILABLE,(443) 642-3600
27011,240009000175,CITY SPRINGS ELEMENTARY/MIDDLE,100 S CAROLINE STREET,BALTIMORE,MD,21231,1703,(410) 396-9165
29125,240009000322,THOMAS JEFFERSON ELEMENTARY/MIDDLE,605 DRYDEN DRIVE,BALTIMORE,MD,21229,1418,(410) 396-0534
10802,240042000762,WILDE LAKE HIGH,5460 TRUMPETER RD,COLUMBIA,MD,21044,NOT AVAILABLE,(410) 313-6965
13574,240006000050,BROOKLYN PARK MIDDLE,200 HAMMONDS LN,BALTIMORE,MD,21225,NOT AVAILABLE,(410) 636-2967
16604,240009000188,DR. MARTIN LUTHER KING JR. ELEMENTARY/MIDDLE,3750 GREENSPRING AVENUE,BALTIMORE,MD,21211,1308,(410) 396-0756
17650,240006000075,GLEN BURNIE HIGH,7550 BALTIMORE ANNAPOLIS BLVD,GLEN BURNIE,MD,21060,NOT AVAILABLE,(410) 761-8950
17707,240060001227,HOLLYWOOD ELEMENTARY,44345 JOY CHAPEL RD,HOLLYWOOD,MD,20636,NOT AVAILABLE,(301) 373-4350
18299,240006000126,SEVERNA PARK MIDDLE,450 JUMPERS HOLE RD,SEVERNA PARK,MD,21146,1689,(410) 647-7900
19090,240051000971,ARROWHEAD ELEMENTARY,2300 SANSBURY RD,UPPER MARLBORO,MD,20772,NOT AVAILABLE,(301) 499-7071
19580,240051001082,KETTERING ELEMENTARY,11000 LAYTON ST,UPPER MARLBORO,MD,20774,1527,(301) 808-5977
5529,240009001682,BALTIMORE LEADERSHIP SCHOOL FOR YOUNG WOMEN,128 W FRANKLIN STREET,BALTIMORE,MD,21201,NOT AVAILABLE,(443) 642-2048
6543,240051001012,COLUMBIA PARK ELEMENTARY,1901 KENT VILLAGE DR,LANDOVER,MD,20785,3927,(301) 925-1322
7918,240042090478,POINTERS RUN ELEMENTARY,6600 SOUTH TROTTER RD,CLARKSVILLE,MD,21029,1248,(410) 313-7142
8033,240042000756,TALBOTT SPRINGS ELEMENTARY,9550 BASKET RING RD,COLUMBIA,MD,21045,3415,(410) 313-6915
61043,240024000581,THOMSON ESTATES ELEMENTARY,203 E THOMSON DR,ELKTON,MD,21921,6245,(410) 996-5080
63137,240009000244,HIGHLANDTOWN ELEMENTARY/MIDDLE #237,6820 FAIT AVENUE,BALTIMORE,MD,21224,NOT AVAILABLE,(443) 642-2792
66191,240069001314,PRINCE STREET SCHOOL,400 PRINCE STREET,SALISBURY,MD,21804,NOT AVAILABLE,(410) 677-5813
107159,240033001748,BUTTERFLY RIDGE ELEMENTARY,601 CONTENDER WAY,FREDERICK,MD,21703,NOT AVAILABLE,(240) 566-0300
70680,240039000691,FALLSTON HIGH,2301 CARRS MILL RD,FALLSTON,MD,21047,1899,(410) 638-4120
76582,240033000642,MYERSVILLE ELEMENTARY,429 MAIN STREET,MYERSVILLE,MD,21773,NOT AVAILABLE,(240) 236-1900
76900,240048001044,JAMES HUBERT BLAKE HIGH,300 NORWOOD RD,SILVER SPRING,MD,20905,NOT AVAILABLE,(240) 740-1400
77363,240048000493,ROBERTO W. CLEMENTE MIDDLE,18808 WARING STATION RD,GERMANTOWN,MD,20874,NOT AVAILABLE,(301) 284-4750
78088,240009000150,BALTIMORE CITY COLLEGE,3220 THE ALAMEDA,BALTIMORE,MD,21218,3695,(410) 396-6557
11007,240048090451,BROOKE GROVE ELEMENTARY,2700 SPARTAN RD,OLNEY,MD,20832,1507,(240) 722-1800
13989,240066001259,CLEAR SPRING ELEMENTARY,12627 BROADFORDING RD,CLEAR SPRING,MD,21722,1361,(301) 766-8074
14328,240015000516,NORTHERN HIGH,2950 CHANEYVILLE RD,OWINGS,MD,20736,9665,(443) 550-8950
17932,240009000192,EDGECOMBE CIRCLE ELEMENTARY,2835 VIRGINIA AVENUE,BALTIMORE,MD,21215,6534,(410) 396-0550
18359,240048000915,ROSEMARY HILLS ELEMENTARY,2111 PORTER RD,SILVER SPRING,MD,20910,5010,(301) 920-9990
19411,240009000180,COMMODORE JOHN RODGERS ELEMENTARY/MIDDLE,100 N CHESTER STREET,BALTIMORE,MD,21231,1627,(410) 396-9300
19914,240051001144,ROCKLEDGE ELEMENTARY,7701 LAUREL BOWIE RD,BOWIE,MD,20715,1002,(301) 805-2720
2008,240012000402,HEBBVILLE ELEMENTARY,3335 WASHINGTON AVE,BALTIMORE,MD,21207,NOT AVAILABLE,(410) 887-0708
9230,240039001698,RED PUMP ELEMENTARY SCHOOL,600 RED PUMP ROAD,BEL AIR,MD,21014,NOT AVAILABLE,(410) 809-6244
9770,240048000820,EARLE B. WOOD MIDDLE,14615 BAUER DR,ROCKVILLE,MD,20853,NOT AVAILABLE,(301) 460-2150
20803,240048090452,BURNT MILLS ELEMENTARY,11211 CHILDS ST,SILVER SPRING,MD,20901,4432,(301) 649-8192
21302,240012001653,VINCENT FARM ELEMENTARY,6019 EBENEZER RD,WHITE MARSH,MD,21162,1931,(410) 887-2983
22887,240027000582,ARTHUR MIDDLETON ELEMENTARY SCHOOL,1109 COPLEY AVE,WALDORF,MD,20602,2906,(301) 645-3338
23262,240048000864,LAYTONSVILLE ELEMENTARY,21401 LAYTONSVILLE RD,GAITHERSBURG,MD,20882,1623,(240) 740-1660
23388,240039000695,HAVRE DE GRACE ELEMENTARY,600 JUNIATA ST,HAVRE DE GRACE,MD,21078,3482,(410) 939-6616
26258,240042001552,FOLLY QUARTER MIDDLE,13500 TRIADELPHIA RD,ELLICOTT CITY,MD,21042,NOT AVAILABLE,(410) 313-1506
27398,240042001032,GORMAN CROSSING ELEMENTARY,9999 WINTER SUN RD,LAUREL,MD,20723,NOT AVAILABLE,(410) 880-5900
28309,240048000939,TWINBROOK ELEMENTARY,5911 RIDGWAY AVE,ROCKVILLE,MD,20851,NOT AVAILABLE,(240) 740-3450
29060,240006000091,MAGOTHY RIVER MIDDLE,241 PENINSULA FARM RD,ARNOLD,MD,21012,1011,(410) 544-0926
30260,240009000298,PAUL LAURENCE DUNBAR HIGH,1400 ORLEANS STREET,BALTIMORE,MD,21231,NOT AVAILABLE,(443) 642-4478
30632,240012000355,CATONSVILLE HIGH,421 BLOOMSBURY AVE,BALTIMORE,MD,21228,NOT AVAILABLE,(410) 887-0808
31870,240042000760,WEST FRIENDSHIP ELEMENTARY,12500 FREDERICK ROAD,WEST FRIENDSHIP,MD,21794,NOT AVAILABLE,(410) 313-5512
33543,240048000957,WILLIAM H. FARQUHAR MIDDLE,17017 BATCHELLORS FOREST RD,OLNEY,MD,20832,NOT AVAILABLE,(240) 740-1200
34688,240039000688,EDGEWOOD ELEMENTARY,2100 CEDAR DR,EDGEWOOD,MD,21040,2502,(410) 612-1540
36617,240051001006,CHEROKEE LANE ELEMENTARY,9000 25TH AVE,ADELPHI,MD,20783,1507,(301) 445-8415
38004,240051001182,ROSARYVILLE ELEMENTARY,9925 ROSARYVILLE RD,UPPER MARLBORO,MD,20772,4837,(301) 599-2490
38351,240006000042,CHESAPEAKE BAY MIDDLE,4804 MOUNTAIN RD,PASADENA,MD,21122,5816,(410) 437-2400
39270,240066001273,LINCOLNSHIRE ELEMENTARY,17545 LINCOLNSHIRE RD,HAGERSTOWN,MD,21740,NOT AVAILABLE,(301) 766-8206
50118,240051001126,PARKDALE HIGH,6001 GOOD LUCK RD,RIVERDALE,MD,20737,3506,(301) 513-5700
55433,240021001394,LIBERTY HIGH,5855 BARTHOLOW ROAD,SYKESVILLE,MD,21784,8401,(410) 751-3560
56565,240051001726,CHESAPEAKE MATH AND IT SOUTH PUBLIC CHARTER,9822 FALLARD CT,UPPER MARLBORO,MD,20772,NOT AVAILABLE,(240) 573-7250
85598,240039000716,WILLIAM PACA/OLD POST ROAD ELEMENTARY,2706 OLD PHILADELPHIA RD,ABINGDON,MD,21009,2398,(410) 612-1566
86481,240048000815,DAMASCUS ELEMENTARY,10201 BETHESDA CHURCH RD,DAMASCUS,MD,20872,1739,(240) 740-6180
86784,240042000816,RIVER HILL HIGH,12101 CLARKSVILLE PIKE,CLARKSVILLE,MD,21029,NOT AVAILABLE,(410) 313-7120
87491,240051001701,IMAGINE ANDREWS PUBLIC CHARTER,4701 SAN ANTONIO BLVD,ANDREWS AFB,MD,20762,NOT AVAILABLE,(301) 350-6002
88590,240048000954,WHITE OAK MIDDLE,12201 NEW HAMPSHIRE AVE,SILVER SPRING,MD,20904,2870,(301) 288-8200
89709,240012000413,KINGSVILLE ELEMENTARY,7300 SUNSHINE AVE,KINGSVILLE,MD,21087,1224,(410) 887-5949
91426,240051001178,UNIVERSITY PARK ELEMENTARY,4315 UNDERWOOD ST,HYATTSVILLE,MD,20782,1184,(301) 985-1898
92145,240009000265,LAKEWOOD ELEMENTARY,2625 FEDERAL STREET,BALTIMORE,MD,21213,3741,(410) 396-9158
92984,240009000340,YORKWOOD ELEMENTARY,5931 YORKWOOD ROAD,BALTIMORE,MD,21239,2425,(410) 396-6364
94152,240039000682,SOUTHAMPTON MIDDLE,1200 MOORES MILL RD,BEL AIR,MD,21014,2797,(410) 638-4150
95092,240051001354,JAMES E. DUCKWORTH REGIONAL CENTER,11201 EVANS TRL,BELTSVILLE,MD,20705,3903,(301) 572-0620
99573,240009000146,ARLINGTON ELEMENTARY,3705 W ROGERS AVENUE,BALTIMORE,MD,21215,NOT AVAILABLE,(410) 396-0567
43940,240021000531,ELDERSBURG ELEMENTARY,1021 JOHNSVILLE ROAD,SYKESVILLE,MD,21784,8431,(410) 751-3520
46165,240048001509,QUINCE ORCHARD HIGH,15800 QUINCE ORCHARD RD,GAITHERSBURG,MD,20878,3442,(240) 740-3600
47541,240051001059,HIGH POINT HIGH,3601 POWDER MILL RD,BELTSVILLE,MD,20705,3599,(301) 572-6400
70642,240051001113,NORTH FORESTVILLE ELEMENTARY,2311 RITCHIE RD,FORESTVILLE,MD,20747,3735,(301) 499-7098
73788,240012000938,SOLLERS POINT TECHNICAL HIGH SCHOOL,1901 DELVALE AVENUE,BALTIMORE,MD,21222,NOT AVAILABLE,(443) 809-7075
74034,240024000556,BAINBRIDGE ELEMENTARY,41 PRESTON DR,PORT DEPOSIT,MD,21904,1800,(410) 996-6030
76050,240012000467,JACKSONVILLE ELEMENTARY,3400 HILLENDALE HEIGHTS RD,PHOENIX,MD,21131,NOT AVAILABLE,(410) 887-7880
77839,240009001343,EXCEL ACADEMY AT FRANCIS M. WOOD HIGH,1001 W SARATOGA STREET,BALTIMORE,MD,21223,NOT AVAILABLE,(410) 396-1290
90210,240042090477,MAYFIELD WOODS MIDDLE,7950 REDBARN WAY,ELKRIDGE,MD,21075,6133,(410) 313-5022
91445,240033000645,NORTH FREDERICK ELEMENTARY,1010 FAIRVIEW AVE,FREDERICK,MD,21701,4540,(240) 236-2000
93601,240012002945,DOGWOOD ELEMENTARY,7215 DOGWOOD RD,BALTIMORE,MD,21244,NOT AVAILABLE,(410) 887-6808
93758,240045000770,ROCK HALL ELEMENTARY,21203 SHARP ST,ROCK HALL,MD,21661,1517,(410) 639-2265
94062,240030000625,WARWICK ELEMENTARY SCHOOL,155 MAIN STREET,SECRETARY,MD,21664,NOT AVAILABLE,(410) 943-3588
94767,240033001165,OAKDALE ELEMENTARY,5830 OAKDALE SCHOOL ROAD,IJAMSVILLE,MD,21754,NOT AVAILABLE,(240) 236-3300
60524,240009000157,BENJAMIN FRANKLIN HIGH SCHOOL AT MASONVILLE COVE,1201 CAMBRIA STREET,BALTIMORE,MD,21225,2223,(410) 396-1373
61778,240048000644,FOREST OAK MIDDLE,651 SAYBROOKE OAKS BLVD,GAITHERSBURG,MD,20877,NOT AVAILABLE,(301) 670-8242
41907,240006001645,SEVEN OAKS ELEMENTARY,1905 TOWN CENTER BLVD.,ODENTON,MD,21113,NOT AVAILABLE,(410) 222-0937
41962,240033001410,HEATHER RIDGE,1445 TANEY AVE,FREDERICK,MD,21702,4311,(240) 236-8000
43748,240039000706,MAGNOLIA ELEMENTARY,901 TRIMBLE RD,JOPPA,MD,21085,4898,(410) 612-1553
43771,240012000469,SANDALWOOD ELEMENTARY,900 S MARLYN AVE,BALTIMORE,MD,21221,5843,(410) 887-0174
44727,240069001304,GLEN AVENUE SCHOOL,1615 GLEN AVE,SALISBURY,MD,21804,NOT AVAILABLE,(410) 677-5806
45185,240063001243,EASTON MIDDLE,201 PEACHBLOSSOM RD,EASTON,MD,21601,NOT AVAILABLE,(410) 822-2910
45387,240054001190,CENTREVILLE MIDDLE SCHOOL,231 RUTHSBURG RD,CENTREVILLE,MD,21617,NOT AVAILABLE,(410) 758-0883
48414,240048001457,EASTERN MIDDLE SCHOOL,300 UNIVERSITY BLVD EAST,SILVER SPRING,MD,20901,NOT AVAILABLE,(301) 650-6650
80079,240042000822,LONG REACH HIGH,6101 OLD DOBBIN LN,COLUMBIA,MD,21045,NOT AVAILABLE,(410) 313-7117
81854,240039000685,DARLINGTON ELEMENTARY,2119 SHURESVILLE RD,DARLINGTON,MD,21034,1512,(410) 638-3700
83245,240048000961,WOODLIN ELEMENTARY,2101 LUZERNE AVE,SILVER SPRING,MD,20910,2136,(240) 740-2820
87652,240012000357,CHADWICK ELEMENTARY,1918 WINDER RD,BALTIMORE,MD,21244,1729,(410) 887-1300
87665,240012000436,CATONSVILLE CENTER FOR ALTERNATIVE STUDIES,901 S ROLLING RD,BALTIMORE,MD,21228,NOT AVAILABLE,(443) 809-0934
11304,240015000778,ST LEONARD ELEMENTARY,5370 ST LEONARD RD,ST LEONARD,MD,20685,NOT AVAILABLE,(443) 550-9760
11964,240027001162,F. B. GWYNN EDUCATIONAL CENTER,5998 RADIO STATION RD,LA PLATA,MD,20646,NOT AVAILABLE,(301) 934-3884
12626,240042000764,WORTHINGTON ELEMENTARY,4570 ROUNDHILL RD,ELLICOTT CITY,MD,21043,6751,(410) 313-2825
12837,240027000593,J. P. RYON ELEMENTARY SCHOOL,12140 VIVIAN ADAMS DR,WALDORF,MD,20601,NOT AVAILABLE,(301) 645-3090
13911,240012000390,FRANKLIN HIGH,12000 REISTERSTOWN RD,REISTERSTOWN,MD,21136,3041,(443) 809-7038
13987,240012000398,HALETHORPE ELEMENTARY,4300 MAPLE AVE,HALETHORPE,MD,21227,4008,(410) 887-1406
15074,240060001079,DR. JAMES A. FORREST CAREER AND TECHNOLOGY CENTER,24005 POINT LOOKOUT RD,LEONARDTOWN,MD,20650,NOT AVAILABLE,(301) 475-0242
15632,240012000371,DEER PARK ELEMENTARY,9809 LYONS MILL RD,OWINGS MILLS,MD,21117,4817,(410) 887-0723
50512,240057001201,CRISFIELD ACADEMY AND HIGH SCHOOL,210 N SOMERSET AVENUE,CRISFIELD,MD,21817,NOT AVAILABLE,(410) 968-0150
54576,240060001732,CAPTAIN WALTER FRANCIS DUKE ELEMENTARY,23595 HAYDEN FARM LANE,LEONARDTOWN,MD,20650,NOT AVAILABLE,(240) 309-4658
20114,240012000935,HOME ASSIGNMENTS-SECONDARY,105 W. CHESAPEAKE AVENUE,TOWSON,MD,21204,NOT AVAILABLE,(443) 809-7515
27385,240051001114,NORTHWESTERN HIGH,7000 ADELPHI RD,HYATTSVILLE,MD,20782,1497,(301) 985-1820
33855,240048000945,WAYSIDE ELEMENTARY,10011 GLEN RD,POTOMAC,MD,20854,NOT AVAILABLE,(240) 740-0240
2784,240051001542,DR. HENRY A. WISE JR. HIGH,12650 BROOKE LN,UPPER MARLBORO,MD,20772,NOT AVAILABLE,(301) 780-2100
4636,240048001739,HALLIE WELLS MIDDLE SCHOOL,11701 LITTLE SENECA PARKWAY,CLARKSBURG,MD,20871,NOT AVAILABLE,(301) 284-4800
5618,240042000725,CLARKSVILLE MIDDLE,6535 S TROTTER RD,CLARKSVILLE,MD,21029,1204,(410) 313-7057
100662,240048000946,WELLER ROAD ELEMENTARY,3301 WELLER RD,SILVER SPRING,MD,20906,NOT AVAILABLE,(301) 287-8601
102342,240069001317,WEST SALISBURY,1321 WEST ROAD,SALISBURY,MD,21801,NOT AVAILABLE,(410) 677-5816
60710,240006000114,PERSHING HILL ELEMENTARY,7600 29TH DIVISION ROAD,FT MEADE,MD,20755,NOT AVAILABLE,(410) 222-6519
61844,240066001275,NORTH HAGERSTOWN HIGH,1200 PENNSYLVANIA AVE,HAGERSTOWN,MD,21742,3131,(301) 766-8238
62668,240048000842,GEORGIAN FOREST ELEMENTARY,3100 REGINA DR,SILVER SPRING,MD,20906,5353,(240) 740-0720
62909,240051000500,KINGSFORD ELEMENTARY,1401 ENTERPRISE RD,MITCHELLVILLE,MD,20721,2215,(301) 390-0260
63424,240048000949,WESTLAND MIDDLE,5511 MASSACHUSETTS AVE,BETHESDA,MD,20816,1932,(301) 320-6515
65133,240048000798,CARDEROCK SPRINGS ELEMENTARY,7401 PERSIMMON TREE LANE,BETHESDA,MD,20817,NOT AVAILABLE,(240) 740-0540
68177,240048000191,DR. SALLY K. RIDE ELEMENTARY,21301 SENECA CROSSING DR,GERMANTOWN,MD,20876,NOT AVAILABLE,(301) 353-0994
68788,240012001433,TIMONIUM ELEMENTARY,2001 EASTRIDGE RD,TIMONIUM,MD,21093,4332,(410) 887-7661
12178,240066001274,MAUGANSVILLE ELEMENTARY,18023 MAUGANS AVE,MAUGANSVILLE,MD,21767,NOT AVAILABLE,(301) 766-8230
16290,240039001397,BEL AIR MIDDLE,99 IDLEWILD STREET,BEL AIR,MD,21014,4197,(410) 638-4140
17733,240006000124,SEVERN RIVER MIDDLE,241 PENINSULA FARM RD,ARNOLD,MD,21012,1011,(410) 544-0922
18065,240048001524,CLOVERLY ELEMENTARY,800 BRIGGS CHANEY RD,SILVER SPRING,MD,20905,NOT AVAILABLE,(301) 989-5770
46923,240003000005,BEL AIR ELEMENTARY,14401 BARTON BLVD,CUMBERLAND,MD,21502,5800,(301) 729-2992
49898,240003000003,BEALL ELEMENTARY,3 E COLLEGE AVE,FROSTBURG,MD,21532,NOT AVAILABLE,(301) 689-3636
25252,240012001406,OLIVER BEACH ELEMENTARY,12912 CUNNINGHILL COVE RD,BALTIMORE,MD,21220,NOT AVAILABLE,(410) 887-5943
28518,240006000037,ANNAPOLIS HIGH,2700 RIVA RD,ANNAPOLIS,MD,21401,7205,(410) 266-5240
28660,240030001423,MACE'S LANE MIDDLE SCHOOL,1101 MACE'S LANE,CAMBRIDGE,MD,21613,NOT AVAILABLE,(410) 228-2111
71425,240051001062,CROSSLAND EVENING/SATURDAY HIGH,6901 TEMPLE HILL RD,TEMPLE HILLS,MD,20748,5207,(301) 449-4994
74012,240009000276,MARGARET BRENT ELEMENTARY/MIDDLE,100 E 26TH STREET,BALTIMORE,MD,21218,4621,(410) 396-6509
75589,240051001137,JUDGE SYLVANIA W. WOODS SR. ELEMENTARY,3000 CHURCH ST,GLENARDEN,MD,20706,1757,(301) 925-2840
76552,240033090473,HILLCREST ELEMENTARY,1285 HILLCREST DRIVE,FREDERICK,MD,21703,NOT AVAILABLE,(240) 236-3200
76850,240009001331,REGINALD F. LEWIS HIGH,6401 PIONEER DRIVE,BALTIMORE,MD,21214,NOT AVAILABLE,(410) 545-1746
3141,240003000017,GEORGE'S CREEK ELEMENTARY,15600 LOWER GEORGES CREEK RD SW,LONACONING,MD,21539,NOT AVAILABLE,(301) 463-6202
5224,240051001463,CROOM HIGH,9400 SURRATTS RD,CHELTENHAM,MD,20623,NOT AVAILABLE,(301) 372-8846
6500,240057001743,GREENWOOD ELEMENTARY SCHOOL,11412 DRYDEN ROAD,PRINCESS ANNE,MD,21853,NOT AVAILABLE,(410) 651-0931
7513,240006000110,OVERLOOK ELEMENTARY,401 HAMPTON RD,LINTHICUM,MD,21090,1715,(410) 222-6585
30097,240048000782,BELMONT ELEMENTARY,19528 OLNEY MILL RD,OLNEY,MD,20832,1111,(301) 924-3140
30593,240012001438,GENERAL JOHN STRICKER MIDDLE,7855 TRAPPE RD,BALTIMORE,MD,21222,2347,(443) 809-7038
30836,240009000334,WILLIAM PACA ELEMENTARY,200 N LAKEWOOD AVENUE,BALTIMORE,MD,21224,1110,(410) 396-9148
32229,240048000872,MARYVALE ELEMENTARY,1010 FIRST ST,ROCKVILLE,MD,20850,NOT AVAILABLE,(240) 740-4330
33940,240015090465,PLUM POINT ELEMENTARY,1245 PLUM POINT RD,HUNTINGTOWN,MD,20639,9202,(443) 550-9730
35979,240009000285,MOUNT ROYAL ELEMENTARY/MIDDLE,121 MCMECHEN STREET,BALTIMORE,MD,21217,4304,(410) 396-0864
36611,240012000484,TIMBER GROVE ELEMENTARY,701 ACADEMY AVE,OWINGS MILLS,MD,21117,1302,(410) 887-1714
36823,240069001309,PARKSIDE HIGH,1015 BEAGLIN PARK DR,SALISBURY,MD,21804,NOT AVAILABLE,(410) 677-5143
37725,240048001526,CABIN JOHN MIDDLE SCHOOL,10701 GAINSBOROUGH ROAD,POTOMAC,MD,20854,NOT AVAILABLE,(240) 406-1600
51012,240051001018,DEERFIELD RUN ELEMENTARY,13000 LAUREL-BOWIE RD,LAUREL,MD,20708,2136,(301) 497-3610
51116,240048000902,RICHARD MONTGOMERY HIGH,250 RICHARD MONTGOMERY DR,ROCKVILLE,MD,20852,1147,(240) 740-6100
51970,240006000076,GLEN BURNIE PARK ELEMENTARY,500 MARLBORO RD,GLEN BURNIE,MD,21061,4600,(410) 222-6400
52819,240039000700,G. LISBY ELEMENTARY AT HILLSDALE,810 EDMUND ST,ABERDEEN,MD,21001,3599,(410) 273-5530
53383,240006000044,BELVEDERE ELEMENTARY,360 BROADWATER RD,ARNOLD,MD,21012,NOT AVAILABLE,(410) 975-9432
82026,240066001707,RUTH ANN MONROE PRIMARY,1311 YALE DRIVE,HAGERSTOWN,MD,21742,NOT AVAILABLE,(301) 766-8668
83129,240021001161,CENTURY HIGH,355 RONSDALE ROAD,SYKESVILLE,MD,21784,8956,(410) 386-4400
83297,240048001417,MARTIN LUTHER KING JR. MIDDLE,13737 WISTERIA DR,GERMANTOWN,MD,20874,4140,(240) 740-6350
83332,240039000689,EDGEWOOD MIDDLE,2311 WILLOUGHBY BEACH RD,EDGEWOOD,MD,21040,3497,(410) 612-1518
83742,240051001464,BENJAMIN STODDERT MIDDLE,2501 OLSON ST,TEMPLE HILLS,MD,20748,1601,(301) 702-7500
85784,240051001475,JAMES MADISON MIDDLE,7300 WOODYARD RD,UPPER MARLBORO,MD,20772,4371,(301) 599-2422
86521,240009001339,NATIONAL ACADEMY FOUNDATION,540 N CAROLINE STREET,BALTIMORE,MD,21205,NOT AVAILABLE,(443) 984-1594
86623,240039000711,ROYE-WILLIAMS ELEMENTARY,201 OAKINGTON RD,HAVRE DE GRACE,MD,21078,2199,(410) 273-5536
86652,240033000650,THURMONT ELEMENTARY,805 E MAIN ST,THURMONT,MD,21788,1729,(240) 236-0900
87467,240057001213,WASHINGTON ACADEMY AND HIGH SCHOOL,10902 OLD PRINCESS ANNE RD,PRINCESS ANNE,MD,21853,9802,(410) 651-0480
90478,240006000060,CROFTON ELEMENTARY,1405 DUKE OF KENT DR,CROFTON,MD,21114,1400,(410) 222-5800
90485,240042001172,BONNIE BRANCH MIDDLE,4979 ILCHESTER RD,ELLICOTT CITY,MD,21043,NOT AVAILABLE,(410) 313-2580
90980,240051001101,MARTIN LUTHER KING JR. MIDDLE,4545 AMMENDALE RD,BELTSVILLE,MD,20705,1113,(301) 572-0650
92197,240012000348,BEDFORD ELEMENTARY,7407 DORMAN DR,BALTIMORE,MD,21208,5821,(410) 887-1200
20349,240051000992,BRANDYWINE ELEMENTARY,14101 BRANDYWINE RD,BRANDYWINE,MD,20613,3003,(301) 372-0100
20514,240042000734,HAMMOND ELEMENTARY,8110 ALADDIN DR,LAUREL,MD,20723,1166,(410) 880-5890
20866,240051001186,WILLIAM WIRT MIDDLE,6200 TUCKERMAN ST,RIVERDALE,MD,20737,1329,(301) 985-1720
23649,240051001257,MARY HARRIS,2405 TECUMSEH ST,ADELPHI,MD,20783,1658,(301) 408-7900
25678,240012000438,OVERLEA HIGH,5401 KENWOOD AVE,BALTIMORE,MD,21206,1418,(443) 809-5241
26237,240051001152,SAMUEL OGLE MIDDLE,4111 CHELMONT LN,BOWIE,MD,20715,1328,(301) 805-2641
26271,240048000894,PINEY BRANCH ELEMENTARY,7510 MAPLE AVE,TAKOMA PARK,MD,20912,4939,(301) 891-8000
29217,240024000579,RISING SUN ELEMENTARY,500 HOPEWELL RD,RISING SUN,MD,21911,2134,(410) 658-5925
982,240042000738,HOWARD HIGH,8700 OLD ANNAPOLIS RD,ELLICOTT CITY,MD,21043,6920,(410) 313-2867
2924,240033000659,WOLFSVILLE ELEMENTARY,12520 WOLFSVILLE RD,MYERSVILLE,MD,21773,NOT AVAILABLE,(240) 236-2250
3203,240030000622,SOUTH DORCHESTER SCHOOL,3485 GOLDEN HILL ROAD,CHURCH CREEK,MD,21622,NOT AVAILABLE,(410) 901-6934
9188,240048000879,MONTGOMERY VILLAGE MIDDLE SCHOOL,19300 WATKINS MILL RD,MONTGOMERY VILLAGE,MD,20886,NOT AVAILABLE,(301) 840-4660
9744,240051002952,HOWARD B. OWENS SCIENCE CENTER,9601 GREENBELT RD,LANHAM,MD,20706,3304,(301) 918-8750
34830,240042001539,DAYTON OAKS,4691 TEN OAKS RD,DAYTON,MD,21036,NOT AVAILABLE,(410) 313-1571
38157,240012000452,PINEWOOD ELEMENTARY,200 RICKSWOOD RD,TIMONIUM,MD,21093,3027,(410) 887-7663
10772,240048000867,LONGVIEW SCHOOL,13900 BROMFIELD RD,GERMANTOWN,MD,20874,NOT AVAILABLE,(301) 601-4830
12723,240021090466,PINEY RIDGE ELEMENTARY,6315 FREEDOM AVENUE,SYKESVILLE,MD,21784,8061,(410) 751-3535
16431,240042000721,BUSHY PARK ELEMENTARY,14601 CARRS MILL RD,GLENWOOD,MD,21738,NOT AVAILABLE,(410) 313-5500
16922,240048000785,BETHESDA ELEMENTARY,7600 ARLINGTON RD,BETHESDA,MD,20814,NOT AVAILABLE,(240) 204-5300
18009,240048000832,FOREST KNOLLS ELEMENTARY,10830 EASTWOOD AVE,SILVER SPRING,MD,20901,NOT AVAILABLE,(240) 740-1640
18440,240021000547,SYKESVILLE MIDDLE,7301 SPRINGFIELD AVENUE,SYKESVILLE,MD,21784,7547,(410) 751-3545
61379,240045000766,KENT COUNTY MIDDLE SCHOOL,402 E CAMPUS AVENUE,CHESTERTOWN,MD,21620,1608,(410) 778-1771
63480,240048000804,CLARKSBURG ELEMENTARY,13530 REDGRAVE PL,CLARKSBURG,MD,20871,9701,(240) 740-3530
65425,240048001514,CLEARSPRING ELEMENTARY,9930 MOYER RD,DAMASCUS,MD,20872,2393,(240) 740-2580
65920,240051000970,ARDMORE ELEMENTARY,9301 ARDWICK ARDMORE RD,SPRINGDALE,MD,20774,2508,(301) 925-1311
66939,240048000848,HARMONY HILLS ELEMENTARY,13407 LYDIA ST,SILVER SPRING,MD,20906,NOT AVAILABLE,(240) 740-0780
68345,240060001232,MECHANICSVILLE ELEMENTARY,28585 THREE NOTCH RD,MECHANICSVILLE,MD,20659,3214,(301) 472-4800
72533,240051001637,IMAGINE FOUNDATIONS AT LEELAND PCS,14111 OAK GROVE RD,UPPER MARLBORO,MD,20774,NOT AVAILABLE,(301) 383-1899
73968,240009000158,MARY ANN WINTERLING ELEMENTARY AT BENTALOU,220 N BENTALOU STREET,BALTIMORE,MD,21223,1423,(410) 396-1385
75626,240033090446,BALLENGER CREEK MIDDLE,5525 BALLENGER CREEK PIKE,FREDERICK,MD,21703,7015,(240) 236-5700
79010,240009000148,ARUNDEL ELEMENTARY,2400 ROUND ROAD,BALTIMORE,MD,21225,NOT AVAILABLE,(410) 396-1379
43772,240009000309,THE HISTORIC SAMUEL COLERIDGE-TAYLOR ELEMENTARY,507 W PRESTON STREET,BALTIMORE,MD,21201,NOT AVAILABLE,(410) 396-0783
84585,240006000905,CENTER OF APPLIED TECHNOLOGY-NORTH,800 STEVENSON RD,SEVERN,MD,21144,2207,(410) 969-3100
84707,240048000404,THURGOOD MARSHALL ELEMENTARY,12260 MCDONALD CHAPEL DR,GAITHERSBURG,MD,20878,NOT AVAILABLE,(301) 670-8282
86123,240042000749,PHELPS LUCK ELEMENTARY,5370 OLDSTONE CT,COLUMBIA,MD,21045,2457,(410) 313-6886
88231,240039000709,NORTH HARFORD MIDDLE,112 PYLESVILLE RD,PYLESVILLE,MD,21132,1399,(410) 638-3658
89789,240066001280,PLEASANT VALLEY ELEMENTARY,1707 ROHRERSVILLE RD,KNOXVILLE,MD,21758,1130,(301) 766-8297
50335,240072001334,SNOW HILL HIGH,305 S CHURCH ST,SNOW HILL,MD,21863,1236,(410) 632-5270
55404,240012000344,BALTIMORE HIGHLANDS ELEMENTARY,4200 ANNAPOLIS RD,BALTIMORE,MD,21227,3617,(410) 887-0919
58867,240006001425,RUTH PARKER EASON SCHOOL,648 OLD MILL RD,MILLERSVILLE,MD,21108,1355,(410) 222-3815
59090,240051001177,TULIP GROVE ELEMENTARY,2909 TRAINOR LN,BOWIE,MD,20715,NOT AVAILABLE,(301) 805-2680
92059,240027000596,LA PLATA HIGH SCHOOL,6035 RADIO STATION RD,LA PLATA,MD,20646,NOT AVAILABLE,(301) 934-1100
94184,240051001477,WALKER MILL MIDDLE,800 KAREN BLVD,CAPITOL HEIGHTS,MD,20743,3314,(301) 808-4055
95366,240027000588,GALE-BAILEY ELEMENTARY SCHOOL,4740 PISGAH MARBURY RD,MARBURY,MD,20658,NOT AVAILABLE,(301) 743-5491
95496,240009000885,EAGER STREET ACADEMY,926 GREENMOUNT AVENUE,BALTIMORE,MD,21202,NOT AVAILABLE,(410) 234-1815
98375,240003000023,MOUNT SAVAGE MIDDLE,13201 NEW SCHOOL RD NW,MOUNT SAVAGE,MD,21545,9801,(301) 264-3220
99807,240051001051,GWYNN PARK MIDDLE,8000 DYSON RD,BRANDYWINE,MD,20613,7826,(301) 372-0120
105141,240006001746,CARRIE WEEDON EARLY EDUCATION CENTER,911 GALESVILLE ROAD,GALESVILLE,MD,20765,NOT AVAILABLE,(410) 222-1625
105144,240012001750,HONEYGO ELEMENTARY,4816 JOPPA ROAD,PERRY HALL,MD,21128,NOT AVAILABLE,(443) 809-8700
105151,240027001757,BILLINGSLEY ELEMENTARY SCHOOL,10069 BILLINGSLEY ROAD,WHITE PLAINS,MD,20695,NOT AVAILABLE,(301) 753-2088
65565,240042000177,FOREST RIDGE ELEMENTARY,9550 GORMAN RD,LAUREL,MD,20723,NOT AVAILABLE,(410) 880-5950
67000,240012001574,WINDSOR MILL MIDDLE,8300 WINDSOR MILL RD,BALTIMORE,MD,21209,NOT AVAILABLE,(410) 887-0000
68379,240024000566,CONOWINGO ELEMENTARY,471 ROWLANDSVILLE RD,CONOWINGO,MD,21918,1521,(410) 996-6040
69752,240048000806,COL. E. BROOKE LEE MIDDLE,11800 MONTICELLO AVE,SILVER SPRING,MD,20902,1714,(240) 740-4150
10241,240012000354,CATONSVILLE MIDDLE,2301 EDMONDSON AVE,CATONSVILLE,MD,21228,4714,(410) 887-0803
10439,240042000718,ATHOLTON ELEMENTARY,6700 SENECA DR,COLUMBIA,MD,21046,1130,(410) 313-6853
10803,240051000512,GREENBELT ELEMENTARY,66 RIDGE RD,GREENBELT,MD,20770,1737,(301) 513-5911
12177,240012000477,SPARROWS POINT HIGH,7400 NORTH POINT RD,SPARROWS POINT,MD,21219,1307,(443) 809-7517
16731,240006000075,GLEN BURNIE HIGH,7550 BALTIMORE ANNAPOLIS BLVD,GLEN BURNIE,MD,21060,NOT AVAILABLE,(410) 761-8950
18137,240033001412,KEMPTOWN ELEMENTARY,3456 KEMPTOWN CHURCH RD,MONROVIA,MD,21770,8708,(240) 236-3500
18246,240006000059,CORKRAN MIDDLE SCHOOL,7600 QUARTERFIELD RD,GLEN BURNIE,MD,21061,NOT AVAILABLE,(410) 222-6493
18988,240027000584,DR. GUSTAVUS BROWN ELEMENTARY,421 UNIVERSITY DR,WALDORF,MD,20602,NOT AVAILABLE,(301) 645-1330
19571,240051000729,WILLIAM PACA ELEMENTARY,7801 SHERRIFF RD,LANDOVER,MD,20785,4403,(301) 925-1330
81543,240048000787,BRADLEY HILLS ELEMENTARY,8701 HARTSDALE AVE,BETHESDA,MD,20817,NOT AVAILABLE,(240) 204-5210
82114,240072001333,SNOW HILL MIDDLE,522 COULBOURNE LN,SNOW HILL,MD,21863,NOT AVAILABLE,(410) 632-5240
83093,240060001228,LEONARDTOWN ELEMENTARY,22885 DUKE ST,LEONARDTOWN,MD,20650,NOT AVAILABLE,(301) 475-0250
83658,240009000239,HARLEM PARK ELEMENTARY/MIDDLE,1401 W LAFAYETTE AVENUE,BALTIMORE,MD,21217,2128,(410) 396-0633
85723,240009001703,BALTIMORE DESIGN SCHOOL,1500 BARCLAY STREET,BALTIMORE,MD,21202,NOT AVAILABLE,(443) 642-2311
86374,240051001065,HYATTSVILLE MIDDLE,6001 42ND AVE,HYATTSVILLE,MD,20781,1522,(301) 209-5830
5151,240009001682,BALTIMORE LEADERSHIP SCHOOL FOR YOUNG WOMEN,128 W FRANKLIN STREET,BALTIMORE,MD,21201,NOT AVAILABLE,(443) 642-2048
5510,240012000375,DUNDALK ELEMENTARY,2717 PLAYFIELD STREET,BALTIMORE,MD,21222,NOT AVAILABLE,(443) 809-7013
7949,240012000441,SUDBROOK MAGNET MIDDLE,4300 BEDFORD RD,BALTIMORE,MD,21208,NOT AVAILABLE,(410) 887-6720
8424,240009000278,MATTHEW A. HENSON ELEMENTARY,1600 N PAYSON STREET,BALTIMORE,MD,21217,1121,(410) 396-0776
31584,240027000595,JOHN HANSON MIDDLE SCHOOL,3165 JOHN HANSON DR,WALDORF,MD,20601,NOT AVAILABLE,(301) 645-4520
32270,240051001465,THURGOOD MARSHALL MIDDLE SCHOOL,4909 BRINKLEY RD,TEMPLE HILLS,MD,20748,5299,(301) 702-7540
33049,240060001236,RIDGE ELEMENTARY,49430 AIREDALE RD,RIDGE,MD,20680,0095,(301) 872-0200
36608,240039000480,CENTER FOR EDUCATIONAL OPPORTUNITY,253 PARADISE RD,ABERDEEN,MD,21001,2399,(410) 273-5594
37415,240009001661,AFYA PUBLIC CHARTER SCHOOL,2800 BRENDAN AVENUE,BALTIMORE,MD,21213,NOT AVAILABLE,(410) 485-2102
37976,240051001010,CLINTON GROVE ELEMENTARY,9420 TEMPLE HILL RD,CLINTON,MD,20735,4433,(301) 599-2414
38238,240009001428,GUILFORD ELEMENTARY/MIDDLE,4520 YORK ROAD,BALTIMORE,MD,21212,4830,(410) 396-6358
45288,240012000472,SENECA ELEMENTARY,545 CARROLLWOOD RD,BALTIMORE,MD,21220,3107,(410) 887-5945
45779,240039001380,C. MILTON WRIGHT HIGH,1301 N FOUNTAIN GREEN RD,BEL AIR,MD,21015,2599,(410) 638-4110
47131,240006000123,SEVERN ELEMENTARY,838 REECE RD,SEVERN,MD,21144,1101,(410) 551-6220
50214,240024000568,ELKTON HIGH,110 JAMES ST,ELKTON,MD,21921,4915,(410) 996-5000
50311,240033000627,BRUNSWICK HIGH,101 CUMMINGS DR,BRUNSWICK,MD,21716,1857,(240) 236-8600
51964,240009000241,HAZELWOOD ELEMENTARY/MIDDLE,4517 HAZELWOOD AVENUE,BALTIMORE,MD,21206,3302,(410) 396-9098
52027,240051001064,HYATTSVILLE ELEMENTARY,5311 43RD AVE,HYATTSVILLE,MD,20781,1904,(301) 209-5800
52651,240042000720,BRYANT WOODS ELEMENTARY,5450 BLUE HERON LN,COLUMBIA,MD,21044,2429,(410) 313-6859
55455,240006000049,BROOKLYN PARK ELEMENTARY,200 14TH AVE,BALTIMORE,MD,21225,3407,(410) 222-6590
56462,240057001203,EWELL SCHOOL,7982A TAWES CAMPUS DRIVE,WESTOVER,MD,21871,NOT AVAILABLE,(410) 968-0534
58193,240033090471,BALLENGER CREEK ELEMENTARY,5250 KINGSBROOK DR,FREDERICK,MD,21703,2813,(240) 236-2500
59615,240048000904,RITCHIE PARK ELEMENTARY,1514 DUNSTER RD,ROCKVILLE,MD,20854,NOT AVAILABLE,(240) 740-6310
71779,240024000558,BOHEMIA MANOR HIGH,2755 AUGUSTINE HERMAN HWY,CHESAPEAKE CITY,MD,21915,1408,(410) 885-2075
75481,240033001442,NEW MIDWAY/WOODSBORO ELEMENTARY,12226 WOODSBORO PIKE,KEYMAR,MD,21757,NOT AVAILABLE,(240) 236-1500
77882,240033001163,OAKDALE MIDDLE,5810 OAKDALE SCHOOL ROAD,IJAMSVILLE,MD,21754,NOT AVAILABLE,(240) 236-5500
78585,240051000870,JOHN HANSON MONTESSORI,6360 OXON HILL RD,OXON HILL,MD,20745,2235,(301) 749-4052
22500,240006000095,MARLEY MIDDLE,10 DAVIS CT,GLEN BURNIE,MD,21060,NOT AVAILABLE,(410) 761-0934
22743,240012000445,PERRY HALL ELEMENTARY,9021 BELAIR RD,BALTIMORE,MD,21236,2102,(410) 887-5105
24293,240006000071,GEORGE T. CROMWELL ELEMENTARY,221 OLEN DRIVE,GLEN BURNIE,MD,21061,2162,(410) 222-6920
27690,240006000118,RICHARD HENRY LEE ELEMENTARY,400 A STREET,GLEN BURNIE,MD,21061,NOT AVAILABLE,(410) 222-6435
93800,240051001150,SAMUEL CHASE ELEMENTARY,5700 FISHER RD,TEMPLE HILLS,MD,20748,4710,(301) 702-7660
95151,240048000901,REDLAND MIDDLE,6505 MUNCASTER MILL RD,ROCKVILLE,MD,20855,1539,(240) 740-0900
95214,240051001171,TEMPLETON ELEMENTARY,6001 CARTERS LN,RIVERDALE,MD,20737,3217,(301) 985-1880
97087,240012000478,STEMMERS RUN MIDDLE,201 STEMMERS RUN RD,BALTIMORE,MD,21221,NOT AVAILABLE,(410) 887-0177
97823,240051000987,BLADENSBURG HIGH,4200 57TH AVE,BLADENSBURG,MD,20710,1903,(301) 887-6700
100363,240072001327,OCEAN CITY ELEMENTARY,12828 CENTER DR,OCEAN CITY,MD,21842,9108,(410) 632-5370
