OBJECTID,NCESID,NAME,ADDRESS,CITY,STATE,ZIP,ZIP4,TELEPHONE
751,380813000874,DISCOVERY ELEMENTARY SCHOOL,3300 43RD AVE S,GRAND FORKS,ND,58201,NOT AVAILABLE,(701) 787-4359
3170,380516000140,DIVIDE COUNTY HIGH SCHOOL,605 SE 4TH,CROSBY,ND,58730,NOT AVAILABLE,(701) 965-6392
45493,381794000620,SWEET BRIAR SCHOOL,4060 COUNTY RD 83,MANDAN,ND,58554,NOT AVAILABLE,(701) 663-7453
47510,380001400047,CENTURY HIGH SCHOOL,1000 E CENTURY AVE,BISMARCK,ND,58503,NOT AVAILABLE,(701) 323-4900
49809,381605000558,ROLETTE ELEMENTARY SCHOOL,901 3RD AVE NE,ROLETTE,ND,58366,NOT AVAILABLE,(701) 246-3595
69674,380000400803,SCHOOL FOR THE BLIND,500 STANFORD RD,GRAND FORKS,ND,58203,NOT AVAILABLE,(701) 795-2700
105951,380001400929,BISMARCK 6-8 VIRTUAL ACADEMY,806 N WASHINGTON ST,BISMARCK,ND,58501,NOT AVAILABLE,(701) 323-4000
105981,381713000947,SOUTH HEART HIGH VIRTUAL ACADEMY,310 4TH STREET NW,SOUTH HEART,ND,58655,NOT AVAILABLE,(701) 677-5671
107220,381254000905,WOLVES CENTER ACADEMY,908 4TH AVENUE NE,WATFORD CITY,ND,58854,NOT AVAILABLE,(701) 444-3626
21339,381941000684,WESTSIDE ELEMENTARY SCHOOL,945 7TH AVE W,WEST FARGO,ND,58078,NOT AVAILABLE,(701) 356-2110
21447,380813000256,LAKE AGASSIZ ELEMENTARY SCHOOL,605 STANFORD RD,GRAND FORKS,ND,58203,NOT AVAILABLE,(701) 746-2275
22718,380609000178,ELLENDALE HIGH SCHOOL,321 N 1ST ST,ELLENDALE,ND,58436,NOT AVAILABLE,(701) 349-3232
27498,381303000441,LONGFELLOW ELEMENTARY SCHOOL,600 16TH ST NW,MINOT,ND,58703,NOT AVAILABLE,(701) 857-4610
86421,381704000590,VELVA ELEMENTARY SCHOOL,101 W 4TH ST,VELVA,ND,58790,NOT AVAILABLE,(701) 338-2022
34937,381376000831,GARDEN VALLEY ELEMENTARY SCHOOL,13565 60TH ST NW STE 102,WILLISTON,ND,58801,NOT AVAILABLE,(701) 826-4261
93004,381376000482,ROUND PRAIRIE ELEMENTARY SCHOOL,5098 151ST AVE NW,WILLISTON,ND,58801,NOT AVAILABLE,(701) 875-4346
94125,381698000587,SOLEN HIGH SCHOOL,902 E BROADWAY,SOLEN,ND,58570,NOT AVAILABLE,(701) 445-3331
50092,381182000390,MARY STARK ELEMENTARY SCHOOL,405 8TH AVE SW,MANDAN,ND,58554,NOT AVAILABLE,(701) 751-6506
51821,380003600552,RICHLAND ELEMENTARY SCHOOL,106 BROADWAY,ABERCROMBIE,ND,58001,NOT AVAILABLE,(701) 553-8321
54876,380006100884,GRANT COLONY SCHOOL,5543 129TH AVE SE,ENDERLIN,ND,58027,NOT AVAILABLE,(701) 864-2611
54978,464164000394,SPRING CREEK COLONY ELEMENTARY - 04,36562 102ND ST,FORBES,ND,58439,NOT AVAILABLE,(605) 439-3477
55657,380913000291,HAZELTON-MOFFIT-BRADDOCK ELEMENTARY SCHOOL,211 HAZEL AVE,HAZELTON,ND,58544,NOT AVAILABLE,(701) 782-6231
70868,381351000468,NAPOLEON ELEMENTARY SCHOOL,615 3RD ST E,NAPOLEON,ND,58561,NOT AVAILABLE,(701) 754-2244
75606,380504000129,PRAIRIE VIEW ELEMENTARY SCHOOL,200 12TH AVE NE,DEVILS LAKE,ND,58301,NOT AVAILABLE,(701) 662-7626
76554,381791000618,SURREY ELEMENTARY SCHOOL,200 2ND ST SE,SURREY,ND,58785,NOT AVAILABLE,(701) 838-3282
76879,380981000305,HORSE CREEK SCHOOL,1812 HORSE CREEK RD,CARTWRIGHT,ND,58838,NOT AVAILABLE,(701) 828-3080
77106,380003800134,JEFFERSON ELEMENTARY SCHOOL,599 11TH AVE W,DICKINSON,ND,58601,NOT AVAILABLE,(701) 456-0013
6574,381202000889,MAPLE VALLEY ELEMENTARY SCHOOL,207 BROADWAY,TOWER CITY,ND,58071,NOT AVAILABLE,(701) 749-2570
60846,380691000743,FINLEY-SHARON ELEMENTARY SCHOOL,201 3RD ST E,FINLEY,ND,58230,NOT AVAILABLE,(701) 524-2420
64794,381929000674,WASHBURN HIGH SCHOOL,713 7TH ST,WASHBURN,ND,58577,NOT AVAILABLE,(701) 462-3221
69831,380693000219,FLASHER HIGH SCHOOL,206 3RD AVE E,FLASHER,ND,58535,NOT AVAILABLE,(701) 597-3355
50152,380003800132,DICKINSON HIGH SCHOOL,979 13TH AVE W,DICKINSON,ND,58601,NOT AVAILABLE,(701) 456-0030
54491,380678000881,EAGLES ELEMENTARY SCHOOL,3502 UNIVERSITY DR,FARGO,ND,58104,NOT AVAILABLE,(701) 446-3900
59349,380785000238,GLENBURN HIGH SCHOOL,102 RAYMOND ST,GLENBURN,ND,58740,NOT AVAILABLE,(701) 362-7426
90641,381941000679,HORACE ELEMENTARY SCHOOL,110 3RD AVE N,HORACE,ND,58047,NOT AVAILABLE,(701) 356-2080
80395,381114000365,LIDGERWOOD ELEMENTARY SCHOOL,28 3RD AVE SE,LIDGERWOOD,ND,58053,NOT AVAILABLE,(701) 538-7341
88339,381988000696,WILLISTON MIDDLE SCHOOL,501 14TH ST W,WILLISTON,ND,58801,NOT AVAILABLE,(701) 572-5618
102350,380003100863,HAZEN MIDDLE SCHOOL,104 7TH ST NE,HAZEN,ND,58545,NOT AVAILABLE,(701) 748-6649
105955,380004700936,TGU 9-12 VIRTUAL HIGH SCHOOL,302 2ND ST SE,TOWNER,ND,58788,NOT AVAILABLE,(701) 537-5414
105957,380040400901,HOPE PAGE HIGH SCHOOL,740 7TH STREET SE,HOPE,ND,58046,NOT AVAILABLE,(701) 945-2473
107214,380040600924,GRAFTON HIGH SCHOOL,1548 SCHOOL RD,GRAFTON,ND,58237,NOT AVAILABLE,(701) 352-1930
32103,381303000448,ROOSEVELT ELEMENTARY SCHOOL,715 8TH ST NE,MINOT,ND,58703,NOT AVAILABLE,(701) 857-4685
33835,381344000467,MUNICH HIGH SCHOOL,410 7TH AVE,MUNICH,ND,58352,NOT AVAILABLE,(701) 682-5321
37735,381643000568,SARGENT CENTRAL HIGH SCHOOL,575 5TH ST SW,FORMAN,ND,58032,NOT AVAILABLE,(701) 724-3205
71263,382031000713,WYNDMERE HIGH SCHOOL,101 DATE AVE,WYNDMERE,ND,58081,NOT AVAILABLE,(701) 439-2287
71409,381828000630,THOMPSON HIGH SCHOOL,424 3RD ST,THOMPSON,ND,58278,NOT AVAILABLE,(701) 599-2765
73732,380678000109,EARLY CHILDHOOD SPECIAL EDUCATION SCHOOL,1305 9TH AVE S,FARGO,ND,58103,NOT AVAILABLE,(701) 446-3100
20092,380005300088,CARRINGTON HIGH SCHOOL,100 3RD AVE S,CARRINGTON,ND,58421,NOT AVAILABLE,(701) 652-3136
22948,380005700399,LITCHVILLE-MARION HIGH SCHOOL,104 2ND ST,MARION,ND,58466,NOT AVAILABLE,(701) 669-2261
25644,381988000848,DEL EASTON ALTERNATIVE HIGH SCHOOL,2304 11TH AVE W,WILLISTON,ND,58801,NOT AVAILABLE,(701) 572-1055
27410,380678000823,CENTENNIAL ELEMENTARY SCHOOL,4201 25TH ST S,FARGO,ND,58104,NOT AVAILABLE,(701) 446-4300
74744,381182000081,FT LINCOLN ELEMENTARY SCHOOL,2007 8TH AVE SE,MANDAN,ND,58554,NOT AVAILABLE,(701) 751-6504
78466,380785000237,GLENBURN ELEMENTARY SCHOOL,102 RAYMOND ST,GLENBURN,ND,58740,NOT AVAILABLE,(701) 362-7426
94144,380002500335,KINDRED HIGH SCHOOL,255 DAKOTA ST,KINDRED,ND,58051,NOT AVAILABLE,(701) 428-3177
96817,380320000074,BOWMAN CO ELEMENTARY SCHOOL,102 8TH AVE SW,BOWMAN,ND,58623,NOT AVAILABLE,(701) 523-3283
105950,380001400927,BISMARCK 9-12 VIRTUAL ACADEMY,806 N WASHINGTON ST,BISMARCK,ND,58501,NOT AVAILABLE,(701) 323-4000
83762,381968000808,WHITE SHIELD HIGH SCHOOL,2 2ND AVE W,WHITE SHIELD,ND,58775,NOT AVAILABLE,(701) 743-4350
54211,381717000875,SOUTH PRAIRIE HIGH SCHOOL,100 177TH AVE SW,MINOT,ND,58701,NOT AVAILABLE,(701) 722-3537
23861,381323000458,MONTPELIER ELEMENTARY SCHOOL,214 7TH AVE,MONTPELIER,ND,58472,NOT AVAILABLE,(701) 489-3348
60038,380004600461,MOTT-REGENT HIGH SCHOOL,205 DAKOTA AVE,MOTT,ND,58646,NOT AVAILABLE,(701) 824-2795
10167,381515000534,PINGREE-BUCHANAN HIGH SCHOOL,111 LINCOLN AVE,PINGREE,ND,58476,NOT AVAILABLE,(701) 252-5563
18523,380813000255,J NELSON KELLY ELEMENTARY SCHOOL,3000 CHERRY ST,GRAND FORKS,ND,58201,NOT AVAILABLE,(701) 746-2265
19691,380813000259,NATHAN TWINING ELEMENTARY SCHOOL,1422 N LOUISIANA ST,GRAND FORKS AFB,ND,58204,NOT AVAILABLE,(701) 787-5100
46673,381746000599,SAINT JOHN ELEMENTARY SCHOOL,400 FOUSSARD AVE,SAINT JOHN,ND,58369,NOT AVAILABLE,(701) 477-5651
94436,380795000243,GOODRICH HIGH SCHOOL,211 4TH ST,GOODRICH,ND,58444,NOT AVAILABLE,(701) 884-2469
96179,381713000592,SOUTH HEART ELEMENTARY SCHOOL,310 4TH ST NW,SOUTH HEART,ND,58655,NOT AVAILABLE,(701) 677-5671
96336,380813000263,SCHROEDER MIDDLE SCHOOL,800 32ND AVE S,GRAND FORKS,ND,58201,NOT AVAILABLE,(701) 746-2330
60283,381434000509,NORTHWOOD HIGH SCHOOL,420 TROJAN RD,NORTHWOOD,ND,58267,NOT AVAILABLE,(701) 587-5221
61920,380238000024,LINCOLN ELEMENTARY SCHOOL,201 1ST AVE SE,BEACH,ND,58621,NOT AVAILABLE,(701) 872-4253
68209,382040000718,ZEELAND HIGH SCHOOL,510 S MAIN ST,ZEELAND,ND,58581,NOT AVAILABLE,(701) 423-5429
83362,381254000414,BADLANDS ELEMENTARY SCHOOL,300 3RD ST SE,WATFORD CITY,ND,58854,NOT AVAILABLE,(701) 444-2985
87301,380900000290,HATTON EIELSON HIGH SCHOOL,503 4TH ST,HATTON,ND,58240,NOT AVAILABLE,(701) 543-3456
71387,380534000151,DRAYTON HIGH SCHOOL,108 S 5TH ST,DRAYTON,ND,58225,NOT AVAILABLE,(701) 454-3324
35305,380003100293,HAZEN ELEMENTARY SCHOOL,519 1ST AVE NE,HAZEN,ND,58545,NOT AVAILABLE,(701) 748-6120
18801,381254000415,WATFORD CITY HIGH SCHOOL,2313 WOLVES DEN PARKWAY,WATFORD CITY,ND,58854,NOT AVAILABLE,(701) 444-3624
21380,381170000381,MADDOCK ELEMENTARY SCHOOL,909 1ST ST,MADDOCK,ND,58348,NOT AVAILABLE,(701) 438-2531
107222,381303000944,MINOT PUBLIC SCHOOLS 6-8 VIRTUAL ACADEMY,215 2ND STREET SE,MINOT,ND,58701,NOT AVAILABLE,(701) 857-4456
91159,380001400045,BISMARCK HIGH SCHOOL,800 N 8TH ST,BISMARCK,ND,58501,NOT AVAILABLE,(701) 323-4800
20728,381371000478,RAY HIGH SCHOOL,224 2ND AVE W,RAY,ND,58849,NOT AVAILABLE,(701) 568-3301
27085,380504000130,SWEETWATER ELEMENTARY SCHOOL,1304 2ND AVE NE,DEVILS LAKE,ND,58301,NOT AVAILABLE,(701) 662-7630
28877,381161000379,GOLVA ELEMENTARY SCHOOL,301 TERRELL AVE,GOLVA,ND,58632,NOT AVAILABLE,(701) 872-3674
50093,381613000563,RUGBY HIGH SCHOOL,1123 S MAIN AVE,RUGBY,ND,58368,NOT AVAILABLE,(701) 776-5201
51997,380678000200,LEWIS AND CLARK ELEMENTARY SCHOOL,1729 16TH ST S,FARGO,ND,58103,NOT AVAILABLE,(701) 446-4800
52749,380004000416,DAKOTA PRAIRIE ELEMENTARY SCHOOL,101 NYHUS AVE,MCVILLE,ND,58254,NOT AVAILABLE,(701) 322-4771
55755,380534000150,DRAYTON ELEMENTARY SCHOOL,108 S 5TH ST,DRAYTON,ND,58225,NOT AVAILABLE,(701) 454-3324
57766,590014900166,DUNSEITH DAY SCHOOL,2994 99TH ST NE,DUNSEITH,ND,58329,NOT AVAILABLE,(701) 263-4636
61149,381182000870,RED TRAIL ELEMENTARY SCHOOL,4801 37TH AVE NW,MANDAN,ND,58554,NOT AVAILABLE,(701) 751-6508
2925,380636000182,EMERADO ELEMENTARY SCHOOL,501 MAIN ST,EMERADO,ND,58228,NOT AVAILABLE,(701) 594-5125
105959,380040500907,LEWIS AND CLARK ELEMENTARY SCHOOL,704 17TH AVE W,WILLISTON,ND,58801,NOT AVAILABLE,(701) 572-6331
24908,380238000023,BEACH HIGH SCHOOL,600 N CENTRAL AVE,BEACH,ND,58621,NOT AVAILABLE,(701) 872-4161
60570,380005800030,BERTHOLD HIGH SCHOOL,401 4TH AVE NE,BERTHOLD,ND,58718,NOT AVAILABLE,(701) 453-3484
61723,381885000656,VALLEY CITY JUNIOR HIGH SCHOOL,493 CENTRAL AVE N,VALLEY CITY,ND,58072,NOT AVAILABLE,(701) 845-0483
68187,381746000600,SAINT JOHN HIGH SCHOOL,400 FOUSSARD AVE,SAINT JOHN,ND,58369,NOT AVAILABLE,(701) 477-5651
752,381366000876,NEDROSE ELEMENTARY SCHOOL 4-8,5705 15TH AVE SE,MINOT,ND,58701,NOT AVAILABLE,(701) 838-5550
46523,380813000264,SOUTH MIDDLE SCHOOL,1999 47TH AVE S,GRAND FORKS,ND,58201,NOT AVAILABLE,(701) 746-2345
47600,380005600224,FORDVILLE-LANKIN ELEMENTARY SCHOOL,102 4TH AVE W,FORDVILLE,ND,58231,NOT AVAILABLE,(701) 229-3297
96455,380456000116,GRIGGS COUNTY CENTRAL HIGH SCHOOL,1207 FOSTER AVE NE,COOPERSTOWN,ND,58425,NOT AVAILABLE,(701) 797-3114
50522,380005600225,FORDVILLE-LANKIN HIGH SCHOOL,102 4TH AVE W,FORDVILLE,ND,58231,NOT AVAILABLE,(701) 229-3297
57291,381293000896,SUNDALE COLONY HIGH SCHOOL,14226 75TH ST SE,MILNOR,ND,58060,NOT AVAILABLE,(701) 427-5868
59952,380001400811,VICTOR SOLHEIM ELEMENTARY SCHOOL,325 MUNICH DR,BISMARCK,ND,58504,NOT AVAILABLE,(701) 323-4260
88162,380678000201,LINCOLN ELEMENTARY SCHOOL,2120 9TH ST S,FARGO,ND,58103,NOT AVAILABLE,(701) 446-4900
88434,381143000375,LISBON MIDDLE SCHOOL,502 ELM ST,LISBON,ND,58054,NOT AVAILABLE,(701) 683-4108
105954,380004700935,TGU K-8 VIRTUAL ELEMENTARY,302 2ND ST SE,TOWNER,ND,58788,NOT AVAILABLE,(701) 537-5414
105975,380678000931,EXPLORER ACADEMY,NO STREET ADDRESS,FARGO,ND,58102,NOT AVAILABLE,(701) 446-1200
70166,381303000449,SUNNYSIDE ELEMENTARY SCHOOL,1000 5TH AVE SE,MINOT,ND,58701,NOT AVAILABLE,(701) 857-4690
71466,380217000013,ASHLEY ELEMENTARY SCHOOL,703 W MAIN ST,ASHLEY,ND,58413,NOT AVAILABLE,(701) 288-3456
72154,381941000841,OSGOOD ELEM SCHOOL,5550 44TH AVE S,FARGO,ND,58104,NOT AVAILABLE,(701) 356-2190
78274,380846000274,GRENORA HIGH SCHOOL,402 ROBINSON ST,GRENORA,ND,58845,NOT AVAILABLE,(701) 694-2711
91587,380941000298,HETTINGER ELEMENTARY SCHOOL,209 S 8TH ST,HETTINGER,ND,58639,NOT AVAILABLE,(701) 567-5315
95394,381026000329,KENSAL ELEMENTARY SCHOOL,803 1ST AVE,KENSAL,ND,58455,NOT AVAILABLE,(701) 435-2484
96084,380678000873,ED CLAPP ELEMENTARY SCHOOL,3131 S 28TH ST,FARGO,ND,58103,NOT AVAILABLE,(701) 446-2900
71415,381320000457,WILTON HIGH SCHOOL,504 DAKOTA AVE,WILTON,ND,58579,NOT AVAILABLE,(701) 734-6331
75506,381098000358,LEEDS HIGH SCHOOL,530 1ST ST SE,LEEDS,ND,58346,NOT AVAILABLE,(701) 466-2461
80743,380000600801,SCHOOL FOR THE DEAF PK-8,1401 COLLEGE DRIVE N,DEVILS LAKE,ND,58301,NOT AVAILABLE,(701) 665-4400
100565,380040400900,HOPE PAGE ELEMENTARY SCHOOL,630 MAY AVE,PAGE,ND,58064,NOT AVAILABLE,(701) 668-2520
105980,381613000933,RUGBY ELY VIRTUAL ELEMENTARY SCHOOL,207 2ND ST SW,RUGBY,ND,58368,NOT AVAILABLE,(701) 776-5757
107218,380320000926,BOWMAN CO PRESCHOOL,204 7TH AVE SW,BOWMAN,ND,58623,NOT AVAILABLE,(701) 523-3283
36391,380693000218,FLASHER ELEMENTARY SCHOOL,206 3RD AVE E,FLASHER,ND,58535,NOT AVAILABLE,(701) 597-3355
58019,380595000170,EDMORE HIGH SCHOOL,706 N MAIN ST,EDMORE,ND,58330,NOT AVAILABLE,(701) 644-2281
59339,381200000394,MANVEL ELEMENTARY SCHOOL,801 OLDHAM AVE,MANVEL,ND,58256,NOT AVAILABLE,(701) 696-2212
20231,381429000504,NORTH SARGENT ELEMENTARY SCHOOL,16 1ST ST SW,GWINNER,ND,58040,NOT AVAILABLE,(701) 678-2492
20810,381988000758,HAGAN ELEMENTARY SCHOOL,2501 29TH ST W,WILLISTON,ND,58801,NOT AVAILABLE,(701) 572-4960
23669,380005400670,NORTH BORDER-WALHALLA HIGH SCHOOL,605 10TH ST,WALHALLA,ND,58282,NOT AVAILABLE,(701) 549-3751
24996,380691000217,FINLEY-SHARON HIGH SCHOOL,201 3RD ST E,FINLEY,ND,58230,NOT AVAILABLE,(701) 524-2420
63022,381873000647,DES LACS-BURLINGTON HIGH SCHOOL,317 ROOSEVELT ST,DES LACS,ND,58733,NOT AVAILABLE,(701) 725-4334
69427,381757000605,STANLEY HIGH SCHOOL,109 8TH AVE SW,STANLEY,ND,58784,NOT AVAILABLE,(701) 628-2342
44725,381299000431,MINNEWAUKAN HIGH SCHOOL,4675 HWY 281 N,MINNEWAUKAN,ND,58351,NOT AVAILABLE,(701) 473-5306
45470,381698000585,CANNON BALL ELEMENTARY SCHOOL,7080 8TH AVE,CANNON BALL,ND,58528,NOT AVAILABLE,(701) 854-3341
47776,380409000100,CENTRAL CASS HIGH SCHOOL,802 5TH ST N,CASSELTON,ND,58012,NOT AVAILABLE,(701) 347-5352
327,388043000769,FORT TOTTEN SPEC ED UNIT,HWY 57 S,FORT TOTTEN,ND,58335,NOT AVAILABLE,(701) 766-1433
7548,380005900491,NEW ROCKFORD-SHEYENNE HIGH SCHOOL,437 1ST AVE N,NEW ROCKFORD,ND,58356,NOT AVAILABLE,(701) 947-5036
10094,590011700174,WHITE SHIELD SCHOOL,2 2ND AVE WEST,ROSEGLEN,ND,58775,NOT AVAILABLE,(701) 743-4350
16891,380039800849,BISMARCK CAREER ACAD,1221 COLLEGE DR,BISMARCK,ND,58501,NOT AVAILABLE,(701) 323-4340
18575,380039200494,PRAIRIE VIEW ELEMENTARY SCHOOL,400 N 4TH ST,NEW SALEM,ND,58563,NOT AVAILABLE,(701) 843-7823
3497,381434000508,NORTHWOOD ELEMENTARY SCHOOL,420 TROJAN RD,NORTHWOOD,ND,58267,NOT AVAILABLE,(701) 587-5221
4831,380003800887,DICKINSON MIDDLE SCHOOL,2675 21ST ST W,DICKINSON,ND,58601,NOT AVAILABLE,(701) 456-0021
8614,381202000395,MAPLE VALLEY HIGH SCHOOL,207 BROADWAY,TOWER CITY,ND,58071,NOT AVAILABLE,(701) 749-2570
29408,380001400727,ROBERT PLACE MILLER ELEMENTARY SCHOOL,1989 N 20TH ST,BISMARCK,ND,58501,NOT AVAILABLE,(701) 323-4170
48729,381947000685,WESTHOPE ELEMENTARY SCHOOL,395 MAIN ST,WESTHOPE,ND,58793,NOT AVAILABLE,(701) 245-6444
34260,381303000444,MEMORIAL MIDDLE SCHOOL,1 ROCKET RD,MINOT AFB,ND,58704,NOT AVAILABLE,(701) 727-3300
38485,380039200493,NEW SALEM-ALMONT HIGH SCHOOL,310 ELM AVE,NEW SALEM,ND,58563,NOT AVAILABLE,(701) 843-7610
90104,380359000080,BURKE CENTRAL ELEMENTARY SCHOOL,101 4TH AVE W,LIGNITE,ND,58752,NOT AVAILABLE,(701) 933-2821
99353,380176000004,ALEXANDER HIGH SCHOOL,601 DELANEY ST,ALEXANDER,ND,58831,NOT AVAILABLE,(701) 828-3334
77752,380003600553,RICHLAND JUNIOR-SENIOR HIGH SCHOOL,101 MAIN AVE,COLFAX,ND,58018,NOT AVAILABLE,(701) 372-3713
62610,380806000248,GRAFTON HIGH SCHOOL,1548 SCHOOL RD,GRAFTON,ND,58237,NOT AVAILABLE,(701) 352-1930
67860,380678000195,CLARA BARTON HAWTHORNE ELEMENTARY SCHOOL,1417 6TH ST S,FARGO,ND,58103,NOT AVAILABLE,(701) 446-4400
84167,381860000757,TWIN BUTTES ELEMENTARY SCHOOL,7997 7A ST NW,HALLIDAY,ND,58636,NOT AVAILABLE,(701) 938-4396
89963,380585000093,EDGELEY ELEMENTARY SCHOOL,307 6TH ST,EDGELEY,ND,58433,NOT AVAILABLE,(701) 493-2292
53333,380783000236,GLEN ULLIN HIGH SCHOOL,6508 HWY 49,GLEN ULLIN,ND,58631,NOT AVAILABLE,(701) 348-3590
59053,380004700499,TGU-TOWNER HIGH SCHOOL,302 2ND ST SE,TOWNER,ND,58788,NOT AVAILABLE,(701) 537-5414
18992,380504000128,MINNIE H KINDERGARTEN CENTER,210 COLLEGE DRIVE S,DEVILS LAKE,ND,58301,NOT AVAILABLE,(701) 662-7670
87728,380004300231,GACKLE-STREETER HIGH SCHOOL,300 2ND AVE E,GACKLE,ND,58442,NOT AVAILABLE,(701) 485-3692
88754,381752000603,SAINT THOMAS HIGH SCHOOL,375 HERITAGE,SAINT THOMAS,ND,58276,NOT AVAILABLE,(701) 257-6424
2487,380678000160,BENNETT ELEMENTARY SCHOOL,2000 S 58TH AVE,FARGO,ND,58104,NOT AVAILABLE,(701) 446-4000
7770,381202000851,WHEATLAND COLONY SCHOOL,3361 134TH AVE SE,TOWER CITY,ND,58071,NOT AVAILABLE,(701) 749-5310
40184,380040100145,PARK RIVER AREA ELEMENTARY SCHOOL,704 5TH ST W,PARK RIVER,ND,58270,NOT AVAILABLE,(701) 284-7164
44773,380813000254,CENTRAL HIGH SCHOOL,115 N 4TH ST,GRAND FORKS,ND,58203,NOT AVAILABLE,(701) 746-2375
92148,381114000366,LIDGERWOOD HIGH SCHOOL,28 3RD AVE SE,LIDGERWOOD,ND,58053,NOT AVAILABLE,(701) 538-7341
96085,381941000872,LEGACY ELEMENTARY SCHOOL,5150 9TH ST W,WEST FARGO,ND,58078,NOT AVAILABLE,(701) 356-3740
102715,381941000897,DEER CREEK ELEMENTARY SCHOOL,6400 54TH AVE S,FARGO,ND,58104,NOT AVAILABLE,(701) 356-8390
105972,380253000941,TURTLE MOUNTAIN 6-8 VIRTUAL SCHOOL,1330 BRAVES BOULEVARD,BELCOURT,ND,58316,NOT AVAILABLE,(701) 477-6471
105984,381941000946,WEST FARGO MIDDLE VIRTUAL ACADEMY,207 W MAIN AVE,WEST FARGO,ND,58078,NOT AVAILABLE,(701) 356-2000
107225,381941000902,HORACE HIGH SCHOOL,6350 76TH AVE S,HORACE,ND,58047,NOT AVAILABLE,(701) 356-5910
56842,381941000857,FREEDOM ELEMENTARY SCHOOL,401 26TH AVE E,WEST FARGO,ND,58078,NOT AVAILABLE,(701) 356-5221
58295,381767000609,STARKWEATHER HIGH SCHOOL,505 E MAIN,STARKWEATHER,ND,58377,NOT AVAILABLE,(701) 292-4381
59249,381323000459,MONTPELIER HIGH SCHOOL,214 7TH AVE,MONTPELIER,ND,58472,NOT AVAILABLE,(701) 489-3348
31390,381968000807,WHITE SHIELD ELEMENTARY SCHOOL,2 2ND AVE W,WHITE SHIELD,ND,58775,NOT AVAILABLE,(701) 743-4350
27178,380001400056,RITA MURPHY ELEMENTARY SCHOOL,611 N 31ST ST,BISMARCK,ND,58501,NOT AVAILABLE,(701) 323-4190
74310,380678000198,HORACE MANN ROOSEVELT ELEMENTARY SCHOOL,1025 3RD ST N,FARGO,ND,58102,NOT AVAILABLE,(701) 446-4600
75474,380002400542,POWERS LAKE HIGH SCHOOL,600 RAILROAD AVE E,POWERS LAKE,ND,58773,NOT AVAILABLE,(701) 464-5432
60518,381143000373,LISBON ELEMENTARY SCHOOL,502 ASH ST,LISBON,ND,58054,NOT AVAILABLE,(701) 683-4107
63591,381429000505,NORTH SARGENT HIGH SCHOOL,16 1ST ST SW,GWINNER,ND,58040,NOT AVAILABLE,(701) 678-2492
36290,388036000791,WILMAC SPEC ED UNIT,222 UNIVERSITY AVE,WILLISTON,ND,58801,NOT AVAILABLE,(701) 572-6757
20850,380006000701,BARNES COUNTY NORTH ELEMENTARY SCHOOL,2192 101ST AVE SE,WIMBLEDON,ND,58492,NOT AVAILABLE,(701) 646-6202
21248,380003800022,EARLY CHILDHOOD CENTER,107 3RD AVE SE,DICKINSON,ND,58601,NOT AVAILABLE,(701) 227-3010
11867,380306000068,BOTTINEAU JUNIOR-SENIOR HIGH SCHOOL,301 BRANDER ST,BOTTINEAU,ND,58318,NOT AVAILABLE,(701) 228-2266
13152,380678000855,FARGO DAVIES HIGH SCHOOL,7150 25TH ST S,FARGO,ND,58104,NOT AVAILABLE,(701) 446-5600
14712,381791000619,SURREY HIGH SCHOOL,200 2ND ST SE,SURREY,ND,58785,NOT AVAILABLE,(701) 838-3282
79196,380414000104,CENTRAL VALLEY HIGH SCHOOL,1556 HWY 81 NE,BUXTON,ND,58218,NOT AVAILABLE,(701) 847-2220
44119,381235000402,MAX HIGH SCHOOL,2855 HWY 83 NW,MAX,ND,58759,NOT AVAILABLE,(701) 679-2685
86119,381305000452,MINTO HIGH SCHOOL,200 4TH ST,MINTO,ND,58261,NOT AVAILABLE,(701) 248-3479
53620,590005800164,TATE TOPA TRIBAL SCHOOL,7268 HIGHWAY 57,FORT TOTTEN,ND,58335,NOT AVAILABLE,(701) 766-1400
56227,380004700499,TGU-TOWNER HIGH SCHOOL,302 2ND ST SE,TOWNER,ND,58788,NOT AVAILABLE,(701) 537-5414
58159,381988000860,MCVAY ELEMENTARY SCHOOL,420 UNIVERSITY AVE,WILLISTON,ND,58801,NOT AVAILABLE,(701) 572-9104
91340,380669000190,FAIRMOUNT ELEMENTARY SCHOOL,400 E MAIN,FAIRMOUNT,ND,58030,NOT AVAILABLE,(701) 474-5469
92309,380001400061,WACHTER MIDDLE SCHOOL,1107 S 7TH ST,BISMARCK,ND,58504,NOT AVAILABLE,(701) 323-4650
93431,380678000186,CARL BEN EIELSON MIDDLE SCHOOL,1601 13TH AVE S,FARGO,ND,58103,NOT AVAILABLE,(701) 446-1700
95498,380320000548,RHAME ELEMENTARY SCHOOL,402 4TH AVE E,RHAME,ND,58651,NOT AVAILABLE,(701) 279-5523
95609,381293000426,MILNOR ELEMENTARY SCHOOL,530 5TH ST,MILNOR,ND,58060,NOT AVAILABLE,(701) 427-5237
99252,381027000332,KILLDEER HIGH SCHOOL,101 HIGH ST NW,KILLDEER,ND,58640,NOT AVAILABLE,(701) 764-5877
62585,381941000677,EASTWOOD ELEMENTARY SCHOOL,500 10TH AVE E,WEST FARGO,ND,58078,NOT AVAILABLE,(701) 356-2030
63475,380004100406,MAY-PORT CG HIGH SCHOOL,900 MAIN ST W,MAYVILLE,ND,58257,NOT AVAILABLE,(701) 788-2281
105956,380040400900,HOPE PAGE ELEMENTARY SCHOOL,630 MAY AVENUE,PAGE,ND,58064,NOT AVAILABLE,(701) 668-2520
42797,380678000206,KENNEDY ELEMENTARY SCHOOL,4401 42ND ST S,FARGO,ND,58104,NOT AVAILABLE,(701) 446-4200
43509,381647000569,SAWYER ELEMENTARY SCHOOL,25 1ST AVE SW,SAWYER,ND,58781,NOT AVAILABLE,(701) 624-5167
43699,381182000387,MANDAN HIGH SCHOOL,905 8TH AVE NW,MANDAN,ND,58554,NOT AVAILABLE,(701) 751-6501
45060,381243000407,MCCLUSKY ELEMENTARY SCHOOL,121 F AVE W,MCCLUSKY,ND,58463,NOT AVAILABLE,(701) 363-2647
54208,381303000879,JOHN HOEVEN ELEMENTARY SCHOOL,3400 13TH ST SE,MINOT,ND,58701,NOT AVAILABLE,(701) 418-1600
54209,381366000877,NEDROSE HIGH SCHOOL,5705 15TH AVE SE,MINOT,ND,58701,NOT AVAILABLE,(701) 838-5550
55014,590014900166,DUNSEITH DAY SCHOOL,2994 99TH ST NE,DUNSEITH,ND,58329,NOT AVAILABLE,(701) 263-4636
26301,381941000678,HARWOOD ELEMENTARY SCHOOL,110 FREEDLAND DR,HARWOOD,ND,58042,NOT AVAILABLE,(701) 356-2040
85586,380806000247,GRAFTON JUNIOR HIGH SCHOOL,1556 SCHOOL RD,GRAFTON,ND,58237,NOT AVAILABLE,(701) 352-1469
61324,381081000348,LANGDON AREA HIGH SCHOOL,715 14TH AVE,LANGDON,ND,58249,NOT AVAILABLE,(701) 256-5291
64688,381050000338,KULM ELEMENTARY SCHOOL,217 2ND AVE SW,KULM,ND,58456,NOT AVAILABLE,(701) 647-2303
95260,380001700370,LINTON ELEMENTARY SCHOOL,101 NE 3RD ST,LINTON,ND,58552,NOT AVAILABLE,(701) 254-4138
96488,380004700271,TGU-GRANVILLE HIGH SCHOOL,210 6TH ST SW,GRANVILLE,ND,58741,NOT AVAILABLE,(701) 728-6641
71701,380003800135,LINCOLN ELEMENTARY SCHOOL,102 10TH ST W,DICKINSON,ND,58601,NOT AVAILABLE,(701) 456-0014
74280,381182000858,BRAVE CENTER ACADEMY,901 DIVISION ST NW,MANDAN,ND,58554,NOT AVAILABLE,(701) 751-6525
79017,381988000694,WILKINSON ELEMENTARY SCHOOL,1200 9TH AVE W,WILLISTON,ND,58802,NOT AVAILABLE,(701) 572-6532
101401,380003900635,TIOGA HIGH SCHOOL,303 N LINDA ST,TIOGA,ND,58852,NOT AVAILABLE,(701) 664-3606
107215,380040600925,GRAFTON JUNIOR HIGH SCHOOL,1556 SCHOOL RD,GRAFTON,ND,58237,NOT AVAILABLE,(701) 352-1469
107219,380609000939,ELLENDALE 7-12 VIRTUAL ACADEMY,321 1ST ST N,ELLENDALE,ND,58436,NOT AVAILABLE,(701) 349-3232
5922,380004800893,RICHARDTON-TAYLOR ELEMENTARY SCHOOL,320 RAIDER RD,RICHARDTON,ND,58652,NOT AVAILABLE,(701) 974-2111
8679,381450000513,OAKES ELEMENTARY SCHOOL,804 MAIN AVE,OAKES,ND,58474,NOT AVAILABLE,(701) 742-3234
9754,380546000155,DUNSEITH ELEMENTARY SCHOOL,101 2ND AVE SW,DUNSEITH,ND,58329,NOT AVAILABLE,(701) 244-5792
13968,380001400866,LEGACY HIGH SCHOOL,3400 CALGARY AVE,BISMARCK,ND,58503,NOT AVAILABLE,(701) 323-4850
2046,381351000469,NAPOLEON HIGH SCHOOL,615 3RD ST E,NAPOLEON,ND,58561,NOT AVAILABLE,(701) 754-2244
5726,590006800168,OJIBWA INDIAN SCHOOL,HWY 5 WEST,BELCOURT,ND,58316,NOT AVAILABLE,(701) 477-3108
5889,381376000892,MISSOURI RIDGE MIDDLE SCHOOL,5640 140TH AVE NW,WILLISTON,ND,58801,NOT AVAILABLE,(701) 875-2041
64355,381081000348,LANGDON AREA HIGH SCHOOL,715 14TH AVE,LANGDON,ND,58249,NOT AVAILABLE,(701) 256-5291
65823,381941000859,LIBERTY MIDDLE SCHOOL,801 36TH AVE E,WEST FARGO,ND,58078,NOT AVAILABLE,(701) 356-2671
10264,380201400012,APPLE CREEK ELEMENTARY SCHOOL,2000 93RD ST SE,BISMARCK,ND,58504,NOT AVAILABLE,(701) 223-7349
16728,380001400810,PRAIRIE ROSE ELEMENTARY SCHOOL,2200 OAHE BEND,BISMARCK,ND,58504,NOT AVAILABLE,(701) 323-4280
41315,381902000668,ZIMMERMAN ELEMENTARY SCHOOL,508 9TH ST N,WAHPETON,ND,58075,NOT AVAILABLE,(701) 642-3050
45582,590006700163,STANDING ROCK COMMUNITY SCHOOL,9189 HWY 24,FORT YATES,ND,58538,NOT AVAILABLE,(701) 854-3461
46652,381086000354,LARIMORE ELEMENTARY SCHOOL,700 CLARK AVE,LARIMORE,ND,58251,NOT AVAILABLE,(701) 343-2249
46815,380813000261,RED RIVER HIGH SCHOOL,2211 17TH AVE S,GRAND FORKS,ND,58201,NOT AVAILABLE,(701) 746-2400
34506,381098000357,LEEDS ELEMENTARY SCHOOL,530 1ST ST SE,LEEDS,ND,58346,NOT AVAILABLE,(701) 466-2461
50449,381941000680,CHENEY MIDDLE SCHOOL,825 17TH AVE E,WEST FARGO,ND,58078,NOT AVAILABLE,(701) 356-2090
50919,381947000686,WESTHOPE HIGH SCHOOL,395 MAIN ST,WESTHOPE,ND,58793,NOT AVAILABLE,(701) 245-6444
59049,380001400060,SIMLE MIDDLE SCHOOL,1218 SIMLE DR,BISMARCK,ND,58501,NOT AVAILABLE,(701) 323-4600
20983,380000500837,MARMOT SCHOOL K-8,701 16TH AVE SW,MANDAN,ND,58554,NOT AVAILABLE,(701) 667-1400
22782,381303000446,NORTH PLAINS ELEMENTARY SCHOOL,101 C ST,MINOT AFB,ND,58704,NOT AVAILABLE,(701) 727-3320
22862,380001700371,LINTON HIGH SCHOOL,101 NE 3RD ST,LINTON,ND,58552,NOT AVAILABLE,(701) 254-4138
76845,381941000838,WEST FARGO SHEYENNE HIGH SCHOOL,800 40TH AVE E,WEST FARGO,ND,58078,NOT AVAILABLE,(701) 356-2160
79048,380004100019,MAY-PORT CG MIDDLE SCHOOL,900 MAIN ST W,MAYVILLE,ND,58257,NOT AVAILABLE,(701) 788-2281
105961,380040500909,WILKINSON ELEMENTARY SCHOOL,1200 9TH AVE W,WILLISTON,ND,58802,NOT AVAILABLE,(701) 572-6532
105968,380040500916,ROUND PRAIRIE ELEMENTARY SCHOOL,5098 151ST AVE NW,WILLISTON,ND,58801,NOT AVAILABLE,(701) 875-4346
107217,380253000942,TURTLE MOUNTAIN 9-12 VIRTUAL SCHOOL,1350 BRAVES BOULEVARD,BELCOURT,ND,58316,NOT AVAILABLE,(701) 477-6471
33078,380005700376,LITCHVILLE-MARION ELEMENTARY SCHOOL,304 6TH AVE,LITCHVILLE,ND,58461,NOT AVAILABLE,(701) 762-4234
10841,381266000419,MEDINA HIGH SCHOOL,300 SCHOOL ST SE,MEDINA,ND,58467,NOT AVAILABLE,(701) 486-3121
12183,381767000608,STARKWEATHER ELEMENTARY SCHOOL,505 E MAIN,STARKWEATHER,ND,58377,NOT AVAILABLE,(701) 292-4381
61014,380889000288,HARVEY HIGH SCHOOL,200 NORTH ST E,HARVEY,ND,58341,NOT AVAILABLE,(701) 324-2267
61568,380005000453,MLS-MOHALL ELEMENTARY SCHOOL,101 3RD ST NW,MOHALL,ND,58761,NOT AVAILABLE,(701) 756-6660
62919,380717000853,FOUR WINDS COMMUNITY PK SCHOOL,7268 HWY 57 W,FORT TOTTEN,ND,58335,NOT AVAILABLE,(701) 766-1400
64586,380621000181,BELFIELD HIGH SCHOOL,302 NE 3RD ST,BELFIELD,ND,58622,NOT AVAILABLE,(701) 575-4275
69355,381182000386,LEWIS AND CLARK ELEMENTARY SCHOOL,600 14TH ST NW,MANDAN,ND,58554,NOT AVAILABLE,(701) 751-6505
26266,380691000217,FINLEY-SHARON HIGH SCHOOL,201 3RD ST E,FINLEY,ND,58230,NOT AVAILABLE,(701) 524-2420
97798,381941000683,WEST FARGO HIGH SCHOOL,801 9TH ST E,WEST FARGO,ND,58078,NOT AVAILABLE,(701) 356-2050
54877,381941000885,BROOKS HARBOR ELEMENTARY SCHOOL,801 22ND AVE W,WEST FARGO,ND,58078,NOT AVAILABLE,(701) 356-8310
55315,380001400058,ROOSEVELT ELEMENTARY SCHOOL,613 W AVENUE B,BISMARCK,ND,58501,NOT AVAILABLE,(701) 323-4240
56513,380005800507,NORTH SHORE PLAZA HIGH SCHOOL,801 COVELL ST,PLAZA,ND,58771,NOT AVAILABLE,(701) 497-3734
59767,380004600460,MOTT-REGENT ELEMENTARY SCHOOL,205 DAKOTA AVE,MOTT,ND,58646,NOT AVAILABLE,(701) 824-2795
81783,380006100184,ENDERLIN AREA HIGH SCHOOL,410 BLUFF ST,ENDERLIN,ND,58027,NOT AVAILABLE,(701) 437-2240
6664,590010600170,TURTLE MOUNTAIN ELEMENTARY SCHOOL,1209 GILBERT GODON STREET,BELCOURT,ND,58316,NOT AVAILABLE,(701) 477-6471
8504,380585000166,EDGELEY HIGH SCHOOL,307 6TH ST,EDGELEY,ND,58433,NOT AVAILABLE,(701) 493-2292
44742,380601000172,EIGHT MILE HIGH SCHOOL,203 1ST ST E,TRENTON,ND,58853,NOT AVAILABLE,(701) 774-8221
100571,381941000899,HERITAGE MIDDLE SCHOOL,6400 54TH AVE S,FARGO,ND,58104,NOT AVAILABLE,(701) 356-8390
107221,381303000943,MINOT PUBLIC SCHOOLS K-5 VIRTUAL ACADEMY,215 2ND STREET SE,MINOT,ND,58701,NOT AVAILABLE,(701) 857-4456
83570,381182000391,ROOSEVELT ELEMENTARY SCHOOL,305 10TH AVE NW,MANDAN,ND,58554,NOT AVAILABLE,(701) 751-6507
87737,380601000171,EIGHT MILE ELEMENTARY SCHOOL,203 1ST ST E,TRENTON,ND,58853,NOT AVAILABLE,(701) 774-8221
94382,380002400541,POWERS LAKE ELEMENTARY SCHOOL,600 RAILROAD AVE E,POWERS LAKE,ND,58773,NOT AVAILABLE,(701) 464-5432
107213,380001400920,BISMARCK K-5 VIRTUAL ACADEMY,806 N WASHINGTON ST,BISMARCK,ND,58501,NOT AVAILABLE,(701) 323-4000
52314,380005400669,NORTH BORDER-WALHALLA ELEMENTARY SCHOOL,605 10TH ST,WALHALLA,ND,58282,NOT AVAILABLE,(701) 549-3751
56089,380678000208,SOUTH HIGH SCHOOL,1840 15TH AVE S,FARGO,ND,58103,NOT AVAILABLE,(701) 446-2000
56269,381254000886,WATFORD CITY MIDDLE SCHOOL,100 THIRD STREET NE,WATFORD CITY,ND,58854,NOT AVAILABLE,(701) 444-3626
6663,590002500172,TURTLE MOUNTAIN MIDDLE SCHOOL,1330 BRAVES BOULEVARD,BELCOURT,ND,58316,NOT AVAILABLE,(701) 477-6471
33058,380006100183,ENDERLIN AREA ELEMENTARY SCHOOL,410 BLUFF ST,ENDERLIN,ND,58027,NOT AVAILABLE,(701) 437-2240
73151,380003900633,CENTRAL ELEMENTARY SCHOOL,321 N BENSON ST,TIOGA,ND,58852,NOT AVAILABLE,(701) 664-3441
76846,381018000326,KENMARE HIGH SCHOOL,300 7TH AVE NE,KENMARE,ND,58746,NOT AVAILABLE,(701) 385-4996
78421,381185000747,MANDAREE ELEMENTARY SCHOOL,1 WARRIOR CIRCLE,MANDAREE,ND,58757,NOT AVAILABLE,(701) 759-3311
2649,381303000439,JIM HILL MIDDLE SCHOOL,1000 6TH ST SW,MINOT,ND,58701,NOT AVAILABLE,(701) 857-4477
6665,590009500083,CIRCLE OF NATIONS,832 8TH STREET NORTH,WAHPETON,ND,58075,NOT AVAILABLE,(701) 642-3796
8164,381885000657,WASHINGTON ELEMENTARY SCHOOL,510 8TH AVE SW,VALLEY CITY,ND,58072,NOT AVAILABLE,(701) 845-0849
9793,380813000269,WINSHIP ELEMENTARY SCHOOL,1412 5TH AVE N,GRAND FORKS,ND,58203,NOT AVAILABLE,(701) 746-2325
92062,381303000433,CENTRAL CAMPUS SCHOOL,215 1ST ST SE,MINOT,ND,58701,NOT AVAILABLE,(701) 857-4660
85842,380546000157,DUNSEITH HIGH SCHOOL,301 3RD AVE SW,DUNSEITH,ND,58329,NOT AVAILABLE,(701) 244-5249
86901,381235000401,MAX ELEMENTARY SCHOOL,2855 HWY 83 NW,MAX,ND,58759,NOT AVAILABLE,(701) 679-2685
87463,380039700168,VALLEY-EDINBURG HIGH SCHOOL,600 5TH ST S,EDINBURG,ND,58227,NOT AVAILABLE,(701) 993-8312
50627,380678000199,JEFFERSON ELEMENTARY SCHOOL,1701 4TH AVE S,FARGO,ND,58103,NOT AVAILABLE,(701) 446-4700
51748,380813000267,WEST ELEMENTARY SCHOOL,615 N 25TH ST,GRAND FORKS,ND,58203,NOT AVAILABLE,(701) 746-2310
53491,381018000731,KENMARE ELEMENTARY SCHOOL,623 N CENTRAL AVE,KENMARE,ND,58746,NOT AVAILABLE,(701) 385-4688
55670,380005200097,CENTER-STANTON HIGH SCHOOL,315 LINCOLN AVE,CENTER,ND,58530,NOT AVAILABLE,(701) 794-8778
57420,380003800895,P S BERG ELEMENTARY SCHOOL,307 3RD AVE W,DICKINSON,ND,58601,NOT AVAILABLE,(701) 456-0010
32271,380005800537,NORTH SHORE PLAZA ELEMENTARY SCHOOL,801 COVELL ST,PLAZA,ND,58771,NOT AVAILABLE,(701) 497-3734
35251,380409000163,CENTRAL CASS MIDDLE SCHOOL,802 5TH ST N,CASSELTON,ND,58012,NOT AVAILABLE,(701) 347-5352
36633,380720000744,FORT YATES MIDDLE SCHOOL,9189 1/2 HWY 24,FORT YATES,ND,58538,NOT AVAILABLE,(701) 854-3819
61769,380813000251,PHOENIX ELEMENTARY SCHOOL,351 4TH AVE S,GRAND FORKS,ND,58201,NOT AVAILABLE,(701) 746-2240
63631,380717000227,FOUR WINDS COMMUNITY HIGH SCHOOL,7268 HWY 57 W,FORT TOTTEN,ND,58335,NOT AVAILABLE,(701) 766-1400
42796,380001400048,DOROTHY MOSES ELEMENTARY SCHOOL,1312 S COLUMBIA DR,BISMARCK,ND,58504,NOT AVAILABLE,(701) 323-4180
48159,380409000099,CENTRAL CASS ELEMENTARY SCHOOL,802 5TH ST N,CASSELTON,ND,58012,NOT AVAILABLE,(701) 347-5352
48730,380001400051,HORIZON MIDDLE SCHOOL,500 ASH COULEE DR,BISMARCK,ND,58503,NOT AVAILABLE,(701) 323-4550
101476,381074000346,LAMOURE COLONY SCHOOL,9644 74TH ST SE,LAMOURE,ND,58458,NOT AVAILABLE,(701) 883-5396
105953,380003800934,DICKINSON ROUGHRIDER K-8 VIRTUAL ACADEMY,2785 10TH AVENUE WEST,DICKINSON,ND,58601,NOT AVAILABLE,(701) 456-0016
105970,380040500918,MISSOURI RIDGE MIDDLE SCHOOL,5640 140TH AVE NW,WILLISTON,ND,58801,NOT AVAILABLE,(701) 875-2041
75538,380004900213,FESSENDEN-BOWDON HIGH SCHOOL,500 2ND ST N,FESSENDEN,ND,58438,NOT AVAILABLE,(701) 547-3296
80485,380005900490,NEW ROCKFORD-SHEYENNE ELEMENTARY SCHOOL,437 1ST AVE N,NEW ROCKFORD,ND,58356,NOT AVAILABLE,(701) 947-5036
88983,381613000562,RUGBY ELY ELEMENTARY SCHOOL,207 2ND ST SW,RUGBY,ND,58368,NOT AVAILABLE,(701) 776-5757
89042,381643000756,SARGENT CENTRAL ELEMENTARY SCHOOL,575 5TH ST SW,FORMAN,ND,58032,NOT AVAILABLE,(701) 724-3205
32790,381143000374,LISBON HIGH SCHOOL,502 ASH ST,LISBON,ND,58054,NOT AVAILABLE,(701) 683-4106
34728,380693000218,FLASHER ELEMENTARY SCHOOL,206 3RD AVE E,FLASHER,ND,58535,NOT AVAILABLE,(701) 597-3355
37749,381885000654,JEFFERSON ELEMENTARY SCHOOL,1150 CENTRAL AVE N,VALLEY CITY,ND,58072,NOT AVAILABLE,(701) 845-0622
38965,380456000164,GRIGGS COUNTY CENTRAL ELEMENTARY SCHOOL,1207 FOSTER AVE NE,COOPERSTOWN,ND,58425,NOT AVAILABLE,(701) 797-3114
66314,380759000234,GARRISON HIGH SCHOOL,51 5TH AVE NE,GARRISON,ND,58540,NOT AVAILABLE,(701) 463-2818
105963,380040500911,ASB INNOVATION ACADEMY,1204 4TH AVE W,WILLISTON,ND,58801,NOT AVAILABLE,(701) 713-7200
25286,381473000521,PAGE ELEMENTARY SCHOOL,630 MAY AVE,PAGE,ND,58064,NOT AVAILABLE,(701) 668-2520
27342,381941000682,SOUTH ELEMENTARY SCHOOL,117 6TH AVE W,WEST FARGO,ND,58078,NOT AVAILABLE,(701) 356-2100
28562,381086000355,LARIMORE HIGH SCHOOL,300 BOOTH AVE,LARIMORE,ND,58251,NOT AVAILABLE,(701) 343-2366
95760,380002900149,DRAKE HIGH SCHOOL,411 MAIN,DRAKE,ND,58736,NOT AVAILABLE,(701) 465-3732
99618,381941000867,INDEPENDENCE ELEMENTARY SCHOOL,3700 54TH ST S,FARGO,ND,58104,NOT AVAILABLE,(701) 356-5890
43889,380001600614,STRASBURG ELEMENTARY SCHOOL,301 1ST ST N,STRASBURG,ND,58573,NOT AVAILABLE,(701) 336-2667
47062,380678000203,MADISON ELEMENTARY SCHOOL,1040 N 29TH ST,FARGO,ND,58102,NOT AVAILABLE,(701) 446-5100
49714,381988000692,RICKARD ELEMENTARY SCHOOL,1224 1ST AVE E,WILLISTON,ND,58802,NOT AVAILABLE,(701) 572-5412
49998,381452000515,OBERON ELEMENTARY SCHOOL,315 A ST N,OBERON,ND,58357,NOT AVAILABLE,(701) 798-2231
55158,381828000629,THOMPSON ELEMENTARY SCHOOL,424 3RD ST,THOMPSON,ND,58278,NOT AVAILABLE,(701) 599-2765
57683,381926000890,WARWICK MIDDLE SCHOOL,210 4TH AVE,WARWICK,ND,58381,NOT AVAILABLE,(701) 294-2561
13781,380000500797,MARMOT SCHOOL 9-12,701 16TH AVE SW,MANDAN,ND,58554,NOT AVAILABLE,(701) 667-1400
50471,381929000673,WASHBURN ELEMENTARY SCHOOL,713 7TH ST,WASHBURN,ND,58577,NOT AVAILABLE,(701) 462-3221
52436,381704000591,VELVA HIGH SCHOOL,101 W 4TH ST,VELVA,ND,58790,NOT AVAILABLE,(701) 338-2022
16043,380006000702,BARNES COUNTY NORTH HIGH SCHOOL,2192 101ST AVE SE,WIMBLEDON,ND,58492,NOT AVAILABLE,(701) 646-6202
18397,381074000343,LAMOURE ELEMENTARY SCHOOL,105 6TH AVE SE,LAMOURE,ND,58458,NOT AVAILABLE,(701) 883-5397
19537,380813000255,J NELSON KELLY ELEMENTARY SCHOOL,3000 CHERRY ST,GRAND FORKS,ND,58201,NOT AVAILABLE,(701) 746-2265
92416,380039700852,VALLEY-EDINBURG ELEMENTARY SCHOOL-HOOPLE,2040 MYRTLE AVE,HOOPLE,ND,58243,NOT AVAILABLE,(701) 894-6226
61906,381212000400,MARMARTH ELEMENTARY SCHOOL,301 2ND AVE SE,MARMARTH,ND,58643,NOT AVAILABLE,(701) 279-5521
62879,381170000382,MADDOCK HIGH SCHOOL,909 1ST ST,MADDOCK,ND,58348,NOT AVAILABLE,(701) 438-2531
87332,381303000434,DAKOTA ELEMENTARY SCHOOL,101 EAGLE WAY,MINOT AFB,ND,58704,NOT AVAILABLE,(701) 727-3310
105965,380040500913,BAKKEN ELEMENTARY SCHOOL,502 W HIGHLAND DR,WILLISTON,ND,58801,NOT AVAILABLE,(701) 572-0967
105966,380040500914,WILLISTON HIGH SCHOOL,4200 32ND ST W,WILLISTON,ND,58801,NOT AVAILABLE,(701) 572-0967
105969,380040500917,GARDEN VALLEY ELEMENTARY SCHOOL,13565 60TH ST NW STE 102,WILLISTON,ND,58801,NOT AVAILABLE,(701) 826-4261
105973,380678000922,FPS K-8 VIRTUAL ACADEMY,515 NORTH 4TH ST,FARGO,ND,58102,NOT AVAILABLE,(701) 446-1010
107223,381303000945,MINOT PUBLIC SCHOOLS 9-12 VIRTUAL ACADEMY,215 2ND STREET SE,MINOT,ND,58701,NOT AVAILABLE,(701) 857-4456
23437,380003200031,BEULAH ELEMENTARY SCHOOL,200 7TH ST NW,BEULAH,ND,58523,NOT AVAILABLE,(701) 873-2298
27754,381873000646,BURLINGTON-DES LACS ELEMENTARY SCHOOL,301 WALLACE ST,BURLINGTON,ND,58722,NOT AVAILABLE,(701) 839-7135
9753,381340000464,MT PLEASANT HIGH SCHOOL,201 5TH ST NE,ROLLA,ND,58367,NOT AVAILABLE,(701) 477-3151
9893,381941000815,L E BERGER ELEMENTARY SCHOOL,631 4TH AVE E,WEST FARGO,ND,58078,NOT AVAILABLE,(701) 356-2010
10166,381609000560,ROOSEVELT ELEMENTARY SCHOOL,210 2ND AVE W,CARSON,ND,58529,NOT AVAILABLE,(701) 622-3263
12631,380176000003,ALEXANDER ELEMENTARY SCHOOL,601 DELANEY ST,ALEXANDER,ND,58831,NOT AVAILABLE,(701) 828-3334
14759,380082500834,NEWBURG-UNITED HIGH SCHOOL,400 LIBBIE ST,NEWBURG,ND,58762,NOT AVAILABLE,(701) 272-6151
17138,381027000331,KILLDEER ELEMENTARY SCHOOL,101 HIGH ST NW,KILLDEER,ND,58640,NOT AVAILABLE,(701) 764-5877
100910,381776000613,STERLING ELEMENTARY SCHOOL,118 MCKENZIE ST,STERLING,ND,58572,NOT AVAILABLE,(701) 387-4413
101830,380038900612,STEELE-DAWSON HIGH SCHOOL,101 4TH ST SE,STEELE,ND,58482,NOT AVAILABLE,(701) 475-2243
105967,380040500915,DEL EASTON ALTERNATIVE HIGH SCHOOL,2304 11TH AVE W,WILLISTON,ND,58801,NOT AVAILABLE,(701) 572-1055
91409,381303000434,DAKOTA ELEMENTARY SCHOOL,101 EAGLE WAY,MINOT AFB,ND,58704,NOT AVAILABLE,(701) 727-3310
93411,381303000445,LEWIS AND CLARK ELEMENTARY SCHOOL,2215 8TH ST NW,MINOT,ND,58703,NOT AVAILABLE,(701) 857-4665
99271,380414000103,CENTRAL VALLEY ELEMENTARY SCHOOL,1556 HWY 81 NE,BUXTON,ND,58218,NOT AVAILABLE,(701) 847-2220
34846,380004900212,FESSENDEN-BOWDON ELEMENTARY SCHOOL,500 2ND ST N,FESSENDEN,ND,58438,NOT AVAILABLE,(701) 547-3296
63881,380004700498,TGU-TOWNER ELEMENTARY SCHOOL,302 2ND ST SE,TOWNER,ND,58788,NOT AVAILABLE,(701) 537-5414
66868,380004800626,TAYLOR-RICHARDTON ELEMENTARY SCHOOL,306 ERTEL AVE,TAYLOR,ND,58656,NOT AVAILABLE,(701) 974-3585
68830,381941000841,OSGOOD ELEM SCHOOL,5550 44TH AVE S,FARGO,ND,58104,NOT AVAILABLE,(701) 356-2190
13057,590007700173,TWIN BUTTES DAY SCHOOL,7997 7A ST NW,HALLILDAY,ND,58636,NOT AVAILABLE,(701) 938-4396
55164,380783000235,GLEN ULLIN ELEMENTARY SCHOOL,6508 HWY 49,GLEN ULLIN,ND,58631,NOT AVAILABLE,(701) 348-3590
58112,381182000388,MANDAN MIDDLE SCHOOL,2901 12TH AVE NW,MANDAN,ND,58554,NOT AVAILABLE,(701) 751-6502
59812,381303000028,BELL ELEMENTARY SCHOOL,5901 HWY 52 S,MINOT,ND,58701,NOT AVAILABLE,(701) 420-1880
46983,380846000273,GRENORA ELEMENTARY SCHOOL,402 ROBINSON ST,GRENORA,ND,58845,NOT AVAILABLE,(701) 694-2711
1256,381988000882,BAKKEN ELEMENTARY SCHOOL,502 W HIGHLAND DR,WILLISTON,ND,58801,NOT AVAILABLE,(701) 713-7300
60895,381941000026,EARLY CHILDHOOD CENTER,330 3RD AVE E,WEST FARGO,ND,58078,NOT AVAILABLE,(701) 356-2020
61670,380004300230,GACKLE-STREETER ELEMENTARY SCHOOL,300 2ND AVE E,GACKLE,ND,58442,NOT AVAILABLE,(701) 485-3692
20484,380585000729,WILLOW BANK COLONY SCHOOL,8827 76TH ST SE,EDGELEY,ND,58433,NOT AVAILABLE,(701) 493-2060
22331,380609000177,ELLENDALE ELEMENTARY SCHOOL,321 N 1ST ST,ELLENDALE,ND,58436,NOT AVAILABLE,(701) 349-3232
22332,380918000296,HEBRON HIGH SCHOOL,400 CHURCH AVE,HEBRON,ND,58638,NOT AVAILABLE,(701) 878-4442
22340,381515000818,PINGREE-BUCHANAN ELEMENTARY SCHOOL,208 3RD AVE,BUCHANAN,ND,58420,NOT AVAILABLE,(701) 252-4653
29183,380001400864,LINCOLN ELEMENTARY SCHOOL,3320 MCCURRY WAY,LINCOLN,ND,58504,NOT AVAILABLE,(701) 323-4310
34639,380001400050,HIGHLAND ACRES ELEMENTARY SCHOOL,1200 PRAIRIE DR,BISMARCK,ND,58501,NOT AVAILABLE,(701) 323-4160
94943,380003800156,SOUTHWEST COMMUNITY HIGH SCHOOL,402 4TH ST W,DICKINSON,ND,58601,NOT AVAILABLE,(701) 456-0042
70530,381340000463,MT PLEASANT ELEMENTARY SCHOOL,201 5TH ST NE,ROLLA,ND,58367,NOT AVAILABLE,(701) 477-3151
80762,380359000082,BURKE CENTRAL HIGH SCHOOL,101 4TH AVE W,LIGNITE,ND,58752,NOT AVAILABLE,(701) 933-2821
81170,381203000397,MAPLETON ELEMENTARY SCHOOL,300 1ST ST,MAPLETON,ND,58059,NOT AVAILABLE,(701) 282-3833
101360,381885000655,VALLEY CITY HIGH SCHOOL,493 CENTRAL AVE N,VALLEY CITY,ND,58072,NOT AVAILABLE,(701) 845-0483
101563,380284000816,PRAIRIE ELEMENTARY SCHOOL,12793 20TH ST,BELFIELD,ND,58622,NOT AVAILABLE,(701) 575-4773
105958,380040500906,HAGAN ELEMENTARY SCHOOL,2501 29TH ST W,WILLISTON,ND,58801,NOT AVAILABLE,(701) 572-4960
105960,380040500908,RICKARD ELEMENTARY SCHOOL,1224 1ST AVE E,WILLISTON,ND,58802,NOT AVAILABLE,(701) 572-5412
105976,380720000898,FORT YATES PK SCHOOL,9189 1/2 HWY 24,FORT YATES,ND,58538,NOT AVAILABLE,(701) 854-3819
43286,380001500471,NAUGHTON ELEMENTARY SCHOOL,9101 123RD AVE NE,BISMARCK,ND,58503,NOT AVAILABLE,(701) 673-3119
50153,381303000447,PERKETT ELEMENTARY SCHOOL,2000 5TH AVE SW,MINOT,ND,58701,NOT AVAILABLE,(701) 857-4680
50726,380003800869,PRAIRIE ROSE ELEMENTARY SCHOOL,2785 10TH AVE W,DICKINSON,ND,58601,NOT AVAILABLE,(701) 456-0016
53902,380005800507,NORTH SHORE PLAZA HIGH SCHOOL,801 COVELL ST,PLAZA,ND,58771,NOT AVAILABLE,(701) 497-3734
55397,382031000712,WYNDMERE ELEMENTARY SCHOOL,101 DATE AVE,WYNDMERE,ND,58081,NOT AVAILABLE,(701) 439-2287
68014,382019000707,WISHEK HIGH SCHOOL,200 BADGER ST S,WISHEK,ND,58495,NOT AVAILABLE,(701) 452-2892
92277,380001400850,SUNRISE ELEMENTARY SCHOOL,3800 NICKERSON AVE,BISMARCK,ND,58503,NOT AVAILABLE,(701) 323-4300
98916,381154000378,LITTLE HEART ELEMENTARY SCHOOL,2354 COUNTY RD 136,SAINT ANTHONY,ND,58566,NOT AVAILABLE,(701) 445-7331
2206,381366000474,NEDROSE ELEMENTARY SCHOOL,6900 HWY 2 E,MINOT,ND,58701,NOT AVAILABLE,(701) 838-5550
11790,380039000596,NORTH STAR HIGH SCHOOL,418 2ND AVE,CANDO,ND,58324,NOT AVAILABLE,(701) 968-4416
16576,380039700652,VALLEY-EDINBURG ELEMENTARY SCHOOL-CRYSTAL,4013 EUCLID AVE,CRYSTAL,ND,58222,NOT AVAILABLE,(701) 657-2163
19185,381429000504,NORTH SARGENT ELEMENTARY SCHOOL,16 1ST ST SW,GWINNER,ND,58040,NOT AVAILABLE,(701) 678-2492
73335,381926000671,WARWICK ELEMENTARY SCHOOL,210 4TH AVE,WARWICK,ND,58381,NOT AVAILABLE,(701) 294-2561
73447,381074000345,LAMOURE HIGH SCHOOL,105 6TH AVE SE,LAMOURE,ND,58458,NOT AVAILABLE,(701) 883-5397
73540,380504000127,CENTRAL MIDDLE SCHOOL,325 7TH ST NE,DEVILS LAKE,ND,58301,NOT AVAILABLE,(701) 662-7664
73895,380813000824,CENTURY ELEMENTARY SCHOOL,3351 17TH AVE S,GRAND FORKS,ND,58201,NOT AVAILABLE,(701) 746-2440
76460,380004100405,PETER BOE JR ELEMENTARY SCHOOL,20 2ND ST NW,MAYVILLE,ND,58257,NOT AVAILABLE,(701) 788-2116
77583,380004200239,MIDKOTA HIGH SCHOOL,81 SCHOOL AVE,GLENFIELD,ND,58443,NOT AVAILABLE,(701) 785-2126
77734,380038900624,TAPPEN ELEMENTARY SCHOOL,325 2ND ST NE,TAPPEN,ND,58487,NOT AVAILABLE,(701) 327-4256
81474,380005800029,BERTHOLD ELEMENTARY SCHOOL,401 4TH AVE NE,BERTHOLD,ND,58718,NOT AVAILABLE,(701) 453-3484
101389,380621000180,BELFIELD ELEMENTARY SCHOOL,302 NE 3RD ST,BELFIELD,ND,58622,NOT AVAILABLE,(701) 575-4275
101586,381293000427,MILNOR HIGH SCHOOL,530 5TH ST,MILNOR,ND,58060,NOT AVAILABLE,(701) 427-5237
85701,381866000645,UNDERWOOD HIGH SCHOOL,123 SUMMIT ST,UNDERWOOD,ND,58576,NOT AVAILABLE,(701) 442-3201
85793,381060000341,LAKOTA ELEMENTARY SCHOOL,316 E AVE EAST,LAKOTA,ND,58344,NOT AVAILABLE,(701) 247-2955
88488,380005200096,CENTER-STANTON ELEMENTARY SCHOOL,315 LINCOLN AVE,CENTER,ND,58530,NOT AVAILABLE,(701) 794-8778
101204,382019000706,WISHEK ELEMENTARY SCHOOL,200 BADGER ST S,WISHEK,ND,58495,NOT AVAILABLE,(701) 452-2892
105983,381941000938,WEST FARGO K-5 VIRTUAL ACADEMY,207 W MAIN AVE,WEST FARGO,ND,58078,NOT AVAILABLE,(701) 356-2000
107216,380253000940,TURTLE MOUNTAIN PRE-K-5 VIRTUAL SCHOOL,1209 GUILBERT GODON STREET,BELCOURT,ND,58316,NOT AVAILABLE,(701) 477-6471
21348,380001400821,CENTENNIAL ELEMENTARY SCHOOL,2800 ITHICA DR,BISMARCK,ND,58503,NOT AVAILABLE,(701) 323-4290
24301,381303000066,SOURIS RIVER CAMPUS ALTERNATIVE HIGH SCHOOL,1510 UNIVERSITY AVE W,MINOT,ND,58703,NOT AVAILABLE,(701) 857-4496
74096,381605000559,ROLETTE HIGH SCHOOL,901 3RD AVE NE,ROLETTE,ND,58366,NOT AVAILABLE,(701) 246-3595
75075,381494000528,PARSHALL HIGH SCHOOL,501 N MAIN ST,PARSHALL,ND,58770,NOT AVAILABLE,(701) 862-3129
75475,380918000295,HEBRON ELEMENTARY SCHOOL,400 CHURCH AVE,HEBRON,ND,58638,NOT AVAILABLE,(701) 878-4442
75851,380002100311,JAMESTOWN MIDDLE SCHOOL,203 2ND AVE SE,JAMESTOWN,ND,58401,NOT AVAILABLE,(701) 252-0317
63890,380001400053,NORTHRIDGE ELEMENTARY SCHOOL,1727 N 3RD ST,BISMARCK,ND,58501,NOT AVAILABLE,(701) 323-4210
65442,380957000302,HILLSBORO HIGH SCHOOL,12 4TH ST NE,HILLSBORO,ND,58045,NOT AVAILABLE,(701) 636-4360
15499,381303000435,EDISON ELEMENTARY SCHOOL,701 17TH AVE SW,MINOT,ND,58701,NOT AVAILABLE,(701) 857-4595
36216,381303000450,WASHINGTON ELEMENTARY SCHOOL,600 17TH AVE SE,MINOT,ND,58701,NOT AVAILABLE,(701) 857-4695
46039,380001800094,CAVALIER ELEMENTARY SCHOOL,300 MAIN ST E,CAVALIER,ND,58220,NOT AVAILABLE,(701) 265-8417
53548,590018900167,MANDAREE DAY SCHOOL,1 WARRIOR CIRCLE,MANDAREE,ND,58757,NOT AVAILABLE,(701) 759-3311
55652,381050000339,KULM HIGH SCHOOL,217 2ND AVE SW,KULM,ND,58456,NOT AVAILABLE,(701) 647-2303
59058,381081000347,LANGDON AREA ELEMENTARY SCHOOL,721 11TH AVE,LANGDON,ND,58249,NOT AVAILABLE,(701) 256-3270
3176,380001400054,PIONEER ELEMENTARY SCHOOL,1400 BRAMAN AVE,BISMARCK,ND,58501,NOT AVAILABLE,(701) 323-4220
9839,380003200738,BEULAH MIDDLE SCHOOL,1700 CENTRAL AVE N,BEULAH,ND,58523,NOT AVAILABLE,(701) 873-4325
91182,380678000193,BEN FRANKLIN MIDDLE SCHOOL,1420 8TH ST N,FARGO,ND,58102,NOT AVAILABLE,(701) 446-3600
91473,380003200032,BEULAH HIGH SCHOOL,204 5TH ST NW,BEULAH,ND,58523,NOT AVAILABLE,(701) 873-2261
95268,380813000814,NATHAN TWINING MIDDLE SCHOOL,1422 N LOUISIANA ST,GRAND FORKS AFB,ND,58204,NOT AVAILABLE,(701) 787-5100
97095,381941000830,AURORA ELEMENTARY SCHOOL,3420 9TH ST W,WEST FARGO,ND,58078,NOT AVAILABLE,(701) 356-2130
41917,380941000299,HETTINGER HIGH SCHOOL,209 S 8TH ST,HETTINGER,ND,58639,NOT AVAILABLE,(701) 567-5315
43324,380002300572,SCRANTON HIGH SCHOOL,1ST AND FRIES,SCRANTON,ND,58653,NOT AVAILABLE,(701) 275-8266
48039,380813000266,VIKING ELEMENTARY SCHOOL,809 22ND AVE S,GRAND FORKS,ND,58201,NOT AVAILABLE,(701) 746-2300
49321,382013000704,WING ELEMENTARY SCHOOL,4TH AND MAIN,WING,ND,58494,NOT AVAILABLE,(701) 943-2319
49674,380005400530,NORTH BORDER-PEMBINA HIGH SCHOOL,155 S 3RD ST,PEMBINA,ND,58271,NOT AVAILABLE,(701) 825-6261
76110,380504000126,DEVILS LAKE HIGH SCHOOL,1601 COLLEGE DRIVE N,DEVILS LAKE,ND,58301,NOT AVAILABLE,(701) 662-1200
50727,380001400865,LIBERTY ELEMENTARY SCHOOL,5400 ONYX DR,BISMARCK,ND,58503,NOT AVAILABLE,(701) 323-4320
54796,381850000641,TURTLE LAKE-MERCER HIGH SCHOOL,250 3RD AVE W,TURTLE LAKE,ND,58575,NOT AVAILABLE,(701) 448-2365
55577,380004800551,RICHARDTON-TAYLOR HIGH SCHOOL,320 RAIDER RD,RICHARDTON,ND,58652,NOT AVAILABLE,(701) 974-2111
59444,380678000210,WASHINGTON ELEMENTARY SCHOOL,1725 N BROADWAY,FARGO,ND,58102,NOT AVAILABLE,(701) 446-5400
59788,380005000454,MLS-MOHALL HIGH SCHOOL,101 3RD ST NW,MOHALL,ND,58761,NOT AVAILABLE,(701) 756-6660
83448,381185000006,MANDAREE HIGH SCHOOL,1 WARRIOR CIRCLE,MANDAREE,ND,58757,NOT AVAILABLE,(701) 759-3311
10970,381303000436,ERIK RAMSTAD MIDDLE SCHOOL,1215 36TH AVE NW,MINOT,ND,58703,NOT AVAILABLE,(701) 857-4466
15106,380039000595,NORTH STAR ELEMENTARY SCHOOL,418 2ND AVE,CANDO,ND,58324,NOT AVAILABLE,(701) 968-4416
17487,380039700652,VALLEY-EDINBURG ELEMENTARY SCHOOL-CRYSTAL,4013 EUCLID AVE,CRYSTAL,ND,58222,NOT AVAILABLE,(701) 657-2163
93383,380001400049,GRIMSRUD ELEMENTARY SCHOOL,716 W ST BENEDICT DR,BISMARCK,ND,58501,NOT AVAILABLE,(701) 323-4150
94418,381450000514,OAKES HIGH SCHOOL,804 MAIN AVE,OAKES,ND,58474,NOT AVAILABLE,(701) 742-3234
99777,381988000690,LEWIS AND CLARK ELEMENTARY SCHOOL,704 17TH AVE W,WILLISTON,ND,58801,NOT AVAILABLE,(701) 572-6331
60985,380678000211,WOODROW WILSON ALTERNATIVE HIGH SCHOOL,1305 9TH AVE S,FARGO,ND,58103,NOT AVAILABLE,(701) 446-2800
67335,382013000705,WING HIGH SCHOOL,4TH AND MAIN,WING,ND,58494,NOT AVAILABLE,(701) 943-2319
20446,380003800742,HEART RIVER ELEMENTARY SCHOOL,720 7TH ST SW,DICKINSON,ND,58601,NOT AVAILABLE,(701) 456-0012
28225,380284000033,DEMORES ELEMENTARY SCHOOL,350 BROADWAY,MEDORA,ND,58645,NOT AVAILABLE,(701) 623-4868
105982,381713000948,SOUTH HEART ELEMENTARY VIRTUAL ACADEMY,310 4TH STREET NW,SOUTH HEART,ND,58655,NOT AVAILABLE,(701) 677-5671
52270,380002100310,JAMESTOWN HIGH SCHOOL,1509 10TH ST NE,JAMESTOWN,ND,58401,NOT AVAILABLE,(701) 952-4003
94292,381494000527,PARSHALL ELEMENTARY SCHOOL,211 1ST AVE NW,PARSHALL,ND,58770,NOT AVAILABLE,(701) 862-3417
96158,380678000204,MCKINLEY ELEMENTARY SCHOOL,2930 8TH ST N,FARGO,ND,58102,NOT AVAILABLE,(701) 446-5200
96557,380795000242,GOODRICH ELEMENTARY SCHOOL,211 4TH ST,GOODRICH,ND,58444,NOT AVAILABLE,(701) 884-2469
98290,381902000660,WAHPETON ELEMENTARY SCHOOL,1235 12TH ST N,WAHPETON,ND,58075,NOT AVAILABLE,(701) 642-8328
32902,380813000257,LEWIS AND CLARK ELEMENTARY SCHOOL,1100 13TH AVE S,GRAND FORKS,ND,58201,NOT AVAILABLE,(701) 746-2285
36300,380001400050,HIGHLAND ACRES ELEMENTARY SCHOOL,1200 PRAIRIE DR,BISMARCK,ND,58501,NOT AVAILABLE,(701) 323-4160
100685,381713000592,SOUTH HEART ELEMENTARY SCHOOL,310 4TH ST NW,SOUTH HEART,ND,58655,NOT AVAILABLE,(701) 677-5671
20034,381392000495,EDWIN LOE ELEMENTARY SCHOOL,206 2ND AVE E,NEW TOWN,ND,58763,NOT AVAILABLE,(701) 627-3718
20671,381182000384,CUSTER ELEMENTARY SCHOOL,205 8TH AVE NE,MANDAN,ND,58554,NOT AVAILABLE,(701) 751-6503
24867,381060000342,LAKOTA HIGH SCHOOL,500 MAIN ST N,LAKOTA,ND,58344,NOT AVAILABLE,(701) 247-2992
25230,380002300571,SCRANTON ELEMENTARY SCHOOL,1ST AND FRIES,SCRANTON,ND,58653,NOT AVAILABLE,(701) 275-8266
26680,381713000593,SOUTH HEART HIGH SCHOOL,310 4TH ST NW,SOUTH HEART,ND,58655,NOT AVAILABLE,(701) 677-5671
29257,381292000110,MIDWAY HIGH SCHOOL,3202 33RD AVE NE,INKSTER,ND,58233,NOT AVAILABLE,(701) 869-2432
14787,380040100526,PARK RIVER AREA HIGH SCHOOL,704 5TH ST W,PARK RIVER,ND,58270,NOT AVAILABLE,(701) 284-7164
19670,381392000015,NEW TOWN HIGH SCHOOL,300 EAGLE DR,NEW TOWN,ND,58763,NOT AVAILABLE,(701) 627-3658
2308,380309000069,BOWBELLS ELEMENTARY SCHOOL,200 MADISON AVE,BOWBELLS,ND,58721,NOT AVAILABLE,(701) 377-2396
60371,380002700486,NEW ENGLAND ELEMENTARY SCHOOL,1200 MAIN ST,NEW ENGLAND,ND,58647,NOT AVAILABLE,(701) 579-4160
62650,381902000749,WAHPETON MIDDLE SCHOOL,1265 12TH ST N,WAHPETON,ND,58075,NOT AVAILABLE,(701) 642-6687
102717,381988000904,ASB INNOVATION ACADEMY,1204 4TH AVE W,WILLISTON,ND,58801,NOT AVAILABLE,(701) 713-7200
105952,380003800932,DICKINSON ROUGHRIDER 9-12 VIRTUAL ACADEMY,979 13TH AVENUE WEST,DICKINSON,ND,58601,NOT AVAILABLE,(701) 456-0030
70198,380861000277,HALLIDAY ELEMENTARY SCHOOL,30 4TH ST S,HALLIDAY,ND,58636,NOT AVAILABLE,(701) 938-4391
77950,380813000268,WILDER ELEMENTARY SCHOOL,1009 N 3RD ST,GRAND FORKS,ND,58203,NOT AVAILABLE,(701) 746-2320
78985,380002700487,NEW ENGLAND HIGH SCHOOL,1200 MAIN ST,NEW ENGLAND,ND,58647,NOT AVAILABLE,(701) 579-4160
13921,380678000855,FARGO DAVIES HIGH SCHOOL,7150 25TH ST S,FARGO,ND,58104,NOT AVAILABLE,(701) 446-5600
2018,380678000079,DISCOVERY MIDDLE SCHOOL,1717 40TH AVE S,FARGO,ND,58104,NOT AVAILABLE,(701) 446-3300
21018,380004400120,NORTHERN CASS MIDDLE SCHOOL,16021 18TH ST SE,HUNTER,ND,58048,NOT AVAILABLE,(701) 874-2322
22651,380957000301,HILLSBORO ELEMENTARY SCHOOL,128 4TH ST SE,HILLSBORO,ND,58045,NOT AVAILABLE,(701) 636-4711
50563,380004700270,TGU-GRANVILLE ELEMENTARY SCHOOL,210 6TH ST SW,GRANVILLE,ND,58741,NOT AVAILABLE,(701) 728-6641
55209,380224000016,BAKKER ELEMENTARY SCHOOL,880 96TH ST SE,HAGUE,ND,58542,NOT AVAILABLE,(701) 336-7284
55355,380003100294,HAZEN HIGH SCHOOL,520 1ST AVE NE,HAZEN,ND,58545,NOT AVAILABLE,(701) 748-2345
58406,381392000496,NEW TOWN MIDDLE SCHOOL,300 EAGLE DR,NEW TOWN,ND,58763,NOT AVAILABLE,(701) 627-3658
91211,381850000640,TURTLE LAKE-MERCER ELEMENTARY SCHOOL,250 3RD AVE W,TURTLE LAKE,ND,58575,NOT AVAILABLE,(701) 448-2365
44030,381902000666,WAHPETON HIGH SCHOOL,1021 11TH ST N,WAHPETON,ND,58075,NOT AVAILABLE,(701) 642-2604
46176,380813000265,VALLEY MIDDLE SCHOOL,2100 5TH AVE N,GRAND FORKS,ND,58203,NOT AVAILABLE,(701) 746-2360
46580,380002100315,WILLIAM S GUSSNER ELEMENTARY SCHOOL,1509 4TH ST NE,JAMESTOWN,ND,58401,NOT AVAILABLE,(701) 252-3846
73590,380516000139,DIVIDE COUNTY ELEMENTARY SCHOOL,101 2ND ST NE,CROSBY,ND,58730,NOT AVAILABLE,(701) 965-6324
64535,381272000420,MENOKEN ELEMENTARY SCHOOL,412 N BISMARCK ST,MENOKEN,ND,58558,NOT AVAILABLE,(701) 673-3175
47819,381320000456,WILTON ELEMENTARY SCHOOL,504 DAKOTA AVE,WILTON,ND,58579,NOT AVAILABLE,(701) 734-6331
49675,380669000191,FAIRMOUNT HIGH SCHOOL,400 E MAIN,FAIRMOUNT,ND,58030,NOT AVAILABLE,(701) 474-5469
49853,380678000202,LONGFELLOW ELEMENTARY SCHOOL,20 29TH AVE NE,FARGO,ND,58102,NOT AVAILABLE,(701) 446-5000
82039,381752000602,SAINT THOMAS ELEMENTARY SCHOOL,375 HERITAGE,SAINT THOMAS,ND,58276,NOT AVAILABLE,(701) 257-6424
14351,380609000179,MAPLE RIVER COLONY SCHOOL,9262 93RD AVE SE,FULLERTON,ND,58441,NOT AVAILABLE,(701) 349-3232
15237,380001400044,BECEP CENTER,720 N 14TH ST,BISMARCK,ND,58501,NOT AVAILABLE,(701) 323-4400
19143,380813000755,COMMUNITY ALTERNATIVE HIGH SCHOOL,500 STANFORD ROAD,GRAND FORKS,ND,58203,NOT AVAILABLE,(701) 795-2777
50362,380002500334,KINDRED ELEMENTARY SCHOOL,55 1ST AVE S,KINDRED,ND,58051,NOT AVAILABLE,(701) 428-3388
58808,380253000856,TINY TURTLES PRESCHOOL,1221 WILLIAM HARDESTY STREET,BELCOURT,ND,58316,NOT AVAILABLE,(701) 477-6471
22897,380082500113,NEWBURG-UNITED ELEMENTARY SCHOOL,400 LIBBIE ST,NEWBURG,ND,58762,NOT AVAILABLE,(701) 272-6151
24717,380001400062,WILL-MOORE ELEMENTARY SCHOOL,400 E AVENUE E,BISMARCK,ND,58501,NOT AVAILABLE,(701) 323-4270
24946,380871000283,HANKINSON HIGH SCHOOL,415 1ST AVE SE,HANKINSON,ND,58041,NOT AVAILABLE,(701) 242-7516
25437,380595000868,EDMORE ELEMENTARY SCHOOL,706 N MAIN ST,EDMORE,ND,58330,NOT AVAILABLE,(701) 644-2281
26634,380004400119,NORTHERN CASS ELEMENTARY SCHOOL,16021 18TH ST SE,HUNTER,ND,58048,NOT AVAILABLE,(701) 874-2322
36258,381866000644,UNDERWOOD ELEMENTARY SCHOOL,123 SUMMIT ST,UNDERWOOD,ND,58576,NOT AVAILABLE,(701) 442-3201
7615,381344000466,MUNICH ELEMENTARY SCHOOL,410 7TH AVE,MUNICH,ND,58352,NOT AVAILABLE,(701) 682-5321
9027,380253000751,TURTLE MOUNTAIN COMMUNITY MIDDLE SCHOOL,1330 BRAVES BLVD,BELCOURT,ND,58316,NOT AVAILABLE,(701) 477-6471
105979,381254000903,FOX HILLS ELEMENTARY SCHOOL,2610 WOLVES DEN PARKWAY,WATFORD CITY,ND,58854,NOT AVAILABLE,(701) 444-3626
61916,380004000649,DAKOTA PRAIRIE HIGH SCHOOL,518 4TH ST,PETERSBURG,ND,58272,NOT AVAILABLE,(701) 345-8233
63612,381293000733,SUNDALE COLONY ELEMENTARY SCHOOL,14226 75TH ST SE,MILNOR,ND,58060,NOT AVAILABLE,(701) 427-5868
69120,381243000408,MCCLUSKY HIGH SCHOOL,219 AVE D W,MCCLUSKY,ND,58463,NOT AVAILABLE,(701) 363-2470
15081,380813000252,BEN FRANKLIN ELEMENTARY SCHOOL,1016 S 20TH ST,GRAND FORKS,ND,58201,NOT AVAILABLE,(701) 746-2250
41895,381266000418,MEDINA ELEMENTARY SCHOOL,300 SCHOOL ST SE,MEDINA,ND,58467,NOT AVAILABLE,(701) 486-3121
27497,380320000075,BOWMAN CO HIGH SCHOOL,102 8TH AVE SW,BOWMAN,ND,58623,NOT AVAILABLE,(701) 523-3283
79447,381303000443,MCKINLEY ELEMENTARY SCHOOL,5 5TH AVE NE,MINOT,ND,58703,NOT AVAILABLE,(701) 857-4615
2805,381303000432,BEL AIR ELEMENTARY SCHOOL,501 25TH ST NW,MINOT,ND,58703,NOT AVAILABLE,(701) 857-4590
34230,380309000070,BOWBELLS HIGH SCHOOL,200 MADISON AVE,BOWBELLS,ND,58721,NOT AVAILABLE,(701) 377-2396
52277,381452000515,OBERON ELEMENTARY SCHOOL,315 A ST N,OBERON,ND,58357,NOT AVAILABLE,(701) 798-2231
54740,380889000287,BM HANSON ELEMENTARY SCHOOL,811 BURKE AVE,HARVEY,ND,58341,NOT AVAILABLE,(701) 324-2265
56270,381941000888,WILLOW PARK ELEMENTARY SCHOOL,4901 15TH AVE S,FARGO,ND,58103,NOT AVAILABLE,(701) 356-8360
58884,380038900611,STEELE-DAWSON ELEMENTARY SCHOOL,101 4TH ST SE,STEELE,ND,58482,NOT AVAILABLE,(701) 475-2243
87690,380971000161,HOPE HIGH SCHOOL,100 BATES AVE,HOPE,ND,58046,NOT AVAILABLE,(701) 945-2473
93422,381717000594,SOUTH PRAIRIE ELEMENTARY SCHOOL,100 177TH AVE SW,MINOT,ND,58701,NOT AVAILABLE,(701) 722-3537
97463,380001400052,JEANNETTE MYHRE ELEMENTARY SCHOOL,919 S 12TH ST,BISMARCK,ND,58504,NOT AVAILABLE,(701) 323-4200
100665,380003300226,FORT RANSOM ELEMENTARY SCHOOL,135 MILL RD,FORT RANSOM,ND,58033,NOT AVAILABLE,(701) 973-2591
101349,380320000074,BOWMAN CO ELEMENTARY SCHOOL,102 8TH AVE SW,BOWMAN,ND,58623,NOT AVAILABLE,(701) 523-3283
105974,380678000928,FPS 9-12 VIRTUAL ACADEMY,515 NORTH 4TH ST,FARGO,ND,58102,NOT AVAILABLE,(701) 446-1010
105978,381182000921,MANDAN K-8 VIRTUAL ACADEMY,901 DIVISION STREET NW,MANDAN,ND,58554,NOT AVAILABLE,(701) 751-6500
107224,381613000930,RUGBY VIRTUAL HIGH SCHOOL,1123 SOUTH MAIN AVE,RUGBY,ND,58368,NOT AVAILABLE,(701) 776-5757
107226,381941000937,WEST FARGO 6-12 VIRTUAL ACADEMY,207 W MAIN AVE,WEST FARGO,ND,58078,NOT AVAILABLE,(701) 356-2000
21638,381651000573,SELFRIDGE ELEMENTARY SCHOOL,210 2ND AVE S,SELFRIDGE,ND,58568,NOT AVAILABLE,(701) 422-3353
27429,381926000672,WARWICK HIGH SCHOOL,210 4TH AVE,WARWICK,ND,58381,NOT AVAILABLE,(701) 294-2561
1058,380217000014,ASHLEY HIGH SCHOOL,703 W MAIN ST,ASHLEY,ND,58413,NOT AVAILABLE,(701) 288-3456
2462,380003800137,ROOSEVELT ELEMENTARY SCHOOL,230 3RD AVE E,DICKINSON,ND,58601,NOT AVAILABLE,(701) 456-0015
6791,381988000695,WILLISTON HIGH SCHOOL,4200 32ND ST W,WILLISTON,ND,58801,NOT AVAILABLE,(701) 572-0967
34475,380813000257,LEWIS AND CLARK ELEMENTARY SCHOOL,1100 13TH AVE S,GRAND FORKS,ND,58201,NOT AVAILABLE,(701) 746-2285
13671,590015800171,TURTLE MOUNTAIN HIGH SCHOOL,1350 BRAVES BOULEVARD,BELCOURT,ND,58316,NOT AVAILABLE,(701) 477-6471
62314,380001600615,STRASBURG HIGH SCHOOL,301 1ST ST N,STRASBURG,ND,58573,NOT AVAILABLE,(701) 336-2667
69130,380004400138,NORTHERN CASS HIGH SCHOOL,16021 18TH ST SE,HUNTER,ND,58048,NOT AVAILABLE,(701) 874-2322
72761,380913000141,HAZELTON-MOFFIT-BRADDOCK HIGH SCHOOL,211 HAZEL AVE,HAZELTON,ND,58544,NOT AVAILABLE,(701) 782-6231
73462,380004200042,MIDKOTA ELEMENTARY SCHOOL,203 CURTIS AVE W,BINFORD,ND,58416,NOT AVAILABLE,(701) 676-2511
43287,380001800089,CAVALIER HIGH SCHOOL,300 MAIN ST E,CAVALIER,ND,58220,NOT AVAILABLE,(701) 265-8417
45637,380957000871,SPRUCE LANE COLONY SCHOOL,15750 6TH ST SE,BLANCHARD,ND,58009,NOT AVAILABLE,(701) 636-2191
49128,381371000477,RAY ELEMENTARY SCHOOL,224 2ND AVE W,RAY,ND,58849,NOT AVAILABLE,(701) 568-3301
85389,590009600165,THEODORE JAMERSON ELEMENTARY,3315 UNVIERSITY DR,BISMARCK,ND,58504,NOT AVAILABLE,(701) 530-0677
91804,380001400739,SOUTH CENTRAL ALTERNATIVE HIGH SCHOOL,406 S ANDERSON ST,BISMARCK,ND,58504,NOT AVAILABLE,(701) 323-4520
92141,380004500174,ELGIN-NEW LEIPZIG ELEMENTARY SCHOOL,110 WEST STREET N,ELGIN,ND,58533,NOT AVAILABLE,(701) 584-2374
98211,380871000281,HANKINSON ELEMENTARY SCHOOL,415 1ST AVE SE,HANKINSON,ND,58041,NOT AVAILABLE,(701) 242-7516
99411,380195000007,ANAMOOSE ELEMENTARY SCHOOL,706 3RD ST W,ANAMOOSE,ND,58710,NOT AVAILABLE,(701) 465-3258
101573,380900000289,HATTON EIELSON ELEMENTARY SCHOOL,503 4TH ST,HATTON,ND,58240,NOT AVAILABLE,(701) 543-3456
102716,381941000899,HERITAGE MIDDLE SCHOOL,6400 54TH AVE S,FARGO,ND,58104,NOT AVAILABLE,(701) 356-8390
105964,380040500912,WILLISTON MIDDLE SCHOOL,501 14TH ST W,WILLISTON,ND,58801,NOT AVAILABLE,(701) 572-5618
105977,381182000919,MANDAN VIRTUAL HIGH SCHOOL,901 DIVISION STREET NW,MANDAN,ND,58554,NOT AVAILABLE,(701) 751-6500
60655,380005300087,CARRINGTON ELEMENTARY SCHOOL,100 3RD AVE S,CARRINGTON,ND,58421,NOT AVAILABLE,(701) 652-2739
60925,380595000170,EDMORE HIGH SCHOOL,706 N MAIN ST,EDMORE,ND,58330,NOT AVAILABLE,(701) 644-2281
61152,380004500175,ELGIN-NEW LEIPZIG HIGH SCHOOL,110 WEST STREET N,ELGIN,ND,58533,NOT AVAILABLE,(701) 584-2374
64293,380002100825,LOUIS L'AMOUR ELEMENTARY SCHOOL,1102 15TH ST SW,JAMESTOWN,ND,58401,NOT AVAILABLE,(701) 251-2102
66592,381299000430,MINNEWAUKAN ELEMENTARY SCHOOL,4675 HWY 281 N,MINNEWAUKAN,ND,58351,NOT AVAILABLE,(701) 473-5306
12520,380253000752,TURTLE MOUNTAIN COMMUNITY HIGH SCHOOL,1350 BRAVES BOULEVARD,BELCOURT,ND,58316,NOT AVAILABLE,(701) 477-6471
14004,380806000143,CENTURY ELEMENTARY SCHOOL,1540 SCHOOL RD,GRAFTON,ND,58237,NOT AVAILABLE,(701) 352-1739
81070,382040000717,ZEELAND ELEMENTARY SCHOOL,510 S MAIN ST,ZEELAND,ND,58581,NOT AVAILABLE,(701) 423-5429
4263,380306000067,BOTTINEAU ELEMENTARY SCHOOL,301 BRANDER ST,BOTTINEAU,ND,58318,NOT AVAILABLE,(701) 228-3718
41405,381757000604,STANLEY ELEMENTARY SCHOOL,118 4TH AVE SW,STANLEY,ND,58784,NOT AVAILABLE,(701) 628-2422
44687,381292000424,MIDWAY ELEMENTARY SCHOOL,3202 33RD AVE NE,INKSTER,ND,58233,NOT AVAILABLE,(701) 869-2432
49961,380005400529,NORTH BORDER-PEMBINA ELEMENTARY SCHOOL,155 S 3RD ST,PEMBINA,ND,58271,NOT AVAILABLE,(701) 825-6261
50246,381305000451,MINTO ELEMENTARY SCHOOL,200 4TH ST,MINTO,ND,58261,NOT AVAILABLE,(701) 248-3479
51959,381303000442,MAGIC CITY CAMPUS HIGH SCHOOL,1100 11TH AVE SW,MINOT,ND,58701,NOT AVAILABLE,(701) 857-4500
52537,381197000393,MANNING ELEMENTARY SCHOOL,10500 HWY 1804 S,BISMARCK,ND,58504,NOT AVAILABLE,(701) 223-0082
55537,380678000205,NORTH HIGH SCHOOL,801 17TH AVE N,FARGO,ND,58102,NOT AVAILABLE,(701) 446-2400
55751,381651000574,SELFRIDGE HIGH SCHOOL,210 2ND AVE S,SELFRIDGE,ND,58568,NOT AVAILABLE,(701) 422-3353
72464,380253000750,TURTLE MOUNTAIN COMMUNITY ELEMENTARY SCHOOL,1209 GUILBERT GODON ST,BELCOURT,ND,58316,NOT AVAILABLE,(701) 477-6471
77156,380002100314,WASHINGTON ELEMENTARY SCHOOL,700 4TH AVE NW,JAMESTOWN,ND,58401,NOT AVAILABLE,(701) 252-0468
93516,380002100312,LINCOLN ELEMENTARY SCHOOL,319 5TH ST NE,JAMESTOWN,ND,58401,NOT AVAILABLE,(701) 252-0867
95988,380002100313,ROOSEVELT ELEMENTARY SCHOOL,615 6TH AVE SE,JAMESTOWN,ND,58401,NOT AVAILABLE,(701) 252-1679
98947,380759000233,BOB CALLIES ELEMENTARY SCHOOL,205 2ND AVE NE,GARRISON,ND,58540,NOT AVAILABLE,(701) 463-2213
105962,380040500910,MCVAY ELEMENTARY SCHOOL,420 UNIVERSITY AVE,WILLISTON,ND,58802,NOT AVAILABLE,(701) 572-9104
105971,380040600923,CENTURY ELEMENTARY SCHOOL,3351 17TH AVE S,GRAFTON,ND,58201,NOT AVAILABLE,(701) 746-2440
