OBJECTID,NCESID,NAME,ADDRESS,CITY,STATE,ZIP,ZIP4,TELEPHONE
18654,317098001005,GIBBON ELEMENTARY SCHOOL,1030 COURT STREET,GIBBON,NE,68840,0790,(308) 468-6546
41418,310414000092,BLOOMFIELD ELEMENTARY SCHOOL,514 S MCNAMARA,BLOOMFIELD,NE,68718,2079,(402) 373-4985
62644,317590001536,BLUMFIELD ELEMENTARY SCHOOL,10310 MOCKINGBIRD DR,OMAHA,NE,68127,1923,(402) 331-0891
101162,317284001166,MORLEY ELEMENTARY SCHOOL,6800 MONTEREY DR,LINCOLN,NE,68506,2399,(402) 436-1154
102046,310014501480,NOVA ALTERNATIVE SCHOOL,8502 MORMON BRIDGE RD,OMAHA,NE,68152,1929,(402) 991-8551
105609,310399002403,ANCHOR POINTE ELEMENTARY,17007 NORTH HWS CLEVELAND BLVD,BENNINGTON,NE,68007,NOT AVAILABLE,(402) 238-2166
105648,318013002387,WESTWAY HEAD START,1701 W 27 ST,SCOTTSBLUFF,NE,69361,NOT AVAILABLE,(308) 633-3712
25011,317071000986,WASHINGTON ELEMENTARY SCHOOL,515 S BROAD ST,FREMONT,NE,68025,5634,(402) 727-3164
25253,317065000969,FORT CALHOUN JR-SR HIGH SCHOOL,5876 COUNTY ROAD P43,FORT CALHOUN,NE,68023,0430,(402) 468-5591
25636,310018402308,RIVERSIDE HIGH SCHOOL,408 W DAYTON ST,CEDAR RAPIDS,NE,68627,5559,(308) 358-0640
81964,317383001266,MINDEN HIGH SCHOOL,622 WEST THIRD,MINDEN,NE,68959,0301,(308) 832-2254
83680,310501000143,CHAMBERS HIGH SCHOOL,201 SOUTH A ST,CHAMBERS,NE,68725,0218,(402) 482-5233
30838,317022000933,ELWOOD ELEMENTARY SCHOOL,502 FIRST AVE,ELWOOD,NE,68937,0107,(308) 785-2491
32490,310009000056,BAYARD ELEMENTARY SCHOOL,726 4TH AVE,BAYARD,NE,69334,0607,(308) 586-1211
32787,317599001551,RED CLOUD HIGH SCHOOL,121 W 7TH AVE,RED CLOUD,NE,68970,2498,(402) 746-2818
36621,310000801734,WISNER-PILGER HIGH SCHOOL,801 18TH ST,WISNER,NE,68791,0580,(402) 529-3249
38189,310013201258,THAYER CENTRAL HIGH SCHOOL,930 EADS AVE,HEBRON,NE,68370,0009,(402) 768-6117
91857,317566000429,PLATTSMOUTH EARLY CHILDHOOD,902 MAIN ST,PLATTSMOUTH,NE,68048,1800,(402) 296-5250
96322,317527001477,PAPILLION MIDDLE SCHOOL,423 S WASHINGTON ST,PAPILLION,NE,68046,2668,(402) 898-0424
55570,310009800999,GERING HIGH SCHOOL,1500 U ST,GERING,NE,69341,2049,(308) 436-3121
74137,310309000026,ARAPAHOE HIGH SCHOOL,610 WALNUT,ARAPAHOE,NE,68922,0360,(308) 962-5458
75551,310002301215,MAXWELL HIGH SCHOOL,415 E HWY 30,MAXWELL,NE,69151,0188,(308) 582-4585
78941,310381001504,BETZ ELEMENTARY SCHOOL,605 W 27TH AVE,BELLEVUE,NE,68005,5319,(402) 293-4585
79717,317284001183,ZEMAN ELEMENTARY SCHOOL,4900 S 52ND ST,LINCOLN,NE,68516,1899,(402) 436-1169
2145,317374001247,HITCHCOCK ELEMENTARY SCHOOL,5809 S 104TH ST,OMAHA,NE,68127,3099,(402) 715-2255
2608,317305000717,LOUISVILLE MIDDLE SCHOOL,202 W 3RD ST,LOUISVILLE,NE,68037,0489,(402) 234-3585
41386,310006500971,FRANKLIN SECONDARY SCHOOL,1001 M ST,FRANKLIN,NE,68939,1120,(308) 425-6283
44520,317152001047,HARTINGTON NEWCASTLE HIGH SCHOOL,501 S BROADWAY,HARTINGTON,NE,68739,0075,(402) 254-3947
47688,317482001413,MORTON MAGNET MIDDLE SCHOOL,4606 TERRACE DR,OMAHA,NE,68134,3099,(402) 557-4700
48935,310199202107,ELMWOOD-MURDOCK ELEM SCHOOL,400 WEST F ST,ELMWOOD,NE,68349,6074,(402) 994-2125
62128,317482002255,ACCELERE,2606 HAMILTON ST,OMAHA,NE,68131,1640,(402) 898-1568
67359,317272001125,LEIGH ELEMENTARY SCHOOL,222 W 4TH ST,LEIGH,NE,68643,0098,(402) 487-3301
68747,317071000981,LINDEN ELEMENTARY SCHOOL,735 W LINDEN ST,FREMONT,NE,68025,4043,(402) 727-3150
69902,310000300917,ELEMENTARY SCHOOL AT DWIGHT,292 N 1ST ST,DWIGHT,NE,68635,0160,(402) 566-2445
56182,317719001634,STERLING HIGH SCHOOL,250 MAIN ST,STERLING,NE,68443,0039,(402) 866-4761
92961,310291000011,ALLIANCE HIGH SCHOOL,1450 BOX BUTTE,ALLIANCE,NE,69301,NOT AVAILABLE,(308) 762-3359
93239,310002201332,WASHINGTON ELEMENTARY SCHOOL,600 W 3RD,NORTH PLATTE,NE,69101,NOT AVAILABLE,(308) 535-7142
94132,317374000240,RUSSELL MIDDLE SCHOOL,5304 S 172ND ST,OMAHA,NE,68135,2226,(402) 715-8500
95602,317443001308,LINCOLN ELEMENTARY SCHOOL,310 S 3RD ST,NORFOLK,NE,68701,NOT AVAILABLE,(402) 644-2550
96203,317284002122,PARK MIDDLE SCHOOL,855 S 8TH ST,LINCOLN,NE,68508,3199,(402) 436-1212
96248,310012500744,DILLER-ODELL SECONDARY SCHOOL,506 PERRY ST,ODELL,NE,68415,0188,(402) 766-4210
96652,310534000165,COLUMBUS MIDDLE SCHOOL,2200 26TH ST,COLUMBUS,NE,68602,0947,(402) 563-7060
97297,317482001384,NATHAN HALE MAGNET MIDDLE SCHOOL,6143 WHITMORE ST,OMAHA,NE,68152,2260,(531) 299-2360
99232,317374001934,KIEWIT MIDDLE SCHOOL,15650 HOWARD ST,OMAHA,NE,68118,2127,(402) 715-1470
80980,317281002027,EARLY INTERVENTION/HOMEBOUND,1501 PLUM CREEK PARKWAY,LEXINGTON,NE,68850,0890,(308) 324-1841
86420,310414000093,BLOOMFIELD JR-SR HIGH SCHOOL,311 E BENTON,BLOOMFIELD,NE,68718,2079,(402) 373-4800
88257,317155001048,HARVARD ELEMENTARY SCHOOL,506 E NORTH ST,HARVARD,NE,68944,0100,(402) 772-2171
105635,317802002371,SIMEON SCHOOL,431 N GREEN ST,VALENTINE,NE,69201,NOT AVAILABLE,(402) 376-3367
105650,318013002407,EARLY LEARNING CENTER,1720 PORTAL PLACE,SCOTTSBLUFF,NE,69361,2748,(308) 633-3712
10202,310014101425,EMERSON-HUBBARD HIGH SCHOOL,1503 DAKOTA ST,EMERSON,NE,68733,0009,(402) 695-2636
34702,317371001239,MILFORD HIGH SCHOOL,301 G STREET,MILFORD,NE,68405,0613,(402) 761-2525
72412,317645002217,NORTH WARD PREKINDERGARTEN,100 EAST 15TH,SCHUYLER,NE,68661,1600,(402) 352-2628
73499,317374000667,ROHWER ELEMENTARY SCHOOL,17701 F ST,OMAHA,NE,68135,2503,(402) 715-6225
26347,310381001505,BIRCHCREST ELEMENTARY SCHOOL,1212 FAIRFAX DR,BELLEVUE,NE,68005,3125,(402) 293-4635
26667,310006500970,FRANKLIN ELEMENTARY SCHOOL,1001 M ST,FRANKLIN,NE,68939,1120,(308) 425-6283
28133,310012200770,SANDY CREEK ELEMENTARY SCHOOL,30671 HWY 14,FAIRFIELD,NE,68938,2757,(402) 726-2412
73186,310015701827,PERKINS COUNTY JUNIOR- SENIOR HIGH SCHOOL,740 SHERMAN AVE,GRANT,NE,69140,0829,(308) 352-4735
76454,310291000015,GRANDVIEW ELEMENTARY SCHOOL,615 GRAND,ALLIANCE,NE,69301,3554,(308) 762-4519
78464,317641001574,SARGENT HIGH SCHOOL,400 N 5TH ST,SARGENT,NE,68874,6104,(308) 527-4119
93475,317110001012,GOTHENBURG SECONDARY SCHOOL,1322 AVENUE I,GOTHENBURG,NE,69138,1799,(308) 537-3651
95086,310002201326,LINCOLN ELEMENTARY SCHOOL,200 W 9TH ST,NORTH PLATTE,NE,69101,NOT AVAILABLE,(308) 535-7138
105638,317872002417,WILBER-CLATONIA MIDDLE SCHOOL,900 SOUTH FRANKLIN ST,WILBER,NE,68465,0487,(402) 821-2058
107180,310014602415,CHILD AND ADOLESCENT PSYCHIATRIC CENTER,14043 BROOKHOUSER RD,BOYS TOWN,NE,68010,NOT AVAILABLE,(531) 355-7273
84442,317374001254,MONTCLAIR ELEMENTARY SCHOOL,2405 S 138TH,OMAHA,NE,68144,2498,(402) 715-1295
88567,310006601883,SILVER LAKE HIGH SCHOOL,9405 S LINCOLN AVE,ROSELAND,NE,68973,0008,(402) 756-6611
52328,317482001354,BENSON MAGNET HIGH SCHOOL,5120 MAPLE ST,OMAHA,NE,68104,3599,(531) 299-2520
55222,317638001570,HIGH SCHOOL AT DUNNING,107 GANDY AVE,DUNNING,NE,68833,5802,(308) 538-2224
57495,317284001154,HOLMES ELEMENTARY SCHOOL,5230 SUMNER ST,LINCOLN,NE,68506,1397,(402) 436-1143
57665,317155002353,HARVARD MIDDLE SCHOOL,506 EAST NORTH STREET,HARVARD,NE,68944,0100,(402) 772-2171
59236,317374000723,BEADLE MIDDLE SCHOOL,18201 JEFFERSON ST,OMAHA,NE,68135,1534,(402) 715-6100
25597,310016501786,DOUGLAS CO WEST HIGH SCHOOL,401 S PINE ST,VALLEY,NE,68064,0378,(402) 359-2121
28008,310006500970,FRANKLIN ELEMENTARY SCHOOL,1001 M ST,FRANKLIN,NE,68939,1120,(308) 425-6283
28548,310008000017,ALMA HIGH SCHOOL,515 JEWELL ST,ALMA,NE,68920,0170,(308) 928-2131
28853,317671001600,NORTH WARD ELEMENTARY SCHOOL,434 16TH AVE,SIDNEY,NE,69162,1200,(308) 254-2114
34701,310017602009,JOHNSON CO CENTRAL HIGH SCHOOL,358 N 6TH,TECUMSEH,NE,68450,0338,(402) 335-3328
39222,317482001359,BRYAN HIGH SCHOOL,4700 GILES RD,OMAHA,NE,68157,2699,(531) 299-2540
10139,317482001358,BRYAN MIDDLE SCHOOL,8210 S 42ND ST,OMAHA,NE,68147,1705,(531) 299-2300
10289,310017202008,WEST HOLT HIGH SCHOOL,1000 N MAIN,ATKINSON,NE,68713,0457,(402) 925-2890
14369,317482001385,HARRISON ELEM SCHOOL,5304 HAMILTON ST,OMAHA,NE,68132,1300,(402) 554-8535
16391,310333000040,CALVERT ELEMENTARY,2103 O STREET,AUBURN,NE,68305,2532,(402) 274-4129
17234,317662001596,SHELTON HIGH SCHOOL,210 9TH ST,SHELTON,NE,68876,0610,(308) 647-5459
18260,317866001713,OAKDALE ELEMENTARY SCHOOL,3534 S 108TH ST,OMAHA,NE,68144,1936,(402) 390-6460
40175,467209000504,LAKEVIEW ELEMENTARY - 09,26886 299TH ST,CROOKSTON,NE,69212,NOT AVAILABLE,(605) 429-3339
43988,310016301772,CHASE COUNTY HIGH SCHOOL,520 E 9TH ST,IMPERIAL,NE,69033,0577,(308) 882-4304
45184,310001601018,HOWARD ELEMENTARY SCHOOL,502 W 9TH ST,GRAND ISLAND,NE,68801,4237,(308) 385-5916
47100,310002401647,SUTHERLAND ELEMENTARY SCHOOL,401 WALNUT ST,SUTHERLAND,NE,69165,0217,(308) 386-4656
49841,317826001688,WALLACE HIGH SCHOOL,151 N WALLACE RD,WALLACE,NE,69169,8016,(308) 387-4323
2210,310010500101,BRIDGEPORT HIGH SCHOOL,800 Q ST,BRIDGEPORT,NE,69336,0430,(308) 262-0346
4393,317482002326,EARLY LEARNING CENTER (0-3) AT GATEWAY,5810 S 42ND ST,OMAHA,NE,68107,3103,(402) 561-6030
6747,318009000050,ESU #9 PRESCHOOL HOME BASE PRG,5807 OSBORNE DRIVE WEST,HASTINGS,NE,68901,9158,(402) 463-5611
7100,310534000168,COLUMBUS HIGH SCHOOL,3434 DISCOVERER DRIVE,COLUMBUS,NE,68602,0947,(402) 563-7050
7477,317686001610,DAKOTA CITY ELEMENTARY SCHOOL,1801 LOCUST ST,DAKOTA CITY,NE,68731,0455,(402) 987-3363
91470,317374001935,EZRA MILLARD ELEMENTARY SCH,14111 BLONDO ST,OMAHA,NE,68164,3046,(402) 715-2955
94262,317527001472,CARRIAGE HILL ELEMENTARY SCH,400 CEDARDALE RD,PAPILLION,NE,68046,2850,(402) 898-0449
95353,317830001690,WALTHILL HIGH SCHOOL,602 MAIN ST,WALTHILL,NE,68067,0563,(402) 846-5432
99263,310279000006,AINSWORTH HIGH SCHOOL,520 E 2ND ST,AINSWORTH,NE,69210,0065,(402) 387-2082
60385,310014601515,RTC SCHOOL,14092 HOSPITAL RD,BOYS TOWN,NE,68010,2136,(531) 355-7273
61108,317500001457,OSCEOLA ELEMENTARY SCHOOL,341 S KIMMEL,OSCEOLA,NE,68651,0198,(402) 747-2091
65464,310001200120,CALLAWAY HIGH SCHOOL,101 N NEEDHAM,CALLAWAY,NE,68825,5202,(308) 836-2272
68312,317590001537,KAREN WESTERN ELEMENTARY SCH,6224 H ST,OMAHA,NE,68117,1145,(402) 731-7477
83365,317321001204,NORTHEAST SECONDARY SCHOOL,400 S 5TH ST,LYONS,NE,68038,0526,(402) 687-2349
85045,310360000064,STODDARD ELEMENTARY SCHOOL,400 S 7TH ST,BEATRICE,NE,68310,4427,(402) 223-1580
86554,310516000150,CLARKSON ELEMENTARY SCHOOL,649 CHERRY ST,CLARKSON,NE,68629,0140,(402) 892-3477
87590,317482002278,ALFONZA W DAVIS MIDDLE SCHOOL,8050 N 129TH AVENUE,OMAHA,NE,68142,1804,(531) 299-2340
88826,310015401728,NORTHEAST NE JUVENILE SERVICES,1313 1/2 N MAIN STREET,MADISON,NE,68748,0050,(402) 454-3955
52026,317482001367,COLUMBIAN ELEM SCHOOL,330 S 127TH ST,OMAHA,NE,68154,2300,(402) 697-1433
52878,310007601584,ELEMENTARY SCHOOL AT SCRIBNER,400 PEBBLE,SCRIBNER,NE,68057,0549,(402) 664-2568
54358,317482001444,WESTERN HILLS MAGNET CENTER,5616 L STREET,OMAHA,NE,68117,NOT AVAILABLE,(531) 299-2240
54757,317752001650,SUTTON SECONDARY SCHOOL,1107 N SAUNDERS,SUTTON,NE,68979,0590,(402) 773-4303
57506,310014601515,RTC SCHOOL,14092 HOSPITAL RD,BOYS TOWN,NE,68010,2136,(531) 355-7273
41847,317374001244,CODY ELEMENTARY SCHOOL,3320 S 127TH ST,OMAHA,NE,68144,3710,(402) 715-1320
43282,310009701881,MORRILL ELEMENTARY,505 CENTER,MORRILL,NE,69358,NOT AVAILABLE,(308) 247-2176
45638,317284001039,HIGH SCHOOL STUDENT SUPPORT PROGRAM,1801 SOUTH 40TH STREET,LINCOLN,NE,68506,2235,(402) 436-1694
46617,310001000021,ANSELMO-MERNA ELEMENTARY-MERNA,750 N CONWAY ST,MERNA,NE,68856,0068,(308) 643-2224
47084,310336000044,AURORA HIGH SCHOOL,300 M ST,AURORA,NE,68818,1902,(402) 694-6968
47734,317536001486,PAXTON ELEMENTARY SCHOOL,308 N ELM,PAXTON,NE,69155,0368,(308) 239-4283
47740,317464001337,OAKLAND CRAIG ELEMENTARY,400 N BREWSTER AVE,OAKLAND,NE,68045,1105,(402) 685-5631
48960,317881001737,WINNEBAGO ELEMENTARY SCHOOL,202 OSBORNE ST,WINNEBAGO,NE,68071,NOT AVAILABLE,(402) 878-2224
72871,310008201639,STUART ELEMENTARY SCHOOL,404 E 2ND,STUART,NE,68780,NOT AVAILABLE,(402) 924-3302
34684,310017602038,JOHNSON CO CENTRAL ELEM-COOK,407 N 1ST ST,COOK,NE,68392,0255,(402) 864-4181
34977,317173001062,HEMINGFORD ELEMENTARY SCHOOL,911 NIOBRARA ST,HEMINGFORD,NE,69348,0217,(308) 487-3330
36426,317482002228,SADDLEBROOK ELEMENTARY SCHOOL,14850 LAUREL AVE,OMAHA,NE,68116,4510,(531) 299-2020
36631,310001601022,SEEDLING MILE ELEM SCHOOL,3208 E SEEDING MILE RD,GRAND ISLAND,NE,68801,8360,(308) 385-5910
38532,310000601707,WEST POINT-BEEMER HIGH SCHOOL,1200 E WASHINGTON,WEST POINT,NE,68788,2505,(402) 372-5546
10871,310534000166,LOST CREEK ELEMENTARY SCH,3772 33RD AVE,COLUMBUS,NE,68602,0947,(402) 563-7045
11120,310018301090,HOWELLS SENIOR HIGH SCHOOL,417 CENTER STREET,HOWELLS,NE,68641,4133,(402) 986-1621
12638,317482001940,KING SCIENCE/TECH MAGNET M S,3720 FLORENCE BLVD,OMAHA,NE,68110,1794,(531) 299-2380
12663,310492000130,CENTRAL CITY MIDDLE SCHOOL,2815 17TH AVE,CENTRAL CITY,NE,68826,0057,(308) 946-3056
16071,317380001262,MINATARE ELEMENTARY SCHOOL,805 7TH ST,MINATARE,NE,69356,0425,(308) 783-1255
17825,317071000974,DAVENPORT SCHOOL,940 MICHAEL ST,FREMONT,NE,68025,3884,(402) 727-3173
7940,310009600988,FRIEND HIGH SCHOOLS,501 MAIN ST,FRIEND,NE,68359,0067,(402) 947-2781
22766,318004001960,LEARNING CENTER,1109 R STREET,AUBURN,NE,68305,NOT AVAILABLE,(402) 274-4450
23397,317755001654,HIGH SCHOOL AT SYRACUSE,1500 EDUCATION DR,SYRACUSE,NE,68446,0520,(402) 269-2381
28689,310464000111,BURWELL ELEMENTARY SCHOOL,204 S 4TH,BURWELL,NE,68823,0790,(308) 346-4431
100594,317281001134,PERSHING ELEMENTARY SCHOOL,1104 N TYLER,LEXINGTON,NE,68850,2034,(308) 324-3765
100834,310009901671,CENTENNIAL JR-SR HIGH SCHOOL,1301 CENTENNIAL,UTICA,NE,68456,0187,(402) 534-2321
105602,310018900155,SUMMERLAND HIGH SCHOOL AT CLEARWATER,501 IOWA STREET,CLEARWATER,NE,68726,0038,(402) 485-2505
105608,310277002372,ADAMS CENTRAL EARLY CHILDHOOD CENTER,512 N BRASS AVE,JUNIATA,NE,68955,0157,(402) 751-2245
90083,317527001472,CARRIAGE HILL ELEMENTARY SCH,400 CEDARDALE RD,PAPILLION,NE,68046,2850,(402) 898-0449
90655,310001601027,WALNUT MIDDLE SCHOOL,1600 N CUSTER AVE,GRAND ISLAND,NE,68803,2550,(308) 385-5990
90890,310011000348,SOUTH PLATTE HIGH SCHOOL,610 PLUM ST,BIG SPRINGS,NE,69122,0457,(308) 889-3622
92007,317908001754,YUTAN HIGH SCHOOL,1200 2ND ST,YUTAN,NE,68073,3054,(402) 625-2241
92347,310381001502,BELLEVUE WEST SR HIGH SCHOOL,1501 THURSTON AVE,BELLEVUE,NE,68123,2499,(402) 293-4040
30150,317710001628,STAPLETON HIGH SCHOOL,702 6TH STREET,STAPLETON,NE,69163,0128,(308) 636-2252
31142,317284000482,SCIENCE FOCUS PROGRAM,1222 S 27TH ST,LINCOLN,NE,68502,1800,(402) 436-1780
11010,317053000959,FALLS CITY SENIOR HIGH,1400 FULTON,FALLS CITY,NE,68355,2799,(402) 245-2116
11487,316984000913,DORCHESTER HIGH SCHOOL,506 W 9TH,DORCHESTER,NE,68343,0007,(402) 946-2781
18425,317482001381,FRANKLIN ELEM SCHOOL,3506 FRANKLIN ST,OMAHA,NE,68111,4198,(531) 299-1440
22812,310279000005,AINSWORTH ELEMENTARY SCHOOL,520 E 2ND ST,AINSWORTH,NE,69210,0065,(402) 387-2083
27743,317647001583,WESTMOOR ELEMENTARY SCHOOL,1722 AVE K,SCOTTSBLUFF,NE,69361,1609,(308) 635-6255
50186,317581001533,POTTER-DIX JR/SR HIGH SCHOOL,303 WALNUT,POTTER,NE,69156,0189,(308) 879-4434
57662,310018702352,BOYD COUNTY ELEMENTARY (LYNCH),701 HOFFMAN ST,LYNCH,NE,68746,0098,(402) 569-2081
57845,317011002240,ELKHORN SOUTH HIGH SCHOOL,20303 BLUE SAGE PARKWAY,OMAHA,NE,68130,3721,(402) 289-0616
59483,310360000061,BEATRICE MIDDLE SCHOOL,215 N 5TH ST,BEATRICE,NE,68310,3904,(402) 223-1545
63442,317278001129,LEWISTON HIGH SCHOOL,306 TIGER AVE,LEWISTON,NE,68380,0074,(402) 865-4675
67100,317686000236,CARDINAL ELEMENTARY SCHOOL,820 E 29TH STREET,SO SIOUX CITY,NE,68776,3345,(402) 494-1662
70575,310017001847,GORDON-RUSHVILLE ELE-RUSHVILLE,401 SPRAGUE,RUSHVILLE,NE,69360,0590,(308) 327-2491
71735,317284001179,SHERIDAN ELEMENTARY SCHOOL,3100 PLYMOUTH AVE,LINCOLN,NE,68502,4199,(402) 436-1167
73342,317347001223,MC COOK ELEMENTARY SCHOOL,1500 W 3RD ST,MC COOK,NE,69001,2152,(308) 345-5681
75130,317686001612,HARNEY ELEMENTARY SCHOOL,1001 ARBOR DRIVE,SO SIOUX CITY,NE,68776,2472,(402) 494-1446
75452,317248001113,KEYA PAHA COUNTY HIGH SCHOOL,101 FOOTBALL AVE,SPRINGVIEW,NE,68778,0219,(402) 497-3501
76928,317284001140,BROWNELL ELEMENTARY SCHOOL,6000 AYLESWORTH AVE,LINCOLN,NE,68505,1199,(402) 436-1127
77043,310429000099,BRADY HIGH SCHOOL,112 E POPLETON AVE,BRADY,NE,69123,0068,(308) 584-3317
42832,317239000329,MEADOWLARK ELEMENTARY SCHOOL,1010 E 53RD ST,KEARNEY,NE,68847,8599,(308) 698-8210
45916,310912000258,HAYES CENTER ELEMENTARY SCHOOL,318 DANIELS AVE,HAYES CENTER,NE,69032,0008,(308) 286-5601
46069,310013401371,WILCOX-HILDRETH UPPER ELEMENTARY,613 NELSON STREET,HILDRETH,NE,68947,NOT AVAILABLE,(308) 938-2415
46464,310008801317,NORRIS MIDDLE SCHOOL,25211 S 68TH ST,FIRTH,NE,68358,9732,(402) 791-0020
47403,317894001744,WOOD RIVER RURAL HIGH SCHOOL,13800 W WOOD RIVER RD,WOOD RIVER,NE,68883,0518,(308) 583-2249
48794,317854001705,WEEPING WATER HIGH SCHOOL,204 WEST O,WEEPING WATER,NE,68463,0206,(402) 267-4265
746,310001602317,INDRA HOUSE,2131 N LAFAYETTE STREET,GRAND ISLAND,NE,68803,2049,(308) 385-5635
5901,310018702350,BOYD COUNTY ELEMENTARY (BUTTE),402 BUTTE ST,BUTTE,NE,68722,0139,(402) 775-2201
7291,310534000170,WEST PARK ELEMENTARY,4100 ADAMY ST,COLUMBUS,NE,68602,0947,(402) 563-7075
8962,317503001459,OSMOND ELEMENTARY SCHOOL,202 W PRAIRIE ST,OSMOND,NE,68765,0458,(402) 748-3777
85821,317551001494,PIERCE ELEMENTARY SCHOOL,211 N 7TH,PIERCE,NE,68767,1816,(402) 329-4302
87262,317590001541,MOCKINGBIRD ELEMENTARY SCHOOL,5100 S 93RD ST,OMAHA,NE,68127,2472,(402) 331-6954
107181,317482002406,GIFFORD ELEMENTARY SCHOOL,717 N 32ND ST,OMAHA,NE,68131,NOT AVAILABLE,(531) 299-2040
22765,310017602030,JOHNSON CO CENTRAL EL-TECUMSEH,358 N 6TH,TECUMSEH,NE,68450,0338,(402) 335-3320
26506,310528000157,CODY-KILGORE HIGH SCHOOL,360 W 4TH ST,CODY,NE,69211,0216,(402) 823-4190
27161,317239001107,KENWOOD ELEMENTARY SCHOOL,915 16TH AVE,KEARNEY,NE,68845,6503,(308) 698-8200
27263,317014000930,ELM CREEK HIGH SCHOOL,230 EAST CALKINS AVENUE,ELM CREEK,NE,68836,0490,(308) 856-4300
28321,317647001581,BLUFFS MIDDLE SCHOOL,27 EAST 23RD STREET,SCOTTSBLUFF,NE,69361,1609,(308) 635-6270
61181,310012400865,BRUNING-DAVENPORT MIDDLE SCH,106 N JUNIPER AVE,DAVENPORT,NE,68335,0190,(402) 364-2225
61686,317053000960,FALLS CITY NORTH ELEMENTARY,2500 CHASE ST,FALLS CITY,NE,68355,1113,(402) 245-2712
63878,310011600594,FREEMAN ELEMENTARY-ADAMS,415 EIGHTH ST,ADAMS,NE,68301,0259,(402) 988-2525
67593,317590001540,RALSTON MIDDLE SCHOOL,8202 LAKEVIEW,RALSTON,NE,68127,2777,(402) 331-4701
68340,310002101865,EVELYN HAMLOW ELEMENTARY,14541 CASTLEWOOD ST,WAVERLY,NE,68462,0426,(402) 786-2341
749,317284002320,LPS CAREER ACADEMY,8800 O STREET,LINCOLN,NE,68506,NOT AVAILABLE,(402) 436-1316
4773,317011002337,ARBOR VIEW ELEMENTARY SCHOOL,5115 N 208TH ST,ELKHORN,NE,68022,5270,(402) 289-1007
4780,318013002328,CENTRAL HEAD START,940 CRESCENT DRIVE,GERING,NE,69341,NOT AVAILABLE,(308) 635-6852
5598,317536001487,PAXTON HIGH SCHOOL,308 N ELM,PAXTON,NE,69155,0368,(308) 239-4283
7732,317845001695,WAUSA ELEMENTARY SCHOOL,300 S BISMARK,WAUSA,NE,68786,2038,(402) 586-2255
9791,317383001589,MINDEN PUBLIC SCH PRE-SCHOOL,427 N PARK ST,MINDEN,NE,68959,0301,(308) 832-1666
40643,310333002237,LITTLE LEARNERS PRESCHOOL,1906 1/2 O STREET,AUBURN,NE,68305,2347,(402) 274-6641
41627,310381001513,PETER SARPY ELEMENTARY SCHOOL,2908 VANDENBERG AVE,BELLEVUE,NE,68123,1699,(402) 293-4795
42748,317284001155,HUNTINGTON ELEMENTARY SCHOOL,2900 N 46TH ST,LINCOLN,NE,68504,2099,(402) 436-1144
42915,310011500578,NORTH BEND CENTRAL ELEMENTARY SCHOOL,420 E 11TH ST,NORTH BEND,NE,68649,NOT AVAILABLE,(402) 652-8122
43215,317284000393,SCOTT MIDDLE SCHOOL,2200 PINE LAKE ROAD,LINCOLN,NE,68516,3600,(402) 436-1218
43910,317494001453,ORD ELEMENTARY SCHOOL,820 S 16TH ST,ORD,NE,68862,1984,(308) 728-3331
46943,317158001053,HASTINGS MIDDLE SCHOOL,201 N MARIAN ROAD,HASTINGS,NE,68901,5190,(402) 461-7520
48314,317656001591,SEWARD HIGH SCHOOL,532 NORTHERN HEIGHTS,SEWARD,NE,68434,2541,(402) 643-2988
49666,310008801318,NORRIS HIGH SCHOOL,25211 S 68TH ST,FIRTH,NE,68358,9732,(402) 791-0010
91158,317011002245,ELKHORN VALLEY VIEW MIDDLE SCHOOL,1313 S 208TH ST,ELKHORN,NE,68022,2022,(402) 289-0362
93105,310597001848,TRI COUNTY ELEMENTARY SCHOOL,72520 HWY 103,DEWITT,NE,68341,4502,(402) 683-4035
95414,310011800993,FILLMORE CENTRAL HIGH SCHOOL,1410 L STREET,GENEVA,NE,68361,1599,(402) 759-3141
96274,317500001228,OSCEOLA MIDDLE SCHOOL,565 S KIMMEL,OSCEOLA,NE,68651,0198,(402) 747-3121
98252,317671001599,CENTRAL ELEMENTARY SCHOOL,1110 16TH ST,SIDNEY,NE,69162,1972,(308) 254-3642
50998,317383001264,C L JONES MIDDLE SCHOOL,520 W 3RD,MINDEN,NE,68959,0301,(308) 832-2338
57790,317284001164,MEADOW LANE ELEMENTARY SCHOOL,7200 VINE ST,LINCOLN,NE,68505,2192,(402) 436-1151
59275,317671001603,SOUTH WARD ELEMENTARY SCHOOL,2000 12TH AVE,SIDNEY,NE,69162,2382,(308) 254-3589
59616,310009701274,MORRILL HIGH SCHOOL,411 E HAMILTON,MORRILL,NE,69358,NOT AVAILABLE,(308) 247-2149
81429,317680000600,PINK SCHOOL,1022 RIVER RD,MARSLAND,NE,69354,NOT AVAILABLE,(308) 665-1964
83328,317374000244,ALDRICH ELEMENTARY,506 N 162 AVE,OMAHA,NE,68118,2529,(402) 715-2020
85044,310552000178,CRAWFORD HIGH SCHOOL,908 5TH ST,CRAWFORD,NE,69339,1204,(308) 665-1531
87604,310009801000,GERING JUNIOR HIGH SCHOOL,800 Q ST,GERING,NE,69341,2972,(308) 436-3123
100753,317645002218,SCHUYLER HEADSTART,1014 WEST 9TH STREET,SCHUYLER,NE,68661,2061,(402) 352-5084
101177,310534000165,COLUMBUS MIDDLE SCHOOL,2200 26TH ST,COLUMBUS,NE,68602,0947,(402) 563-7060
105621,317284002382,LPS GRADUATION PATHWAYS PROGRAM,300 SOUTH 48TH ST,LINCOLN,NE,68510,1830,(402) 436-1868
105623,317404002405,MULLEN MIDDLE SCHOOL,404 N BLAINE,MULLEN,NE,69152,0127,(308) 546-2223
105631,317482002411,REMOTE LEARNING HIGH SCHOOL,3215 CUMING STREET,OMAHA,NE,68131,2024,(531) 299-0220
105640,318003002389,ESU 3 HEAD START - FORT CROOK,12501 S 25TH ST,BELLEVUE,NE,68123,NOT AVAILABLE,(402) 827-8573
105647,318007002401,ESU 7 LEARNING ACADEMY,2567 44TH AVE,COLUMBUS,NE,68601,NOT AVAILABLE,(402) 564-0815
10643,317374000372,BLACK ELK ELEMENTARY SCHOOL,6708 S 161 AVE,OMAHA,NE,68135,5363,(402) 715-6200
11097,317482001401,J P LORD PROGRAM,4444 MARINDA ST,OMAHA,NE,68105,8500,(531) 299-1760
11357,310011400547,LOGAN VIEW JR/SR HIGH SCHOOL,2163 COUNTY ROAD G,HOOPER,NE,68031,1259,(402) 654-3317
11987,310516000151,CLARKSON JR-SR HIGH SCHOOL,649 CHERRY ST,CLARKSON,NE,68629,0140,(402) 892-3454
12788,317539001489,PENDER HIGH SCHOOL,609 WHITNEY ST,PENDER,NE,68047,5036,(402) 385-3244
15091,310017602022,JOHNSON CO CENTRAL MIDDLE SCH,407 N 1ST ST,COOK,NE,68392,0255,(402) 864-4181
17933,317686001614,LEWIS & CLARK ELEMENTARY SCH,801 2ND AVE,SO SIOUX CITY,NE,68776,1933,(402) 494-1917
18751,316295000818,CENTURA SECONDARY SCHOOL,201 N HWY 11,CAIRO,NE,68824,NOT AVAILABLE,(308) 485-4258
19652,317500001458,OSCEOLA HIGH SCHOOL,565 S KIMMEL,OSCEOLA,NE,68651,0198,(402) 747-3121
31868,317563001514,PLATTEVIEW SENIOR HIGH SCHOOL,14801 S 108TH ST,SPRINGFIELD,NE,68059,4925,(402) 339-3606
32644,317284000482,SCIENCE FOCUS PROGRAM,1222 S 27TH ST,LINCOLN,NE,68502,1800,(402) 436-1780
33108,310313000030,ARLINGTON HIGH SCHOOL,705 N 9TH,ARLINGTON,NE,68002,0580,(402) 478-4171
70112,310199201992,ELMWOOD-MURDOCK JR/SR HIGH SCH,300 WYOMING ST,MURDOCK,NE,68407,5032,(402) 867-2341
72773,317645000446,SCHUYLER ELEMENTARY-FISHER'S,1098 ROAD J,SCHUYLER,NE,68661,9796,(402) 352-3700
73217,317821001684,WAHOO ELEMENTARY SCHOOL,2056 N HACKBERRY,WAHOO,NE,68066,1093,(402) 443-4250
74175,317284001175,MICKLE MIDDLE SCHOOL,2500 N 67TH ST,LINCOLN,NE,68507,2894,(402) 436-1216
79274,317374000242,MILLARD WEST HIGH SCHOOL,5710 S 176 AVE,OMAHA,NE,68135,2268,(402) 715-6000
96165,317299001190,LOOMIS SECONDARY SCHOOL,101 BRYAN ST,LOOMIS,NE,68958,NOT AVAILABLE,(308) 876-2111
98009,310007300031,ARNOLD ELEMENTARY SCHOOL,405 N HASKELL,ARNOLD,NE,69120,0399,(308) 848-2226
98216,317482001408,MC MILLAN MAGNET MIDDLE SCHOOL,3802 REDICK AVE,OMAHA,NE,68112,2966,(531) 299-2440
99503,310001601028,WASMER ELEMENTARY SCHOOL,318 S CLARK ST,GRAND ISLAND,NE,68801,6446,(308) 385-5920
73189,317482001376,DUNDEE ELEM SCHOOL,310 N 51ST STREET,OMAHA,NE,68132,2846,(402) 554-8424
73332,317671000076,WEST ELEMENTARY SCHOOL,2350 OSAGE ST,SIDNEY,NE,69162,1875,(308) 254-0960
74306,317344001216,MAYWOOD ELEMENTARY SCHOOL,1 TIGER DR,MAYWOOD,NE,69038,0046,(308) 362-4223
75884,317374001835,GRACE ABBOTT ELEM SCHOOL,1313 N 156TH,OMAHA,NE,68118,2304,(402) 715-2900
85893,317374002018,REAGAN ELEMENTARY,4440 S 198 AVE,OMAHA,NE,68135,3722,(402) 715-7100
86981,317482001439,GOMEZ HERITAGE ELEMENTARY SCH,5101 S 17TH STREET,OMAHA,NE,68107,3047,(402) 898-2801
105595,310006702395,BANNER COUNTY MIDDLE SCHOOL,200 SCHOOL ST,HARRISBURG,NE,69345,0005,(308) 436-5262
105600,310018802388,YOUTH CARE AND BEYOND LEARNING CENTER,6055 COUNTRY CLUB RD,OMAHA,NE,68152,NOT AVAILABLE,(531) 200-5898
105615,317071002368,PATHFINDER PROGRAM - 9-12,130 EAST 9TH STREET,FREMONT,NE,68025,NOT AVAILABLE,(402) 727-3024
10204,317482001410,MINNE LUSA ELEM SCHOOL,2728 IDA ST,OMAHA,NE,68112,3299,(402) 457-5611
17835,317686001615,SOUTH SIOUX CITY MIDDLE SCHOOL,3625 G STREET,SO SIOUX CITY,NE,68776,3466,(402) 494-3061
19753,317527002270,PAPILLION LA VISTA EARLY CHILDHOOD CENTER (PLECC),1211 N MONROE ST,PAPILLION,NE,68046,2045,(402) 514-3243
19774,317533001485,PAWNEE CITY SECONDARY SCHOOL,729 E ST,PAWNEE CITY,NE,68420,0393,(402) 852-2988
30140,310000402195,LAUREL-CONCORD-COLERIDGE MIDDLE SCHOOL,203 SOUTH MAIN STREET,COLERIDGE,NE,68727,0037,(402) 256-3133
32908,317281000539,EARLY LEARNING ACADEMY,1503 PLUM CREEK PARKWAY,LEXINGTON,NE,68850,2648,(308) 324-1841
52057,317482001398,KENNEDY ELEM SCHOOL,2906 N 30TH ST,OMAHA,NE,68111,3101,(531) 299-1700
59687,317284002121,NUERNBERGER EDUCATION CENTER,1801 S 40TH ST,LINCOLN,NE,68506,5205,(402) 436-1255
22076,310912000259,HAYES CENTER SECONDARY SCHOOL,501 TROTH ST,HAYES CENTER,NE,69032,0008,(308) 286-5600
28138,317482001427,ROSE HILL ELEM SCHOOL,5605 CORBY STREET,OMAHA,NE,68104,4127,(402) 554-6797
60296,317476001341,OGALLALA HIGH SCHOOL,602 EAST G,OGALLALA,NE,69153,2245,(308) 284-4029
60742,317011002240,ELKHORN SOUTH HIGH SCHOOL,20303 BLUE SAGE PARKWAY,OMAHA,NE,68130,3721,(402) 289-0616
61126,317374001792,REEDER ELEMENTARY SCHOOL,19202 CHANDLER ST,GRETNA,NE,68028,4256,(402) 715-6420
61562,310011502304,NORTH BEND CENTRAL MIDDLE SCHOOL,1320 WALNUT ST,NORTH BEND,NE,68649,5016,(402) 652-3268
65951,317122001034,GRETNA ELEMENTARY SCHOOL,801 SOUTH ST,GRETNA,NE,68028,7865,(402) 332-3341
45947,317494001453,ORD ELEMENTARY SCHOOL,820 S 16TH ST,ORD,NE,68862,1984,(308) 728-3331
47071,317305001192,LOUISVILLE HIGH SCHOOL,202 W 3RD,LOUISVILLE,NE,68037,0489,(402) 234-3585
47078,317011001801,HILLRISE ELEMENTARY SCHOOL,20110 HOPPER ST,ELKHORN,NE,68022,2338,(402) 289-2602
47689,317645000215,RICHLAND ELEMENTARY SCHOOL,595 ROAD 3,RICHLAND,NE,68601,8633,(402) 564-6900
3484,310399002261,HERITAGE ELEMENTARY,9950 ROSEWATER PARKWAY,BENNINGTON,NE,68007,1641,(402) 238-2095
6946,310001601019,JEFFERSON ELEMENTARY SCHOOL,1314 W 7TH STREET,GRAND ISLAND,NE,68801,4110,(308) 385-5922
7622,310011901679,VERDIGRE HIGH SCHOOL,201 S 3RD ST,VERDIGRE,NE,68783,6006,(402) 668-2275
7896,310007701885,DUNDY CO STRATTON HIGH SCHOOL,400 9TH AVE WEST,BENKELMAN,NE,69021,0586,(308) 423-2738
7904,311956000376,UMO N HO N NATION ELEM SCHOOL,470 MAIN ST,MACY,NE,68039,0280,(402) 837-5260
11776,317905001919,YORK MIDDLE SCHOOL,1730 N DELAWARE AVE,YORK,NE,68467,1203,(402) 362-6655
19015,317755002238,MIDDLE SCHOOL AT SYRACUSE,1430 EDUCATION DRIVE,SYRACUSE,NE,68446,NOT AVAILABLE,(402) 269-2388
3534,310001101855,EARLY CHILDHOOD SERVICES,727 SOUTH 6TH AVENUE,BROKEN BOW,NE,68822,1299,(308) 872-5606
3577,317374001896,HARRY ANDERSEN MIDDLE SCHOOL,15404 ADAMS ST,OMAHA,NE,68137,3800,(402) 715-8440
6878,317194001749,HOLDREGE PUBLIC SCHOOLS EARLY CHILDHOOD ED CTR,1700 BROADWAY ST,HOLDREGE,NE,68949,1204,(308) 995-4048
7990,310011200492,SHELL CREEK ELEMENTARY SCHOOL,16786 280TH ST,COLUMBUS,NE,68601,8296,(402) 564-8008
22993,317506001461,OVERTON ELEMENTARY SCHOOL,401 7TH ST,OVERTON,NE,68863,0310,(308) 987-2424
23620,317482001432,SHERMAN ELEM SCHOOL,5618 N 14TH AVE,OMAHA,NE,68110,1134,(402) 457-6711
25071,317443001307,JEFFERSON ELEMENTARY SCHOOL,406 COTTONWOOD ST,NORFOLK,NE,68701,NOT AVAILABLE,(402) 644-2546
25722,317071000977,HOWARD ELEMENTARY SCHOOL,240 N HOWARD ST,FREMONT,NE,68025,4662,(402) 727-3169
26245,317329001210,MALCOLM JR/SR HIGH SCHOOL,10002 N W 112TH ST,MALCOLM,NE,68402,9561,(402) 796-2151
27366,317281001135,SANDOZ ELEMENTARY SCHOOL,1711 N ERIE,LEXINGTON,NE,68850,1110,(308) 324-5540
28147,310009901670,CENTENNIAL ELEMENTARY SCHOOL,1301 CENTENNIAL,UTICA,NE,68456,0187,(402) 534-2321
29234,310012300815,HIGH PLAINS COMMUNITY JR/SR HIGH SCHOOL,345 S PINE,POLK,NE,68654,0029,(402) 765-3331
41289,317590001542,RALSTON HIGH SCHOOL,8969 PARK DR,RALSTON,NE,68127,3600,(402) 331-7373
45595,318013002025,LIFELINKS-NEBRASKA,2620 COLLEGE PARK,SCOTTSBLUFF,NE,69361,2295,(308) 635-3696
46713,310381002231,BELLEVUE ELEMENTARY SCHOOL,12001 TIMBERRIDGE DR,BELLEVUE,NE,68133,4709,(402) 827-1840
48392,310001601017,STARR ELEMENTARY SCHOOL,1800 S ADAMS STREET,GRAND ISLAND,NE,68801,NOT AVAILABLE,(308) 385-5882
34264,317599001550,RED CLOUD ELEMENTARY SCHOOL,334 N CHERRY,RED CLOUD,NE,68970,2246,(402) 746-3413
36223,317350001226,MC COOL JUNCTION ELEM SCHOOL,209 SOUTH GRAGAN AVE,MCCOOL JUNCTION,NE,68401,0278,(402) 724-2231
96477,317899001745,WYNOT ELEMENTARY SCHOOL,709 ST JAMES AVE,WYNOT,NE,68792,NOT AVAILABLE,(402) 357-2121
96909,310012200698,LAWRENCE EARLY LEARNING CENTER,411 E SECOND,LAWRENCE,NE,68957,6403,(402) 756-7014
70867,317590001540,RALSTON MIDDLE SCHOOL,8202 LAKEVIEW,RALSTON,NE,68127,2777,(402) 331-4701
75787,317647001579,LONGFELLOW ELEMENTARY SCHOOL,2003 5TH AVE,SCOTTSBLUFF,NE,69361,1609,(308) 635-6262
75953,317312001197,LOUP COUNTY ELEMENTARY SCHOOL,608 WILLIAMS ST,TAYLOR,NE,68879,0170,(308) 942-6115
77400,317710001627,STAPLETON ELEMENTARY SCHOOL,702 6TH STREET,STAPLETON,NE,69163,0128,(308) 636-2252
78829,317284001165,LEFLER MIDDLE SCHOOL,1100 S 48TH ST,LINCOLN,NE,68510,4899,(402) 436-1215
60409,317718001632,SOUTHERN JR-SR HIGH SCHOOL,115 S 11TH ST,WYMORE,NE,68466,0237,(402) 645-3326
62423,317284000392,LUX MIDDLE SCHOOL,7800 HIGH ST,LINCOLN,NE,68506,3661,(402) 436-1220
65553,317802001674,VALENTINE HIGH SCHOOL,431 N GREEN ST,VALENTINE,NE,69201,1969,(402) 376-1780
66900,310288000010,ALLEN HIGH SCHOOL,126 E 5TH,ALLEN,NE,68710,0190,(402) 635-2484
80712,317482000288,PRAIRIE WIND ELEM SCHOOL,10908 ELLISON AVE,OMAHA,NE,68164,1518,(402) 491-0859
81972,310402000079,BERTRAND ELEMENTARY SCHOOL,503 SCHOOL ST,BERTRAND,NE,68927,0278,(308) 472-3427
82461,310012300816,HIGH PLAINS COMMUNITY ELEMENTARY SCHOOL,205 W PEARL ST,CLARKS,NE,68628,0205,(308) 548-2216
83418,318015000645,STEP SCHOOL,305 EAST 1ST,MCCOOK,NE,69001,NOT AVAILABLE,(308) 345-7341
86122,310018301088,HOWELLS-DODGE ELEMENTARY SCHOOL/HOWELLS,417 CENTER STREET,HOWELLS,NE,68641,4133,(402) 986-1621
58194,310002200601,LAKE MALONEY ELEMENTARY SCHOOL,848 E CORRECTION LINE RD,NORTH PLATTE,NE,69101,8947,(308) 532-9392
100212,317866001712,LOVELAND ELEMENTARY SCHOOL,8201 PACIFIC STREET,OMAHA,NE,68114,5353,(402) 390-6455
105605,310018901450,SUMMERLAND ELEM SCH AT ORCHARD,425 EAST 4TH ST,ORCHARD,NE,68764,0248,(402) 893-3215
105637,317812001680,VERDIGRE ELEMENTARY SCHOOL,201 SOUTH 3RD ST,VERDIGRE,NE,68783,NOT AVAILABLE,(402) 668-2275
105644,318003002400,ESU 3 HEAD START - GOLDEN HILLS,2912 COFFEY AVE,BELLEVUE,NE,68123,NOT AVAILABLE,(402) 898-1270
13106,317617000498,PONY LAKE SCHOOL,45597 866TH RD,BASSETT,NE,68714,9531,(402) 244-5450
16056,317482001377,EDISON ELEM SCHOOL,2303 N 97TH ST,OMAHA,NE,68134,5609,(402) 392-7310
80649,310003400034,ASHLAND-GREENWOOD ELEMENTARY SCHOOL,1200 BOYD STEET,ASHLAND,NE,68003,1899,(402) 944-7083
86098,317854001704,WEEPING WATER ELEMENTARY SCHOOL,204 WEST O,WEEPING WATER,NE,68463,0206,(402) 267-2435
6810,310012200199,CLAY CO LEARNING CENTER - FAIRFIELD,30671 HWY 14,FAIRFIELD,NE,68938,9768,(402) 726-2151
7585,317284002224,INFANT TODDLER AT LINCOLN NORTHEAST HIGH SCHOOL,2635 N 63 ST,LINCOLN,NE,68507,2422,(402) 436-1303
44332,317284001163,MCPHEE ELEMENTARY SCHOOL,820 GOODHUE BLVD,LINCOLN,NE,68508,3399,(402) 436-1150
47079,317374001252,MILLARD NORTH HIGH SCHOOL,1010 S 144TH ST,OMAHA,NE,68154,2899,(402) 715-1365
47182,311956000377,UMO N HO N NATION HIGH SCHOOL,470 MAIN ST,MACY,NE,68039,0280,(402) 837-5622
47229,317482001386,HARTMAN ELEM SCHOOL,5530 N 66TH ST,OMAHA,NE,68104,1599,(531) 299-1560
47988,317284001033,SOUTHWEST HIGH SCHOOL,7001 S 14TH ST,LINCOLN,NE,68512,9200,(402) 436-1306
91147,310001601014,BARR MIDDLE SCHOOL,602 W STOLLEY PARK RD,GRAND ISLAND,NE,68801,7465,(308) 385-5875
93490,310000200192,DAVID CITY SECONDARY SCHOOL,750 D ST,DAVID CITY,NE,68632,1724,(402) 367-3187
94924,317482001436,SPRINGVILLE ELEM SCHOOL,7400 N 60TH ST,OMAHA,NE,68152,2013,(402) 572-0130
96064,310018602312,OMAHA HOME FOR BOYS SCHOOLS,4343 N 52ND ST,OMAHA,NE,68104,NOT AVAILABLE,(402) 457-7155
97192,310552000177,CRAWFORD ELEMENTARY SCHOOL,908 5TH ST,CRAWFORD,NE,69339,1204,(308) 665-1928
101531,317645001576,SCHUYLER ELEMENTARY SCHOOL,2404 DENVER,SCHUYLER,NE,68661,1600,(402) 352-9940
105641,318003002392,ESU 3 HEAD START - PETER SARPY,2908 VANDENBERG AVE,BELLEVUE,NE,68123,NOT AVAILABLE,(402) 827-1873
51061,310011901680,VERDIGRE ELEMENTARY SCHOOL,201 S 3RD ST,VERDIGRE,NE,68783,6006,(402) 668-2275
55438,317284001158,LAKEVIEW ELEMENTARY SCHOOL,300 CAPITOL BEACH BLVD,LINCOLN,NE,68528,1685,(402) 436-1149
58983,317194001075,HOLDREGE MIDDLE SCHOOL,600 14TH AVE,HOLDREGE,NE,68949,1300,(308) 995-5421
31893,317284002215,SCHOO MIDDLE SCHOOL,700 PENROSE DRIVE,LINCOLN,NE,68521,8912,(402) 436-1222
24905,317416001286,NEBRASKA CITY HIGH SCHOOL,141 STEINHART PARK RD,NEBRASKA CITY,NE,68410,2064,(402) 873-3360
26565,310014701538,DOUGLAS COUNTY YOUTH CENTER,1301 S 41ST STREET,OMAHA,NE,68105,1862,(402) 444-4767
27012,317482001351,BEALS ELEM SCHOOL,1720 S 48TH ST,OMAHA,NE,68106,2597,(402) 554-8570
27138,317374001245,COTTONWOOD ELEMENTARY SCHOOL,615 PIEDMONT DR,OMAHA,NE,68154,2731,(402) 715-1390
28072,317110001011,DUDLEY ELEMENTARY SCHOOL,1311 AVENUE G,GOTHENBURG,NE,69138,1799,(308) 537-3651
28295,317309001195,LOUP CITY HIGH SCHOOL,800 N 8TH ST,LOUP CITY,NE,68853,0628,(308) 745-0548
60291,317239001947,GLENWOOD ELEMENTARY SCHOOL,8105 9TH AVE,KEARNEY,NE,68845,6474,(308) 698-8240
60444,310534002282,PATHWAYS BEYOND/EARLY STEPS TO SUCCESS BUILDING,2508 27TH STREET,COLUMBUS,NE,68602,NOT AVAILABLE,(402) 563-7000
61823,317284001156,IRVING MIDDLE SCHOOL,2745 S 22ND ST,LINCOLN,NE,68502,3999,(402) 436-1214
69048,317527001473,G STANLEY HALL ELEMENTARY SCH,7600 S 72ND ST,LA VISTA,NE,68128,2658,(402) 898-0455
31723,317458000144,CHAPMAN ELEMENTARY SCHOOL,1003 CADY ST,CHAPMAN,NE,68827,0206,(308) 986-2215
36401,317329001209,MALCOLM ELEMENTARY SCHOOL,10000 N W 112TH ST,MALCOLM,NE,68402,9561,(402) 796-2151
38557,310001601025,STOLLEY PARK ELEM SCHOOL,1700 W STOLLEY PARK RD,GRAND ISLAND,NE,68801,NOT AVAILABLE,(308) 385-5913
38594,310012400868,BRUNING-DAVENPORT ELEM/BRUNING,340 CARROLL ST,BRUNING,NE,68322,0070,(402) 353-4685
38757,317482001355,BENSON WEST ELEM SCHOOL,6652 MAPLE ST,OMAHA,NE,68104,3995,(402) 554-8633
3015,310336000043,AURORA ELEMENTARY SCHOOL,300 H ST,AURORA,NE,68818,1902,(402) 694-3167
3016,317680001607,SIOUX COUNTY HIGH SCHOOL,435 KATE,HARRISON,NE,69346,0038,(308) 668-2415
3713,316984000912,DORCHESTER ELEMENTARY SCHOOL,506 W 9TH,DORCHESTER,NE,68343,0007,(402) 946-2781
20786,310000300918,HIGH SCHOOL AT BRAINARD,212 S MADISON,BRAINARD,NE,68626,0036,(402) 545-2081
21678,310014602010,GRAND ISLAND INTERVENTION AND ASSESSMENT SHELTER,3230 WILDWOOD DR,GRAND ISLAND,NE,68801,9645,(308) 381-4444
22623,310291000012,ALLIANCE MIDDLE SCHOOL,11TH & LARAMIE,ALLIANCE,NE,69301,NOT AVAILABLE,(308) 762-3079
28216,317821000312,WAHOO PRE-SCHOOL,2056 N HACKBERRY,WAHOO,NE,68066,1093,(402) 443-4250
29478,310381001508,FORT CROOK ELEMENTARY SCHOOL,12501 S 25TH ST,BELLEVUE,NE,68123,5526,(402) 293-4710
29479,317830001689,WALTHILL ELEMENTARY SCHOOL,602 MAIN ST,WALTHILL,NE,68067,0563,(402) 846-5432
12664,317416001283,HAYWARD ELEMENTARY SCHOOL,306 S 14TH ST,NEBRASKA CITY,NE,68410,2064,(402) 873-6641
16864,310003400035,ASHLAND-GREENWOOD HIGH SCHOOL,1842 FURNAS STREET,ASHLAND,NE,68003,1899,(402) 944-2117
70195,317482001441,WAKONDA ELEM SCHOOL,4845 CURTIS AVE,OMAHA,NE,68104,1300,(531) 299-2180
72332,318005001964,EDUCATIONAL SERVICE UNIT 5,900 WEST COURT,BEATRICE,NE,68310,3526,(402) 223-5277
77312,317281002027,EARLY INTERVENTION/HOMEBOUND,1501 PLUM CREEK PARKWAY,LEXINGTON,NE,68850,0890,(308) 324-1841
77907,310282000701,BOONE CENTRAL MIDDLE SCHOOL,203 E WIDAMAN,PETERSBURG,NE,68652,NOT AVAILABLE,(402) 386-5302
78377,317182001067,HERSHEY HIGH SCHOOL,301 S LINCOLN,HERSHEY,NE,69143,0369,(308) 368-5573
78462,317482001412,MONROE MIDDLE SCHOOL,5105 BEDFORD AVE,OMAHA,NE,68104,3598,(531) 299-2460
79005,317821001682,WAHOO HIGH SCHOOL,2201 N LOCUST,WAHOO,NE,68066,1093,(402) 443-4332
41679,310344000049,BANCROFT-ROSALIE JR/SR HIGH SCHOOL,708 MAIN ST,BANCROFT,NE,68004,0129,(402) 648-3336
41693,310410000516,GERALD OTTE BLAIR MIDDLE SCH,555 JACKSON ST,BLAIR,NE,68008,0288,(402) 426-3678
43773,317482001334,LIBERTY ELEMENTARY SCHOOL,2021 ST MARY'S AVENUE,OMAHA,NE,68102,2415,(402) 898-1697
45008,310009000057,BAYARD SECONDARY SCHOOL,726 4TH AVE,BAYARD,NE,69334,0607,(308) 586-1700
45690,317158001051,HASTINGS SENIOR HIGH SCHOOL,1100 W 14TH ST,HASTINGS,NE,68901,3064,(402) 461-7550
46860,317284001171,PRESCOTT ELEMENTARY SCHOOL,1930 S 20TH ST,LINCOLN,NE,68502,2799,(402) 436-1161
48356,317323000599,MADISON MIDDLE SCHOOL,700 S KENT,MADISON,NE,68748,0450,(402) 454-3336
48366,317482001370,CONESTOGA MAGNET ELEM SCHOOL,2115 BURDETTE ST,OMAHA,NE,68110,2365,(402) 344-7147
87588,318002002283,ESU 2 INDEPENDENT SCHOOL,1102 COUNTY RD W,FREMONT,NE,68025,NOT AVAILABLE,(402) 721-1430
87700,317482000289,ASHLAND PARK/ROBBINS ELEM SCH,5050 S 51ST ST,OMAHA,NE,68117,1955,(531) 299-1020
51747,310001601863,ENGLEMAN ELEMENTARY SCHOOL,1812 MANSFIELD RD,GRAND ISLAND,NE,68803,1509,(308) 385-5902
52060,317821001683,WAHOO MIDDLE SCHOOL,2201 N LOCUST,WAHOO,NE,68066,1093,(402) 443-3101
91244,317284001137,BEATTIE ELEMENTARY SCHOOL,1901 CALVERT ST,LINCOLN,NE,68502,4899,(402) 436-1123
92883,310013201273,THAYER CENTRAL ELEMENTARY,1020 EADS AVE,HEBRON,NE,68370,0009,(402) 768-7287
64059,310012100750,DONIPHAN-TRUMBULL SECONDARY,302 W PLUM,DONIPHAN,NE,68832,0300,(402) 845-6531
65001,310012100752,DONIPHAN-TRUMBULL ELEMENTARY,302 W PLUM,DONIPHAN,NE,68832,0300,(402) 845-2730
68967,317482002247,GATEWAY TO COLLEGE,2606 HAMILTON ST,OMAHA,NE,68131,1640,(402) 898-1568
100757,310012500744,DILLER-ODELL SECONDARY SCHOOL,506 PERRY ST,ODELL,NE,68415,0188,(402) 766-4210
101757,317374001242,WILLA CATHER ELEMENTARY SCHOOL,3030 S 139TH PLAZA,OMAHA,NE,68144,3395,(402) 715-1315
41854,317374001257,SANDOZ ELEMENTARY SCHOOL,5959 OAK HILLS DR,OMAHA,NE,68137,3300,(402) 715-8345
41905,310399000077,BENNINGTON ELEMENTARY SCHOOL,11620 N 156TH ST,BENNINGTON,NE,68007,0265,(402) 238-2690
43694,317482001388,INDIAN HILL ELEM SCHOOL,3121 U ST,OMAHA,NE,68107,3378,(531) 299-1600
47116,310381001512,BELLEVUE MISSION MIDDLE SCHOOL,2202 WASHINGTON ST,BELLEVUE,NE,68005,5062,(402) 293-4260
49208,317284002120,DONALD D SHERRILL EDUCATION CNTR - ELEM,330 N 56TH ST,LINCOLN,NE,68504,3520,(402) 436-1924
38159,317482001369,PARRISH PROGRAM,4315 CUMING ST,OMAHA,NE,68131,NOT AVAILABLE,(531) 299-2860
50036,310012200806,LAWRENCE/NELSON HIGH SCH,850 S NEVADA,NELSON,NE,68961,0368,(402) 225-3371
50892,317284000391,ROPER ELEMENTARY SCHOOL,2323 S CODDINGTON ST,LINCOLN,NE,68522,1849,(402) 436-1170
52730,317867001725,WHEELER CENTRAL ELEMENTARY #45,600 RANDOLPH WEST,BARTLETT,NE,68622,0068,(308) 654-3273
59028,317284001172,PYRTLE ELEMENTARY SCHOOL,721 COTTONWOOD DR,LINCOLN,NE,68510,4309,(402) 436-1162
59279,310360000058,BEATRICE HIGH SCHOOL,600 ORANGE BLVD,BEATRICE,NE,68310,4300,(402) 223-1515
20971,317659002257,SHELBY - RISING CITY MIDDLE SCHOOL,650 N WALNUT ST,SHELBY,NE,68662,5573,(402) 527-5946
24571,317482001417,OMAHA NORTHWEST HIGH MAGNET SCHOOL,8204 CROWN POINT AVE,OMAHA,NE,68134,1999,(402) 557-3500
26477,310017001840,GORDON-RUSHVILLE ELEM-GORDON,500 W SECOND,GORDON,NE,69343,0530,(308) 282-0216
27841,310381001518,WAKE ROBIN ELEMENTARY SCHOOL,700 LINCOLN RD SOUTH,BELLEVUE,NE,68005,2339,(402) 293-4955
29287,310016001762,PATRICK J THOMAS JUVENILE CNTR,9701 PORTAL ROAD,LAVISTA,NE,68128,2929,(402) 537-7036
82116,317011000927,ELKHORN HIGH SCHOOL,1401 VETERANS DR,ELKHORN,NE,68022,2593,(402) 289-4239
82728,317482002234,EARLY CHILDHOOD CENTER AT EDUCARE - INDIAN HILL,3110 W STREET,OMAHA,NE,68107,3320,(402) 502-0352
83321,310002201322,BUFFALO ELEMENTARY SCHOOL,1600 N BUFFALO BILL AVE,NORTH PLATTE,NE,69101,2041,(308) 535-7130
87667,317248000661,SPRING VIEW ELEMENTARY SCHOOL,101 FOOTBALL AVE,SPRINGVIEW,NE,68778,0219,(402) 497-2621
88159,310001100103,BROKEN BOW HIGH SCHOOL,323 N 7TH AVE,BROKEN BOW,NE,68822,1718,(308) 872-2475
60954,317233501099,HIGH SCHOOL AT JOHNSON,310 MAIN ST,JOHNSON,NE,68378,0186,(402) 868-5235
61093,310011402274,LOGAN VIEW ELEMENTARY,2163 COUNTY ROAD G,HOOPER,NE,68031,1259,(402) 654-3317
61348,310309000025,ARAPAHOE ELEMENTARY SCHOOL,610 WALNUT,ARAPAHOE,NE,68922,0360,(308) 962-5459
61450,310013401368,WILCOX-HILDRETH JR/SR HIGH SCHOOL,404 E SAPP ST,WILCOX,NE,68982,0190,(308) 478-5265
63215,310000401122,LAUREL-CONCORD-COLERIDGE HIGH SCHOOL,502 WAKEFIELD ST,LAUREL,NE,68745,0008,(402) 256-3731
93503,317242001112,KENESAW SECONDARY SCHOOL,110 N 5TH AVE,KENESAW,NE,68956,0129,(402) 752-3215
98026,317284001173,RANDOLPH ELEMENTARY SCHOOL,1024 S 37TH ST,LINCOLN,NE,68510,3599,(402) 436-1163
76504,310007701886,BENKELMAN ELEMENTARY SCHOOL,900 A ST,BENKELMAN,NE,69021,0586,(308) 423-2216
77689,317866001794,WESTSIDE HIGH SCHOOL WEST CAMPUS,3504 S 108TH ST,OMAHA,NE,68144,4910,(402) 390-8214
100718,317284001032,NORTH STAR HIGH SCHOOL,5801 N 33RD ST,LINCOLN,NE,68504,4665,(402) 436-1305
100783,310008501623,ST PAUL ELEMENTARY SCHOOL,1305 HOWARD AVE,ST PAUL,NE,68873,0325,(308) 754-4433
101276,317416001285,NEBRASKA CITY NORTHSIDE ELEM,1200 NORTH 14TH STREET,NEBRASKA CITY,NE,68410,2064,(402) 874-9193
105601,310018900154,SUMMERLAND ELEM SCH AT CLEARWATER,501 IOWA ST,CLEARWATER,NE,68726,0038,(402) 485-2505
105613,317011002414,WOODBROOK ELEMENTARY SCHOOL,18520 PURPLE MARTIN PARKWAY,ELKHORN,NE,68022,NOT AVAILABLE,(402) 289-2579
105624,317443002385,LITTLE PANTHERS PRESCHOOL,2500 W NORFOLK AVE,NORFOLK,NE,68701,NOT AVAILABLE,(402) 644-2500
221,310001102271,NEW DISCOVERIES PRESCHOOL,727 SOUTH 6TH AVENUE,BROKEN BOW,NE,68822,1718,(308) 872-5606
4776,317482002336,OPS VIRTUAL ELEMENTARY SCHOOL,3215 CUMING ST,OMAHA,NE,68131,2000,(531) 299-0269
6911,318008001970,EASTERN LEARNING CENTER,300 W EISENHOWER AVE,NORFOLK,NE,68702,1227,(402) 371-3454
12190,317374001256,NORRIS ELEMENTARY SCHOOL,12424 WEIR ST,OMAHA,NE,68137,2199,(402) 715-8340
12416,317284001174,RILEY ELEMENTARY SCHOOL,5021 ORCHARD ST,LINCOLN,NE,68504,3264,(402) 436-1164
12922,317482001431,ALICE BUFFETT MAGNET MS,14101 LARIMORE AVENUE,OMAHA,NE,68164,5135,(531) 299-2320
14757,317281001131,LEXINGTON HIGH SCHOOL,1400 MINUTEMAN DRIVE,LEXINGTON,NE,68850,1665,(308) 324-4691
18361,317482001938,KING ELEMENTARY SCHOOL,3706 MAPLE ST,OMAHA,NE,68111,3195,(402) 457-5723
18750,317718001631,SOUTHERN ELEMENTARY SCHOOL,315 W 2ND ST,BLUE SPRINGS,NE,68318,0158,(402) 645-3359
2259,317284001808,BRYAN COMMUNITY SCHOOL,300 SOUTH 48TH STREET,LINCOLN,NE,68510,1830,(402) 436-1308
4771,317482002339,OPS VIRTUAL MIDDLE SCHOOL,3230 BURT ST,OMAHA,NE,68131,2014,(531) 299-0269
5239,310017801758,SOUTHWEST JR/SR HIGH SCHOOL,900 COKE ST,BARTLEY,NE,69020,0187,(308) 692-3223
5309,317482001409,MILLER PARK ELEM SCHOOL,5625 N 28TH AVENUE,OMAHA,NE,68111,1765,(402) 457-5620
7909,317323002287,MADISON PRESCHOOL,405 E 8TH ST,MADISON,NE,68748,0450,(402) 454-2656
8235,310003401927,ASHLAND-GREENWOOD MIDDLE SCHOOL,1842 FURNAS ST,ASHLAND,NE,68003,1899,(402) 944-2114
60554,317665001597,SHICKLEY ELEMENTARY SCHOOL,104 E MURRAY,SHICKLEY,NE,68436,0407,(402) 627-3085
61396,310001601020,KNICKREHM ELEMENTARY SCHOOL,2013 N OAK ST,GRAND ISLAND,NE,68801,2463,(308) 385-5927
67219,317389001269,MITCHELL SECONDARY SCHOOL,1819 19TH AVE,MITCHELL,NE,69357,1199,(308) 623-1707
69322,317659001594,SHELBY - RISING CITY HIGH SCHOOL,650 N WALNUT,SHELBY,NE,68662,0218,(402) 527-5946
10270,317482001897,JACKSON ELEMENTARY SCHOOL,620 S 31ST ST,OMAHA,NE,68105,1474,(402) 344-7484
13119,310002201324,EISENHOWER ELEMENTARY SCHOOL,3900 WEST A ST,NORTH PLATTE,NE,69101,NOT AVAILABLE,(308) 535-7134
15759,310381000838,FAIRVIEW ELEMENTARY SCHOOL,14110 TREGARON DRIVE,BELLEVUE,NE,68123,3724,(402) 827-5950
16197,317482002015,EARLY CHILDHOOD CENTER AT GATEWAY,5810 S 42ND STREET,OMAHA,NE,68107,3103,(402) 561-6030
16335,317884001740,WINSIDE HIGH SCHOOL,203 CRAWFORD AVE,WINSIDE,NE,68790,5107,(402) 286-4465
17974,317590001544,WILDEWOOD ELEMENTARY SCHOOL,8071 RALSTON AVE,RALSTON,NE,68127,4209,(402) 331-6475
41910,317881001738,WINNEBAGO HIGH SCHOOL,202 OSBORNE ST,WINNEBAGO,NE,68071,NOT AVAILABLE,(402) 878-2224
41930,317802001673,VALENTINE MIDDLE SCHOOL,239 N WOOD,VALENTINE,NE,69201,1872,(402) 376-3367
47707,310016301773,CHASE COUNTY ELEMENTARY SCHOOL,520 E 9TH ST,IMPERIAL,NE,69033,0577,(308) 882-4228
48970,317866001711,HILLSIDE ELEMENTARY SCHOOL,7500 WESTERN AVE,OMAHA,NE,68114,1835,(402) 390-6450
49209,317647001580,ROOSEVELT ELEMENTARY SCHOOL,1306 9TH AVE,SCOTTSBLUFF,NE,69361,1609,(308) 635-6259
35942,317284002214,KOOSER ELEMENTARY SCHOOL,7301 N 13TH STREET,LINCOLN,NE,68521,4530,(402) 436-1146
36283,310009500181,CRETE ELEMENTARY SCHOOL,309 E 11TH ST,CRETE,NE,68333,2228,(402) 826-5822
50124,317284001149,GOODRICH MIDDLE SCHOOL,4600 LEWIS AVENUE,LINCOLN,NE,68521,2080,(402) 436-1213
50399,317344001217,MAYWOOD HIGH SCHOOL,1 TIGER DR,MAYWOOD,NE,69038,0046,(308) 362-4223
50415,310002401648,SUTHERLAND HIGH SCHOOL,401 WALNUT,SUTHERLAND,NE,69165,0217,(308) 386-4656
52022,317482001348,ADAMS ELEM SCHOOL,3420 N 78TH ST,OMAHA,NE,68134,5099,(402) 572-9072
53127,317527002209,PATRIOT ELEMENTARY,1701 HARDWOOD DR,PAPILLION,NE,68046,4502,(402) 898-0405
54734,317482001429,JOSLYN ELEM SCHOOL,11220 BLONDO ST,OMAHA,NE,68164,3820,(531) 299-1660
57114,310399002357,BENNINGTON MIDDLE SCHOOL,11201 NORTH 168 ST,BENNINGTON,NE,68007,NOT AVAILABLE,(402) 238-3082
57911,310013001182,CROSS COUNTY HIGH SCHOOL,1270 123RD RD,STROMSBURG,NE,68666,0525,(402) 764-5521
59745,317422001292,NELIGH-OAKDALE HIGH SCHOOL,600 J ST,NELIGH,NE,68756,0149,(402) 887-4166
94928,317867001726,WHEELER CENTRAL HIGH,600 RANDOLPH WEST,BARTLETT,NE,68622,0068,(308) 654-3273
99504,317557001498,PLAINVIEW SECONDARY SCHOOL,301 W PILCHER,PLAINVIEW,NE,68769,0638,(402) 582-4991
27264,317257001117,KIMBALL JR/SR HIGH SCHOOL,901 S NADINE ST,KIMBALL,NE,69145,1632,(308) 235-4861
82010,317284000755,SPECIAL ED YANKEE HILL PROGRAM,865 W BURNHAM,LINCOLN,NE,68522,2118,(402) 436-1927
88931,317872001727,ELEMENTARY SCHOOL AT WILBER,900 SOUTH FRANKLIN STREET,WILBER,NE,68465,0487,(402) 821-2141
89076,317005000922,ELGIN ELEMENTARY SCHOOL,101 N 4TH ST,ELGIN,NE,68636,0399,(402) 843-2455
72186,317356000256,TRYON ELEMENTARY,625 ANDERSON ST,TRYON,NE,69167,0068,(308) 587-2262
100509,310012202285,SANDY CREEK MIDDLE SCHOOL,30671 HIGHWAY 14,FAIRFIELD,NE,68938,0125,(402) 762-3561
100869,317482001362,CATLIN MAGNET CENTER,12736 MARINDA ST,OMAHA,NE,68144,2648,(402) 697-0414
105628,317482002408,EARLY LEARNING CENTER (0-3) AT KENNEDY,3200 NORTH 30TH STREET,OMAHA,NE,68111,3120,(402) 561-6190
105634,317718002379,3-YEAR-OLD PRESCHOOL,313 W 1ST STREET,BLUE SPRING,NE,68318,NOT AVAILABLE,(402) 645-3359
36520,317866001718,SUNSET HILLS ELEMENTARY SCHOOL,9503 WALNUT ST,OMAHA,NE,68124,1155,(402) 390-6480
12006,317563001516,SPRINGFIELD ELEMENTARY SCHOOL,765 MAIN ST,SPRINGFIELD,NE,68059,5700,(402) 253-2245
13196,317617001559,ROCK COUNTY HIGH SCHOOL,EAST HWY 20,BASSETT,NE,68714,0448,(402) 684-3411
16086,310277000003,ADAMS CENTRAL JR-SR HIGH SCH,1090 S ADAMS CENTRAL RD,HASTINGS,NE,68901,1088,(402) 463-3285
18655,310007000018,AMHERST ELEMENTARY SCHOOL,100 N SYCAMORE,AMHERST,NE,68812,0008,(308) 826-3131
60374,317284001154,HOLMES ELEMENTARY SCHOOL,5230 SUMNER ST,LINCOLN,NE,68506,1397,(402) 436-1143
64732,317894001743,WOOD RIVER ELEMENTARY SCHOOL,1003 LILLY ST,WOOD RIVER,NE,68883,0488,(308) 583-2525
64948,317011000928,SKYLINE ELEMENTARY SCHOOL,400 S 210TH ST,ELKHORN,NE,68022,NOT AVAILABLE,(402) 289-3433
66122,310010500100,BRIDGEPORT ELEMENTARY SCHOOL,800 Q ST,BRIDGEPORT,NE,69336,0430,(308) 262-1574
68208,317011001784,FIRE RIDGE ELEMENTARY SCHOOL,19660 FARNAM ST,ELKHORN,NE,68022,4837,(402) 289-0735
69432,310546000174,COZAD MIDDLE SCHOOL,1810 MERIDIAN AVE,COZAD,NE,69130,1130,(308) 784-2746
22754,310014101428,EMERSON-HUBBARD ELEMENTARY SCH,109 W THIRD ST,EMERSON,NE,68733,0009,(402) 695-2654
25183,310012400853,BRUNING-DAVENPORT HIGH SCHOOL,340 CARROLL ST,BRUNING,NE,68322,0070,(402) 353-4685
27742,310306000023,ANSLEY ELEMENTARY SCHOOL,1124 CAMERON ST,ANSLEY,NE,68814,NOT AVAILABLE,(308) 935-1121
28985,317824001686,WAKEFIELD HIGH SCHOOL,802 HIGHLAND,WAKEFIELD,NE,68784,0330,(402) 287-2012
29552,310009801001,LINCOLN ELEMENTARY SCHOOL,1725 13TH ST,GERING,NE,69341,NOT AVAILABLE,(308) 436-2350
93023,317482001378,FIELD CLUB ELEM SCHOOL,3512 WALNUT ST,OMAHA,NE,68105,2400,(531) 299-1380
95975,317284001168,EVERETT ELEMENTARY SCHOOL,1123 C ST,LINCOLN,NE,68502,1256,(402) 436-1159
96065,317011002305,ELKHORN GRANDVIEW MIDDLE SCHOOL,17801 GRAND AVENUE,OMAHA,NE,68116,3175,(402) 289-9399
96211,317284001032,NORTH STAR HIGH SCHOOL,5801 N 33RD ST,LINCOLN,NE,68504,4665,(402) 436-1305
96358,317659001593,SHELBY - RISING CITY ELEMENTARY SCHOOL,650 N WALNUT,SHELBY,NE,68662,0218,(402) 527-5946
98253,310002201325,JEFFERSON ELEMENTARY SCHOOL,700 E 3RD ST,NORTH PLATTE,NE,69101,NOT AVAILABLE,(308) 535-7136
54200,317854002318,WEEPING WATER MIDDLE SCHOOL,204 WEST O,WEEPING WATER,NE,68463,0203,(402) 267-2445
56766,317482002248,SECONDARY SUCCESS PROGRAM,5301 SOUTH 36 STREET,OMAHA,NE,68107,3261,(531) 299-2940
56769,310009701274,MORRILL HIGH SCHOOL,411 E HAMILTON,MORRILL,NE,69358,NOT AVAILABLE,(308) 247-2149
57876,317482001379,FLORENCE ELEM SCHOOL,4301 NORTH 30 STREET,OMAHA,NE,68111,2425,(531) 299-1400
58330,317551001495,PIERCE JR/SR HIGH SCHOOL,201 N SUNSET,PIERCE,NE,68767,1816,(402) 329-6217
59719,317482002280,GATEWAY ELEMENTARY,5610 SOUTH 42ND STREET,OMAHA,NE,68107,3103,(531) 299-1480
83343,317482001435,SPRING LAKE MAGNET CENTER,4215 S 20TH ST,OMAHA,NE,68107,2098,(402) 734-1833
84189,310016501790,DOUGLAS CO WEST ELEMENTARY SCH,400 S CENTER ST,VALLEY,NE,68064,0378,(402) 359-2151
89673,310001101882,BROKEN BOW MIDDLE SCHOOL,322 NORTH 9TH AVENUE,BROKEN BOW,NE,68822,1718,(308) 872-6441
71392,317380001263,MINATARE HIGH SCHOOL,1107 7TH ST,MINATARE,NE,69356,0425,(308) 783-1733
78311,310001000022,ANSELMO-MERNA HIGH SCHOOL,750 N CONWAY ST,MERNA,NE,68856,0068,(308) 643-2224
78684,310002201330,NORTH PLATTE HIGH SCHOOL,1220 WEST 2ND,NORTH PLATTE,NE,69103,1557,(308) 535-7105
4782,318013002331,GERING HEAD START,1725 13TH STREET,GERING,NE,69341,NOT AVAILABLE,(308) 633-4358
4784,318013002342,WESTERN NEBRASK CHILD DEV CENTER (WNCDC),3118 17TH AVE,SCOTTSBLUFF,NE,69361,NOT AVAILABLE,(308) 635-3231
5040,310004101625,STANTON ELEMENTARY SCHOOL,506 FIR ST,STANTON,NE,68779,0749,(402) 439-2639
8306,310007000019,AMHERST HIGH SCHOOL,100 N SYCAMORE,AMHERST,NE,68812,0008,(308) 826-3131
8466,310006601884,SILVER LAKE ELEM SCH-BLADEN,401 WEBSTER,BLADEN,NE,68928,0127,(402) 756-1311
9635,310360000063,PADDOCK LANE SCHOOL,1300 N 14TH ST,BEATRICE,NE,68310,2135,(402) 223-1566
47663,317826001688,WALLACE HIGH SCHOOL,151 N WALLACE RD,WALLACE,NE,69169,8016,(308) 387-4323
101654,317557001497,PLAINVIEW ELEMENTARY SCHOOL,301 W WOODLAND AVE,PLAINVIEW,NE,68769,0638,(402) 582-3808
82460,317374001834,ACKERMAN ELEMENTARY SCHOOL,5110 S 156TH ST,OMAHA,NE,68135,1008,(402) 715-8420
83484,310399002213,PINE CREEK ELEMENTARY,7801 N HWS CLEVELAND BLVD,BENNINGTON,NE,68007,2200,(402) 238-2372
92959,310015401728,NORTHEAST NE JUVENILE SERVICES,1313 1/2 N MAIN STREET,MADISON,NE,68748,0050,(402) 454-3955
96478,317443001305,BEL AIR ELEMENTARY SCHOOL,1101 N 18TH ST,NORFOLK,NE,68701,NOT AVAILABLE,(402) 644-2539
105618,317071002380,ESU #2 INDEPENDENT SCHOOL,1102 CO RD W,FREMONT,NE,68025,NOT AVAILABLE,(402) 721-1430
105627,317482002396,TRANSITION PROGRAM NORTH,3215 CUMING ST - 5TH FLOOR,OMAHA,NE,68131,NOT AVAILABLE,(531) 299-2960
50401,317044000948,FAIRBURY JR-SR HIGH SCHOOL,1501 9TH ST,FAIRBURY,NE,68352,2164,(402) 729-6116
53498,317905000405,YORK ELEMENTARY SCHOOL,1501 WASHINGTON AVE,YORK,NE,68467,4700,(402) 362-6655
53667,317122002264,WHITETAIL CREEK ELEMENTARY,19110 GREENLEAF STREET,OMAHA,NE,68136,1209,(402) 895-3388
55658,317443001950,WOODLAND PARK ELEMENTARY SCH,611 MEADOW LN,NORFOLK,NE,68701,NOT AVAILABLE,(402) 644-2565
2404,317158001057,RAYMOND A WATSON ELEM SCHOOL,1720 N CRANE,HASTINGS,NE,68901,2853,(402) 461-7593
4778,318009002335,18+ PROGRAM,5807 OSBORNE DRIVE WEST,HASTINGS,NE,68901,9158,(402) 463-5611
8134,317671001602,SIDNEY MIDDLE SCHOOL,1122 19TH AVE,SIDNEY,NE,69162,1930,(308) 254-5853
8307,317845001695,WAUSA ELEMENTARY SCHOOL,300 S BISMARK,WAUSA,NE,68786,2038,(402) 586-2255
38332,317161001058,HAY SPRINGS ELEMENTARY SCHOOL,407 N BAKER ST,HAY SPRINGS,NE,69347,0280,(308) 638-4434
39919,310018300908,HOWELLS-DODGE ELEMENTARY SCHOOL/DODGE,209 ASH STREET,DODGE,NE,68633,3564,(402) 693-2207
60915,317577001097,JACKSON ELEMENTARY,223 N JOHN ST,JACKSON,NE,68743,0067,(402) 632-4276
61310,310018502303,CENTRAL VALLEY PK - WOLBACH,610 KINGSTON AVENUE,WOLBACH,NE,68882,NOT AVAILABLE,(308) 428-3145
20299,317053001804,FALLS CITY MIDDLE SCHOOL,1415 MORTON ST,FALLS CITY,NE,68355,0129,(402) 245-3455
22976,317182001066,HERSHEY ELEMENTARY SCHOOL,301 S LINCOLN,HERSHEY,NE,69143,0369,(308) 368-5572
28145,310001200119,CALLAWAY ELEMENTARY SCHOOL,101 N NEEDHAM,CALLAWAY,NE,68825,5202,(308) 836-2272
12005,310011500572,NORTH BEND CENTRAL HIGH SCHOOL,1320 WALNUT ST,NORTH BEND,NE,68649,5016,(402) 652-3268
13791,317527001479,PARKVIEW HEIGHTS ELEM SCHOOL,7609 S 89TH ST,LA VISTA,NE,68128,2880,(402) 898-0433
16087,310007101662,HIGH SCHOOL AT TEKAMAH,112 N 13TH ST,TEKAMAH,NE,68061,1044,(402) 374-2156
74035,310001101861,NORTH PARK ELEMENTARY SCHOOL,1135 NORTH H STREET,BROKEN BOW,NE,68822,1299,(308) 872-2982
75678,310017902189,HTRS HIGH SCHOOL,810 CENTRAL AVE,HUMBOLDT,NE,68376,NOT AVAILABLE,(402) 862-2251
42623,310004701868,PINE RIDGE JOB CORPS,15710 HWY 385,CHADRON,NE,69337,7505,(308) 432-8650
43427,317458000209,1R ELEMENTARY,3301 W ONE-R ROAD,GRAND ISLAND,NE,68803,9331,(308) 385-6352
46034,317284001147,ELLIOTT ELEMENTARY SCHOOL,225 S 25TH ST,LINCOLN,NE,68510,1299,(402) 436-1136
12279,310381001878,LEONARD LAWRENCE ELEM SCHOOL,13204 S 29TH ST,BELLEVUE,NE,68123,1928,(402) 293-4880
19388,310410000086,BLAIR HIGH SCHOOL,440 N 10TH ST,BLAIR,NE,68008,0288,(402) 426-4941
880,311956002194,UMO N HO N NATION MIDDLE SCH,470 MAIN ST,MACY,NE,68039,0280,(402) 837-5622
4131,317281001130,BRYAN ELEMENTARY SCHOOL,1003 N HARRISON,LEXINGTON,NE,68850,1624,(308) 324-3762
4477,318013002347,BRIDGEPORT HEAD START,818 O STREET,BRIDGEPORT,NE,69336,NOT AVAILABLE,(308) 262-0507
5887,317482002360,OPS VIRTUAL HIGH SCHOOL,3230 BURT ST - RM 474B,OMAHA,NE,68131,2014,(531) 299-0269
93250,317482001414,MOUNT VIEW ELEM SCHOOL,5322 N 52ND ST,OMAHA,NE,68104,2271,(402) 457-5117
94167,310012200762,SANDY CREEK HIGH SCHOOL,30671 HWY 14,FAIRFIELD,NE,68938,2757,(402) 726-2151
94919,317566001523,PLATTSMOUTH HIGH SCHOOL,1916 OLD HWY 34,PLATTSMOUTH,NE,68048,5676,(402) 296-3322
96151,317284000681,ARTS & HUMANITIES FOCUS PRGM,643 S 25TH STE 9,LINCOLN,NE,68510,3099,(402) 436-1785
99709,317884001739,WINSIDE ELEMENTARY SCHOOL,203 CRAWFORD AVE,WINSIDE,NE,68790,5107,(402) 286-4466
80665,310017200725,UNION ELEMENTARY SCHOOL,47572 887TH ROAD,ATKINSON,NE,68713,4497,(402) 925-2435
81472,310001601021,LINCOLN ELEMENTARY SCHOOL,805 BEAL ST,GRAND ISLAND,NE,68801,2715,(308) 385-5924
81525,317044000946,CENTRAL ELEMENTARY SCHOOL,808 F ST,FAIRBURY,NE,68352,2011,(402) 729-2418
86531,317347001233,MC COOK ALTERNATIVE EDUCATION,404 WEST 7TH STREET,MC COOK,NE,69001,3628,(308) 345-5631
87274,317482000666,DRUID HILL ELEMENTARY SCHOOL,4020 N 30 STREET,OMAHA,NE,68111,2975,(402) 451-8225
87538,317194001074,HOLDREGE HIGH SCHOOL,600 12TH AVE,HOLDREGE,NE,68949,1859,(308) 995-6558
70152,317022000934,ELWOOD HIGH SCHOOL,502 FIRST AVE,ELWOOD,NE,68937,0107,(308) 785-2491
70722,317899001746,WYNOT HIGH SCHOOL,709 ST JAMES AVE,WYNOT,NE,68792,NOT AVAILABLE,(402) 357-2121
70771,317482001372,CRESTRIDGE MAGNET CENTER,818 CRESTRIDGE RD,OMAHA,NE,68154,3400,(531) 299-1280
71288,310354000055,BATTLE CREEK HIGH SCHOOL,605 WEST MARTIN ST,BATTLE CREEK,NE,68715,0100,(402) 675-3705
71573,317044001928,JEFFERSON INTERMEDIATE SCHOOL,924 K STREET,FAIRBURY,NE,68352,1735,(402) 729-5041
75658,317443001311,NORFOLK SENIOR HIGH SCHOOL,801 RIVERSIDE BLVD,NORFOLK,NE,68701,NOT AVAILABLE,(402) 644-2529
76115,317482001399,LEWIS & CLARK MIDDLE SCHOOL,6901 BURT ST,OMAHA,NE,68132,2694,(531) 299-2400
52352,310381001517,TWIN RIDGE ELEMENTARY SCHOOL,1400 SUNBURY DR,BELLEVUE,NE,68005,2998,(402) 293-4845
52523,310002201837,OSGOOD ELEMENTARY SCHOOL,495 W STATE FARM RD,NORTH PLATTE,NE,69101,7751,(308) 535-7144
53230,317284000695,ECSE - HOMEBASED,300 SOUTH 48TH STREET,LINCOLN,NE,68510,2889,(402) 436-1994
54199,317852002319,WAYNE EARLY LEARNING CENTER,803 PROVIDENCE RD SUNNYVIEW PL,WAYNE,NE,68787,NOT AVAILABLE,(402) 833-1450
56521,310017902190,HTRS MIDDLE SCHOOL,810 CENTRAL AVE,TABLE ROCK,NE,68447,0190,(402) 839-2085
58375,317476002298,PRAIRIE VIEW SCHOOL,801 EAST O STREET,OGALLALA,NE,69153,1755,(308) 284-6087
58757,310002201321,ADAMS MIDDLE SCHOOL,1200 S MC DONALD RD,NORTH PLATTE,NE,69103,1557,(308) 535-7112
32763,317002000921,ELBA SECONDARY SCHOOL,711 CAROLINE ST,ELBA,NE,68835,0100,(308) 863-2228
34657,317569001527,PLEASANTON HIGH SCHOOL,303 CHURCH ST,PLEASANTON,NE,68866,0190,(308) 388-2041
36169,310008901468,PALMER JUNIOR-SENIOR HIGH,202 COMMERCIAL ST,PALMER,NE,68864,0248,(308) 894-3065
38018,310009500181,CRETE ELEMENTARY SCHOOL,309 E 11TH ST,CRETE,NE,68333,2228,(402) 826-5822
39867,310016601796,UTA HALEE ACADEMY PROGRAM,10625 CALHOUN ROAD,OMAHA,NE,68112,0034,(402) 905-9655
61678,317374001259,WALT DISNEY ELEMENTARY SCHOOL,5717 S 112TH ST,OMAHA,NE,68137,3652,(402) 715-2350
21851,317011002239,WEST DODGE STATION ELEMENTARY,18480 CALIFORNIA ST,ELKHORN,NE,68022,3902,(402) 289-2773
26515,317647001119,LAKE MINATARE SCHOOL,280548 COUNTY ROAD K,MINATARE,NE,69356,4302,(308) 783-1134
28146,310002902032,SUPERIOR SR HIGH SCHOOL,601 W 8TH ST,SUPERIOR,NE,68978,0288,(402) 879-3257
29489,317281001133,MORTON ELEMENTARY SCHOOL,505 S LINCOLN,LEXINGTON,NE,68850,2441,(308) 324-3764
45843,317239002265,BUFFALO HILLS ELEMENTARY,6110 11TH AVENUE,KEARNEY,NE,68845,2303,(308) 698-8290
47118,310009801003,NORTHFIELD ELEMENTARY SCHOOL,1900 FLATEN AVE,GERING,NE,69341,1850,(308) 436-5555
48028,317122000257,GRETNA MIDDLE SCHOOL,11705 SOUTH 216TH STREET,GRETNA,NE,68028,4729,(402) 332-3048
49665,310306000024,ANSLEY HIGH SCHOOL,1124 CAMERON ST,ANSLEY,NE,68814,NOT AVAILABLE,(308) 935-1121
105636,317812001679,VERDIGRE HIGH SCHOOL,201 SOUTH 3RD ST,VERDIGRE,NE,68783,NOT AVAILABLE,(402) 668-2275
2065,310291001854,ALLIANCE EARLY CHILD ED PROG,616 BLACK HILLS AVENUE,ALLIANCE,NE,69301,NOT AVAILABLE,(308) 762-4425
2362,310002201328,MCDONALD ELEMENTARY SCHOOL,601 MC DONALD RD,NORTH PLATTE,NE,69101,NOT AVAILABLE,(308) 535-7140
3005,317374001251,MILLARD SOUTH HIGH SCHOOL,14905 Q ST,OMAHA,NE,68137,2599,(402) 715-8268
5122,317581001914,POTTER-DIX ELEMENTARY SCHOOL,304 HORRUM ST,DIX,NE,69133,0149,(308) 682-5226
5719,317071001331,BELL FIELD ELEMENTARY SCHOOL,1240 E 11TH STREET,FREMONT,NE,68025,4321,(402) 727-3178
8081,317698001622,ST EDWARD HIGH SCHOOL,601 CLARK ST,ST EDWARD,NE,68660,0138,(402) 678-2282
8388,317482001394,MASTERS ELEM SCHOOL,5505 N 99TH ST,OMAHA,NE,68134,1599,(402) 572-1027
8904,318001000134,TOWER SCHOOL,901 E 14TH ST,WAYNE,NE,68787,1201,(402) 375-3005
9846,317686001616,SOUTH SIOUX HIGH SCHOOL,3301 G ST,SO SIOUX CITY,NE,68776,3467,(402) 494-2433
75632,317443000303,NORFOLK MIDDLE SCHOOL,1221 N 1ST ST,NORFOLK,NE,68701,NOT AVAILABLE,(402) 644-2569
89126,317503001460,OSMOND HIGH SCHOOL,202 W PRAIRIE ST,OSMOND,NE,68765,0458,(402) 748-3777
89605,317158001054,LINCOLN ELEMENTARY SCHOOL,720 S FRANKLIN,HASTINGS,NE,68901,5806,(402) 461-7589
30647,310001601029,WEST LAWN ELEMENTARY SCHOOL,3022 COLLEGE ST,GRAND ISLAND,NE,68803,1749,(308) 385-5930
33131,317482001353,BELVEDERE ELEMENTARY SCHOOL,3775 CURTIS AVE,OMAHA,NE,68111,1169,(402) 457-6630
33921,317482001422,PINEWOOD ELEM SCHOOL,4301 NORTH 30TH ST,OMAHA,NE,68111,2425,(531) 299-1940
35007,318008001971,CENTRAL LEARNING CENTER,402 P ST,NELIGH,NE,68756,0089,(402) 887-5559
38990,317173001063,HEMINGFORD HIGH SCHOOL,911 NIOBRARA ST,HEMINGFORD,NE,69348,0217,(308) 487-3328
66067,317371001238,MILFORD ELEMENTARY SCHOOL,1200 WEST 1ST STREET,MILFORD,NE,68405,0613,(402) 761-2408
68751,317482001402,LOTHROP MAGNET CENTER,3300 NORTH 22 STREET,OMAHA,NE,68110,1988,(531) 299-1780
105607,310277002370,ADAMS CENTRAL ELEMENTARY SCHOOL,975 S ADAMS CENTRAL AVE,HASTINGS,NE,68901,NOT AVAILABLE,(402) 463-0040
105632,317482002412,REMOTE LEARNING MIDDLE SCHOOL,3215 CUMING STREET,OMAHA,NE,68131,2024,(531) 299-0220
24264,310004101626,STANTON HIGH SCHOOL,1007 KINGWOOD ST,STANTON,NE,68779,0749,(402) 439-2250
91231,310017402004,NEBRASKA YOUTH ACADEMY,5845 HUNTINGTON AVE,LINCOLN,NE,68507,NOT AVAILABLE,(402) 471-1646
91546,310279000202,AINSWORTH MIDDLE SCHOOL,520 E 2ND ST,AINSWORTH,NE,69210,0065,(402) 387-2082
92994,310381001507,CHAP CENTER,1201 GREGG RD,BELLEVUE,NE,68005,4964,(402) 293-4930
94143,317527002192,PORTAL ELEMENTARY SCHOOL,9920 BRENTWOOD DR,LA VISTA,NE,68128,4240,(402) 898-0425
94185,317323001205,MADISON ELEMENTARY SCHOOL,405 E 8TH ST,MADISON,NE,68748,0450,(402) 454-2656
96066,317152001297,HARTINGTON-NEWCASTLE ELEM AT NEWCASTLE,509 ANNIE ST,NEWCASTLE,NE,68757,0187,(402) 355-2231
96273,310008501623,ST PAUL ELEMENTARY SCHOOL,1305 HOWARD AVE,ST PAUL,NE,68873,0325,(308) 754-4433
98555,317719001633,STERLING ELEMENTARY SCHOOL,250 MAIN ST,STERLING,NE,68443,0039,(402) 866-4761
99287,317866001724,WESTSIDE HIGH SCHOOL,8701 PACIFIC STREET,OMAHA,NE,68114,5200,(402) 343-2600
99374,317563001902,PLATTEVIEW CENTRAL JR HIGH SCHOOL,14801 S 108TH ST,SPRINGFIELD,NE,68059,0365,(402) 339-5052
99818,317566000426,PLATTSMOUTH ELEMENTARY SCHOOL,1724 8TH AVE,PLATTSMOUTH,NE,68048,2359,(402) 296-4173
99970,317521001469,ELEMENTARY AT BENNET,50 DOGWOOD,BENNET,NE,68317,2029,(402) 782-3535
46893,317347001221,MC COOK JUNIOR HIGH SCHOOL,800 W 7TH ST,MC COOK,NE,69001,3080,(308) 345-6940
47499,310008801316,NORRIS ELEMENTARY SCHOOL,25211 S 68TH ST,FIRTH,NE,68358,9732,(402) 791-0030
49485,317826001687,WALLACE ELEMENTARY SCHOOL,151 N WALLACE RD,WALLACE,NE,69169,8016,(308) 387-4323
54197,310001602324,CAREER PATHWAYS INSTITUTE,1215 ADAMS STREET,GRAND ISLAND,NE,68801,7172,(308) 385-5601
57836,310016501787,DOUGLAS CO WEST MIDDLE SCHOOL,401 S PINE ST,VALLEY,NE,68064,0378,(402) 779-2646
59007,317719001634,STERLING HIGH SCHOOL,250 MAIN ST,STERLING,NE,68443,0039,(402) 866-4761
59718,310018502299,CENTRAL VALLEY ELEM - SCOTIA,303 N INDIAN,SCOTIA,NE,68875,NOT AVAILABLE,(308) 428-3145
11145,317065000968,FORT CALHOUN ELEMENTARY SCHOOL,1120 MONROE ST,FORT CALHOUN,NE,68023,0430,(402) 468-5714
11913,317137001041,HAMPTON ELEMENTARY SCHOOL,458 5TH ST,HAMPTON,NE,68843,9211,(402) 725-3116
12328,310333000038,AUBURN HIGH SCHOOL,1829 CENTRAL AVE,AUBURN,NE,68305,1713,(402) 274-4328
12343,310005101873,GENEVA NORTH ELEMENTARY SCHOOL,2801 30TH AVENUE,KEARNEY,NE,68845,4035,(308) 338-2011
12452,317617001559,ROCK COUNTY HIGH SCHOOL,EAST HWY 20,BASSETT,NE,68714,0448,(402) 684-3411
41290,310008000016,ALMA ELEMENTARY AT ALMA,515 JEWELL ST,ALMA,NE,68920,0170,(308) 928-2131
42769,317284001150,HARTLEY ELEMENTARY SCHOOL,730 N 33RD ST,LINCOLN,NE,68503,3298,(402) 436-1139
43802,318013001986,MERIDIAN SCHOOL,4215 AVENUE I,SCOTTSBLUFF,NE,69361,4901,(308) 635-3696
44180,467209000503,KLEIN ELEMENTARY - 08,28959 299TH ST,VALENTINE,NE,69201,NOT AVAILABLE,(605) 378-3854
44731,310001500121,CAMBRIDGE ELEMENTARY SCHOOL,1003 NELSON ST,CAMBRIDGE,NE,69022,0100,(308) 697-3322
44806,317239000329,MEADOWLARK ELEMENTARY SCHOOL,1010 E 53RD ST,KEARNEY,NE,68847,8599,(308) 698-8210
45319,317350001227,MCCOOL JUNCTION JR-SR HIGH SCH,209 SOUTH GRAGAN AVE,MCCOOL JUNCTION,NE,68401,0278,(402) 724-2231
45787,310002201327,MADISON MIDDLE SCHOOL,1400 N MADISON,NORTH PLATTE,NE,69101,NOT AVAILABLE,(308) 535-7126
46833,317284001170,POUND MIDDLE SCHOOL,4740 S 45TH ST,LINCOLN,NE,68516,1799,(402) 436-1217
48204,310017802188,SOUTHWEST ELEMENTARY-INDIANOLA,719 E ST,INDIANOLA,NE,69034,3461,(308) 364-2613
49840,310342000046,AXTELL ELEMENTARY SCHOOL,500 MAIN ST,AXTELL,NE,68924,0097,(308) 743-2415
49881,317482002258,ESL TEEN LITERACY PROGRAM,3230 BURT ST,OMAHA,NE,68131,2014,(531) 299-2620
50795,317305001191,LOUISVILLE ELEMENTARY SCHOOL,202 W 3RD,LOUISVILLE,NE,68037,0489,(402) 234-4215
50891,317894001560,WOOD RIVER RURAL MIDDLE SCHOOL,13800 W WOOD RIVER RD,WOOD RIVER,NE,68883,0518,(308) 583-2249
52308,310312000028,ARCADIA HIGH SCHOOL,320 W OWENS ST,ARCADIA,NE,68815,0248,(308) 789-6522
55853,317284002329,WYSONG ELEMENTARY,7901 BLANCHARD BOULEVARD,LINCOLN,NE,68516,NOT AVAILABLE,(402) 436-1185
57663,310018702354,BOYD COUNTY HIGH SCHOOL (SPENCER),106 E GREIG ST,SPENCER,NE,68777,0109,(402) 589-1333
58108,317443001040,ALTERNATIVES FOR SUCCESS SCH,601 W CEDAR AVE,NORFOLK,NE,68701,NOT AVAILABLE,(402) 379-7565
58798,317482001416,OMAHA NORTH MAGNET HIGH SCHOOL,4410 N 36TH ST,OMAHA,NE,68111,2217,(402) 557-3400
36680,318008001971,CENTRAL LEARNING CENTER,402 P ST,NELIGH,NE,68756,0089,(402) 887-5559
2685,317656001590,SEWARD ELEMENTARY SCHOOL,200 E PINEWOOD,SEWARD,NE,68434,2541,(402) 643-2968
4132,310013301344,EXETER-MILLIGAN HIGH SCHOOL,318 S RIVER AVE,EXETER,NE,68351,0139,(402) 266-5911
8408,317011002182,ELKHORN RIDGE MIDDLE SCHOOL,17880 MARCY ST,OMAHA,NE,68118,3556,(402) 334-9302
8669,317698001622,ST EDWARD HIGH SCHOOL,601 CLARK ST,ST EDWARD,NE,68660,0138,(402) 678-2282
8733,317002000920,ELBA ELEMENTARY SCHOOL,711 CAROLINE ST,ELBA,NE,68835,0100,(308) 863-2228
22857,317482001374,DODGE ELEM SCHOOL,3520 MAPLEWOOD BLVD,OMAHA,NE,68134,4562,(531) 299-1300
28942,317323001206,MADISON HIGH SCHOOL,700 S KENT,MADISON,NE,68748,0450,(402) 454-3336
11550,317053000961,FALLS CITY SOUTH ELEMENTARY,1000 FULTON ST,FALLS CITY,NE,68355,3098,(402) 245-4067
12065,317482000300,OMAHA PUBLIC SCHOOLS HOMEBASED,3215 CUMING ST,OMAHA,NE,68131,2000,(402) 557-2420
18348,317485001447,O'NEILL ELEMENTARY SCHOOL,1700 N 4TH,O'NEILL,NE,68763,0230,(402) 336-1400
18409,317374000995,YOUNG ADULT PROGRAM,12820 N STREET,OMAHA,NE,68137,2072,(402) 715-6330
91700,317284001168,EVERETT ELEMENTARY SCHOOL,1123 C ST,LINCOLN,NE,68502,1256,(402) 436-1159
92938,317434001299,NEWMAN GROVE ELEMENTARY SCHOOL,703 HALE AVE,NEWMAN GROVE,NE,68758,0370,(402) 447-6051
98481,317383001265,MINDEN EAST ELEMENTARY SCHOOL,123 N MINDEN AVE,MINDEN,NE,68959,0301,(308) 832-2460
70129,317374000667,ROHWER ELEMENTARY SCHOOL,17701 F ST,OMAHA,NE,68135,2503,(402) 715-6225
76901,317284001157,KAHOA ELEMENTARY SCHOOL,7700 LEIGHTON ST,LINCOLN,NE,68507,2999,(402) 436-1147
61710,318003000409,BROOK VALLEY SCHOOL,6949 S 110TH ST,LAVISTA,NE,68128,5722,(402) 597-4800
61785,310017200037,ATKINSON ELEMENTARY SCHOOL,1000 N MAIN,ATKINSON,NE,68713,0457,(402) 925-5483
65928,317482001937,BANCROFT ELEMENTARY,2724 RIVERVIEW BLVD,OMAHA,NE,68108,1699,(402) 344-7505
66861,310495000137,SECONDARY SCH AT RAYMOND,1800 W AGNEW RD,RAYMOND,NE,68428,9783,(402) 785-2685
67047,317482001397,KELLOM ELEMENTARY SCHOOL,1311 N 24TH ST,OMAHA,NE,68102,4098,(402) 344-0441
69125,317593001545,RANDOLPH ELEMENTARY SCHOOL,309 N BRIDGE ST,RANDOLPH,NE,68771,0755,(402) 337-0385
80573,310487000126,CEDAR BLUFFS SECONDARY SCHOOL,110 E MAIN ST,CEDAR BLUFFS,NE,68015,0066,(402) 628-2080
85991,317527001900,ANDERSON GROVE ELEMENTARY SCH,11820 S 37TH ST,BELLEVUE,NE,68123,1233,(402) 898-0479
89561,317596001549,RAVENNA SENIOR HIGH,41750 CARTHAGE RD,RAVENNA,NE,68869,8400,(308) 452-3249
100104,310534000167,NORTH PARK ELEMENTARY,2200 31ST ST,COLUMBUS,NE,68602,0947,(402) 563-7070
105625,317482002391,INTEGRATED LEARNING PROGRAM AT SARATOGA,2504 MEREDITH AVE,OMAHA,NE,68111,2390,(531) 299-2840
105649,318013002402,NORTHFIELD HEAD START,1900 FLATEN AVE,GERING,NE,69341,NOT AVAILABLE,(308) 633-3712
23153,310528002306,CODY-KILGORE MIDDLE SCHOOL,360 WEST 4TH STREET,CODY,NE,69211,NOT AVAILABLE,(402) 823-4117
26330,317899002117,WYNOT MIDDLE SCHOOL,709 ST JAMES AVE,WYNOT,NE,68792,NOT AVAILABLE,(402) 357-2121
29140,317482002007,EARLY CHILDHOOD CENTER AT EDUCARE - KELLOM,2123 PAUL STREET,OMAHA,NE,68102,4045,(402) 898-1783
750,317527002322,PRAIRIE QUEEN ELEMENTARY,10520 S 123RD AVENUE,PAPILLION,NE,68046,4393,(402) 514-3650
2787,317284001177,HILL ELEMENTARY SCHOOL,5230 TIPPERARY TRAIL,LINCOLN,NE,68512,1459,(402) 436-1142
4391,310009502345,CRETE INTERMEDIATE SCHOOL,1700 GLENWOOD AVE,CRETE,NE,68333,1869,(402) 826-5833
7262,310009100990,FULLERTON HIGH SCHOOL,606 4TH ST,FULLERTON,NE,68638,0520,(308) 536-2431
9836,317872001729,WILBER-CLATONIA HIGH SCHOOL,900 SOUTH FRANKLIN STREET,WILBER,NE,68465,0487,(402) 821-2058
15523,310492000133,CENTRAL CITY ELEMENTARY SCHOOL,1711 15TH AVE,CENTRAL CITY,NE,68826,0057,(308) 946-3057
18805,317773001663,THEDFORD HIGH SCHOOL,304 MAPLE ST,THEDFORD,NE,69166,0248,(308) 645-2230
19713,310000300918,HIGH SCHOOL AT BRAINARD,212 S MADISON,BRAINARD,NE,68626,0036,(402) 545-2081
100882,317284000373,CAMPBELL ELEMENTARY SCHOOL,2200 DODGE ST,LINCOLN,NE,68521,1250,(402) 436-1129
105620,317284002374,MIDDLE SCHOOL STUDENT SUPPORT PROGRAM,1801 SOUTH 40TH STREET,LINCOLN,NE,68506,2235,(402) 436-1694
52179,310528000156,CODY-KILGORE ELEMENTARY SCHOOL,100 NTH BURLINGTON STREET,KILGORE,NE,69216,0058,(402) 966-2291
53114,310001502316,CAMBRIDGE MIDDLE SCHOOL,1003 NELSON STREET,CAMBRIDGE,NE,69022,NOT AVAILABLE,(308) 697-3322
54735,310410000088,BLAIR SOUTH ELEMENTARY SCHOOL,1616 BUTLER ST,BLAIR,NE,68008,0288,(402) 426-2229
56884,317482001357,BOYD ELEM SCHOOL,8314 BOYD ST,OMAHA,NE,68134,4267,(531) 299-1140
59379,310007200188,LEYTON HIGH SCHOOL,504 MAIN ST,DALTON,NE,69131,0297,(308) 377-2301
80021,310313000029,ARLINGTON ELEMENTARY SCHOOL,705 N 9TH,ARLINGTON,NE,68002,0580,(402) 478-4121
85711,310591000197,DESHLER ELEMENTARY SCHOOL,1402 3RD ST,DESHLER,NE,68340,0547,(402) 365-7272
86851,317239000425,SUNRISE MIDDLE SCHOOL,4611 AVE N,KEARNEY,NE,68847,8160,(308) 698-8150
87358,310010902208,SO VALLEY ELEMENTARY SCHOOL,43737 HWY 89,OXFORD,NE,68967,2711,(308) 868-2222
90867,317005000923,ELGIN HIGH SCHOOL,101 N 4TH ST,ELGIN,NE,68636,0399,(402) 843-2455
90868,317482001387,HIGHLAND ELEM SCHOOL,2625 JEFFERSON ST,OMAHA,NE,68107,4135,(402) 734-5711
93507,310381001501,BELLEVUE EAST SR HIGH SCHOOL,1401 HIGH SCHOOL DR,BELLEVUE,NE,68005,3274,(402) 293-4150
99760,317360001810,MEDICINE VALLEY ELEMENTARY,605 ORD AVE,CURTIS,NE,69025,0065,(308) 367-4210
45191,310429000098,BRADY ELEMENTARY SCHOOL,112 E POPLETON AVE,BRADY,NE,69123,0068,(308) 584-3317
47077,317482001363,CENTRAL HIGH SCHOOL,124 N 20TH ST,OMAHA,NE,68102,4895,(402) 557-3300
47463,317482001415,NORRIS MIDDLE SCHOOL,2235 S 46TH ST,OMAHA,NE,68106,3399,(531) 299-2500
30742,317866001723,WESTGATE ELEMENTARY SCHOOL,7802 HASCALL,OMAHA,NE,68124,3413,(402) 390-6495
32123,310015701831,PERKINS COUNTY ELEMENTARY SCH,419 LOGAN AVE,GRANT,NE,69140,0809,(308) 352-4313
32800,317866001715,PRAIRIE LANE ELEMENTARY SCHOOL,11444 HASCALL,OMAHA,NE,68144,4507,(402) 390-6470
33069,310007601585,SCRIBNER-SNYDER SECONDARY SCH,400 PEBBLE,SCRIBNER,NE,68057,0549,(402) 664-2567
34214,310410000087,BLAIR NORTH ELEMENTARY SCHOOL,1326 PARK ST,BLAIR,NE,68008,0288,(402) 426-3835
34274,310501000142,CHAMBERS ELEMENTARY SCHOOL,201 SOUTH A ST,CHAMBERS,NE,68725,0218,(402) 482-5233
34921,310009500182,CRETE HIGH SCHOOL,1750 IRIS AVE,CRETE,NE,68333,1909,(402) 826-5811
61018,310017202260,WEST HOLT LITTLE PAWS PRESCHOOL,1000 N MAIN STREET,ATKINSON,NE,68713,0457,(402) 925-2848
63484,317482001783,STANDING BEAR ELEMENTARY SCH,15860 TAYLOR STREET,OMAHA,NE,68116,2473,(402) 827-4362
66121,310006701043,BANNER COUNTY ELEMENTARY SCHOOL,200 SCHOOL ST,HARRISBURG,NE,69345,0005,(308) 436-5262
72868,310011800734,FILLMORE CENTRAL MIDDLE SCHOOL,950 F ST,FAIRMONT,NE,68354,0157,(402) 268-3411
74211,317284001146,EASTRIDGE ELEMENTARY SCHOOL,6245 L ST,LINCOLN,NE,68510,2396,(402) 436-1135
74678,317494001454,ORD JR-SR HIGH SCHOOL,1800 K ST,ORD,NE,68862,1355,(308) 728-3241
75761,317014000929,ELM CREEK ELEMENTARY SCHOOL,230 EAST CALKINS AVENUE,ELM CREEK,NE,68836,0490,(308) 856-4300
10032,310009702206,TRI COMMUNITY PRESCHOOL,508 JEFFERSON AVE,MORRILL,NE,69358,NOT AVAILABLE,(308) 247-3413
18140,317482001380,FONTENELLE ELEM SCHOOL,3905 N 52ND ST,OMAHA,NE,68104,2999,(402) 457-5905
50185,317239001104,HORIZON MIDDLE SCHOOL,915 W 35TH ST,KEARNEY,NE,68845,8099,(308) 698-8120
50274,317239001102,CENTRAL ELEMENTARY SCHOOL,300 W 24TH ST,KEARNEY,NE,68845,5345,(308) 698-8040
50275,317299001189,LOOMIS ELEMENTARY SCHOOL,101 BRYAN ST,LOOMIS,NE,68958,NOT AVAILABLE,(308) 876-2111
52189,310354000054,BATTLE CREEK ELEMENTARY SCHOOL,305 S 4TH,BATTLE CREEK,NE,68715,0100,(402) 675-8085
55265,317482001352,BELLE RYAN ELEM SCHOOL,5616 L STREET,OMAHA,NE,68117,2166,(531) 299-1080
43968,317374001255,NEIHARDT ELEMENTARY SCHOOL,15130 DREXEL,OMAHA,NE,68137,3899,(402) 715-8360
44812,310018102199,ALEGENT/IMMANUEL RTC,6845 N 68TH PLAZA,OMAHA,NE,68122,1709,(402) 572-2040
47715,317437001655,NIOBRARA ELEMENTARY SCHOOL,247 N HWY 12,NIOBRARA,NE,68760,0310,(402) 857-3323
49315,317374001250,MILLARD CENTRAL MIDDLE SCHOOL,12801 L ST,OMAHA,NE,68137,2099,(402) 715-8225
49622,317852001701,WAYNE JUNIOR HIGH SCHOOL,611 WEST 7TH STREET,WAYNE,NE,68787,1715,(402) 375-3150
1301,317458000253,CEDAR HOLLOW SCHOOL,4900 S ENGLEMAN RD,GRAND ISLAND,NE,68803,NOT AVAILABLE,(308) 385-6306
3489,317374001813,HARVEY OAKS ELEMENTARY SCHOOL,15228 SHIRLEY ST,OMAHA,NE,68144,1970,(402) 715-1386
4476,318013002343,KIMBALL HEAD START,301 S HOWARD STREET,KIMBALL,NE,69145,NOT AVAILABLE,(308) 235-3048
5038,317482001438,R M MARRS MAGNET MIDDLE SCHOOL,5619 S 19TH STREET,OMAHA,NE,68107,3699,(531) 299-2420
6564,310498000139,CHADRON PRIMARY,732 ANN ST,CHADRON,NE,69337,2776,(308) 432-0710
8192,317527001901,HICKORY HILL ELEMENTARY SCH,1307 ROGERS DR,PAPILLION,NE,68046,6143,(402) 898-0469
8939,317071000436,STUDENT SERVICE CENTER,130 E 9TH STREET,FREMONT,NE,68025,1401,(402) 727-3084
9256,317374002198,UPCHURCH ELEMENTARY,8686 S 165TH ST,OMAHA,NE,68136,1355,(402) 715-7150
20924,317239002253,KEARNEY EDUCATION CENTER,1511 5TH AVENUE,KEARNEY,NE,68845,5924,(308) 698-8033
26959,317071000978,FREMONT MIDDLE SCHOOL,540 JOHNSON RD,FREMONT,NE,68025,4101,(402) 727-3100
28007,317239001109,PARK ELEMENTARY SCHOOL,3000 7TH AVE,KEARNEY,NE,68845,3386,(308) 698-8280
31064,310007701999,STRATTON ELEMENTARY SCHOOL,605 BAILEY ST,STRATTON,NE,69043,0324,(308) 276-2281
31585,310001602235,SUCCESS ACADEMY,1912 N LAFAYETTE AVE,GRAND ISLAND,NE,68803,2045,(308) 385-5885
90434,310017001839,GORDON-RUSHVILLE HIGH SCHOOL,810 N OAK ST,GORDON,NE,69343,0530,(308) 282-1322
90480,310002501665,ELKHORN VALLEY HIGH SCHOOL,601 S MADISON STREET,TILDEN,NE,68781,0430,(402) 368-5301
93317,310597000201,TRI COUNTY JR-SR HIGH SCHOOL,72520 HWY 103,DEWITT,NE,68341,4502,(402) 683-2015
96070,317482002314,TRANSITION PROGRAM AT UNMC NEBRASKA MEDICINE,MUNROE MEYER BUILDING; 444 S 4,OMAHA,NE,68104,NOT AVAILABLE,(531) 299-9490
96761,317527001475,LA VISTA MIDDLE SCHOOL,7900 EDGEWOOD BLVD,LA VISTA,NE,68128,2718,(402) 898-0436
71262,317662001595,SHELTON ELEMENTARY SCHOOL,210 9TH ST,SHELTON,NE,68876,0610,(308) 647-6558
81024,317284001160,LINCOLN HIGH SCHOOL,2229 J ST,LINCOLN,NE,68510,2933,(402) 436-1301
81061,310000601706,WEST POINT ELEMENTARY SCHOOL,1200 EAST WASHINGTON,WEST POINT,NE,68788,2505,(402) 372-5507
83366,310399000078,BENNINGTON HIGH SCHOOL,16610 BENNINGTON ROAD,BENNINGTON,NE,68007,0265,(402) 238-2447
88035,317284002225,INFANT TODDLER AT LINCOLN NORTH STAR HIGH SCHOOL,5801 N 33 ST,LINCOLN,NE,68504,4665,(402) 436-1305
100276,317404002405,MULLEN MIDDLE SCHOOL,404 N BLAINE,MULLEN,NE,69152,0127,(308) 546-2223
101392,317527001481,TARA HEIGHTS ELEMENTARY SCHOOL,700 TARA RD,PAPILLION,NE,68046,2134,(402) 898-0445
105594,310002902416,SUPERIOR MIDDLE SCHOOL,601 WEST 8TH ST,SUPERIOR,NE,68978,0288,(402) 879-3257
105643,318003002398,ESU 3 HEAD START - BELLEVUE WEST,1501 THURSTON AVE,BELLEVUE,NE,68123,NOT AVAILABLE,(402) 827-1869
41361,317359001230,MEAD ELEMENTARY SCHOOL,115 N ELM,MEAD,NE,68041,0158,(402) 624-6465
43214,310008000016,ALMA ELEMENTARY AT ALMA,515 JEWELL ST,ALMA,NE,68920,0170,(308) 928-2131
45379,317665001598,SHICKLEY HIGH SCHOOL,104 E MURRAY,SHICKLEY,NE,68436,0407,(402) 627-3375
52729,317374001248,HOLLING HEIGHTS ELEM SCHOOL,6565 S 136TH ST,OMAHA,NE,68137,4199,(402) 715-8330
55160,310546000173,COZAD HIGH SCHOOL,1710 MERIDIAN AVE,COZAD,NE,69130,1165,(308) 784-2744
58644,310009600987,FRIEND ELEMENTARY SCHOOL,501 MAIN ST,FRIEND,NE,68359,0067,(402) 947-2781
30793,310000801733,WISNER-PILGER ELEM SCHOOL,801 18TH ST,WISNER,NE,68791,0580,(402) 529-6465
38758,317617000212,BASSETT GRADE SCHOOL,202 E FLORENCE,BASSETT,NE,68714,0407,(402) 684-3855
23101,317200001083,HOMER HIGH SCHOOL,212 S 3RD,HOMER,NE,68030,0340,(402) 698-2377
25196,317071000973,CLARMAR ELEMENTARY SCHOOL,1865 E 19TH ST,FREMONT,NE,68025,3227,(402) 727-3175
25430,317420001290,CONESTOGA JR/SR HIGH SCHOOL,8404 42ND ST,MURRAY,NE,68409,0040,(402) 235-2271
61222,310381001511,LOGAN FONTENELLE MIDDLE SCHOOL,701 KAYLEEN DR SOUTH,BELLEVUE,NE,68005,2399,(402) 293-4360
63849,317645001575,SCHUYLER CENTRAL HIGH SCHOOL,401 ADAM ST,SCHUYLER,NE,68661,2400,(402) 352-2421
67483,310464000112,BURWELL JR-SR HIGH SCHOOL,190 I ST,BURWELL,NE,68823,0670,(308) 346-4150
69496,317284000389,MAXEY ELEMENTARY SCHOOL,5200 S 75TH ST,LINCOLN,NE,68516,4360,(402) 436-1153
69976,317347001223,MC COOK ELEMENTARY SCHOOL,1500 W 3RD ST,MC COOK,NE,69001,2152,(308) 345-5681
91447,317482001437,SUNNY SLOPE ELEM SCHOOL,10828 OLD MAPLE RD,OMAHA,NE,68164,2800,(531) 299-2160
92082,310333000039,AUBURN MIDDLE SCHOOL,1829 CENTRAL AVE,AUBURN,NE,68305,1713,(402) 274-4328
93439,317098001006,GIBBON HIGH SCHOOL,1030 COURT STREET,GIBBON,NE,68840,0790,(308) 468-5721
93991,310007201879,LEYTON ELEMENTARY/JUNIOR HIGH SCHOOL,521 ROSE ST,GURLEY,NE,69141,0178,(308) 884-2247
94192,317011001800,ELKHORN MIDDLE SCHOOL,3200 N 207TH PLAZA,ELKHORN,NE,68022,1289,(402) 289-2428
96063,310018402300,RIVERSIDE MIDDLE SCHOOL,124 S ASH,SPALDING,NE,68665,0220,(308) 497-2431
96156,317284001141,CULLER MIDDLE SCHOOL,5201 VINE ST,LINCOLN,NE,68504,3398,(402) 436-1210
97885,317866001714,PADDOCK ROAD ELEMENTARY SCHOOL,3535 PADDOCK RD,OMAHA,NE,68124,3827,(402) 390-6465
99862,317443001306,GRANT ELEMENTARY SCHOOL,1106 PHILIP AVE,NORFOLK,NE,68701,NOT AVAILABLE,(402) 644-2544
3179,310000602249,WEST POINT - BEEMER MIDDLE SCHOOL,1200 E WASHINGTON,WEST POINT,NE,68788,2505,(402) 372-5546
4781,318013002330,HOME BASED,3305 10TH STREET,GERING,NE,69341,NOT AVAILABLE,(308) 632-1999
8453,317284001142,CALVERT ELEMENTARY SCHOOL,3709 S 46TH ST,LINCOLN,NE,68506,4299,(402) 436-1130
13532,310498000138,CHADRON SENIOR HIGH SCHOOL,901 CEDAR,CHADRON,NE,69337,NOT AVAILABLE,(308) 432-0707
14217,317527001482,TRUMBLE PARK ELEMENTARY SCHOOL,500 VALLEY RD,PAPILLION,NE,68046,2585,(402) 898-0466
14815,317284002226,INFANT TODDLER AT BRYAN COMMUNITY SCHOOL,300 SOUTH 48TH STREET,LINCOLN,NE,68510,1830,(402) 436-1308
16096,310009100989,FULLERTON ELEMENTARY SCHOOL,606 4TH ST,FULLERTON,NE,68638,0520,(308) 536-2431
70753,310464000112,BURWELL JR-SR HIGH SCHOOL,190 I ST,BURWELL,NE,68823,0670,(308) 346-4150
71327,317645002216,SCHUYLER MIDDLE SCHOOL,200 W 10TH ST,SCHUYLER,NE,68661,2016,(402) 352-5514
72222,317802000883,CUTCOMB LAKE SCHOOL,30 MILES S OF NENZEL NEBRASKA,CODY,NE,69211,9702,(402) 823-4208
78360,317366001235,MERIDIAN ELEMENTARY SCHOOL,72380 560TH AVE,DAYKIN,NE,68338,0190,(402) 446-7265
78989,317284002211,ADAMS ELEMENTARY SCHOOL,7401 JACOBS CREEK DRIVE,LINCOLN,NE,68512,9548,(402) 436-1121
82030,317284001143,CLINTON ELEMENTARY SCHOOL,1520 N 29TH ST,LINCOLN,NE,68503,1599,(402) 436-1132
83065,310555000180,CREIGHTON ELEMENTARY SCHOOL,1609 REDICK AVE,CREIGHTON,NE,68729,NOT AVAILABLE,(402) 358-5001
85672,310563000183,CROFTON ELEMENTARY SCHOOL,1301 W 5TH ST,CROFTON,NE,68730,0429,(402) 388-4357
86295,317527000403,RUMSEY STATION ELEMENTARY SCH,110 EAGLE RIDGE DR,PAPILLION,NE,68133,2378,(402) 898-0475
86537,317437001604,NIOBRARA SECONDARY SCHOOL,247 N HWY 12,NIOBRARA,NE,68760,0310,(402) 857-3322
87726,310344000657,BANCROFT-ROSALIE ELEMENTARY SCHOOL,708 MAIN ST,BANCROFT,NE,68004,0129,(402) 648-3336
89745,317638001569,ELEMENTARY SCHOOL AT HALSEY,408 HWY 2,HALSEY,NE,69142,0099,(308) 533-2204
101055,310402000080,BERTRAND HIGH SCHOOL,503 SCHOOL ST,BERTRAND,NE,68927,0278,(308) 472-3427
101341,317155001049,HARVARD HIGH SCHOOL,506 E NORTH ST,HARVARD,NE,68944,0100,(402) 772-2171
105626,317482002393,INTEGRATED LEARNING PROGRAM AT SKINNER,4304 N 33RD ST,OMAH,NE,68111,2748,(531) 299-2840
81377,317866001794,WESTSIDE HIGH SCHOOL WEST CAMPUS,3504 S 108TH ST,OMAHA,NE,68144,4910,(402) 390-8214
86892,310012500746,DILLER-ODELL ELEM SCHOOL,315 SMITH ST,DILLER,NE,68342,0008,(402) 793-5570
89692,310336000045,AURORA MIDDLE SCHOOL,300 L ST,AURORA,NE,68818,1902,(402) 694-6915
105610,310534002397,KRAMER EDUCATION CENTER,2410 16TH STREET,COLUMBUS,NE,68602,0947,(402) 563-7000
23683,317416001286,NEBRASKA CITY HIGH SCHOOL,141 STEINHART PARK RD,NEBRASKA CITY,NE,68410,2064,(402) 873-3360
24005,317071001805,MILLIKEN PARK ELEMENTARY SCH,2950 DALE ST,FREMONT,NE,68025,2082,(402) 727-3160
26970,317233501911,ELEMENTARY SCHOOL AT JOHNSON,310 MAIN ST,JOHNSON,NE,68378,0186,(402) 868-5235
74891,310012300826,HIGH PLAINS ELEMENTARY/POLK,260 S PINE,POLK,NE,68654,0029,(402) 765-2271
77352,310288000009,ALLEN ELEMENTARY SCHOOL,126 E 5TH,ALLEN,NE,68710,0190,(402) 635-2484
77989,317752001649,SUTTON ELEMENTARY SCHOOL,1107 N SAUNDERS,SUTTON,NE,68979,0590,(402) 773-4423
79029,310004601867,WEST KEARNEY HIGH SCHOOL,2802 30TH AVE,KEARNEY,NE,68845,4035,(308) 338-2011
79619,317284001176,ROUSSEAU ELEMENTARY SCHOOL,3701 S 33RD ST,LINCOLN,NE,68506,3899,(402) 436-1165
69129,317404001276,MULLEN HIGH SCHOOL,404 N BLAINE,MULLEN,NE,69152,0127,(308) 546-2223
12258,317577001530,PONCA ELEMENTARY SCHOOL,505 3RD ST,PONCA,NE,68770,0568,(402) 755-5700
12787,310012200807,LAWRENCE/NELSON ELEMENTARY SCH,411 E SECOND,LAWRENCE,NE,68957,0128,(402) 756-7013
12798,310000401121,LAUREL-CONCORD-COLERIDGE ELEMENTARY SCHOOL,502 WAKEFIELD ST,LAUREL,NE,68745,0008,(402) 256-3133
14218,317161001059,HAY SPRINGS HIGH SCHOOL,407 N BAKER ST,HAY SPRINGS,NE,69347,0280,(308) 638-4434
17873,310017902191,HTRS ELEMENTARY SCHOOL,810 CENTRAL AVE,HUMBOLDT,NE,68376,9706,(402) 862-2151
19779,317011002277,SAGEWOOD ELEMENTARY SCHOOL,4910 N 177TH ST,OMAHA,NE,68116,3175,(402) 289-9078
38398,317464001336,OAKLAND CRAIG JUNIOR-SENIOR HIGH,309 N DAVIS,OAKLAND,NE,68045,1105,(402) 685-5661
42632,317284001851,FREDSTROM ELEMENTARY SCHOOL,5700 N W 10TH,LINCOLN,NE,68521,3842,(402) 436-1140
51711,317284001178,SARATOGA ELEMENTARY SCHOOL,2215 S 13TH ST,LINCOLN,NE,68502,3699,(402) 436-1166
52445,310410000085,BLAIR ARBOR PARK INTERMEDIATE SCHOOL,1717 ADAMS ST,BLAIR,NE,68008,0288,(402) 426-2735
55199,317284002222,INFANT TODDLER AT LINCOLN HIGH SCHOOL,2229 J ST,LINCOLN,NE,68510,2933,(402) 436-1301
55854,317422002327,EASTWARD ELEMENTARY SCHOOL,600 J ST,NELIGH,NE,68756,0149,(402) 887-5290
6038,310360002361,BEATRICE COMMUNITY PRESCHOOL,201 SOUTH CEDAR STREET,BEATRICE,NE,68310,3617,(402) 223-1585
6839,317239001105,KEARNEY HIGH SCHOOL,2702 WEST 11TH STREET,KEARNEY,NE,68845,0102,(308) 698-8060
9159,317686001313,COVINGTON ELEMENTARY SCHOOL,2116 A STREET,SO SIOUX CITY,NE,68776,3028,(402) 494-4238
9257,317482001364,CENTRAL PARK ELEM SCHOOL,4904 N 42ND ST,OMAHA,NE,68111,1898,(402) 457-5277
93568,317482001391,BLACKBURN ALTERNATIVE PROGRAM,2606 HAMILTON STREET,OMAHA,NE,68131,1640,(402) 344-3385
95621,310014001423,CREEK VALLEY ELEMENTARY SCHOOL,6TH & HAYWARD,CHAPPELL,NE,69129,0608,(308) 874-2911
96598,317482002272,UNO/OPS MIDDLE COLLEGE PROGRAM,UNO 6001 DODGE ST; KAYSER HALL,OMAHA,NE,68182,0701,(402) 554-3992
1394,310336002221,AURORA PRESCHOOL,409 J STREET,AURORA,NE,68818,1902,(402) 694-6707
4279,317101001007,GILTNER ELEMENTARY SCHOOL,#2 WEST 6TH RD,GILTNER,NE,68841,0160,(402) 849-2238
5376,310013001180,CROSS COUNTY MIDDLE SCHOOL,1270 123RD RD,STROMSBURG,NE,68666,0525,(402) 764-5521
6328,310282000008,BOONE CENTRAL HIGH SCHOOL,605 S 6TH ST,ALBION,NE,68620,NOT AVAILABLE,(402) 395-2134
8399,310342000047,AXTELL HIGH SCHOOL,500 MAIN ST,AXTELL,NE,68924,0097,(308) 743-2415
41878,317374001816,NORMAN ROCKWELL ELEM SCHOOL,6370 S 140TH AVE,OMAHA,NE,68137,4099,(402) 715-8246
44219,317458001333,NORTHWEST HIGH SCHOOL,2710 N NORTH RD,GRAND ISLAND,NE,68803,1199,(308) 385-6394
45888,317482001420,PAWNEE ELEM SCHOOL,7310 S 48TH ST,OMAHA,NE,68157,2299,(531) 299-1900
48286,317482002259,INDEPENDENT STUDY PROGRAM,3230 BURT ST,OMAHA,NE,68131,2014,(531) 299-9395
48399,310360000062,LINCOLN ELEMENTARY SCHOOL,500 N 19TH,BEATRICE,NE,68310,3261,(402) 223-1575
49258,317158001052,HAWTHORNE ELEMENTARY SCHOOL,2200 W 9TH ST,HASTINGS,NE,68901,3698,(402) 461-7540
70765,310011100481,ELEMENTARY SCHOOL AT EUSTIS,504 N INGALL ST,EUSTIS,NE,69028,0009,(308) 486-3991
76743,317569001526,PLEASANTON ELEMENTARY SCHOOL,303 CHURCH ST,PLEASANTON,NE,68866,0190,(308) 388-2041
77147,317482001360,BURKE HIGH SCHOOL,12200 BURKE BLVD,OMAHA,NE,68154,2399,(402) 557-3200
78123,317443001314,WASHINGTON ELEMENTARY SCHOOL,1205 S 2ND ST,NORFOLK,NE,68701,NOT AVAILABLE,(402) 644-2557
78358,317824001685,WAKEFIELD ELEMENTARY SCHOOL,802 HIGHLAND,WAKEFIELD,NE,68784,0330,(402) 287-9892
55831,310009600987,FRIEND ELEMENTARY SCHOOL,501 MAIN ST,FRIEND,NE,68359,0067,(402) 947-2781
57312,310495002365,RAYMOND CENTRAL PRESCHOOL,1800 W AGNEW ROAD,RAYMOND,NE,68428,9783,(402) 785-7070
59487,310001601016,DODGE ELEMENTARY SCHOOL,641 S OAK ST,GRAND ISLAND,NE,68801,7898,(308) 385-5889
80735,317122002021,PALISADES ELEMENTARY SCHOOL,16820 CHUTNEY DR,OMAHA,NE,68136,1406,(402) 895-2194
81899,310014602263,BOYS TOWN INTERVENTION AND ASSESSMENT SCHOOL,178 SUYDKA DR,BOYS TOWN,NE,68010,7505,(531) 355-7185
82736,317284002211,ADAMS ELEMENTARY SCHOOL,7401 JACOBS CREEK DRIVE,LINCOLN,NE,68512,9548,(402) 436-1121
85558,310013301346,EXETER-MILLIGAN ELEM-EXETER,318 S RIVER AVE,EXETER,NE,68351,0139,(402) 266-5911
87174,310498000140,CHADRON INTERMEDIATE,450 W NORFOLK,CHADRON,NE,69337,2000,(308) 432-0717
87518,317641001573,SARGENT ELEMENTARY SCHOOL,400 N 5TH ST,SARGENT,NE,68874,6104,(308) 527-4119
87777,317482000662,CASTELAR ELEMENTARY SCHOOL,2316 S 18TH ST,OMAHA,NE,68108,3952,(531) 299-1160
10269,317734001641,ELEMENTARY SCHOOL AT SUMNER,205 E 5TH AVE,SUMNER,NE,68878,0126,(308) 752-2925
13143,317278001128,LEWISTON ELEMENTARY SCHOOL,306 TIGER AVE,LEWISTON,NE,68380,0074,(402) 865-4675
14934,317527000846,WALNUT CREEK ELEMENTARY,720 FENWICK ST,PAPILLION,NE,68046,3122,(402) 898-9630
17948,310008802295,NORRIS INTERMEDIATE SCHOOL,25211 SOUTH 68 STREET,FIRTH,NE,68358,7598,(402) 791-0040
92234,317071002246,JOHNSON CROSSING ACADEMIC CENTER (5-6),200 JOHNSON ROAD,FREMONT,NE,68025,6469,(402) 721-2003
92957,317101001008,GILTNER HIGH SCHOOL,#2 WEST 6TH RD,GILTNER,NE,68841,0160,(402) 849-2238
94830,310410002205,DEERFIELD ELEMENTARY SCHOOL,1100 DEERFIELD BLV,BLAIR,NE,68008,0288,(402) 426-5123
97193,317845001696,WAUSA HIGH SCHOOL,300 S BISMARCK,WAUSA,NE,68786,2038,(402) 586-2255
61947,317802001672,VALENTINE ELEMENTARY SCHOOL,615 E 5TH ST,VALENTINE,NE,69201,1642,(402) 376-3237
64235,310006701044,BANNER COUNTY HIGH SCHOOL,200 SCHOOL ST,HARRISBURG,NE,69345,0005,(308) 436-5262
20504,317590001539,MEADOWS ELEMENTARY SCHOOL,9225 BERRY,OMAHA,NE,68127,3505,(402) 339-6655
24573,310018402296,RIVERSIDE ELEMENTARY - CEDAR RAPIDS,408 W DAYTON ST,CEDAR RAPIDS,NE,68627,5559,(308) 358-0640
29493,310495000135,ELEMENTARY SCHOOL AT CERESCO,114 S THIRD,CERESCO,NE,68017,0010,(402) 665-3651
30108,310464000111,BURWELL ELEMENTARY SCHOOL,204 S 4TH,BURWELL,NE,68823,0790,(308) 346-4431
34920,310002101699,WAVERLY HIGH SCHOOL,13401 AMBERLY RD,WAVERLY,NE,68462,0426,(402) 786-2765
37855,310001602207,EARLY LEARNING CENTER,4360 W CAPITAL AVE,GRAND ISLAND,NE,68803,1413,(308) 385-5655
100622,317866001915,WESTSIDE MIDDLE SCHOOL,8601 ARBOR ST,OMAHA,NE,68124,2149,(402) 390-6464
50341,317596001823,RAVENNA ELEMENTARY SCHOOL,41750 CARTHAGE RD,RAVENNA,NE,68869,8400,(308) 452-3202
50626,317647001582,SCOTTSBLUFF SENIOR HIGH SCHOOL,313 E 27TH ST,SCOTTSBLUFF,NE,69361,1609,(308) 635-6230
52937,310012901079,TWIN RIVER ELEM-GENOA,816 WILLARD AVE,GENOA,NE,68640,0640,(402) 993-2510
53310,317284002329,WYSONG ELEMENTARY,7901 BLANCHARD BOULEVARD,LINCOLN,NE,68516,NOT AVAILABLE,(402) 436-1185
56544,310007200188,LEYTON HIGH SCHOOL,504 MAIN ST,DALTON,NE,69131,0297,(308) 377-2301
43213,317590001542,RALSTON HIGH SCHOOL,8969 PARK DR,RALSTON,NE,68127,3600,(402) 331-7373
47285,310001601018,HOWARD ELEMENTARY SCHOOL,502 W 9TH ST,GRAND ISLAND,NE,68801,4237,(308) 385-5916
47286,310011700615,HEARTLAND COMMUNITY ELEMENTARY,1501 FRONT ST,HENDERSON,NE,68371,8929,(402) 723-4434
48034,317866001716,ROCKBROOK ELEMENTARY SCHOOL,2514 S 108TH ST,OMAHA,NE,68144,3103,(402) 390-6475
48431,310007101661,ELEMENTARY SCHOOL AT TEKAMAH,112 N 13TH ST,TEKAMAH,NE,68061,1044,(402) 374-2154
49044,317281001132,LEXINGTON MIDDLE SCHOOL,1100 N WASHINGTON,LEXINGTON,NE,68850,1333,(308) 324-2349
80484,317640001572,SANTEE HIGH SCHOOL,206 FRAZIER AVE EAST,NIOBRARA,NE,68760,7213,(402) 857-2741
83588,317641001573,SARGENT ELEMENTARY SCHOOL,400 N 5TH ST,SARGENT,NE,68874,6104,(308) 527-4119
73230,310011700602,HEARTLAND COMMUNITY HIGH SCH,1501 FRONT ST,HENDERSON,NE,68371,8929,(402) 723-4434
75657,317356001229,MC PHERSON COUNTY SECONDARY SCHOOL,525 HWY 92,TRYON,NE,69167,0038,(308) 587-2262
76254,317645000446,SCHUYLER ELEMENTARY-FISHER'S,1098 ROAD J,SCHUYLER,NE,68661,9796,(402) 352-3700
78374,310002902244,SUPERIOR ELEMENTARY SCHOOL,601 W 8TH ST,SUPERIOR,NE,68978,0288,(402) 879-3025
78855,317347001219,CENTRAL ELEMENTARY SCHOOL,604 W 1ST,MC COOK,NE,69001,3137,(308) 345-3976
90479,310555000179,CREIGHTON COMMUNITY HIGH SCH,1609 REDICK AVE,CREIGHTON,NE,68729,NOT AVAILABLE,(402) 358-5000
93649,317434001300,NEWMAN GROVE HIGH SCHOOL,101 S 8TH ST,NEWMAN GROVE,NE,68758,0370,(402) 447-6294
61061,317866001793,WESTBROOK ELEMENTARY SCHOOL,1312 ROBERTSON DRIVE,OMAHA,NE,68114,1520,(402) 390-6490
65760,317011002292,WEST BAY ELEMENTARY SCHOOL,3220 S 188TH AVE,OMAHA,NE,68130,2804,(402) 289-9045
66579,310009801763,GERING EARLY CHILDHOOD PROGRAM,1725 13TH ST,GERING,NE,69341,4144,(308) 436-2350
67049,317482000591,FULLERTON MAGNET CENTER,4711 N 138TH ST,OMAHA,NE,68164,6047,(402) 498-2787
69040,317321001203,NORTHEAST ELEMENTARY AT LYONS,400 S 5TH ST,LYONS,NE,68038,0526,(402) 687-2363
32113,318004000628,NE CENTER FOR EDUC OF BLIND,824 10TH AVE,NEBRASKA CITY,NE,68410,0129,(402) 873-5513
33119,310008901467,PALMER ELEMENTARY SCHOOL,202 COMMERCIAL ST,PALMER,NE,68864,0248,(308) 894-3065
35553,317527001476,LA VISTA WEST ELEMENTARY SCH,7821 TERRY DR,LA VISTA,NE,68128,3943,(402) 898-0463
38634,317011002006,MANCHESTER ELEMENTARY SCHOOL,2750 N HWS CLEVELAND BLVD,OMAHA,NE,68116,2687,(402) 289-2590
100821,310011000353,SO PLATTE ELEM AT BIG SPRINGS,610 PLUM ST,BIG SPRINGS,NE,69122,0457,(308) 889-3674
105622,317374002375,KEITH LUTZ HORIZON HIGH SCHOOL,5300 GEORGE B LAKE PARKWAY,OMAHA,NE,68022,6483,(402) 715-8468
105633,317527002418,ASHBURY ELEMENTARY SCHOOL,11740 S 120TH STREET,PAPILLION,NE,68046,NOT AVAILABLE,(402) 537-6299
105639,318003002386,ESU 3 HEAD START - PARKVIEW HEIGHTS,7609 S 89TH ST,LAVISTA,NE,68128,NOT AVAILABLE,(402) 331-2327
105645,318003002404,ESU 3 HEAD START - BELLEAIRE,1200 WEST MISSION ST,BELLEVUE,NE,68005,NOT AVAILABLE,(402) 827-6270
21259,310002301214,MAXWELL ELEMENTARY SCHOOL,415 E HWY 30,MAXWELL,NE,69151,0188,(308) 582-4585
22624,310011800992,FILLMORE CENTRAL ELEMENTARY,225 N 17TH ST,GENEVA,NE,68361,1699,(402) 759-3184
23775,310018402297,RIVERSIDE ELEMENTARY - SPALDING,124 S ASH,SPALDING,NE,68665,0220,(308) 497-2431
28606,317420001818,CONESTOGA ELEMENTARY SCHOOL,104 E HIGH ST,MURRAY,NE,68409,0068,(402) 235-2341
29099,317527001389,PAPILLION LA VISTA SOUTH HS,10799 HWY 370,PAPILLION,NE,68046,3202,(402) 829-4600
29526,317443001315,WESTSIDE ELEMENTARY SCHOOL,1703 PHILIP AVE,NORFOLK,NE,68701,NOT AVAILABLE,(402) 644-2561
12103,317482001382,GILDER ELEM SCHOOL,3705 CHANDLER RD,OMAHA,NE,68147,1199,(531) 299-1500
15062,317011000719,SPRING RIDGE ELEMENTARY,17830 SHADOW RIDGE DR,OMAHA,NE,68130,2647,(402) 637-0204
15231,310277000003,ADAMS CENTRAL JR-SR HIGH SCH,1090 S ADAMS CENTRAL RD,HASTINGS,NE,68901,1088,(402) 463-3285
15306,317215001094,HUMPHREY JR-SR HIGH SCHOOL,405 S 7TH ST,HUMPHREY,NE,68642,0278,(402) 923-1230
16843,317482001443,WASHINGTON ELEM SCHOOL,5519 MAYBERRY STREET,OMAHA,NE,68106,1636,(402) 554-8690
18491,310420000095,BLUE HILL HIGH SCHOOL,606 S SYCAMORE,BLUE HILL,NE,68930,0217,(402) 756-3043
2815,310279002242,AINSWORTH LITTLE PAWS PRESCHOOL,119 NORTH MAIN,AINSWORTH,NE,69210,1357,(402) 387-1035
7907,310420000094,BLUE HILL ELEMENTARY SCHOOL,606 S SYCAMORE,BLUE HILL,NE,68930,0217,(402) 756-2085
7950,317482000084,PICOTTE ELEMENTARY SCHOOL,14506 OHIO ST,OMAHA,NE,68116,4192,(402) 496-8401
61958,310381001499,AVERY ELEMENTARY SCHOOL,2107 AVERY RD,BELLEVUE,NE,68005,4617,(402) 293-4460
62420,310546000175,COZAD ELEMENTARY SCHOOL,420 EAST 14TH STREET,COZAD,NE,69130,1617,(308) 784-3462
64263,310013001224,CROSS COUNTY ELEMENTARY SCHOOL,1270 123RD ROAD,STROMSBURG,NE,68666,0525,(402) 764-5521
64747,317284001161,LINCOLN NORTHEAST HIGH SCHOOL,2635 N 63RD ST,LINCOLN,NE,68507,2499,(402) 436-1303
65958,317291001185,LITCHFIELD ELEMENTARY SCHOOL,500 N MAIN,LITCHFIELD,NE,68852,NOT AVAILABLE,(308) 446-2244
100198,310009501759,CRETE MIDDLE SCHOOL,1500 E 15TH ST,CRETE,NE,68333,1936,(402) 826-5844
100359,317647002220,EARLY CHILDHOOD LEARNING CENTER,2512 2ND AVENUE,SCOTTSBLUFF,NE,69361,1703,(308) 635-6293
100784,317500001228,OSCEOLA MIDDLE SCHOOL,565 S KIMMEL,OSCEOLA,NE,68651,0198,(402) 747-3121
101292,317527001475,LA VISTA MIDDLE SCHOOL,7900 EDGEWOOD BLVD,LA VISTA,NE,68128,2718,(402) 898-0436
101813,317577001531,PONCA HIGH SCHOOL,505 3RD ST,PONCA,NE,68770,0568,(402) 755-5701
105593,310001602399,WYANDOTTE LEARNING CENTER,315 WYANDOTTE ST,GRAND ISLAND,NE,68801,NOT AVAILABLE,(308) 385-5922
105603,310018900942,SUMMERLAND ELEM SCH AT EWING,4322 N CEDAR,EWING,NE,68735,0098,(402) 626-7235
105611,317011002373,BLUE SAGE ELEMENTARY,3600 S 215TH STREET,ELKHORN,NE,68022,NOT AVAILABLE,(402) 289-3577
105630,317482002410,REMOTE LEARNING ELEMENTARY SCHOOL,3215 CUMING ST,OMAHA,NE,68131,2024,(531) 229-0220
71132,317215000308,LINDSAY ATTENDANCE CENTER,306 PINE ST,LINDSAY,NE,68644,0062,(402) 428-2409
76235,310000200191,DAVID CITY ELEMENTARY SCHOOL,826 E ST,DAVID CITY,NE,68632,1733,(402) 367-3779
78865,317215001093,HUMPHREY ELEMENTARY SCHOOL,405 S 7TH ST,HUMPHREY,NE,68642,0278,(402) 923-1230
79960,310001800059,WAUNETA-PALISADE HIGH SCHOOL,214 W WICHITA,WAUNETA,NE,69045,0368,(308) 394-5650
11021,317071000979,FREMONT LEARNING CENTER,130 E 9TH STREET,FREMONT,NE,68025,1401,(402) 727-3180
11466,310487000125,CEDAR BLUFFS ELEMENTARY SCHOOL,110 E MAIN ST,CEDAR BLUFFS,NE,68015,0066,(402) 628-2060
11775,317533001484,PAWNEE CITY ELEMENTARY SCH,729 E ST,PAWNEE CITY,NE,68420,0393,(402) 852-2411
13387,317482001940,KING SCIENCE/TECH MAGNET M S,3720 FLORENCE BLVD,OMAHA,NE,68110,1794,(531) 299-2380
13879,317161002193,HAY SPRINGS MIDDLE SCHOOL,407 N BAKER ST,HAY SPRINGS,NE,69347,0280,(308) 638-4434
15510,310282000007,BOONE CENTRAL ELEM-ALBION,605 S 6TH,ALBION,NE,68620,NOT AVAILABLE,(402) 395-2134
16988,310015101708,PATHFINDER ED PRG-LANCASTER CO,1200 RADCLIFF ST,LINCOLN,NE,68512,2506,(402) 441-6817
17917,317640001571,SANTEE ELEMENTARY SCHOOL,206 FRAZIER AVE EAST,NIOBRARA,NE,68760,7213,(402) 857-2741
2545,317221001096,HYANNIS HIGH SCHOOL,332 EAST HWY 2,HYANNIS,NE,69350,0286,(308) 458-2202
3733,310011100470,EUSTIS-FARNAM HIGH SCHOOL,504 N INGALL ST,EUSTIS,NE,69028,0009,(308) 486-3991
7611,318008002269,CENTRAL LEARNING CENTER SOUTH,212 MAIN ST,NELIGH,NE,68756,1447,(402) 887-5041
24414,317671002229,SIDNEY ALTERNATIVE PROGRAM,1100 19TH AVE,SIDNEY,NE,69162,1802,(308) 254-4467
28683,317284001162,LINCOLN SOUTHEAST HIGH SCHOOL,2930 S 37TH ST,LINCOLN,NE,68506,3298,(402) 436-1304
28881,317284001145,DAWES MIDDLE SCHOOL,5130 COLFAX STREET,LINCOLN,NE,68504,1751,(402) 436-1211
31848,310009800998,GEIL ELEMENTARY SCHOOL,1600 D ST,GERING,NE,69341,3900,(308) 436-2545
32232,317866001723,WESTGATE ELEMENTARY SCHOOL,7802 HASCALL,OMAHA,NE,68124,3413,(402) 390-6495
50125,310011200483,LAKEVIEW HIGH SCHOOL,3744 83RD ST,COLUMBUS,NE,68601,8841,(402) 564-8518
56214,317482002344,EARLY LEARNING CENTER (0-3) AT SKINNER,4304 NORTH 33RD ST,OMAHA,NE,68111,NOT AVAILABLE,(402) 453-6851
57664,317122002364,ASPEN CREEK ELEMENTARY SCHOOL,10325 SOUTH 188TH STREET,OMAHA,NE,68136,NOT AVAILABLE,(402) 332-5617
57787,317482002315,TRANSITION PROGRAM SOUTH,4875 F STREET,OMAHA,NE,68117,1406,(531) 299-2970
58749,317053000960,FALLS CITY NORTH ELEMENTARY,2500 CHASE ST,FALLS CITY,NE,68355,1113,(402) 245-2712
59733,317482001357,BOYD ELEM SCHOOL,8314 BOYD ST,OMAHA,NE,68134,4267,(531) 299-1140
81691,317482001859,CAREER CENTER,3230 BURT ST,OMAHA,NE,68131,2014,(402) 557-3700
83341,317590001541,MOCKINGBIRD ELEMENTARY SCHOOL,5100 S 93RD ST,OMAHA,NE,68127,2472,(402) 331-6954
88143,310534001139,CENTENNIAL ELEMENTARY SCHOOL,500 CENTENNIAL ST,COLUMBUS,NE,68602,0947,(402) 563-8180
88236,310381001502,BELLEVUE WEST SR HIGH SCHOOL,1501 THURSTON AVE,BELLEVUE,NE,68123,2499,(402) 293-4040
91785,310018402300,RIVERSIDE MIDDLE SCHOOL,124 S ASH,SPALDING,NE,68665,0220,(308) 497-2431
95678,317404001275,MULLEN ELEMENTARY SCHOOL,106 N E 2ND ST,MULLEN,NE,69152,0089,(308) 546-2292
43485,317671001601,SIDNEY HIGH SCHOOL,1100 19TH AVE,SIDNEY,NE,69162,1930,(308) 254-5893
43820,317291001186,LITCHFIELD HIGH SCHOOL,500 N MAIN,LITCHFIELD,NE,68852,NOT AVAILABLE,(308) 446-2244
45842,310495002262,INTERMEDIATE SCHOOL AT JR/SR HIGH SCHOOL,1800 W AGNEW RD,RAYMOND,NE,68428,0068,(402) 784-3301
47640,317239001103,EMERSON ELEMENTARY SCHOOL,2705 AVE E,KEARNEY,NE,68847,3602,(308) 698-8270
48075,310015201717,CHILD GUIDANCE SCHOOL,904 SUMNER ST,LINCOLN,NE,68502,2154,(402) 434-2670
49314,317566001524,PLATTSMOUTH MIDDLE SCHOOL,1724 8TH AVE,PLATTSMOUTH,NE,68048,2359,(402) 296-3174
49952,310001601864,WESTRIDGE MIDDLE SCHOOL,4111 W 13TH ST,GRAND ISLAND,NE,68803,2915,(308) 385-5886
71408,310012901076,TWIN RIVER SR HIGH SCHOOL,816 WILLARD AVE,GENOA,NE,68640,0640,(402) 993-2911
72775,310495000136,ELEMENTARY SCH AT VALPARAISO,406 E THIRD,VALPARAISO,NE,68065,0068,(402) 784-3301
75648,317161002017,HAY SPRINGS EARLY CHILDHOOD,407 N BAKER ST,HAY SPRINGS,NE,69347,0280,(308) 638-4434
94791,317374001934,KIEWIT MIDDLE SCHOOL,15650 HOWARD ST,OMAHA,NE,68118,2127,(402) 715-1470
98962,310010901464,SOUTHERN VALLEY JR/SR HIGH,43739 HWY 89,OXFORD,NE,68967,2711,(308) 868-2222
60439,310000200975,BELLWOOD ELEMENTARY SCHOOL,612 PARK ST,BELLWOOD,NE,68624,0100,(402) 538-4805
60767,317680001045,HARRISON GRADE SCHOOL,240 WEST 3RD ST,HARRISON,NE,69346,0038,(308) 668-2336
66066,317698001621,ST EDWARD ELEMENTARY SCHOOL,601 CLARK ST,ST EDWARD,NE,68660,0138,(402) 678-2282
69325,310007300032,ARNOLD HIGH SCHOOL,405 N HASKELL,ARNOLD,NE,69120,0399,(308) 848-2226
43337,317071000976,GRANT ELEMENTARY SCHOOL,226 N GRANT ST,FREMONT,NE,68025,5357,(402) 727-3171
43628,317656001592,SEWARD MIDDLE SCHOOL,2401 KAROL KAY BLVD,SEWARD,NE,68434,2541,(402) 643-2986
44066,317852001702,WAYNE HIGH SCHOOL,611 W 7TH ST,WAYNE,NE,68787,1715,(402) 375-3150
46574,310011600593,FREEMAN HIGH SCHOOL,415 EIGHTH ST,ADAMS,NE,68301,0259,(402) 988-2525
47114,317527001478,PAPILLION LA VISTA SENIOR HIGH,402 E CENTENNIAL RD,PAPILLION,NE,68046,2078,(402) 898-0400
48793,317239001833,WINDY HILLS ELEMENTARY SCHOOL,4211 20TH AVE,KEARNEY,NE,68845,8255,(308) 698-8220
80713,317590001543,SEYMOUR ELEMENTARY SCHOOL,4900 S 79TH ST,RALSTON,NE,68127,2779,(402) 331-0540
85822,317527001474,GOLDEN HILLS ELEMENTARY SCHOOL,2912 COFFEY AVE,BELLEVUE,NE,68123,1592,(402) 898-0459
87402,310012400877,BRUNING-DAVENPORT ELEM/DAVENPT,106 N JUNIPER AVE,DAVENPORT,NE,68335,0190,(402) 364-2225
87420,317284001136,ARNOLD ELEMENTARY SCHOOL,5000 MIKE SCHOLL STREET,LINCOLN,NE,68524,2305,(402) 436-1120
87519,317366001236,MERIDIAN HIGH SCHOOL,72380 560TH AVE,DAYKIN,NE,68338,0190,(402) 446-7265
15470,317680001907,CHALK BUTTE SCHOOL,321 SI RD,MORRILL,NE,69358,NOT AVAILABLE,(308) 247-2811
16256,310498000141,CHADRON MIDDLE SCHOOL,551 E 6TH ST,CHADRON,NE,69337,2743,(308) 432-0708
17836,317482001365,CHANDLER VIEW ELEM SCHOOL,7800 S 25TH ST,OMAHA,NE,68147,2125,(531) 299-1220
18080,317755001653,ELEMENTARY SCHOOL AT SYRACUSE,550 7TH ST,SYRACUSE,NE,68446,0520,(402) 269-2382
55290,317380002236,MINATARE PRE-START PRE-SCHOOL,805 7TH STREET,MINATARE,NE,69356,NOT AVAILABLE,(308) 783-1255
57377,310018702355,BOYD COUNTY MIDDLE SCHOOL (SPENCER),106 E GREIG ST,SPENCER,NE,68777,0109,(402) 589-1333
24698,317284001138,BELMONT ELEMENTARY SCHOOL,3425 N 14TH ST,LINCOLN,NE,68521,2196,(402) 436-1124
27167,317374001249,J STERLING MORTON ELEM SCHOOL,1805 S 160TH,OMAHA,NE,68130,1701,(402) 715-1290
29551,317347001222,MC COOK SENIOR HIGH SCHOOL,600 W 7TH ST,MC COOK,NE,69001,3078,(308) 345-5422
37760,317866001710,CARL A SWANSON ELEMENTARY SCH,8601 HARNEY STREET,OMAHA,NE,68114,4005,(402) 390-6485
7921,317521001470,JR-SR HIGH SCHOOL AT PALMYRA,425 F ST,PALMYRA,NE,68418,NOT AVAILABLE,(402) 780-5327
105614,317071002367,YOUNG ADULT PROGRAM,130 E 9TH STREET,FREMONT,NE,68025,NOT AVAILABLE,(402) 727-3024
105617,317071002377,SIXPENCE PRESCHOOL,445 EAST 1ST STREET,FREMONT,NE,68025,NOT AVAILABLE,(402) 727-3021
105642,318003002394,ESU 3 HEAD START - EARLY HEAD START,701 OLSON DR; SUITE 112/113,PAPILLION,NE,38046,4784,(402) 339-6592
60890,317389001268,MITCHELL ELEMENTARY SCHOOL,1439 13TH AVE,MITCHELL,NE,69357,1599,(308) 623-2828
62235,317671001603,SOUTH WARD ELEMENTARY SCHOOL,2000 12TH AVE,SIDNEY,NE,69162,2382,(308) 254-3589
62427,310591000198,DESHLER HIGH SCHOOL,1402 3RD ST,DESHLER,NE,68340,0547,(402) 365-7272
66882,317122001760,SQUIRE JOHN THOMAS ELEMENTARY,11221 NORTHRIDGE DRIVE,GRETNA,NE,68028,6935,(402) 332-5578
69153,310001601013,NEWELL ELEMENTARY SCHOOL,2700 W 13TH ST,GRAND ISLAND,NE,68803,2515,(308) 385-5905
10644,317908001753,YUTAN ELEMENTARY SCHOOL,902 2ND ST,YUTAN,NE,68073,3054,(402) 625-2141
14828,317137001042,HAMPTON HIGH SCHOOL,458 5TH ST,HAMPTON,NE,68843,9211,(402) 725-3116
14837,310012000185,HITCHCOCK CO ELEMENTARY,712 ARIZONA,CULBERTSON,NE,69024,0128,(308) 278-2131
14870,317158001050,ALCOTT ELEMENTARY SCHOOL,313 N CEDAR,HASTINGS,NE,68901,4315,(402) 461-7580
16225,310321000033,ARTHUR COUNTY HIGH SCHOOL,111 ELM ST,ARTHUR,NE,69121,0145,(308) 764-2253
16390,310013301350,EXETER-MILLIGAN ELEM-MILLIGAN,502 9TH ST,MILLIGAN,NE,68406,0040,(402) 629-4265
42144,317734001642,JUNIOR-SENIOR HIGH AT SUMNER,205 E 5TH AVE,SUMNER,NE,68878,0126,(308) 752-2925
42691,317158001055,LONGFELLOW ELEMENTARY SCHOOL,828 N HASTINGS AVE,HASTINGS,NE,68901,4498,(402) 461-7584
43241,317506001462,OVERTON HIGH SCHOOL,401 7TH ST,OVERTON,NE,68863,0310,(308) 987-2424
44220,310011200494,PLATTE CENTER ELEMENTARY SCHOOL,155 PLATTE ST,PLATTE CENTER,NE,68653,0109,(402) 246-3465
45635,317257001932,MARY LYNCH ELEMENTARY,1000 E 6TH ST,KIMBALL,NE,69145,1705,(308) 235-4696
46033,317080000991,GARDEN COUNTY JUNIOR/SENIOR HIGH SCHOOL,200 W 4TH ST,OSHKOSH,NE,69154,0230,(308) 772-3242
47080,317374001253,MILLARD NORTH MIDDLE SCHOOL,2828 S 139TH PLAZA,OMAHA,NE,68144,3396,(402) 715-1280
49484,317593001546,RANDOLPH HIGH SCHOOL,207 N PIERCE ST,RANDOLPH,NE,68771,0755,(402) 337-0252
49839,317071000984,FREMONT SENIOR HIGH SCHOOL,1750 N LINCOLN AVE,FREMONT,NE,68025,3299,(402) 727-3050
25371,310001500122,CAMBRIDGE HIGH SCHOOL,1003 NELSON ST,CAMBRIDGE,NE,69022,0100,(308) 697-3322
27029,310002501664,ELKHORN VALLEY ELEMENTARY SCH,601 S MADISON STREET,TILDEN,NE,68781,0430,(402) 368-5301
27396,317284001169,PERSHING ELEMENTARY SCHOOL,6402 JUDSON ST,LINCOLN,NE,68507,2599,(402) 436-1160
28144,317239001108,NORTHEAST ELEMENTARY SCHOOL,910 E 34TH ST,KEARNEY,NE,68847,3201,(308) 698-8230
79598,317321001204,NORTHEAST SECONDARY SCHOOL,400 S 5TH ST,LYONS,NE,68038,0526,(402) 687-2349
748,317194002323,HOLDREGE ELEMENTARY SCHOOL,1700 BROADWAY ST,HOLDREGE,NE,68949,1204,(308) 995-4339
2556,310001601023,GRAND ISLAND SENIOR HIGH SCHOOL,2124 N LAFAYETTE AVE,GRAND ISLAND,NE,68803,2048,(308) 385-5950
3496,310534000161,EMERSON ELEMENTARY SCHOOL,2410 20TH ST,COLUMBUS,NE,68602,0947,(402) 563-7030
8217,317312001198,LOUP COUNTY HIGH SCHOOL,608 WILLIAMS ST,TAYLOR,NE,68879,0170,(308) 942-6115
32886,318013002212,HARMS ADV TECH CENTER-WNCC,2620 COLLEGE PARK,SCOTTSBLUFF,NE,69361,2295,(308) 635-0206
33315,317866002254,UNDERWOOD HILLS EARLY CHILDHOOD LEARNING CENTER,9030 WESTERN AVE,OMAHA,NE,68114,2265,(402) 390-8207
36490,317482001418,OAK VALLEY ELEM SCHOOL,3109 PEDERSEN DR,OMAHA,NE,68144,3985,(531) 299-1880
50788,317284002268,KLOEFKORN ELEMENTARY,6601 GLASS RIDGE DRIVE,LINCOLN,NE,68526,9752,(402) 436-1148
52769,317380002236,MINATARE PRE-START PRE-SCHOOL,805 7TH STREET,MINATARE,NE,69356,NOT AVAILABLE,(308) 783-1255
53119,317305001191,LOUISVILLE ELEMENTARY SCHOOL,202 W 3RD,LOUISVILLE,NE,68037,0489,(402) 234-4215
55856,317110002340,SWEDE PRESCHOOL ACADEMY,1311 AVENUE G,GOTHENBURG,NE,69138,NOT AVAILABLE,(308) 537-3651
57666,317284002363,MOORE MIDDLE SCHOOL,8700 YANKEE WOODS DRIVE,LINCOLN,NE,68526,6128,(402) 436-1225
80585,317374000089,WILLOWDALE ELEMENTARY SCHOOL,16901 P ST,OMAHA,NE,68135,1465,(402) 715-8280
80646,317443001310,NORFOLK JR HIGH SCHOOL,510 PASEWALK AVE,NORFOLK,NE,68701,NOT AVAILABLE,(402) 644-2516
80648,317122001035,GRETNA HIGH SCHOOL,11335 S 204TH STREET,GRETNA,NE,68028,NOT AVAILABLE,(402) 332-3936
83278,317458000965,ST LIBORY ELEMENTARY SCHOOL,435 ST PAUL ROAD,ST LIBORY,NE,68872,2817,(308) 687-6475
83668,310001800068,PALISADE ATTENDANCE CENTER,206 N REYNOLDS,PALISADE,NE,69040,0329,(308) 285-3232
88431,317374000669,WHEELER ELEMENTARY SCHOOL,6707 S 178TH ST,OMAHA,NE,68135,3204,(402) 715-6250
92974,310381000402,TWO SPRINGS ELEMENTARY SCHOOL,3001 SPRING BLVD,BELLEVUE,NE,68123,2665,(402) 293-5070
96662,310002201323,CODY ELEMENTARY SCHOOL,2000 W 2ND ST,NORTH PLATTE,NE,69101,NOT AVAILABLE,(308) 535-7132
99762,310001601862,SHOEMAKER ELEMENTARY SCHOOL,4160 W OLD POTASH HWY,GRAND ISLAND,NE,68803,3919,(308) 385-5936
101387,317309001194,LOUP CITY ELEMENTARY SCHOOL,630 N 7TH ST,LOUP CITY,NE,68853,0628,(308) 745-1814
101911,317374001241,BRYAN ELEMENTARY SCHOOL,5010 S 144TH ST,OMAHA,NE,68137,1400,(402) 715-8325
105619,317122002419,FALLING WATERS ELEMENTARY SCHOOL,5909 S 200TH AVE,OMAHA,NE,68135,NOT AVAILABLE,(402) 332-3938
105646,318007002381,ESU 7 CENTER,2563 44TH AVE,COLUMBUS,NE,68601,NOT AVAILABLE,(402) 564-0815
21711,317527002232,BELL ELEMENTARY,7909 REED STREET,PAPILLION,NE,68046,4431,(402) 898-0408
22091,317416001284,NEBRASKA CITY MIDDLE SCHOOL,909 1ST CORSO,NEBRASKA CITY,NE,68410,2064,(402) 873-5591
27726,310002102029,WAVERLY INTERMEDIATE SCHOOL,14621 HEYWOOD ST,WAVERLY,NE,68462,0426,(402) 786-5340
29094,317773000263,THEDFORD ELEM ATTENDANCE CNTR,407 COURT,THEDFORD,NE,69166,0248,(308) 645-2214
2135,310381001500,BELLEAIRE ELEMENTARY SCHOOL,1200 MISSION AVE WEST,BELLEVUE,NE,68005,3999,(402) 293-4510
2381,317647001578,LINCOLN HEIGHTS ELEMENTARY SCH,2214 AVE C,SCOTTSBLUFF,NE,69361,1609,(308) 635-6252
4392,317422002332,WESTWARD ELEMENTARY SCHOOL,500 WEST 8TH ST,NELIGH,NE,68756,0149,(402) 887-4754
4786,318013002347,BRIDGEPORT HEAD START,818 O STREET,BRIDGEPORT,NE,69336,NOT AVAILABLE,(308) 262-0507
5992,310016502358,DOUGLAS CO WEST ALTERNATIVE HIGH SCHOOL,401 S PINE ST,VALLEY,NE,68064,NOT AVAILABLE,(531) 329-3403
7804,310017001850,GORDON-RUSHVILLE MIDDLE SCHOOL,310 SPRAGUE,RUSHVILLE,NE,69360,0590,(308) 327-2491
8490,317323002287,MADISON PRESCHOOL,405 E 8TH ST,MADISON,NE,68748,0450,(402) 454-2656
8722,310321000515,ARTHUR COUNTY ELEMENTARY SCHOOL,310 CEDAR,ARTHUR,NE,69121,0145,(308) 764-2231
34222,317080001806,GARDEN COUNTY ELEMENTARY SCH,800 WEST 2ND,OSHKOSH,NE,69154,0230,(308) 772-3336
37983,310312000027,ARCADIA ELEMENTARY SCHOOL,320 W OWENS ST,ARCADIA,NE,68815,0248,(308) 789-6522
38417,310002101697,EAGLE ELEMENTARY SCHOOL,600 S 1ST ST,EAGLE,NE,68347,0219,(402) 781-2210
39656,317905001917,YORK HIGH SCHOOL,1005 DUKE DR,YORK,NE,68467,1299,(402) 362-6655
12392,317284002276,EDUCARE OF LINCOLN,3435 NORTH 14TH STREET,LINCOLN,NE,68521,NOT AVAILABLE,(402) 458-3171
12607,310001800075,WAUNETA PALISADE MIDDLE SCHOOL,214 W WICHITA ST,WAUNETA,NE,69045,0368,(308) 394-5650
13183,310563000184,CROFTON HIGH SCHOOL,89048 N HWY 121,CROFTON,NE,68730,0429,(402) 388-2440
16808,317905002201,PRESCHOOL LEARNING ACADEMY,1501 WASHINGTON AVE,YORK,NE,68467,4700,(402) 362-6655
19980,317802001852,KENNEDY SCHOOL,16B SPUR,VALENTINE,NE,69201,9416,(402) 376-1666
63847,317284001167,NORWOOD PARK ELEMENTARY SCHOOL,4710 N 72ND ST,LINCOLN,NE,68507,1522,(402) 436-1155
67425,317284001159,LINCOLN EAST HIGH SCHOOL,1000 S 70TH ST,LINCOLN,NE,68510,4297,(402) 436-1302
68142,310011202219,LAKEVIEW JUNIOR HIGH SCHOOL,3744 83RD STREET,COLUMBUS,NE,68601,8841,(402) 564-8518
70784,310005101872,GENEVA NORTH HIGH SCHOOL,2802 30TH AVENUE,KEARNEY,NE,68845,4035,(308) 338-2011
40690,310381001506,CENTRAL ELEMENTARY SCHOOL,510 W 22ND AVE,BELLEVUE,NE,68005,5065,(402) 293-4685
44771,317200001082,HOMER ELEMENTARY SCHOOL,212 S 3RD,HOMER,NE,68030,0340,(402) 698-2377
48313,317284001181,WEST LINCOLN ELEMENTARY SCHOOL,630 W DAWES AVE,LINCOLN,NE,68521,3999,(402) 436-1168
49802,310013401373,WILCOX-HILDRETH ELEMENTARY SCHOOL,404 E SAPP ST,WILCOX,NE,68982,0190,(308) 478-5265
83370,317011001802,WESTRIDGE ELEMENTARY SCHOOL,3100 N 206TH ST,ELKHORN,NE,68022,7015,(402) 289-2559
85644,310015001698,MORTON SCHOOL,2311 N 60TH ST,LINCOLN,NE,68507,2372,(402) 471-1645
89909,317482001442,WALNUT HILL ELEM SCHOOL,4370 HAMILTON ST,OMAHA,NE,68131,1023,(402) 554-8644
50088,317360001812,MEDICINE VALLEY JR-SR HIGH SCHOOL,303 CROOK AVE,CURTIS,NE,69025,0009,(308) 367-4106
50803,317527002209,PATRIOT ELEMENTARY,1701 HARDWOOD DR,PAPILLION,NE,68046,4502,(402) 898-0405
51785,310018502302,CENTRAL VALLEY PK - GREELEY,304 NORTH SHANNON STREET,GREELEY,NE,68842,0160,(308) 428-3145
56215,317527002341,LIBERTY MIDDLE SCHOOL,10820 WITTMUSS DR,PAPILLION,NE,68046,NOT AVAILABLE,(402) 514-3600
58382,310018502310,CENTRAL VALLEY HIGH SCHOOL,304 NORTH SHANNON STREET,GREELEY,NE,68842,0160,(308) 428-3145
59720,317686002273,E N SWETT ELEMENTARY SCHOOL,2300 C ST,SO SIOUX CITY,NE,68776,3057,(402) 494-3501
90044,317482002251,WILSON FOCUS SCHOOL,5141 F STREET,OMAHA,NE,68117,2807,(402) 733-1785
90266,310017702019,NCYF COMMUNITY HIGH SCHOOL,2610 N 20TH ST EAST,OMAHA,NE,68110,2730,(402) 636-8690
91786,310018602312,OMAHA HOME FOR BOYS SCHOOLS,4343 N 52ND ST,OMAHA,NE,68104,NOT AVAILABLE,(402) 457-7155
94090,317242001111,KENESAW ELEMENTARY SCHOOL,110 N 5TH AVE,KENESAW,NE,68956,0129,(402) 752-3215
98100,317482001356,BEVERIDGE MAGNET MIDDLE SCHOOL,1616 S 120TH ST,OMAHA,NE,68144,1687,(531) 299-2280
98358,317284000379,CAVETT ELEMENTARY SCHOOL,7701 S 36TH ST,LINCOLN,NE,68516,5716,(402) 436-1131
99258,317221000216,HYANNIS ELEMENTARY SCHOOL,332 E HWY 2,HYANNIS,NE,69350,0286,(308) 458-2202
100262,310018802388,YOUTH CARE AND BEYOND LEARNING CENTER,6055 COUNTRY CLUB RD,OMAHA,NE,68152,NOT AVAILABLE,(531) 200-5898
100977,310381001503,BERTHA BARBER ELEMENTARY SCH,1402 MAIN ST,BELLEVUE,NE,68005,5812,(402) 293-4560
101081,317239001101,BRYANT ELEMENTARY SCHOOL,1611 AVE C,KEARNEY,NE,68847,6142,(308) 698-8190
105598,310009502384,CRETE SUCCESS ACADEMY,1500 E 15TH STREET,CRETE,NE,68333,1936,(402) 826-5811
105604,310018900943,SUMMERLAND HIGH SCH AT EWING,416 N SPRUCE,EWING,NE,68735,0098,(402) 626-7235
105629,317482002409,EARLY LEARNING CENTER (PK) AT KENNEDY,3200 NORTH 30TH STREET,OMAHA,NE,68111,3120,(402) 561-6190
61201,316295000817,CENTURA ELEMENTARY SCHOOL,201 N HWY 11,CAIRO,NE,68824,NOT AVAILABLE,(308) 485-4258
64360,317485001448,O'NEILL HIGH SCHOOL,540 E HYNES,O'NEILL,NE,68763,0230,(402) 336-1544
66102,317284001995,HUMANN ELEMENTARY SCHOOL,6720 ROCKWOOD LN,LINCOLN,NE,68516,5199,(402) 436-1145
66330,310000401122,LAUREL-CONCORD-COLERIDGE HIGH SCHOOL,502 WAKEFIELD ST,LAUREL,NE,68745,0008,(402) 256-3133
66958,317272001126,LEIGH HIGH SCHOOL,310 SHORT ST,LEIGH,NE,68643,0098,(402) 487-2228
69092,310001601015,GATES ELEMENTARY SCHOOL,2700 W LOUISE ST,GRAND ISLAND,NE,68803,5705,(308) 385-5892
10218,310008201640,STUART HIGH SCHOOL,404 E 2ND,STUART,NE,68780,NOT AVAILABLE,(402) 924-3302
12693,310012001562,HITCHCOCK CO JR/SR HIGH SCHOOL,318 WEST D,TRENTON,NE,69044,0368,(308) 334-5575
15163,310381001510,LEMAY ELEMENTARY SCHOOL,2726 KENNEDY DR,BELLEVUE,NE,68123,1799,(402) 293-4760
16151,317482001424,PONCA ELEM SCHOOL,11300 N POST RD,OMAHA,NE,68112,1299,(531) 299-1960
2607,310000300916,ELEMENTARY SCHOOL AT BRAINARD,212 S MADISON,BRAINARD,NE,68626,0036,(402) 545-2081
5952,317122002362,ASPEN CREEK MIDDLE SCHOOL,18414 SUMMIT DRIVE,OMAHA,NE,68136,NOT AVAILABLE,(402) 332-3866
6754,310534000170,WEST PARK ELEMENTARY,4100 ADAMY ST,COLUMBUS,NE,68602,0947,(402) 563-7075
8530,317539001490,PENDER ELEMENTARY SCHOOL,609 WHITNEY ST,PENDER,NE,68047,5036,(402) 385-3244
9138,317539001490,PENDER ELEMENTARY SCHOOL,609 WHITNEY ST,PENDER,NE,68047,5036,(402) 385-3244
41125,310005901875,UNIVERSITY OF NEBRASKA HIGH SCHOOL,206 S 13TH ST STE 800,LINCOLN,NE,68588,0226,(402) 472-4338
42916,317482001396,JEFFERSON ELEM SCHOOL,4065 VINTON ST,OMAHA,NE,68105,3895,(402) 554-6590
46349,317359001231,MEAD HIGH SCHOOL,114 N VINE,MEAD,NE,68041,0158,(402) 624-3435
53910,467209000506,LITTLEBURG ELEMENTARY - 12,28406 300 1ST ST,VALENTINE,NE,69201,NOT AVAILABLE,(605) 378-3881
54198,310012202321,LAWRENCE - NELSON MIDDLE SCHOOL,850 S NEVADA,NELSON,NE,68961,0368,(402) 225-3371
54728,317482000439,SKINNER MAGNET CENTER,4304 N 33RD ST,OMAHA,NE,68111,2748,(531) 299-2080
72582,317852002267,WAYNE ELEMENTARY SCHOOL,312 DOUGLAS STREET,WAYNE,NE,68787,1820,(402) 375-3854
72958,310002101853,WAVERLY MIDDLE SCHOOL,13801 AMBERLY RD,WAVERLY,NE,68462,0426,(402) 786-2348
73264,310381002001,LEWIS & CLARK MIDDLE SCHOOL,13502 S 38TH ST,BELLEVUE,NE,68123,6220,(402) 898-8760
76167,317482001433,OMAHA SOUTH MAGNET HIGH SCHOOL,4519 S 24TH ST,OMAHA,NE,68107,1894,(531) 299-2780
21171,310492000129,CENTRAL CITY HIGH SCHOOL,1510 28TH ST,CENTRAL CITY,NE,68826,0057,(308) 946-3086
22869,317563001483,WESTMONT ELEMENTARY SCHOOL,13210 GLENN ST,OMAHA,NE,68138,4366,(402) 895-9602
29389,310014001419,CREEK VALLEY HIGH SCHOOL,3RD & WASHINGTON,CHAPPELL,NE,69129,0608,(308) 874-3310
90786,317152001046,HARTINGTON-NEWCASTLE ELEM AT HARTINGTON,501 S BROADWAY,HARTINGTON,NE,68739,0075,(402) 254-3947
94040,310546000176,COZAD EARLY EDUCATION CENTER,420 WEST 14TH STREET,COZAD,NE,69130,1423,(308) 784-3381
94395,310291000014,EMERSON ELEMENTARY SCHOOL,700 BLACK HILLS,ALLIANCE,NE,69301,2824,(308) 762-4093
96118,317866001915,WESTSIDE MIDDLE SCHOOL,8601 ARBOR ST,OMAHA,NE,68124,2149,(402) 390-6464
100710,317284002122,PARK MIDDLE SCHOOL,855 S 8TH ST,LINCOLN,NE,68508,3199,(402) 436-1212
105596,310008502369,ST PAUL JR/SR HIGH SCHOOL,1305 HOWARD AVE,ST PAUL,NE,68873,0325,(308) 754-4433
105597,310009502383,CRETE PRESCHOOL,309 E 11TH STREET,CRETE,NE,68333,2228,(402) 826-5822
105599,310014102390,EMERSON-HUBBARD MIDDLE SCHOOL,1503 DAKOTA ST,EMERSON,NE,68733,NOT AVAILABLE,(402) 695-2636
105606,310018901451,SUMMERLAND HIGH SCHOOL AT ORCHARD,425 EAST 4TH ST,ORCHARD,NE,68764,0269,(402) 893-2065
105612,317011002413,ELKHORN NORTH HIGH SCHOOL,17800 GEORGE MILLER PARKWAY,OMAHA,NE,68116,NOT AVAILABLE,(402) 289-2579
105616,317071002376,PATHFINDER PROGRAM,130 EAST 9TH STREET,FREMONT,NE,68025,NOT AVAILABLE,(402) 727-3000
