OBJECTID,NCESID,NAME,ADDRESS,CITY,STATE,ZIP,ZIP4,TELEPHONE
13050,320030000450,SUTRO ELEMENTARY SCHOOL,190 DAYTON VILLAGE PARKWAY,DAYTON,NV,89403,NOT AVAILABLE,(775) 246-6270
18721,320000100821,IMAGINE SCHOOL MOUNTAIN VIEW,6610 GRAND MONTECITO PKWY,LAS VEGAS,NV,89149,NOT AVAILABLE,(702) 253-0251
19732,320048000218,GLENN DUNCAN STEM ACADEMY,1200 MONTELLO STREET,RENO,NV,89512,NOT AVAILABLE,(775) 333-5190
19920,320048000367,SILVER LAKE ELEMENTARY,8719 RED BARON BLVD,RENO,NV,89506,NOT AVAILABLE,(775) 677-5400
4479,320000100870,SPORTS LEADERSHIP AND MANAGEMENT ACADEMY,1095 FIELDERS ST.,HENDERSON,NV,89011,NOT AVAILABLE,(702) 473-5735
6055,320021000858,HUMBOLDT ADULT EDUCATION PROGRAM,310 EAST 4TH STREET,WINNEMUCCA,NV,89445,NOT AVAILABLE,(775) 623-8277
6136,320002300808,INDEPENDENCE HIGH SCHOOL,100 YOUTH CENTER RD,ELKO,NV,89801,NOT AVAILABLE,(775) 738-5907
6246,320000100892,DORAL ACADEMY WEST PEBBLE,6435 W. PEBBLE,LAS VEGAS,NV,89139,NOT AVAILABLE,(702) 916-4320
7133,320006000565,SAVILLE ANTHONY MS,8101 N TORREY PINES DR,LAS VEGAS,NV,89131,NOT AVAILABLE,(702) 799-3460
40877,320048000706,MIGUEL SEPULVEDA ELEMENTARY SCHOOL,5075 ION DRIVE,SPARKS,NV,89436,NOT AVAILABLE,(775) 626-5257
44940,320006000609,ODYSSEY CHARTER SCHOOLS 9-12 HS,2251 S JONES BLVD,LAS VEGAS,NV,89146,NOT AVAILABLE,(702) 257-0578
63281,320000100751,BEACON ACADEMY OF NEVADA,7360 W. FLAMINGO ROAD,LAS VEGAS,NV,89147,NOT AVAILABLE,(702) 726-8600
66230,320006000493,CENTENNIAL HS,10200 CENTENNIAL PKWY,LAS VEGAS,NV,89149,NOT AVAILABLE,(702) 799-3440
67448,320036000566,BEATTY MIDDLE SCHOOL,301 N 4TH ST,BEATTY,NV,89003,NOT AVAILABLE,(775) 553-2902
69819,320006000656,HICKEY LILIAM LUJAN ES,2450 N HOLLYWOOD BLVD,LAS VEGAS,NV,89156,NOT AVAILABLE,(702) 799-1899
101824,320006000528,HECKETHORN HOWARD E ES,5150 WHISPERING SANDS DR,LAS VEGAS,NV,89131,NOT AVAILABLE,(702) 799-6690
105657,320000100921,SOMERSET ACADEMY ALIANTE,6475 VALLEY DRIVE,NORTH LAS VEGAS,NV,89084,NOT AVAILABLE,(702) 916-2327
21696,320006000847,HIGH DESERT STATE PRISON YOP,22010 COLD CREEK RD,INDIAN SPRINGS,NV,89018,NOT AVAILABLE,(702) 879-6824
23174,320048000216,GEORGE L. DILWORTH S.T.E.M ACADEMY,255 PRATER WAY,SPARKS,NV,89431,NOT AVAILABLE,(775) 353-5740
25131,320006000745,THE DELTA ACADEMY J-SHS,818 WEST BROOKS AVENUE,NORTH LAS VEGAS,NV,89030,NOT AVAILABLE,(702) 396-2252
29308,320009000121,GARDNERVILLE ELEMENTARY SCHOOL,1290 TOLER AVENUE,GARDNERVILLE,NV,89410,NOT AVAILABLE,(775) 782-5117
86047,320006000443,COLLEGE OF SO NV HS EAST,3200 E CHEYENNE AVE,N LAS VEGAS,NV,89030,NOT AVAILABLE,(702) 651-4070
32814,320048000224,INCLINE ELEMENTARY,915 NORTHWOOD BLVD,INCLINE VILLAGE,NV,89451,NOT AVAILABLE,(775) 832-4250
36337,320006000019,SEWELL C T ES,700 E LAKE MEAD DR,HENDERSON,NV,89015,NOT AVAILABLE,(702) 799-8940
37600,320009000122,GEORGE WHITTELL HIGH SCHOOL,240 WARRIOR WAY,ZEPHYR COVE,NV,89448,NOT AVAILABLE,(775) 588-2446
39657,320006000714,LEGACY HS,150 W DEER SPRINGS WAY,N LAS VEGAS,NV,89084,NOT AVAILABLE,(702) 799-1777
94363,320048000204,ARCHIE CLAYTON PRE-AP ACADEMY MIDDLE SCHOOL,1295 WYOMING AVENUE,RENO,NV,89503,NOT AVAILABLE,(775) 746-5860
96363,320006000604,LIBERTY HS,3700 LIBERTY HEIGHTS AVE,HENDERSON,NV,89052,NOT AVAILABLE,(702) 799-2270
97422,320048000214,FLORENCE DRAKE ELEMENTARY,2755 FOURTH STREET,SPARKS,NV,89431,NOT AVAILABLE,(775) 353-5510
97774,320006000066,DEARING LAURA ES,3046 S FERNDALE,LAS VEGAS,NV,89121,NOT AVAILABLE,(702) 799-7710
55284,320012000674,CARLIN JR HIGH SCHOOL,552 8TH STREET,CARLIN,NV,89822,NOT AVAILABLE,(775) 754-6317
58093,320006000596,EXPLORE KNOWLEDGE ACADEMY ES,5871 MOUNTAIN VISTA ST,LAS VEGAS,NV,89120,NOT AVAILABLE,(702) 870-5032
74808,320006000540,CORONADO HS,1001 CORONADO CENTER DR,HENDERSON,NV,89052,NOT AVAILABLE,(702) 799-6800
5760,320012000140,SOUTHSIDE ELEMENTARY SCHOOL,501 SOUTH 9TH STREET,ELKO,NV,89801,NOT AVAILABLE,(775) 738-3731
41622,320006000434,BRYAN RICHARD H ES,8050 CIELO VISTA AVE,LAS VEGAS,NV,89128,NOT AVAILABLE,(702) 799-1460
44590,320003000003,CHURCHILL COUNTY MIDDLE SCHOOL,650 SOUTH MAINE STREET,FALLON,NV,89406,NOT AVAILABLE,(775) 423-7701
60883,320021000154,MCDERMITT HIGH SCHOOL,100 OLAVARRIA STREET,MCDERMITT,NV,89421,NOT AVAILABLE,(866) 447-3991
68323,320006000472,LAMPING FRANK ES,2551 SUMMIT GROVE DR,HENDERSON,NV,89052,NOT AVAILABLE,(702) 799-1330
53451,320036000194,TONOPAH ELEMENTARY SCHOOL,1220 IDAHO CIR,TONOPAH,NV,89049,NOT AVAILABLE,(775) 482-6644
54547,320006000420,SILVERADO HIGH SCHOOL,1650 SILVER HAWK AVE.,LAS VEGAS,NV,89123,NOT AVAILABLE,(702) 799-5790
94421,320012000135,NORTHSIDE ELEMENTARY SCHOOL,1645 SEWELL DRIVE,ELKO,NV,89801,NOT AVAILABLE,(775) 738-7255
96925,320006000034,GARSIDE FRANK F JHS,300 S TORREY PINES DR,LAS VEGAS,NV,89107,NOT AVAILABLE,(702) 799-4245
98070,320006000531,TWITCHELL NEIL C ES,2060 DESERT SHADOW TRAIL,HENDERSON,NV,89012,NOT AVAILABLE,(702) 799-6860
82805,320036000363,ROUND MOUNTAIN HIGH SCHOOL,61 HADLEY CIR,ROUND MOUNTAIN,NV,89045,NOT AVAILABLE,(775) 377-2690
10026,320006000778,VETERANS TRIBUTE CTA HS,2531 VEGAS DR,LAS VEGAS,NV,89106,NOT AVAILABLE,(702) 799-4710
11426,320006000747,DIAZ RUBEN P ES,4450 E OWENS AVE,LAS VEGAS,NV,89110,NOT AVAILABLE,(702) 799-2120
13716,320006000771,FINE MARK L ES,6635 W COUGAR AVE,LAS VEGAS,NV,89139,NOT AVAILABLE,(702) 799-6882
34768,320048000233,MARVIN PICOLLO ELEMENTARY,900 FOOTHILL ROAD,RENO,NV,89511,NOT AVAILABLE,(775) 851-5650
35004,320006000513,WOLFF ELISE L ES,1001 SEVEN HILLS DR,HENDERSON,NV,89052,NOT AVAILABLE,(702) 799-2230
36785,320006000440,VANDERBURG JOHN ES,2040 DESERT SHADOW TRAIL,HENDERSON,NV,89012,NOT AVAILABLE,(702) 799-0540
38124,320006000456,BOWLER JOSEPH L ES,451 VINCEN LEAVITT AVE,BUNKERVILLE,NV,89007,NOT AVAILABLE,(702) 346-1900
72874,320006000794,FLORENCE MCCLURE CORRECTIONAL CENTER,2701 E. ST. LOUIS AVE.,LAS VEGAS,NV,89104,NOT AVAILABLE,(702) 651-9327
75954,320006000586,FRIAS CHARLES & PHYLLIS ES,5800 BROKEN TOP AVE,LAS VEGAS,NV,89141,NOT AVAILABLE,(702) 799-2298
76829,320006000737,FORBUSS ROBERT L ES,8601 S GRAND CANYON DR,LAS VEGAS,NV,89178,NOT AVAILABLE,(702) 799-6840
21306,320036000351,J G JOHNSON ELEMENTARY SCHOOL,900 E JACKRABBIT,PAHRUMP,NV,89048,NOT AVAILABLE,(775) 727-6619
22859,320048000205,BROWN ELEMENTARY,13815 SPELLING COURT,RENO,NV,89521,NOT AVAILABLE,(775) 851-5600
27124,320048000219,GRACE WARNER ELEMENTARY,3075 HEIGHTS DRIVE,RENO,NV,89503,NOT AVAILABLE,(775) 746-5830
27730,320048000234,NATCHEZ ELEMENTARY,1 HWY 447,WADSWORTH,NV,89442,NOT AVAILABLE,(775) 351-1902
72490,320006000277,LAS VEGAS ACADEMY OF THE ARTS HS,315 S 7TH ST,LAS VEGAS,NV,89101,NOT AVAILABLE,(702) 799-7800
73528,320039000160,MARK TWAIN ELEMENTARY,2111 CARRIAGE CREST DR.,CARSON CITY,NV,89706,NOT AVAILABLE,(775) 283-1000
74915,320002100680,THE DAVIDSON ACADEMY OF NEVADA,JOT TRAVIS BULDING #048 1164 N,RENO,NV,89503,NOT AVAILABLE,(775) 682-5800
79446,320006000455,CARTWRIGHT ROBERTA C ES,1050 E GARY AVE,LAS VEGAS,NV,89123,NOT AVAILABLE,(702) 799-1350
79949,320012000350,SPRING CREEK ELEMENTARY SCHOOL,7 EAST LICHT PARKWAY,SPRING CREEK,NV,89815,NOT AVAILABLE,(775) 753-6881
100311,320006000915,DENNIS ORTWEIN ELEMENTARY,10926 DEAN MARTIN DRIVE,LAS VEGAS,NV,89141,NOT AVAILABLE,(702) 799-2680
81248,320006000814,NW CAREER-TECHNICAL ACADEMY ES,8200 W TROPICAL PKWY,LAS VEGAS,NV,89149,NOT AVAILABLE,(702) 799-4640
54763,320006000485,HAYES KEITH C & KAREN W ES,9620 W TWAIN AVE,LAS VEGAS,NV,89147,NOT AVAILABLE,(702) 799-6030
55304,320006000596,EXPLORE KNOWLEDGE ACADEMY CHARTER ELEMENTARY,5871 MOUNTAIN VISTA ST.,LAS VEGAS,NV,89120,NOT AVAILABLE,(702) 730-2933
56500,320009000348,JACOBSEN HIGH SCHOOL,225 CHINA SPRING RD,GARDNERVILLE,NV,89410,NOT AVAILABLE,(775) 265-5433
57083,320000100885,DISCOVERY CHARTER SCHOOL SANDHILL,3975 S SANDHILL RD,LAS VEGAS,NV,89121,NOT AVAILABLE,(702) 489-9350
57284,320000100901,SOMERSET ACADEMY LONE MOUNTAIN,4491 N. RAINBOW BLVD.,LAS VEGAS,NV,89108,NOT AVAILABLE,(702) 685-9150
57587,320048000211,EDWARD L PINE MIDDLE SCHOOL,4800 NEIL ROAD,RENO,NV,89502,NOT AVAILABLE,(775) 689-2550
59881,320006000303,TOBLER R E ES,6510 BUCKSKIN AVE,LAS VEGAS,NV,89108,NOT AVAILABLE,(702) 799-4500
20132,320006000444,COLLEGE OF SO NV HS WEST,6375 W CHARLESTON BLVD,LAS VEGAS,NV,89146,NOT AVAILABLE,(702) 651-5030
21307,320006000550,GEHRING ROGER D ACAD OF SCIENCE & TECHNOLOGY ES,1155 E RICHMAR AVE,LAS VEGAS,NV,89123,NOT AVAILABLE,(702) 799-6899
25932,320006000508,MOORE WILLIAM K ES,491 N LAMB BLVD,LAS VEGAS,NV,89110,NOT AVAILABLE,(702) 799-3270
26677,320006000471,CORTEZ MANUEL J ES,4245 E TONOPAH AVE,LAS VEGAS,NV,89115,NOT AVAILABLE,(702) 799-2180
29999,320006000065,LAS VEGAS HS,6500 E SAHARA AVE,LAS VEGAS,NV,89142,NOT AVAILABLE,(702) 799-0180
67615,320015000144,GOLDFIELD ELEMENTARY SCHOOL,233 RAMSEY ST.,GOLDFIELD,NV,89013,NOT AVAILABLE,(775) 485-3215
69925,320006000039,HEWETSON HALLE ES,701 N 20TH ST,LAS VEGAS,NV,89101,NOT AVAILABLE,(702) 799-7896
31762,320006000377,WYNN ELAINE ES,5655 EDNA AVE,LAS VEGAS,NV,89146,NOT AVAILABLE,(702) 799-8160
36384,320006000456,JOSEPH L BOWLER SR ELEMENTARY SCHOOL,851 VINCENT LEAVITT AVE,BUNKERVILLE,NV,89007,NOT AVAILABLE,(702) 346-1900
37281,320048000246,SPARKS HIGH SCHOOL,820 15TH ST,SPARKS,NV,89431,NOT AVAILABLE,(775) 353-5550
39502,320006000652,TARTAN JOHN ES,3030 E TROPICAL PKWY,N LAS VEGAS,NV,89081,NOT AVAILABLE,(702) 799-4701
16828,320006000059,FREMONT JOHN C PROFESSIONAL DEV MS,1100 E ST LOUIS AVE,LAS VEGAS,NV,89104,NOT AVAILABLE,(702) 799-5558
40876,320009000347,G. L. SCARSELLI ELEMENTARY SCHOOL,699 LONG VALLEY RD,GARDNERVILLE,NV,89460,NOT AVAILABLE,(775) 265-2222
43362,320048000603,ENCOMPASS ACADEMY,1300 FOSTER DR,RENO,NV,89509,NOT AVAILABLE,(775) 322-5566
255,320012000131,INDEPENDENCE VALLEY ELEMENTARY SCHOOL,HC 32 BOX 110,TUSCARORA,NV,89834,NOT AVAILABLE,(775) 756-5597
3282,320006000401,RUNDLE RICHARD ES,425 N CHRISTY LN,LAS VEGAS,NV,89110,NOT AVAILABLE,(702) 799-7380
91042,320033000763,MINERAL ALTERNATIVE EDUCATION,601 A STREET,HAWTHORNE,NV,89415,NOT AVAILABLE,(775) 945-3332
98007,320006000047,HYDE PARK MS,900 HINSON ST,LAS VEGAS,NV,89107,NOT AVAILABLE,(702) 799-4260
67921,320006000512,STATON ETHEL W ES,1700 SAGEBERRY DR,LAS VEGAS,NV,89144,NOT AVAILABLE,(702) 799-6720
68325,320048000206,DARREL SWOPE MIDDLE SCHOOL,901 KEELE DRIVE,RENO,NV,89509,NOT AVAILABLE,(775) 333-5330
69931,320012000141,WELLS ELEMENTARY SCHOOL,1378 LAKE AVENUE,WELLS,NV,89835,NOT AVAILABLE,(775) 752-3837
81856,320006000074,CAHLAN MARION ES,2801 FT SUMTER DR,N LAS VEGAS,NV,89030,NOT AVAILABLE,(702) 799-7103
82559,320006000087,CULLEY PAUL E ES,1200 N MALLARD,LAS VEGAS,NV,89108,NOT AVAILABLE,(702) 799-4800
57067,320000100896,MATER ACADEMY OF NORTHERN NEVADA,2680 E. NINTH STREET,RENO,NV,89512,NOT AVAILABLE,(775) 470-8950
43420,320006000372,WOOLLEY GWENDOLYN ES,3955 TIMBERLAKE DR,LAS VEGAS,NV,89115,NOT AVAILABLE,(702) 799-4970
70925,320006000404,O'CALLAGHAN MIKE MS I3 LEARN ACADEMY,1450 RADWICK DR,LAS VEGAS,NV,89110,NOT AVAILABLE,(702) 799-7340
72800,320006000510,SMITH HAL ES,5150 E DESERT INN RD,LAS VEGAS,NV,89122,NOT AVAILABLE,(702) 799-3700
32946,320006000291,GARRETT ELTON M JHS,1200 AVE G,BOULDER CITY,NV,89005,NOT AVAILABLE,(702) 799-8290
33675,320006000259,MCMILLAN JAMES B ES,7000 WALT LOTT DR,LAS VEGAS,NV,89128,NOT AVAILABLE,(702) 799-4350
34723,320006000015,SQUIRES C P ES,1312 E TONOPAH AVE,N LAS VEGAS,NV,89030,NOT AVAILABLE,(702) 799-7169
38267,320006000396,DAILEY JACK ES,2001 E RENO AVE,LAS VEGAS,NV,89119,NOT AVAILABLE,(702) 799-5690
11695,320036000192,PAHRUMP VALLEY HIGH SCHOOL,501 E CALVADA BLVD,PAHRUMP,NV,89048,NOT AVAILABLE,(775) 727-7737
14468,320051000263,MCGILL ELEMENTARY,25 AVENUE F,MCGILL,NV,89318,NOT AVAILABLE,(775) 235-7722
17669,320006000013,BOULDER CITY HS,1101 FIFTH ST,BOULDER CITY,NV,89005,NOT AVAILABLE,(702) 799-8200
18153,320006000294,CLARK COUNTY DETENTION CTR J-SHS,601 N PECOS RD SUITE 70,LAS VEGAS,NV,89101,NOT AVAILABLE,(702) 799-1623
4792,320036000871,WARM SPRINGS ELEMENTARY MIDDLE SCHOOL,US ROUTE 6/STATE ROUTE 37,TONAPAH,NV,89049,NOT AVAILABLE,(775) 537-5019
5459,320048000844,NORTH STAR ONLINE SCHOOL,5450 RIGGINS COURST STE. #6,RENO,NV,89502,NOT AVAILABLE,(775) 353-6900
23465,320006000730,WILBUR & THERESA FAISS MIDDLE SCHOOL,9525 W. MAULE AVE.,LAS VEGAS,NV,89148,NOT AVAILABLE,(702) 799-6850
26912,320009000422,PAU WA LU MIDDLE SCHOOL,701 LONG VALLEY RD,GARDNERVILLE,NV,89460,NOT AVAILABLE,(775) 265-6100
105654,320000100884,DEMOCRACY PREP AT AGASSI MIDDLE,1201 W LAKE MEAD BLVD,LAS VEGAS,NV,89106,NOT AVAILABLE,(702) 948-6000
105677,320006000930,ELLIS ROBERT & SANDY ES,3200 ARTELLA AVENUE,HENDERSON,NV,89044,NOT AVAILABLE,(702) 799-5888
91823,320048000240,RITA CANNAN ELEMENTARY,2450 CANNAN STREET,RENO,NV,89512,NOT AVAILABLE,(775) 353-5750
99302,320048000221,MARVIN MOSS ELEMENTARY,2200 PRIMIO WAY,SPARKS,NV,89434,NOT AVAILABLE,(775) 353-5507
32099,320030000312,YERINGTON INTERMEDIATE SCHOOL,215 PEARL STREET,YERINGTON,NV,89447,NOT AVAILABLE,(775) 463-6833
32658,320048000238,PROCTER R. HUG HIGH SCHOOL,2880 SUTRO STREET,RENO,NV,89512,NOT AVAILABLE,(775) 333-5300
34767,320012000385,SAGE ELEMENTARY SCHOOL,208 BOYD-KENNEDY ROAD,SPRING CREEK,NV,89815,NOT AVAILABLE,(775) 738-4711
35870,320006000554,FERTITTA VICTORIA MS,9905 W MESA VISTA AVE,LAS VEGAS,NV,89148,NOT AVAILABLE,(702) 799-1900
39881,320021000158,WINNEMUCCA GRAMMAR SCHOOL,522 LAY STREET,WINNEMUCCA,NV,89445,NOT AVAILABLE,(775) 623-8160
11139,320051000802,MOUNTAIN HIGH SCHOOL,4569 NORTH STATE ROUTE 490,ELY,NV,89301,NOT AVAILABLE,(775) 289-2244
11452,320006000790,HIGH DESERT STATE PRISON ADULT HS,22010 COLD CREEK RD,INDIAN SPRINGS,NV,89070,NOT AVAILABLE,(702) 879-6682
19492,320006000012,MITCHELL ANDREW ES,900 AVE B,BOULDER CITY,NV,89005,NOT AVAILABLE,(702) 799-8280
29075,320009000448,MINDEN ELEMENTARY SCHOOL,1170 BALER STREET,MINDEN,NV,89423,NOT AVAILABLE,(775) 782-5510
61178,320030000810,SILVERLAND MIDDLE SCHOOL,1100 JASMINE LANE,FERNLEY,NV,89408,NOT AVAILABLE,(775) 575-1575
63087,320036000729,DUCKWATER MIDDLE SCHOOL,2 DUCKWATER RD,DUCKWATER,NV,89314,NOT AVAILABLE,(775) 482-6644
63581,320027000410,MEADOW VALLEY MIDDLE SCHOOL,91 N 4TH STREET,PANACA,NV,89042,NOT AVAILABLE,(775) 728-4655
64112,320012000449,WEST WENDOVER HIGH SCHOOL,2055 ELKO AVENUE,WENDOVER,NV,89883,NOT AVAILABLE,(775) 664-3940
66770,320048000503,SIERRA NEVADA ACADEMY CHARTER,13880 STEAD BLVD,RENO,NV,89506,NOT AVAILABLE,(775) 677-4500
67606,320030000175,FERNLEY ELEMENTARY SCHOOL,450 HARDIE LANE,FERNLEY,NV,89408,NOT AVAILABLE,(775) 575-3420
67927,320006000654,BATTERMAN KATHY L ES,10135 W QUAIL AVE,LAS VEGAS,NV,89148,NOT AVAILABLE,(702) 799-1920
74540,320006000269,FITZGERALD H P ES,2651 N REVERE ST,N LAS VEGAS,NV,89030,NOT AVAILABLE,(702) 799-0600
76099,320045000365,VIRGINIA CITY MIDDLE SCHOOL,127 SOUTH D STREET,VIRGINIA CITY,NV,89440,NOT AVAILABLE,(775) 847-0980
49007,320006000758,O ROARKE THOMAS ES,8455 O'HARE ROAD,LAS VEGAS,NV,89143,NOT AVAILABLE,(702) 799-6600
5613,320000100907,CORAL ACADEMY OF SCIENCE LAS VEGAS NELLIS AFB,42 BAER DR.,LAS VEGAS,NV,89115,NOT AVAILABLE,(702) 643-5121
5941,320000100893,DORAL ACADEMY FIRE MESA,2568 FIRE MESA STREET,LAS VEGAS,NV,89128,NOT AVAILABLE,(702) 901-4950
6002,320024000864,LANDER COUNTY ADULT ED,350 E. FRONT STREET,BATTLE MOUNTAIN,NV,89820,NOT AVAILABLE,(775) 635-6105
6012,320006000873,BERKLEY SHELLEY ES,9850 COPPER EDGE RD,LAS VEGAS,NV,89148,NOT AVAILABLE,(702) 799-2525
80113,320006000044,SMITH HELEN M ES,7101 PINEDALE AVE,LAS VEGAS,NV,89145,NOT AVAILABLE,(702) 799-4300
82732,320006000487,NEAL JOSEPH M ES,6651 W AZURE DRIVE,LAS VEGAS,NV,89130,NOT AVAILABLE,(702) 799-2200
82891,320048000602,DAMONTE RANCH HIGH SCHOOL,10500 RIO WRANGLER PKWY,RENO,NV,89521,NOT AVAILABLE,(775) 851-5656
105663,320000100937,NEVADA STATE HIGH SCHOOL SOUTHWEST,7885 WEST SUNSET ROAD SUITE 1,LAS VEGAS,NV,89113,NOT AVAILABLE,(702) 953-2600
105669,320000100953,PINECREST ACADEMY OF NORTHERN NEVADA,1150 SILENT SPARROW DRIVE,SPARKS,NV,89441,NOT AVAILABLE,(702) 431-6260
25387,320006000471,MANUEL J CORTEZ ELEMENTARY SCHOOL,4245 E. TONOPAH AVE.,LAS VEGAS,NV,89115,NOT AVAILABLE,(702) 799-2180
26870,320006000266,LUMMIS WILLIAM ES,9000 HILLPOINTE RD,LAS VEGAS,NV,89134,NOT AVAILABLE,(702) 799-4380
27910,320006000112,WALTER BRACKEN ELEMENTARY SCHOOL,1200 N. 27TH ST.,LAS VEGAS,NV,89101,NOT AVAILABLE,(702) 799-7095
65918,320006000442,BRYAN ROGER M ES,8255 KATIE AVE,LAS VEGAS,NV,89147,NOT AVAILABLE,(702) 799-1270
66299,320033000183,MINERAL COUNTY HIGH SCHOOL,601 A ST,HAWTHORNE,NV,89415,NOT AVAILABLE,(775) 945-3332
6137,320003000868,CHURCHILL COUNTY ADULT ED,280 SOUTH RUSSELL STREET,FALLON,NV,89406,NOT AVAILABLE,(775) 423-1191
7530,320039000803,EARLY CHILDHOOD CENTER,710 W. 4TH ST.,CARSON CITY,NV,89701,NOT AVAILABLE,(775) 283-2350
7739,320006000538,SEDWAY MARVIN M MS,3465 ENGLESTAD ST,N LAS VEGAS,NV,89032,NOT AVAILABLE,(702) 799-3880
91706,320006000780,SOUTHWEST CAREER & TECHNICAL ACADEMY HS,7050 W SHELBOURNE AVE,LAS VEGAS,NV,89113,NOT AVAILABLE,(702) 799-5766
94611,320006000739,ESCOBEDO EDMUNDO EDDIE SR MS,9501 ECHELON POINT DR,LAS VEGAS,NV,89149,NOT AVAILABLE,(702) 799-4560
97130,320006000570,FINDLAY CLIFFORD O MS,333 W TROPICAL PKWY,N LAS VEGAS,NV,89031,NOT AVAILABLE,(702) 799-3160
98833,320012000728,WEST WENDOVER MIDDLE SCHOOL,2000 ELKO AVENUE,WENDOVER,NV,89883,NOT AVAILABLE,(775) 664-4406
50187,320027000166,CALIENTE ELEMENTARY SCHOOL,289 LINCOLN STREET,CALIENTE,NV,89008,NOT AVAILABLE,(775) 726-3772
53613,590015300135,DUCKWATER SHOSHONE ELEMENTARY SCHOOL,509 DUCKWATER FALLS RD,DUCKWATER,NV,89314,NOT AVAILABLE,(775) 863-0126
86436,320006000342,MCDONIEL ESTES M ES,1831 FOX RIDGE DR,HENDERSON,NV,89014,NOT AVAILABLE,(702) 799-7788
89386,320006000741,DICKENS D L DUSTY ES,5550 MILAN PEAK ST,N LAS VEGAS,NV,89081,NOT AVAILABLE,(702) 799-3878
105660,320000100928,NEVADA STATE HIGH SCHOOL III SUNRISE,2425 NORTH LAMB BOULEVARD SUI,LAS VEGAS,NV,89115,NOT AVAILABLE,(702) 953-2600
105670,320000100954,GIRLS ATHLETIC LEADERSHIP SCHOOL,920 COTTAGE GROVE AVE,LAS VEGAS,NV,89119,NOT AVAILABLE,(702) 672-6386
105693,320048000942,JOHN BOHACH ELEMENTARY SCHOOL,1100 WINDMILL FARMS PKWY,SPARKS,NV,89436,NOT AVAILABLE,(775) 626-0062
107182,320000100912,LEGACY TRADITIONAL SCHOOL CADENCE,325 INFLECTION STREET,HENDERSON,NV,89011,NOT AVAILABLE,(702) 846-2310
16614,320006000077,ANTONELLO LEE ES,1101 W TROPICAL PKWY,N LAS VEGAS,NV,89031,NOT AVAILABLE,(702) 799-8380
36556,320006000117,ORR WILLIAM E MS,1562 E KATIE AVE,LAS VEGAS,NV,89119,NOT AVAILABLE,(702) 799-5573
37149,320006000591,CANARELLI LAWRENCE & HEIDI MS,7808 S TORREY PINES DR,LAS VEGAS,NV,89139,NOT AVAILABLE,(702) 799-1340
38595,320048000426,DESERT HEIGHTS ELEMENTARY,13948 MOUNT BISMARK STREET,RENO,NV,89506,NOT AVAILABLE,(775) 677-5444
39868,320012000610,OWYHEE HIGH SCHOOL,100 ACADEMIC WAY,OWYHEE,NV,89832,NOT AVAILABLE,(775) 757-3400
70910,320027000171,PAHRANAGAT VALLEY HIGH SCHOOL,158 MAIN STREET,ALAMO,NV,89001,NOT AVAILABLE,(775) 725-3321
71503,320006000572,DESERT WILLOW ES,245 N PECOS,LAS VEGAS,NV,89101,NOT AVAILABLE,(702) 999-9999
75191,320006000573,CONNERS EILEEN ES,3810 SHADOW PEAK DR,LAS VEGAS,NV,89129,NOT AVAILABLE,(702) 799-1402
91305,320006000495,DESERT PINES HS,3800 HARRIS AVE,LAS VEGAS,NV,89110,NOT AVAILABLE,(702) 799-2196
98826,320006000533,ANDRE AGASSI COLLEGE PREPARATORY ACADEMY,1201 W. LAKE MEAD BLVD,LAS VEGAS,NV,89106,NOT AVAILABLE,(702) 948-6000
99971,320003000005,NORTHSIDE EARLY LEARNING CENTER,340 VENTURACCI LANE,FALLON,NV,89406,NOT AVAILABLE,(775) 423-3463
71075,320012000727,OWYHEE ELEMENTARY SCHOOL,100 ACADEMIC WAY,OWYHEE,NV,89832,NOT AVAILABLE,(775) 757-3400
80819,320048000220,GREENBRAE ELEMENTARY,1840 4TH STREET,SPARKS,NV,89431,NOT AVAILABLE,(775) 353-5530
83497,320006000036,HARRIS GEORGE E ES,3620 S SANDHILL,LAS VEGAS,NV,89121,NOT AVAILABLE,(702) 799-7750
88838,320042000197,LOVELOCK ELEMENTARY SCHOOL,1100 HARVARD WAY,LOVELOCK,NV,89419,NOT AVAILABLE,(775) 273-2176
100837,320006000106,PITTMAN VAIL ES,6333 FARGO AVE,LAS VEGAS,NV,89107,NOT AVAILABLE,(702) 799-4213
12724,320027000173,PIOCHE ELEMENTARY SCHOOL,651 AIRPORT ROAD,PIOCHE,NV,89043,NOT AVAILABLE,(775) 962-5832
12878,320006000068,LINCOLN ELEMENTARY SCHOOL,3010 BERG ST.,NORTH LAS VEGAS,NV,89030,NOT AVAILABLE,(702) 799-7133
14402,320012000836,EARLY CHILDHOOD,850 ELM STREET,ELKO,NV,89801,NOT AVAILABLE,(775) 738-5196
16057,320003000021,LAHONTAN ELEMENTARY SCHOOL,1099 MERTON DRIVE,FALLON,NV,89406,NOT AVAILABLE,(775) 423-1999
17606,320006000732,SMALLEY JAMES E & A RAE ES,304 E PARADISE HILLS DR,HENDERSON,NV,89002,NOT AVAILABLE,(702) 799-8090
17896,320048000389,CAUGHLIN RANCH ELEMENTARY,4885 VILLAGE GREEN PKWY,RENO,NV,89509,NOT AVAILABLE,(775) 689-2600
18555,320000100817,OASIS ACADEMY,920 WEST WILLIAMS AVENUE STE,FALLON,NV,89406,NOT AVAILABLE,(775) 423-5437
19998,320006000457,RHODES BETSY ES,7350 TEALWOOD ST,LAS VEGAS,NV,89131,NOT AVAILABLE,(702) 799-3450
31007,320006000748,EAST CAREER AND TECHNICAL ACADEMY HS,6705 VEGAS VALLEY DR,LAS VEGAS,NV,89142,NOT AVAILABLE,(702) 799-8888
33676,320012000685,WELLS JR HIGH SCHOOL,1129 LAKE AVENUE,WELLS,NV,89835,NOT AVAILABLE,(775) 752-3477
39808,320006000058,MACKEY JO ES,2726 ENGLESTAD,N LAS VEGAS,NV,89030,NOT AVAILABLE,(702) 799-7139
56556,320006000107,VALLEY HIGH SCHOOL,2839 S. BURNHAM AVE.,LAS VEGAS,NV,89169,NOT AVAILABLE,(702) 799-5450
24016,320006000085,PARADISE PROF DEV ES,900 COTTAGE GROVE AVE,LAS VEGAS,NV,89119,NOT AVAILABLE,(702) 799-5660
25284,320006000337,COX CLYDE C ES,3855 TIMBERLAKE DR,LAS VEGAS,NV,89115,NOT AVAILABLE,(702) 799-4990
25821,320006000016,GILBERT CVT ES,2101 W CARTIER AVE,N LAS VEGAS,NV,89032,NOT AVAILABLE,(702) 799-4730
65296,320006000073,WILLIAMS WENDELL ES,1030 J ST,LAS VEGAS,NV,89106,NOT AVAILABLE,(702) 799-4760
69179,320006000081,TATE MYRTLE ES,4497 KELL LANE,LAS VEGAS,NV,89115,NOT AVAILABLE,(702) 799-7360
44864,320012000750,FLAGVIEW INTERMEDIATE SCHOOL,777 COUNTRY CLUB DR,ELKO,NV,89801,NOT AVAILABLE,(775) 738-7236
45536,320006000275,LYON MACK MS,179 S ANDERSEN,OVERTON,NV,89040,NOT AVAILABLE,(702) 397-8610
1219,320006000699,INDIAN SPRINGS MS,400 SKY RD,INDIAN SPRINGS,NV,89018,NOT AVAILABLE,(702) 799-0932
6171,320006000807,JUVENILE DETENTION 3-5,601 N. PECOS #70,LAS VEGAS,NV,89101,NOT AVAILABLE,(702) 455-5230
13123,320048000228,LEMMON VALLEY ELEMENTARY,225 W PATRICIAN DRIVE,RENO,NV,89506,NOT AVAILABLE,(775) 677-5460
14587,320036000618,TONOPAH MIDDLE SCHOOL,1220 IDAHO CIR,TONOPAH,NV,89049,NOT AVAILABLE,(775) 482-3698
14771,320048000237,PLEASANT VALLEY ELEMENTARY,405 SURREY DRIVE,RENO,NV,89511,NOT AVAILABLE,(775) 849-0255
15601,320006000355,PARSON CLAUDE & STELLA ES,4100 THOM BLVD,LAS VEGAS,NV,89130,NOT AVAILABLE,(702) 799-4530
16835,320048000212,ELMCREST ELEMENTARY,855 MCDONALD DR,RENO,NV,89503,NOT AVAILABLE,(775) 746-5850
1688,320006000535,CRAM BRIAN & TERI MS,1900 W DEER SPRINGS WAY,N LAS VEGAS,NV,89084,NOT AVAILABLE,(702) 799-7020
5786,320000100909,PINECREST ACADEMY OF NEVADA INSPIRADA,2840 VIA CONTESSA,HENDERSON,NV,89044,NOT AVAILABLE,(702) 473-5777
5882,320000100898,SOMERSET ACADEMY LOSEE,4650 LOSEE ROAD,NORTH LAS VEGAS,NV,89081,NOT AVAILABLE,(702) 902-5466
6077,320027000865,LINCOLN ADULT,1000 EDWARDS STREET,PANACA,NV,89042,NOT AVAILABLE,(775) 728-4446
7292,320048000318,INCLINE MIDDLE SCHOOL,931 SOUTHWOOD BLVD,INCLINE VILLAGE,NV,89451,NOT AVAILABLE,(775) 832-4220
8218,320036000188,DUCKWATER ELEMENTARY SCHOOL,2 DUCKWATER RD,DUCKWATER,NV,89314,NOT AVAILABLE,(775) 863-0277
25912,320006000064,CARSON KIT ES,1735 D ST,LAS VEGAS,NV,89106,NOT AVAILABLE,(702) 799-7113
40043,320006000653,THIRIOT JOSEPH E ES,5700 W HARMON AVE,LAS VEGAS,NV,89103,NOT AVAILABLE,(702) 799-2550
47752,320030000180,YERINGTON HIGH SCHOOL,114 PEARL STREET,YERINGTON,NV,89447,NOT AVAILABLE,(775) 463-6822
48035,320027000168,LINCOLN COUNTY HIGH SCHOOL,1111 EAST EDWARDS STREET,PANACA,NV,89042,NOT AVAILABLE,(775) 728-4481
30660,320051000776,EARLY CHILDHOOD,1135 AVENUE C,ELY,NV,89301,NOT AVAILABLE,(775) 289-4851
32938,320012000692,JACKPOT JR HIGH SCHOOL,1601 KENO,JACKPOT,NV,89825,NOT AVAILABLE,(775) 755-2374
35038,320006000537,SCHOFIELD JACK LUND MS,8625 SPENCER ST,LAS VEGAS,NV,89123,NOT AVAILABLE,(702) 799-2290
94846,320006000359,PERKINS UTE ES,1255 PATRIOTS WAY,MOAPA,NV,89025,NOT AVAILABLE,(702) 864-2444
98860,320021000153,MCDERMITT ELEMENTARY,100 OLAVARRIA STREET,MCDERMITT,NV,89421,NOT AVAILABLE,(866) 447-3991
71133,320006000695,WARD KITTY MCDONOUGH ES,5555 HORSE DRIVE,LAS VEGAS,NV,89183,NOT AVAILABLE,(702) 799-4501
73437,320048000427,SPANISH SPRINGS ELEMENTARY,100 MARILYN MAE DRIVE,SPARKS,NV,89441,NOT AVAILABLE,(775) 425-7710
77430,320006000356,JOHN DOOLEY ELEMENTARY SCHOOL,1940 CHICKASAW DRIVE,HENDERSON,NV,89002,NOT AVAILABLE,(702) 799-8060
78552,320006000785,SO DESERT CORRECTIONAL CENTER ADULT,20825 COLD CREEK RD,INDIAN SPRINGS,NV,89070,NOT AVAILABLE,(702) 879-1381
79601,320039000288,BORDEWICH/BRAY ELEMENTARY,110 S. THOMPSON STREET,CARSON CITY,NV,89703,NOT AVAILABLE,(775) 283-2400
60001,320006000470,ELIZONDO RAUL P ES,4865 GOLDFIELD ST,N LAS VEGAS,NV,89031,NOT AVAILABLE,(702) 799-1730
61792,320045000200,HUGH GALLAGHER ELEMENTARY SCHOOL,191 SOUTH D STREET,VIRGINIA CITY,NV,89440,NOT AVAILABLE,(775) 847-0977
66324,320006000805,DUNCAN RUBY ES,250 W ROME BLVD,N LAS VEGAS,NV,89084,NOT AVAILABLE,(702) 799-7100
67187,320036000190,GABBS HIGH SCHOOL,511 EAST AVE,GABBS,NV,89409,NOT AVAILABLE,(775) 285-2692
68886,320006000774,STEWART HELEN J ES,2375 E VIKING,LAS VEGAS,NV,89169,NOT AVAILABLE,(702) 799-5588
80802,320006000437,ALLEN DEAN LAMAR ES,8680 W HAMMER LN,LAS VEGAS,NV,89149,NOT AVAILABLE,(702) 799-4580
84454,320048000368,GEORGE WESTERGARD ELEMENTARY,1785 AMBASSADOR DRIVE,RENO,NV,89523,NOT AVAILABLE,(775) 746-5800
51973,320006000597,COWAN ACADEMIC CENTER J-SHS,53300 E RUSSELL RD,LAS VEGAS,NV,89122,NOT AVAILABLE,(702) 799-6380
52367,320048000210,EDWARD C. REED HIGH SCHOOL,1350 BARING BLVD.,SPARKS,NV,89434,NOT AVAILABLE,(775) 353-5700
58322,320003000004,E C BEST ELEMENTARY,750 E WILLIAMS AVE,FALLON,NV,89406,NOT AVAILABLE,(775) 423-3159
105688,320048000913,SKY RANCH MIDDLE SCHOOL,1200 WINDMILL FARMS,SPARKS,NV,89436,NOT AVAILABLE,(775) 626-0060
87811,320006000801,KELLER CHARLOTTE & JERRY ES,5445 CEDAR AVE,LAS VEGAS,NV,89110,NOT AVAILABLE,(702) 799-2140
88526,320048000227,KATE SMITH ELEMENTARY,1925 F STREET,SPARKS,NV,89431,NOT AVAILABLE,(775) 353-5720
701,320006000855,RAINBOW DREAMS ACADEMY SECONDARY,950 W. LAKE MEAD BLVD,LAS VEGAS,NV,89106,NOT AVAILABLE,(702) 638-0222
2417,320006000400,MAY ERNEST ES,6350 W WASHBURN RD,LAS VEGAS,NV,89130,NOT AVAILABLE,(702) 799-4690
4261,320006000104,WILLIAMS TOM ES,3000 E TONOPAH AVE,N LAS VEGAS,NV,89030,NOT AVAILABLE,(702) 799-7179
6150,320000100908,CORAL ACADEMY CENTENNIAL HILLS,7951 DEER SPRINGS WAY,LAS VEGAS,NV,89131,NOT AVAILABLE,(702) 685-4333
6266,320033000859,MINERAL COUNTY ADULT EDUCATION,751 A ST,HAWTHORNE,NV,89415,NOT AVAILABLE,(775) 945-2403
6563,320027000865,LINCOLN COUNTY ADULT HIGH SCHOOL,1005 MAIN ST. SUITE 108,PANACA,NV,89042,NOT AVAILABLE,(775) 726-8019
6658,320006000807,JUVENILE DETENTION 3-5 ES,601 N PECOS RD SUITE 70,LAS VEGAS,NV,89101,NOT AVAILABLE,(702) 799-1623
6678,320006000683,DESERT WILLOW J-SHS,245 N PECOS,LAS VEGAS,NV,89101,NOT AVAILABLE,(702) 799-5631
8717,320048000231,LINCOLN PARK ELEMENTARY,201 LINCOLN WAY,SPARKS,NV,89431,NOT AVAILABLE,(775) 353-5570
9120,320006000075,KELLY MATT ES,1900 J ST,LAS VEGAS,NV,89106,NOT AVAILABLE,(702) 799-4750
48453,320039000364,EMPIRE ELEMENTARY,1260 MONTE ROSA,CARSON CITY,NV,89706,NOT AVAILABLE,(775) 283-1100
90253,320045000413,HILLSIDE ELEMENTARY SCHOOL,1250 PERI RANCH ROAD,SPARKS,NV,89434,NOT AVAILABLE,(775) 342-0400
105668,320000100952,EXPLORE ACADEMY,4660 NORTH RANCHO,LAS VEGAS,NV,89130,NOT AVAILABLE,(702) 625-0603
107183,320006000947,MOUNTAINS EDGE MIDDLE SCHOOL,10155 MARNIE ST,LAS VEGAS,NV,89178,NOT AVAILABLE,(702) 799-0000
54425,320006000879,LOMIE G. HEARD ELEMENTARY SCHOOL A MARZANO ACADEMY,4497 KELL LANE,LAS VEGAS,NV,89110,NOT AVAILABLE,(702) 799-4920
55287,320006000589,PETERSEN DEAN ES,3650 CAMBRIDGE ST,LAS VEGAS,NV,89169,NOT AVAILABLE,(702) 799-1120
55572,320006000577,INDIAN SPRINGS ES,400 SKY RD,INDIAN SPRINGS,NV,89018,NOT AVAILABLE,(702) 799-0932
57245,320000100899,PINECREST ACADEMY OF NEVADA ST ROSE,1385 E. CACTUS AVE.,LAS VEGAS,NV,89183,NOT AVAILABLE,(702) 750-9150
59220,320030000746,RIVERVIEW ELEMENTARY SCHOOL,1200 FERRETTO PARKWAY,DAYTON,NV,89403,NOT AVAILABLE,(775) 246-6170
31327,320006000587,HOLLINGSWORTH HOWARD ES,1776 EAST OGDEN AVE,LAS VEGAS,NV,89101,NOT AVAILABLE,(702) 799-1660
37275,320006000379,JACOBSON WALTER ES,8400 BOSECK DR,LAS VEGAS,NV,89145,NOT AVAILABLE,(702) 799-4320
38550,320003000001,CHURCHILL COUNTY HIGH SCHOOL,1 GREENWAVE CIRCLE,FALLON,NV,89406,NOT AVAILABLE,(775) 423-2181
39503,320006000053,BRINLEY J HAROLD MS,2480 MAVERICK,LAS VEGAS,NV,89108,NOT AVAILABLE,(702) 799-4550
20214,320006000550,ROGER D GEHRING ACADEMY OF SCIENCE AND TECHNOLOGY,1155 E. RICHMAR AVE.,LAS VEGAS,NV,89123,NOT AVAILABLE,(702) 799-6899
20468,320030000178,SMITH VALLEY SCHOOLS,20 DAY LANE,SMITH,NV,89430,NOT AVAILABLE,(775) 465-2332
21848,320048000207,E. OTIS VAUGHN MIDDLE SCHOOL,1200 BRESSON AVENUE,RENO,NV,89502,NOT AVAILABLE,(775) 333-5160
23676,320006000292,GRAGSON ORAN K ES,555 N HONOLULU,LAS VEGAS,NV,89110,NOT AVAILABLE,(702) 799-7330
24677,320039000282,AL SEELIGER ELEMENTARY,2800 S. SALIMAN RD.,CARSON CITY,NV,89701,NOT AVAILABLE,(775) 283-2200
24956,320006000612,SANDY VALLEY ELEMENTARY SCHOOL,1420 E. PEARL AVE.,SANDY VALLEY,NV,89019,NOT AVAILABLE,(702) 723-5344
27871,320051000254,BAKER ELEMENTARY,120 MAIN STREET,BAKER,NV,89311,NOT AVAILABLE,(775) 234-7333
71031,320006000686,INDIAN SPRINGS HS,400 SKY ROAD,INDIAN SPRINGS,NV,89018,NOT AVAILABLE,(702) 799-0932
61600,320000100830,DORAL ACADEMY RED ROCK,610 CROSSBRIDGE DR.,LAS VEGAS,NV,89138,NOT AVAILABLE,(702) 776-8530
63097,320009000119,CARSON VALLEY MIDDLE SCHOOL,1477 HWY 395,GARDNERVILLE,NV,89410,NOT AVAILABLE,(775) 782-2265
68705,320048000223,HUNTER LAKE ELEMENTARY,909 HUNTER LAKE DR,RENO,NV,89509,NOT AVAILABLE,(775) 333-5040
34037,320006000407,GREEN VALLEY HS,460 ARROYO GRANDE BLVD,HENDERSON,NV,89014,NOT AVAILABLE,(702) 799-0950
36697,320006000110,VIRGIN VALLEY ES,200 WOODBURY LN,MESQUITE,NV,89027,NOT AVAILABLE,(702) 346-5761
3425,320006000027,HANCOCK DORIS ES,1661 LINDELL RD,LAS VEGAS,NV,89146,NOT AVAILABLE,(702) 799-4205
4138,320006000438,WOLFE EVA ES,4027 W WASHBURN RD,N LAS VEGAS,NV,89031,NOT AVAILABLE,(702) 799-1860
4788,320000100870,SPORTS LEADERSHIP AND MANAGEMENT ACADEMY,1095 FIELDERS STREET,HENDERSON,NV,89011,NOT AVAILABLE,(702) 473-5735
5150,320048000766,TURNING POINT,350 HUNTER LAKE DR,RENO,NV,89509,NOT AVAILABLE,(775) 337-7560
5930,320048000880,CORAL ACADEMY MIDDLE SCHOOL,1350 E. NINTH ST,RENO,NV,89512,NOT AVAILABLE,(775) 323-2332
23755,320027000850,LINCOLN COUNTY ADULT CORRECTIONS,1005 MAIN ST. SUITE 108,PANACA,NV,89042,NOT AVAILABLE,(775) 728-8019
26557,320030000174,DAYTON ELEMENTARY SCHOOL,285 DAYTON VALLEY ROAD,DAYTON,NV,89403,NOT AVAILABLE,(775) 246-6262
11488,320006000660,MACK JEROME MS,4250 KAREN AVE,LAS VEGAS,NV,89121,NOT AVAILABLE,(702) 799-2005
11792,320000100759,QUEST ACADEMY NORTHWEST,4025 N. RANCHO DR.,LAS VEGAS,NV,89130,NOT AVAILABLE,(702) 631-4751
12066,320006000354,CHRISTENSEN M J ES,9001 MARINER COVE DR,LAS VEGAS,NV,89117,NOT AVAILABLE,(702) 799-4390
16916,320048000249,SUN VALLEY ELEMENTARY,5490 LEON DRIVE,SPARKS,NV,89433,NOT AVAILABLE,(775) 674-4420
18108,320006000378,HILL CHARLOTTE ES,560 E ELDORADO LN,LAS VEGAS,NV,89123,NOT AVAILABLE,(702) 799-5720
72837,320048000251,VETERANS MEMORIAL S.T.E.M. ACADEMY,1200 LOCUST STREET,RENO,NV,89502,NOT AVAILABLE,(775) 333-5090
74103,320006000530,SNYDER WILLIAM E ES,4317 E COLORADO AVE,LAS VEGAS,NV,89104,NOT AVAILABLE,(702) 799-3750
75671,320006000549,COZINE STEVE AND LINDA ES,5335 COLEMAN STREET,N LAS VEGAS,NV,89031,NOT AVAILABLE,(702) 799-0690
40875,320006000380,DERFELT HERBERT A ES,1900 S LISA LN,LAS VEGAS,NV,89117,NOT AVAILABLE,(702) 799-4370
88386,320006000063,BOOKER KERMIT R SR ES,2277 N MLK BLVD,LAS VEGAS,NV,89106,NOT AVAILABLE,(702) 799-4720
88548,320006000592,HUGHES CHARLES ARTHUR MS,550 HAFEN LN,MESQUITE,NV,89027,NOT AVAILABLE,(702) 346-3250
57297,320042000867,PERSHING ADULT HIGH SCHOOL,765 WESTERN AVENUE,LOVELOCK,NV,89419,NOT AVAILABLE,(775) 273-4994
57670,320030000860,LYON COUNTY ADULT EDUCATION,1340 HWY 95A,FERNLEY,NV,89408,NOT AVAILABLE,(775) 575-3409
92557,320030000299,SILVER STAGE ELEMENTARY SCHOOL,3900 W. SPRUCE STREET,SILVER SPRINGS,NV,89429,NOT AVAILABLE,(775) 577-5060
92647,320048000388,ALICE SMITH ELEMENTARY,1070 BECKWOURTH DRIVE,RENO,NV,89506,NOT AVAILABLE,(775) 677-5410
93240,320006000473,GAREHIME EDITH ES,3850 CAMPBELL RD,LAS VEGAS,NV,89129,NOT AVAILABLE,(702) 799-6000
94893,320000100843,FOUNDERS ACADEMY OF LAS VEGAS,5730 W. ALEXANDER ROAD,LAS VEGAS,NV,89130,NOT AVAILABLE,(702) 998-8368
68631,320039000286,EDITH W. FRITSCH ELEMENTARY,504 BATH ST.,CARSON CITY,NV,89703,NOT AVAILABLE,(775) 283-1400
105656,320000100917,NV RISE ACADEMY CHARTER SCHOOL,2525 EMERSON AVE,LAS VEGAS,NV,89121,NOT AVAILABLE,(702) 336-7060
105675,320006000923,QUEST PROGRAM,601 N PECOS RD SUITE 70,LAS VEGAS,NV,89101,NOT AVAILABLE,(702) 799-1623
40157,320030000176,FERNLEY HIGH SCHOOL,1300 HWY 95A SOUTH,FERNLEY,NV,89408,NOT AVAILABLE,(775) 575-3400
32052,320006000008,BERTHA RONZONE ELEMENTARY SCHOOL,5701 STACEY AVE.,LAS VEGAS,NV,89108,NOT AVAILABLE,(702) 799-4780
32840,320006000547,ALAMO TONY ES,7455 EL CAMINO RD,LAS VEGAS,NV,89139,NOT AVAILABLE,(702) 799-2590
34675,320006000019,C T SEWELL ELEMENTARY SCHOOL,700 E. LAKE MEAD DR.,HENDERSON,NV,89015,NOT AVAILABLE,(702) 799-8940
35677,320009000293,C. C. MENELEY ELEMENTARY SCHOOL,1446 MUIR DR,GARDNERVILLE,NV,89460,NOT AVAILABLE,(775) 265-3154
36827,320009000832,ASPIRE ACADEMY HIGH SCHOOL,1680 BENTLY PARKWAY SOUTH,MINDEN,NV,89423,NOT AVAILABLE,(775) 392-1475
39780,320048000822,WASHOE INSPIRE ACADEMY,1155 CORPORATE BLVD,RENO,NV,89502,NOT AVAILABLE,(775) 857-3181
20335,320006000552,WALKER J MARLAN INT'L SCHOOL ES,850 SCHOLAR ST,HENDERSON,NV,89002,NOT AVAILABLE,(702) 799-0570
21652,320036000852,PATHWAYS ELEMENTARY SCHOOL,2000 S MT CHARLESTON WEST,PAHRUMP,NV,89048,NOT AVAILABLE,(775) 751-6822
27302,320006000051,SMITH J D MS,1301 E TONOPAH AVE,N LAS VEGAS,NV,89030,NOT AVAILABLE,(702) 799-7080
29950,320006000055,MCWILLIAMS J T ES,1315 HIAWATHA RD,LAS VEGAS,NV,89108,NOT AVAILABLE,(702) 799-4770
81581,320006000474,MOLASKY IRWIN & SUSAN JHS,7801 W GILMORE AVE,LAS VEGAS,NV,89129,NOT AVAILABLE,(702) 799-3400
61200,320006000661,ARBOR VIEW HS,7500 WHISPERING SANDS D,LAS VEGAS,NV,89131,NOT AVAILABLE,(702) 799-6660
62736,320006000338,STANFORD ES,5350 HARRIS AVE,LAS VEGAS,NV,89110,NOT AVAILABLE,(702) 799-7272
64509,320006000270,LOWMAN MARY & ZEL ES,4225 N LAMONT ST,LAS VEGAS,NV,89115,NOT AVAILABLE,(702) 799-4930
67056,320006000022,DECKER C H ES,3850 S REDWOOD,LAS VEGAS,NV,89103,NOT AVAILABLE,(702) 799-5920
68517,320042000167,PERSHING COUNTY MIDDLE SCHOOL,1295 ELMHURST AVENUE,LOVELOCK,NV,89419,NOT AVAILABLE,(775) 273-1200
90084,320000100833,LEARNING BRIDGE,505 S. PIOCHE HWY,ELY,NV,89301,NOT AVAILABLE,(775) 289-3500
92847,320006000086,DISKIN P A ES,4220 S RAVENWOOD,LAS VEGAS,NV,89147,NOT AVAILABLE,(702) 799-5930
70617,320006000446,PALO VERDE HS,333 S PAVILION CENTER DR,LAS VEGAS,NV,89144,NOT AVAILABLE,(702) 799-1450
71003,320006000025,ROBISON DELL H MS,825 MARION DR,LAS VEGAS,NV,89110,NOT AVAILABLE,(702) 799-7300
74714,320006000539,SIERRA VISTA HS,8100 W ROBINDALE RD,LAS VEGAS,NV,89113,NOT AVAILABLE,(702) 799-6820
74809,320021000416,FRENCH FORD MIDDLE SCHOOL,5495 PALISADE DRIVE,WINNEMUCCA,NV,89445,NOT AVAILABLE,(775) 623-8200
77383,320048000321,MOUNT ROSE K-8 ACADEMY OF LANGUAGES,915 LANDER STREET,RENO,NV,89509,NOT AVAILABLE,(775) 333-5030
77626,320006000461,LIED STEM ACADEMY MS,5350 W TROPICAL PKWY,LAS VEGAS,NV,89130,NOT AVAILABLE,(702) 799-4620
101286,320051000256,WHITE PINE MIDDLE SCHOOL,844 AULTMAN STREET,ELY,NV,89301,NOT AVAILABLE,(775) 289-4841
105686,320012000931,LIBERTY PEAK ELEMENTARY SCHOOL,250 PARKCHESTER DRIVE,SPRING CREEK,NV,89815,NOT AVAILABLE,(775) 753-3667
4029,320006000092,LAKE ROBERT E ES,2904 METEORO ST,LAS VEGAS,NV,89169,NOT AVAILABLE,(702) 799-5530
4135,320006000548,BROOKMAN EILEEN B ES,6225 E WASHINGTON AVE,LAS VEGAS,NV,89110,NOT AVAILABLE,(702) 799-7250
5905,320000100891,DORAL ACADEMY OF NORTHERN NEVADA,3725 BUTCH CASSIDY DR.,RENO,NV,89511,NOT AVAILABLE,(775) 453-4239
6071,320000100900,NEVADA STATE HIGH SCHOOL DOWNTOWN,300 N. 13TH ST.,LAS VEGAS,NV,89101,NOT AVAILABLE,(702) 953-2600
9813,320006000486,KESTERSON LORNA J ES,231 BAILEY ISLAND DR,HENDERSON,NV,89074,NOT AVAILABLE,(702) 799-6300
15719,320006000040,HARMON HARLEY ES,5351 S HILLSBORO,LAS VEGAS,NV,89120,NOT AVAILABLE,(702) 799-7740
700,320000100856,EQUIPO ACADEMY,4131 E. BONANZA ROAD,LAS VEGAS,NV,89110,NOT AVAILABLE,(702) 907-0432
6281,320000100886,LEADERSHIP ACADEMY OF NEVADA,7495 WEST AZURE DRIVE SUITE #,LAS VEGAS,NV,89130,NOT AVAILABLE,(702) 350-1472
6848,320012000326,ADOBE MIDDLE SCHOOL,3375 JENNINGS WAY,ELKO,NV,89801,NOT AVAILABLE,(775) 738-3375
8135,320006000023,CRESTWOOD ES,1300 PAULINE WAY,LAS VEGAS,NV,89104,NOT AVAILABLE,(702) 799-7890
8513,320006000075,MATT KELLY ELEMENTARY SCHOOL,1900 N. J ST.,LAS VEGAS,NV,89106,NOT AVAILABLE,(702) 799-4750
64103,320006000046,WASDEN HOWARD ES,2831 PALOMINO LN,LAS VEGAS,NV,89107,NOT AVAILABLE,(702) 799-4239
67010,320006000018,CHAPARRAL HS,3850 ANNIE OAKLEY DR,LAS VEGAS,NV,89121,NOT AVAILABLE,(702) 799-7580
10909,320012000132,JACKPOT ELEMENTARY SCHOOL,1601 KENO,JACKPOT,NV,89825,NOT AVAILABLE,(775) 755-2374
40693,320030000555,SILVER STAGE HIGH SCHOOL,3755 W. SPRUCE STREET,SILVER SPRINGS,NV,89429,NOT AVAILABLE,(775) 577-5071
41921,320012000349,MOUNTAIN VIEW ELEMENTARY SCHOOL,3300 ARGENT AVENUE,ELKO,NV,89801,NOT AVAILABLE,(775) 738-1844
43134,320006000571,DEL SOL ACADEMY OF PERFORMING ARTS HS,3100 E PATRICK LN,LAS VEGAS,NV,89120,NOT AVAILABLE,(702) 799-6830
35785,320006000658,GOYNES THERON H & NAOMI D ES,3409 DEER SPRINGS WAY,N LAS VEGAS,NV,89084,NOT AVAILABLE,(702) 799-1770
36368,320036000185,AMARGOSA VALLEY ELEMENTARY SCHOOL,1560 E. AMARGOSA FARM RD.,AMARGOSA,NV,89020,NOT AVAILABLE,(775) 372-5324
36914,320006000395,ADAMS KIRK ES,580 N FOGG ST,LAS VEGAS,NV,89110,NOT AVAILABLE,(702) 799-8800
37378,320006000030,CLARK ED W HS,4291 W PENNWOOD AVE,LAS VEGAS,NV,89102,NOT AVAILABLE,(702) 799-5800
37854,320021000793,LEIGHTON HALL (DENTENTION CENTER),737 FAIRGROUNDS ROAD,WINNEMUCCA,NV,89445,NOT AVAILABLE,(775) 623-6382
38087,320027000169,C O BASTIAN HIGH SCHOOL,500 YOUTH CENTER DRIVE,CALIENTE,NV,89008,NOT AVAILABLE,(775) 726-8250
39054,320006000553,HARNEY KATHLEEN & TIM MS,1580 S HOLLYWOOD BLVD,LAS VEGAS,NV,89142,NOT AVAILABLE,(702) 799-3240
50893,320006000007,BASIC ACADEMY OF INT'L STUDIES HS,400 PALO VERDE DR,HENDERSON,NV,89015,NOT AVAILABLE,(702) 799-8000
55503,320006000458,GUY ADDELIAR D III ES,4028 LA MADRE WAY,N LAS VEGAS,NV,89031,NOT AVAILABLE,(702) 799-3150
57939,320000100825,PINECREST ACADEMY OF NEVADA CADENCE,225 GRAND CADENCE DR.,HENDERSON,NV,89015,NOT AVAILABLE,(702) 202-2227
59267,320006000515,ROGICH SIG MS,235 N PAVILION CENTER DR,LAS VEGAS,NV,89144,NOT AVAILABLE,(702) 799-6040
21408,320006000098,RUTH FYFE ELEMENTARY SCHOOL,4101 W. BONANZA RD.,LAS VEGAS,NV,89107,NOT AVAILABLE,(702) 799-4191
22330,320048000248,STEAD ELEMENTARY,10580 STEAD BLVD,RENO,NV,89506,NOT AVAILABLE,(775) 677-5480
80893,320006000101,SPRING MOUNTAIN J/SHS,2701 E. ST. LOUIS AVE.,LAS VEGAS,NV,89104,NOT AVAILABLE,(702) 455-5555
84660,320006000700,TARKANIAN LOIS & JERRY MS,5800 W PYLE AVENUE,LAS VEGAS,NV,89141,NOT AVAILABLE,(702) 799-6801
87870,320048000323,ROBERT MCQUEEN HIGH SCHOOL,6055 LANCER STREET,RENO,NV,89523,NOT AVAILABLE,(775) 746-5880
74541,320048000247,SPARKS MIDDLE SCHOOL,2275 18TH STREET,SPARKS,NV,89431,NOT AVAILABLE,(775) 353-5770
77351,320006000017,C W WOODBURY MIDDLE SCHOOL,3875 E. HARMON AVE.,LAS VEGAS,NV,89121,NOT AVAILABLE,(702) 799-7660
105652,320000100882,DEMOCRACY PREP AT AGASSI HIGH,1201 W LAKE MEAD BLVD,LAS VEGAS,NV,89106,NOT AVAILABLE,(702) 948-6000
105661,320000100929,NEVADA PREP CHARTER SCHOOL,2525 EMERSON AVE,LAS VEGAS,NV,89121,NOT AVAILABLE,(702) 301-8118
32847,320006000694,MILEY ACHIEVEMENT CTR J-SHS,245 N PECOS,LAS VEGAS,NV,89101,NOT AVAILABLE,(702) 799-5631
32937,320006000273,BECKER ERNEST MS,9151 PINEWOOD HILLS DR,LAS VEGAS,NV,89134,NOT AVAILABLE,(702) 799-4460
33290,320006000441,CAMBEIRO ARTURO ES,2851 E HARRIS AVE,LAS VEGAS,NV,89101,NOT AVAILABLE,(702) 799-1700
34400,320048000664,ACADEMY OF ARTS CAREERS & TECH,380 EDISON WAY,RENO,NV,89502,NOT AVAILABLE,(775) 327-3920
35928,320039000480,PIONEER HIGH,202 E. CORBETT ST.,CARSON CITY,NV,89706,NOT AVAILABLE,(775) 283-1300
36950,320048000202,ALICE MAXWELL ELEMENTARY SCHOOL,2300 NORTH ROCK BOULEVARD,SPARKS,NV,89431,NOT AVAILABLE,(775) 353-5580
39525,320006000082,ADCOCK O K ES,6350 HYDE AVE,LAS VEGAS,NV,89107,NOT AVAILABLE,(702) 799-4185
16687,320033000811,HAWTHORNE ELEMENTARY SCHOOL,301 W. 9TH STREET,HAWTHORNE,NV,89415,NOT AVAILABLE,(775) 945-1000
62558,320006000526,CARL KAY ES,5625 CORBETT ST,LAS VEGAS,NV,89130,NOT AVAILABLE,(702) 799-6650
64451,320006000062,KNUDSON K O MS,2400 ATLANTIC ST,LAS VEGAS,NV,89104,NOT AVAILABLE,(702) 799-7470
66433,320021000149,ALBERT M. LOWRY HIGH SCHOOL,5375 KLUNCY CANYON ROAD,WINNEMUCCA,NV,89445,NOT AVAILABLE,(775) 623-8130
25942,320048000559,DOUBLE DIAMOND ELEMENTARY,1200 SOUTH MEADOWS PARKWAY,RENO,NV,89521,NOT AVAILABLE,(775) 850-6212
29318,320048000336,JERRY WHITEHEAD ELEMENTARY,3570 WATERFALL DR,SPARKS,NV,89434,NOT AVAILABLE,(775) 626-5200
97194,320021000156,PARADISE VALLEY SCHOOL,BOX BUTTE 33,PARADISE VALLEY,NV,89426,NOT AVAILABLE,(866) 440-9357
97703,320006000527,DARNELL MARSHALL C ES,9480 W TROPICAL PKWY,LAS VEGAS,NV,89149,NOT AVAILABLE,(702) 799-6630
97958,320006000011,BONANZA HS,6665 W DEL REY,LAS VEGAS,NV,89146,NOT AVAILABLE,(702) 799-4000
57196,320000100897,PINECREST ACADEMY OF NEVADA HORIZON,1360 S BOULDER HWY,HENDERSON,NV,89015,NOT AVAILABLE,(702) 749-3500
82528,320006000260,EISENBERG DOROTHY ES,7770 DELHI AVE,LAS VEGAS,NV,89129,NOT AVAILABLE,(702) 799-4680
86696,320006000084,SWAINSTON THERON L MS,3500 W GILMORE AVE,N LAS VEGAS,NV,89032,NOT AVAILABLE,(702) 799-4860
88485,320006000340,EARL MARION B ES,6650 W RENO AVE,LAS VEGAS,NV,89118,NOT AVAILABLE,(702) 799-8181
88525,320006000115,WHITNEY ES,5005 KEENAN AVE,LAS VEGAS,NV,89122,NOT AVAILABLE,(702) 799-7790
74578,320012000125,CARLIN ELEMENTARY SCHOOL,552 8TH STREET,CARLIN,NV,89822,NOT AVAILABLE,(775) 754-6317
77157,320048000220,GREENBRAE ELEMENTARY SCHOOL,1840 4TH STREET,SPARKS,NV,89431,NOT AVAILABLE,(775) 353-5530
79434,320006000511,TARR SHEILA ACADEMY OF INT'L STUDIES ES,9400 W GILMORE AVE,LAS VEGAS,NV,89129,NOT AVAILABLE,(702) 799-6710
6045,320000100906,DORAL ACADEMY SADDLE,9625 WEST SADDLE AVE,LAS VEGAS,NV,89147,NOT AVAILABLE,(702) 776-6491
6557,320000100900,NEVADA STATE HIGH SCHOOL DOWNTOWN,300 N 13TH ST 2ND FLOOR,LAS VEGAS,NV,89101,NOT AVAILABLE,(702) 953-2600
6755,320048000318,INCLINE MIDDLE SCHOOL,931 SOUTHWOOD BLVD.,INCLINE VILLAGE,NV,89452,NOT AVAILABLE,(775) 832-4220
7067,320036000556,PATHWAYS MIDDLE SCHOOL,2000 S MT CHARLESTON WEST,PAHRUMP,NV,89048,NOT AVAILABLE,(775) 751-6822
42586,320048000562,ACADEMY FOR CAREER EDUCATION,2800 VASSAR ST,RENO,NV,89502,NOT AVAILABLE,(775) 324-3900
101550,320048000466,BERNICE MATHEWS ELEMENTARY,2750 ELEMENTARY DR,RENO,NV,89512,NOT AVAILABLE,(775) 353-5950
101617,320006000690,THOMPSON SANDRA L ES,7351 N CAMPBELL ROAD,LAS VEGAS,NV,89149,NOT AVAILABLE,(702) 799-3430
105653,320000100883,DEMOCRACY PREP AT AGASSI ELEMENTARY,1201 W LAKE MEAD BLVD,LAS VEGAS,NV,89106,NOT AVAILABLE,(702) 948-6000
105679,320006000935,ABSTON SANDRA B ES,9950 W TOMPKINS AVE,LAS VEGAS,NV,89147,NOT AVAILABLE,(702) 799-2570
105687,320015000943,ESMERALDA VIRTUAL HIGH SCHOOL,BOX BUTTE 560,GOLDFIELD,NV,89013,NOT AVAILABLE,(775) 485-6382
81903,320042000198,PERSHING COUNTY HIGH SCHOOL,1215 FRANKLIN AVENUE,LOVELOCK,NV,89419,NOT AVAILABLE,(775) 273-2625
84886,320006000403,JOHNSON WALTER JHS ACADEMY OF INT'L STUDIES,7701 DUCHARME AVE,LAS VEGAS,NV,89145,NOT AVAILABLE,(702) 799-4480
105689,320048000926,VOICE PROGRAM,1325 CORPORATE BLVD STE D,RENO,NV,89502,NOT AVAILABLE,(775) 327-3940
55202,320006000035,WARD GENE ES,1555 E HACIENDA AVE,LAS VEGAS,NV,89119,NOT AVAILABLE,(702) 799-5650
56620,320000100848,AMPLUS DURANGO,8377 W PATRICK LANE,LAS VEGAS,NV,89113,NOT AVAILABLE,(702) 970-6800
57090,320000100904,SOMERSET ACADEMY NORTH LAS VEGAS,385 W. CENTENNIAL PARKWAY,NORTH LAS VEGAS,NV,89084,NOT AVAILABLE,(702) 633-5616
57296,320000100894,CORAL ACADEMY WINDMILL,2150 WINDMILL PKWY,HENDERSON,NV,89074,NOT AVAILABLE,(702) 485-3410
4023,320006000439,GOLDFARB DANIEL ES,1651 ORCHARD VALLEY DR,LAS VEGAS,NV,89142,NOT AVAILABLE,(702) 799-1550
5848,320048000863,RISE ACADEMY FOR ADULT ACHIEVEMENT,1301 CORDONE AVE,RENO,NV,89502,NOT AVAILABLE,(775) 337-9939
33236,320048000319,KATHERINE DUNN ELEMENTARY,1135 O CALLAGHAN DR,SPARKS,NV,89434,NOT AVAILABLE,(775) 353-5520
33580,320006000529,ROGERS LUCILLE S ES,5535 S RILEY ST,LAS VEGAS,NV,89148,NOT AVAILABLE,(702) 799-6870
38804,320006000116,BECKLEY WILL ES,3223 S GLENHURST,LAS VEGAS,NV,89121,NOT AVAILABLE,(702) 799-7700
39501,320006000009,TOMIYASU BILL Y ES,5445 S ANNIE OAKLEY DR,LAS VEGAS,NV,89120,NOT AVAILABLE,(702) 799-7770
62890,320006000506,BASS JOHN C ES,10377 RANCHO DESTINO RD,LAS VEGAS,NV,89183,NOT AVAILABLE,(702) 799-2220
63941,320006000405,CHEYENNE HS,3200 W ALEXANDER RD,N LAS VEGAS,NV,89032,NOT AVAILABLE,(702) 799-4830
68395,320048000835,SPARKS HS PRESCHOOL,700 E FIFITH STREET,RENO,NV,89000,NOT AVAILABLE,(775) 353-5550
21514,320006000042,CANNON HELEN C JHS,5850 EUCLID AVE,LAS VEGAS,NV,89120,NOT AVAILABLE,(702) 799-5600
21719,320033000479,HAWTHORNE JUNIOR HIGH,601 A ST,HAWTHORNE,NV,89415,NOT AVAILABLE,(775) 945-3332
29312,320024000162,AUSTIN COMBINED SCHOOLS,200 HIGHWAY 305 NORTH BOX 160,AUSTIN,NV,89310,NOT AVAILABLE,(775) 964-2467
11764,320039000792,CARSON ADULT HIGH SCHOOL,275 EAST PARK ST. BLDG. E,CARSON CITY,NV,89706,NOT AVAILABLE,(775) 283-1350
12656,320006000777,SUNRISE MOUNTAIN HS,2575 N LOS FELIZ ST,LAS VEGAS,NV,89156,NOT AVAILABLE,(702) 799-7207
13814,320030000450,SUTRO ELEMENTARY SCHOOL,190 DAYTON VILLAGE PARKWAY,DAYTON,NV,89403,NOT AVAILABLE,(775) 246-6270
73607,320048000428,SARAH WINNEMUCCA ELEMENTARY,1349 BACKER WY,RENO,NV,89523,NOT AVAILABLE,(775) 746-5810
73800,320048000217,GERLACH K-12,555 EAST SUNSET BOULEVARD,GERLACH,NV,89412,NOT AVAILABLE,(775) 557-2326
74015,320006000344,DESKIN RUTHE ES,4550 N PIONEER WAY,LAS VEGAS,NV,89129,NOT AVAILABLE,(702) 799-4600
44868,320006000787,HIGH DESERT STATE PRISON,22010 COLD CREEK RD.,INDIAN SPRINGS,NV,89018,NOT AVAILABLE,(702) 879-6682
48971,320006000102,SUNRISE ACRES ES,211 28TH STREET,LAS VEGAS,NV,89101,NOT AVAILABLE,(702) 799-7912
13565,320006000514,MILLER BOB MS,2400 COZY HILL CIR,HENDERSON,NV,89052,NOT AVAILABLE,(702) 799-2260
5361,320000100734,NEVADA VIRTUAL ACADEMY,4801 S. SANDHILL RD.,LAS VEGAS,NV,89121,NOT AVAILABLE,(702) 407-1825
5591,320000100800,ALPINE ACADEMY HIGH SCHOOL,605 BOXINGTON WAY STE 112,SPARKS,NV,89434,NOT AVAILABLE,(775) 356-1166
6190,320012000854,ADULT EDUCATION,850 ELM STREET,ELKO,NV,89801,NOT AVAILABLE,(775) 753-2233
8905,320006000026,FRENCH DORIS ES,3235 E HACIENDA,LAS VEGAS,NV,89120,NOT AVAILABLE,(702) 799-7730
93922,320006000067,ROWE LEWIS E ES,4338 S BRUCE ST,LAS VEGAS,NV,89119,NOT AVAILABLE,(702) 799-5540
96752,320006000574,SIMMONS EVA G ES,2328 SILVER CLOUDS DR,N LAS VEGAS,NV,89031,NOT AVAILABLE,(702) 799-1891
82980,320048000468,TMCC MAGNET SCHOOL,7000 DANDINI BLVD,RENO,NV,89512,NOT AVAILABLE,(775) 674-7660
83440,320006000517,SUMMIT SCHOOL,6171 W. CHARLESTON BLVD.,LAS VEGAS,NV,89148,NOT AVAILABLE,(702) 799-5631
84274,320006000476,CORTNEY FRANCIS H JHS,5301 E HACIENDA AVE,LAS VEGAS,NV,89122,NOT AVAILABLE,(702) 799-2400
85462,320036000611,ROUND MOUNTAIN MIDDLE SCHOOL,61 HADLEY CIR,ROUND MOUNTAIN,NV,89045,NOT AVAILABLE,(775) 377-2690
77840,320006000532,WATSON FREDRIC W ES,5845 N COMMERCE ST,N LAS VEGAS,NV,89031,NOT AVAILABLE,(702) 799-7040
79104,320051000720,LUND ELEMENTARY,301 E 2ND NORTH,LUND,NV,89317,NOT AVAILABLE,(775) 238-5200
52047,320006000605,GIVENS LINDA RANKIN ES,655 PARK VISTA DR,LAS VEGAS,NV,89138,NOT AVAILABLE,(702) 799-1430
53669,320000100820,SOMERSET ACADEMY SKY POINTE,7058 SKY POINTE DRIVE,LAS VEGAS,NV,89131,NOT AVAILABLE,(702) 478-8888
34399,320006000462,KELLER DUANE D MS,301 N FOGG ST,LAS VEGAS,NV,89110,NOT AVAILABLE,(702) 799-3220
35432,320006000672,JOHNSTON CARROLL M MS,5855 LAWRENCE STREET,N LAS VEGAS,NV,89081,NOT AVAILABLE,(702) 799-7001
37326,320006000698,ODYSSEY CHARTER SCHOOLS 6-8 MS,2251 S JONES BLVD,LAS VEGAS,NV,89146,NOT AVAILABLE,(702) 257-0578
39022,320006000060,BENDORF PATRICIA A ES,3550 S KEVIN WAY,LAS VEGAS,NV,89147,NOT AVAILABLE,(702) 799-4440
62813,320027000423,PAHRANAGAT VALLEY MIDDLE SCHOOL,158 MAIN STREET,ALAMO,NV,89001,NOT AVAILABLE,(775) 725-3321
25830,320039000769,CARSON ADULT EDUCATION CORRECTIONS,301 E. CORBETT STREET,CARSON CITY,NV,89706,NOT AVAILABLE,(775) 283-1350
43523,320006000275,MACK LYON MIDDLE SCHOOL,179 S. ANDERSEN ST.,OVERTON,NV,89040,NOT AVAILABLE,(702) 397-8610
44967,320048000235,WILLIAM OBRIEN S.T.E.M. ACADEMY,10500 STEAD BLVD,RENO,NV,89506,NOT AVAILABLE,(775) 677-5420
105651,320000100881,FUTURO ACADEMY ELEMENTARY,920 N. LAMB BLVD,LAS VEGAS,NV,89110,NOT AVAILABLE,(702) 509-1612
105658,320000100922,CORAL ACADEMY EASTGATE,7777 EASTGATE RD,LAS VEGAS,NV,89011,NOT AVAILABLE,(702) 489-9797
105665,320000100941,PINECREST ACADEMY OF NEVADA SLOAN CANYON,675 E. DALE AVE.,HENDERSON,NV,89044,NOT AVAILABLE,(702) 462-9700
105676,320006000927,DIVICH KENNETH ES,9851 DONALD NELSON AVENUE,LAS VEGAS,NV,89149,NOT AVAILABLE,(702) 799-4585
105681,320006000945,MACKEY JO MS,2726 ENGLESTAD STREET,NORTH LAS VEGAS,NV,89030,NOT AVAILABLE,(702) 799-7139
105685,320009000951,DOUGLAS NEVADA ONLINE,,MINDEN,NV,89423,NOT AVAILABLE,(775) 392-1475
5390,320000100909,PINECREST ACADEMY INSPIRADA,2840 VIA CONTESSA,HENDERSON,NV,89044,NOT AVAILABLE,(702) 473-5777
5966,320009000861,DOUGLAS COUNTY ADULT SCHOOL,1680 BENTLY PARKWAY SOUTH,MINDEN,NV,89423,NOT AVAILABLE,(775) 392-1475
6561,320006000875,STEVENS JOSH ES,550 DAVE WOOD CIRCLE,HENDERSON,NV,89011,NOT AVAILABLE,(702) 799-0220
7816,320051000267,WHITE PINE HIGH SCHOOL,1800 BOBCAT DRIVE,ELY,NV,89301,NOT AVAILABLE,(775) 289-4811
74424,320030000179,YERINGTON ELEMENTARY SCHOOL,112 N. CALIFORNIA STREET,YERINGTON,NV,89447,NOT AVAILABLE,(775) 463-6844
77328,320048000217,GERLACH K-12 SCHOOL,555 E. SUNSET BLVD,GERLACH,NV,89412,NOT AVAILABLE,(775) 557-2326
80147,320006000346,BEATTY JOHN R ES,8685 HIDDEN PALMS PKWY,LAS VEGAS,NV,89123,NOT AVAILABLE,(702) 799-5700
80657,320036000575,GABBS MIDDLE SCHOOL,511 EAST AVE,GABBS,NV,89409,NOT AVAILABLE,(775) 285-2692
87638,320006000029,VON TOBEL ED MS,2436 N PECOS RD,LAS VEGAS,NV,89115,NOT AVAILABLE,(702) 799-7280
89463,320006000097,THOMAS RUBY S ES,1560 E CHEROKEE LN,LAS VEGAS,NV,89169,NOT AVAILABLE,(702) 799-5550
33249,320006000454,BONNER JOHN W ES,765 CRESTDALE LN,LAS VEGAS,NV,89144,NOT AVAILABLE,(702) 799-6050
38708,320006000020,JUVENILE DETENTION 6-12 J-SHS,601 N PECOS RD SUITE 70,LAS VEGAS,NV,89101,NOT AVAILABLE,(702) 799-1623
60367,320006000743,ROUNDY DR C OWEN ES,2755 MOHAWK ST,LAS VEGAS,NV,89146,NOT AVAILABLE,(702) 799-5890
63255,320036000543,HAFEN ELEMENTARY SCHOOL,7120 S HAFEN RANCH RD,PAHRUMP,NV,89061,NOT AVAILABLE,(775) 751-4688
64154,320006000343,KING JR MARTIN LUTHER ES,2260 BETTY LN,LAS VEGAS,NV,89156,NOT AVAILABLE,(702) 799-7390
64167,320006000607,MILEY ACHIEVEMENT CENTER ES,245 N PECOS,LAS VEGAS,NV,89101,NOT AVAILABLE,(702) 799-5631
102180,320048000544,BAILEY CHARTER SCHOOL,210 GENTRY WAY,RENO,NV,89502,NOT AVAILABLE,(775) 323-6767
102677,320048000957,ADULT EDUCATION,1301 CORDONE AVENUE,RENO,NV,89502,NOT AVAILABLE,(775) 337-9939
105655,320000100911,SOMERSET ACADEMY SKYE CANYON,8151 N. SHAUMBER ROAD,LAS VEGAS,NV,89166,NOT AVAILABLE,(702) 489-2473
105683,320006000949,NV LEARNING ACADEMY ES,3050 E. FLAMINGO ROAD,LAS VEGAS,NV,89121,NOT AVAILABLE,(702) 799-6852
105690,320048000932,DESERT SKIES MIDDLE SCHOOL,7550 DONATELLO DR,SUN VALLEY,NV,89433,NOT AVAILABLE,(775) 674-4915
20806,320048000218,GLENN DUNCAN S.T.E.M. ACADEMY,1200 MONTELLO ST,RENO,NV,89512,NOT AVAILABLE,(775) 333-5190
22304,320006000753,SCOTT JESSE D ES,5700 N BRUCE ST,N LAS VEGAS,NV,89081,NOT AVAILABLE,(702) 799-1766
24041,320006000804,WALLIN SHIRLEY & BILL ES,2333 CANYON RETREAT DR,HENDERSON,NV,89044,NOT AVAILABLE,(702) 799-5776
24671,320030000704,EAST VALLEY ELEMENTARY SCHOOL,4180 FARM DISTRICT ROAD,FERNLEY,NV,89408,NOT AVAILABLE,(775) 575-3332
25923,320006000733,PERKINS DR CLAUDE G ES,3700 SHADOW TREE ST,N LAS VEGAS,NV,89032,NOT AVAILABLE,(702) 799-1805
27869,320006000398,JYDSTRUP HELEN ES,5150 DUNEVILLE ST,LAS VEGAS,NV,89118,NOT AVAILABLE,(702) 799-8140
29179,320021000325,GRASS VALLEY ELEMENTARY,6465 SOUTH GRASS VALLEY ROAD,WINNEMUCCA,NV,89445,NOT AVAILABLE,(775) 623-8150
90263,320039000569,CARSON MONTESSORI,2263 MOUTON DR.,CARSON CITY,NV,89706,NOT AVAILABLE,(775) 887-9500
51404,320048000242,ROGER CORBETT ELEMENTARY,1901 VILLANOVA DRIVE,RENO,NV,89502,NOT AVAILABLE,(775) 333-5180
52610,320048000723,JESSE HALL ELEMENTARY SCHOOL,185 SHELBY DRIVE,SPARKS,NV,89436,NOT AVAILABLE,(775) 425-7755
56548,320000100842,FREEDOM CLASSICAL ACADEMY K-8,777 E. ANN RD,NORTH LAS VEGAS,NV,89031,NOT AVAILABLE,(702) 533-1896
12365,320006000816,STUCKEY EVELYN ES,4905 CHARTAN AVE,LAS VEGAS,NV,89141,NOT AVAILABLE,(702) 799-2274
13635,320006000068,LINCOLN ES,3010 BERG ST,N LAS VEGAS,NV,89030,NOT AVAILABLE,(702) 799-7133
13978,320048000827,SPARKS MS INTEGRATED PRESCHOOL,2275 18TH STREET,RENO,NV,89431,NOT AVAILABLE,(775) 353-5770
14810,320006000722,STEELE JUDITH D ES,6995 W ELDORADO LN,LAS VEGAS,NV,89113,NOT AVAILABLE,(702) 799-2201
15697,320006000014,RONNOW C C ES,1100 LENA ST,LAS VEGAS,NV,89101,NOT AVAILABLE,(702) 799-7159
16689,320006000271,PIGGOTT ACADEMY ES,9601 RED HILLS RD,LAS VEGAS,NV,89117,NOT AVAILABLE,(702) 799-4450
40092,320012000330,SPRING CREEK HIGH SCHOOL,14550 LAMOILLE HIGHWAY,SPRING CREEK,NV,89815,NOT AVAILABLE,(775) 753-5575
45263,320006000290,GALLOWAY FAY ES,701 SKYLINE RD,HENDERSON,NV,89002,NOT AVAILABLE,(702) 799-8920
35374,320012000134,MOUND VALLEY ELEMENTARY SCHOOL,HC 30 BOX 348,ELKO,NV,89801,NOT AVAILABLE,(775) 744-4382
35678,320012000308,WEST WENDOVER ELEMENTARY SCHOOL,2332 FLORENCE WAY,WENDOVER,NV,89833,NOT AVAILABLE,(775) 664-3100
36246,320006000581,GOOLSBY JUDY & JOHN L ES,11175 W DESERT INN RD,LAS VEGAS,NV,89135,NOT AVAILABLE,(702) 799-2520
36625,320006000105,TWIN LAKES ES,1205 SILVER LAKE DRIVE,LAS VEGAS,NV,89108,NOT AVAILABLE,(702) 799-4790
6539,320036000556,PATHWAYS MIDDLE SCHOOL (ALTERNATIVE),2000 S MT CHARLESTON BLVD,PAHRUMP,NV,89048,NOT AVAILABLE,(775) 751-6822
22524,320048000452,DONNER SPRINGS ELEMENTARY,5125 ESCUELA WAY,RENO,NV,89502,NOT AVAILABLE,(775) 689-2626
11276,320048000624,YVONNE SHAW MIDDLE SCHOOL,600 EAGLE CANYON DR,SPARKS,NV,89441,NOT AVAILABLE,(775) 425-7777
14224,320000100851,MATER MOUNTAIN VISTA,3445 MOUNTAIN VISTA STREET,LAS VEGAS,NV,89121,NOT AVAILABLE,(702) 485-2400
91071,320006000509,OBER D'VORRE & HAL ES,3035 DESERT MARIGOLD LN,LAS VEGAS,NV,89135,NOT AVAILABLE,(702) 799-6077
95241,320048000236,PEAVINE ELEMENTARY,1601 GRANDVIEW AVE,RENO,NV,89503,NOT AVAILABLE,(775) 746-5840
97613,320006000373,LUNT ROBERT ES,2701 HARRIS ST,LAS VEGAS,NV,89101,NOT AVAILABLE,(702) 799-8360
71813,320006000056,CASHMAN JAMES MS,4622 W DESERT INN RD,LAS VEGAS,NV,89102,NOT AVAILABLE,(702) 799-5880
79699,320000100826,HONORS ACADEMY OF LITERATURE,195 N. ARLINGTON AVENUE,RENO,NV,89501,NOT AVAILABLE,(775) 737-4084
62891,320012000129,GRAMMAR SCHOOL 2,1055 7TH STREET,ELKO,NV,89801,NOT AVAILABLE,(775) 738-7161
80659,320048000208,EARL WOOSTER HIGH SCHOOL,1331 EAST PLUMB LANE,RENO,NV,89502,NOT AVAILABLE,(775) 321-3160
86611,320006000272,NEWTON ULIS ES,571 GREENWAY RD,HENDERSON,NV,89015,NOT AVAILABLE,(702) 799-0500
88486,320021000708,MCDERMITT JUNIOR HIGH SCHOOL,100 OLAVARRIA STREET,MCDERMITT,NV,89421,NOT AVAILABLE,(866) 447-3991
102347,320036000425,MT CHARLESTON ELEMENTARY SCHOOL,1521 E IDAHO ST,PAHRUMP,NV,89048,NOT AVAILABLE,(775) 727-7892
105682,320006000946,THOMPSON TYRONE ES,10250 S. EL CAPITAN WAY,LAS VEGAS,NV,89178,NOT AVAILABLE,(702) 799-2510
20594,320006000582,CHILD HAVEN K-12,601 N PECOS RD SUITE 70,LAS VEGAS,NV,89101,NOT AVAILABLE,(702) 799-1623
21137,320006000103,MORRIS SUNSET HS,3801 E WASHINGTON AVE,LAS VEGAS,NV,89110,NOT AVAILABLE,(702) 855-9765
21360,320006000127,WHITE THURMAN ACADEMY OF THE ARTS MS,1661 GALLERIA DR,HENDERSON,NV,89014,NOT AVAILABLE,(702) 799-0777
24522,320006000088,MCCALL QUANNAH ES,800 E CAREY AVE,N LAS VEGAS,NV,89030,NOT AVAILABLE,(702) 799-7149
26163,320006000584,PRIEST RICHARD C ES,4150 FUSELIER DR,N LAS VEGAS,NV,89032,NOT AVAILABLE,(702) 799-6200
28194,320006000028,GRIFFITH E W ES,324 ESSEX DR,LAS VEGAS,NV,89107,NOT AVAILABLE,(702) 799-4200
6562,320006000878,MISSION HIGH SCHOOL,801 VETERANS MEMORIAL DRIVE,LAS VEGAS,NV,89101,NOT AVAILABLE,(702) 799-7880
13708,320006000499,SOUTH ACADEMIC CENTER J-SHS,4560 W HARMON AVE,LAS VEGAS,NV,89103,NOT AVAILABLE,(702) 799-2070
100721,320006000089,RANCHO HS,1900 SEARLES AVENUE,LAS VEGAS,NV,89101,NOT AVAILABLE,(702) 799-7000
105667,320000100948,NEVADA STATE HIGH SCHOOL NORTHWEST,7240 WEST AZURE DR STE 110,LAS VEGAS,NV,89130,NOT AVAILABLE,(702) 953-2600
105674,320006000916,BARBER SHIRLEY A ES,2002 DAVE STREET,LAS VEGAS,NV,89183,NOT AVAILABLE,(702) 799-5915
57243,320006000420,SILVERADO HS,1650 SILVER HAWK AVE,LAS VEGAS,NV,89123,NOT AVAILABLE,(702) 799-5790
57667,320000100887,QUEST ACADEMY WEST ALEXANDER,7550 W. ALEXANDER RD.,LAS VEGAS,NV,89129,NOT AVAILABLE,(702) 631-4751
58002,320000100731,NEVADA CONNECTIONS ACADEMY,555 DOUBLE EAGLE COURT SUITE 2,RENO,NV,89521,NOT AVAILABLE,(775) 826-4200
59230,320006000590,CADWALLADER RALPH MS,7775 ELKHORN RD,LAS VEGAS,NV,89131,NOT AVAILABLE,(702) 799-6692
87309,320039000280,CARSON HIGH SCHOOL,1111 N. SALIMAN RD.,CARSON CITY,NV,89701,NOT AVAILABLE,(775) 283-1600
89455,320006000118,FERRON WILLIAM E ES,4200 MOUNTAIN VISTA ST,LAS VEGAS,NV,89121,NOT AVAILABLE,(702) 799-7720
94781,320006000756,100 ACADEMY OF EXCELLENCE MS,2341 COMSTOCK DR,N LAS VEGAS,NV,89032,NOT AVAILABLE,(702) 636-2551
95713,320006000419,ADVANCED TECHNOLOGIES ACADEMY HS,1411 ROBIN STREET,LAS VEGAS,NV,89106,NOT AVAILABLE,(702) 799-7870
98871,320036000195,TONOPAH HIGH SCHOOL,1 RAY TENNANT DR,TONOPAH,NV,89049,NOT AVAILABLE,(775) 482-3698
40156,320006000408,LAUGHLIN J-SHS,1900 COUGAR DR,LAUGHLIN,NV,89029,NOT AVAILABLE,(702) 298-1996
40177,320012000829,EARLY CHILDHOOD GBC,850 ELM STREET,ELKO,NV,89801,NOT AVAILABLE,(775) 738-5196
40314,320006000488,ODYSSEY CHARTER SCHOOLS K-5 ES,2251 S JONES BLVD,LAS VEGAS,NV,89146,NOT AVAILABLE,(702) 257-0578
31193,320006000749,INNOVATIONS INT'L CHARTER J-SHS,1600 E OAKEY BLVD,LAS VEGAS,NV,89104,NOT AVAILABLE,(702) 216-4337
33414,320006000534,LEAVITT JUSTICE MYRON E MS,4701 QUADREL ST,LAS VEGAS,NV,89129,NOT AVAILABLE,(702) 799-4699
37233,320051000483,STEPTOE VALLEY HIGH SCHOOL,700 AULTMAN STREET,ELY,NV,89301,NOT AVAILABLE,(775) 289-2999
37379,320006000289,GUINN KENNY C MS,4150 S TORREY PINES DR,LAS VEGAS,NV,89103,NOT AVAILABLE,(702) 799-5900
60468,320048000211,EDWARD L. PINE MIDDLE SCHOOL,4800 NEIL ROAD,RENO,NV,89502,NOT AVAILABLE,(775) 689-2550
65692,320006000774,HELEN J STEWART SCHOOL,2375 E. VIKING,LAS VEGAS,NV,89169,NOT AVAILABLE,(702) 799-5588
10162,320042000196,IMLAY ELEMENTARY SCHOOL,380 MAIN STREET,IMLAY,NV,89418,NOT AVAILABLE,(775) 538-7360
12280,320012000464,SPRING CREEK MIDDLE SCHOOL,14650 LAMOILLE HIGHWAY,SPRING CREEK,NV,89815,NOT AVAILABLE,(775) 777-1688
12927,320006000469,BUNKER BERKELEY L ES,6350 PEAK DR,LAS VEGAS,NV,89108,NOT AVAILABLE,(702) 799-3420
17878,320006000328,GLOBAL COMMUNITY HS,3801 E WASHINGTON AVE,LAS VEGAS,NV,89110,NOT AVAILABLE,(702) 799-8850
55211,320048000201,AGNES RISLEY ELEMENTARY,1900 SULLIVAN LANE,SPARKS,NV,89431,NOT AVAILABLE,(775) 353-5760
56647,320036000191,MANSE ELEMENTARY SCHOOL,4881 N LOLA LN,PAHRUMP,NV,89060,NOT AVAILABLE,(775) 727-5252
59392,320006000107,VALLEY HS,2839 S BURNHAM AVE,LAS VEGAS,NV,89169,NOT AVAILABLE,(702) 799-5450
40251,320006000436,ROBERTS AGGIE ES,227 CHARTER OAK ST,HENDERSON,NV,89074,NOT AVAILABLE,(702) 799-1320
47170,320006000345,KIM FRANK ES,7600 PEACE WAY,LAS VEGAS,NV,89147,NOT AVAILABLE,(702) 799-5990
48154,320036000187,BEATTY HIGH SCHOOL,1 HORNET AVE,BEATTY,NV,89003,NOT AVAILABLE,(775) 553-2595
65111,320036000752,FLOYD ELEMENTARY SCHOOL,6181 S JANE AVE,PAHRUMP,NV,89061,NOT AVAILABLE,(775) 751-4889
21850,320006000767,DESERT ROSE HS,444 W BROOKS AVE,N LAS VEGAS,NV,89030,NOT AVAILABLE,(702) 799-6240
24856,320006000274,SAWYER GRANT MS,5450 REDWOOD ST,LAS VEGAS,NV,89118,NOT AVAILABLE,(702) 799-5980
29297,320006000112,BRACKEN WALTER ES,1200 N 27TH ST,LAS VEGAS,NV,89101,NOT AVAILABLE,(702) 799-7095
35241,320006000663,DR. WILLIAM (BOB) H BAILEY MIDDLE SCHOOL,2500 N. HOLLYWOOD BLVD.,LAS VEGAS,NV,89156,NOT AVAILABLE,(702) 799-4811
35869,320006000417,BRUNER LUCILE ES,4289 ALLEN LN,N LAS VEGAS,NV,89032,NOT AVAILABLE,(702) 799-0620
91755,320006000736,BAILEY SISTER ROBERT JOSEPH ES,4525 JIMMY DURANTE BLVD,LAS VEGAS,NV,89122,NOT AVAILABLE,(702) 799-7510
72167,320024000163,BATTLE MOUNTAIN HIGH SCHOOL,425 WEAVER AVE,BATTLE MOUNTAIN,NV,89820,NOT AVAILABLE,(775) 635-5436
73977,320048000222,HUFFAKER ELEMENTARY,980 WHEATLAND RD,RENO,NV,89511,NOT AVAILABLE,(775) 689-2510
77027,320006000331,BENNETT WILLIAM G ES,2750 S NEEDLES HWY,LAUGHLIN,NV,89029,NOT AVAILABLE,(702) 298-3378
85453,320006000118,WILLIAM E FERRON ELEMENTARY SCHOOL,4200 MOUNTAIN VISTA ST.,LAS VEGAS,NV,89121,NOT AVAILABLE,(702) 799-7720
102224,320006000797,EARLY CHILDHOOD ES,3656 S. PECOS-MCLEOD INTERCONN,LAS VEGAS,NV,89121,NOT AVAILABLE,(702) 799-7479
105659,320000100924,NEVADA STATE HIGH SCHOOL II MEADOWWOOD,7530 LONGLEY LANE SUITE 103,RENO,NV,89511,NOT AVAILABLE,(702) 953-2600
46729,320048000324,VIRGINIA PALMER ELEMENTARY,5890 KLONDIKE,SPARKS,NV,89433,NOT AVAILABLE,(775) 674-4400
57669,320006000872,SNYDER DON & DEE ES,8951 W FORD AVE,LAS VEGAS,NV,89148,NOT AVAILABLE,(702) 799-1360
58317,320048000673,COLD SPRINGS MIDDLE SCHOOL,18235 CODY COURT,RENO,NV,89508,NOT AVAILABLE,(775) 677-5433
31507,320006000738,BURKHOLDER LYAL MS,355 W VAN WAGENEN,HENDERSON,NV,89015,NOT AVAILABLE,(702) 799-8080
35927,320006000595,SHADOW RIDGE HS,5050 BRENT LN,LAS VEGAS,NV,89131,NOT AVAILABLE,(702) 799-6699
38608,320006000716,WILLIAM V WRIGHT ELEMENTARY SCHOOL,8425 BOB FISK AVE.,LAS VEGAS,NV,89178,NOT AVAILABLE,(702) 799-5701
39595,320006000038,MCCAW GORDON ES,330 TIN STREET,HENDERSON,NV,89015,NOT AVAILABLE,(702) 799-8930
25845,320030000768,EAGLE RIDGE HIGH SCHOOL,3755 W. SPRUCE STREET,SILVER SPRINGS,NV,89429,NOT AVAILABLE,(775) 577-5082
25980,320012000622,WELLS HIGH SCHOOL,1129 LAKE AVENUE,WELLS,NV,89835,NOT AVAILABLE,(775) 752-3477
29642,320006000490,LAWRENCE CLIFFORD J JHS,4410 S JULIANO RD,LAS VEGAS,NV,89147,NOT AVAILABLE,(702) 799-2540
65100,320006000108,VARIETY J-SHS,2800 E STEWART AVE,LAS VEGAS,NV,89101,NOT AVAILABLE,(702) 799-7938
66426,320006000079,MOUNTAIN VIEW ES,5436 E KELL LN,LAS VEGAS,NV,89156,NOT AVAILABLE,(702) 799-7350
66647,320006000567,CANYON SPRINGS HS,350 E ALEXANDER RD,N LAS VEGAS,NV,89032,NOT AVAILABLE,(702) 799-1870
69990,320006000313,BURK HORIZON-SOUTHWEST SUNSET HS,4560 W HARMON AVE,LAS VEGAS,NV,89103,NOT AVAILABLE,(702) 799-8150
11107,320048000320,LLOYD DIEDRICHSEN ELEMENTARY,1735 DEL ROSA WAY,SPARKS,NV,89434,NOT AVAILABLE,(775) 353-5730
12133,320048000561,HIGH DESERT MONTESSORI CHARTER SCHOOL,2590 OROVADA STREET,RENO,NV,89512,NOT AVAILABLE,(775) 624-2800
17108,320006000050,EARL IRA J ES,1463 MARION DR,LAS VEGAS,NV,89110,NOT AVAILABLE,(702) 799-7310
71004,320036000193,ROUND MOUNTAIN ELEMENTARY SCHOOL,59 HADLEY CIR,ROUND MOUNTAIN,NV,89045,NOT AVAILABLE,(775) 377-2236
73675,320006000623,SCHERKENBACH WILLIAM & MARY ES,9371 IRON MOUNTAIN RD,LAS VEGAS,NV,89143,NOT AVAILABLE,(702) 799-3401
74234,320006000585,BILBRAY JAMES ES,9370 BRENT LN,LAS VEGAS,NV,89143,NOT AVAILABLE,(702) 799-4646
78137,320006000090,RED ROCK ES,408 UPLAND BLVD,LAS VEGAS,NV,89107,NOT AVAILABLE,(702) 799-4223
83968,320018000147,EUREKA ELEMENTARY SCHOOL,431 MCCOY STREET,EUREKA,NV,89316,NOT AVAILABLE,(775) 237-5700
84721,320006000101,SPRING MOUNTAIN J-SHS,SR 89038 BOX BUTTE 252,LAS VEGAS,NV,89115,NOT AVAILABLE,(702) 455-5555
86071,320009000764,ALT SCHOOL,1680 BENTLY PARKWAY SOUTH,MINDEN,NV,89423,NOT AVAILABLE,(775) 392-1475
86360,320006000578,MANNION JACK & TERRY MS,155 E PARADISE HILLS DR,HENDERSON,NV,89002,NOT AVAILABLE,(702) 799-3020
105662,320000100934,LEGACY TRADITIONAL SCHOOL SOUTHWEST LAS VEGAS,7077 W. WIGWAM AVENUE,LAS VEGAS,NV,89113,NOT AVAILABLE,(702) 637-1776
81107,320006000356,DOOLEY JOHN ES,1940 CHICKASAW DR,HENDERSON,NV,89002,NOT AVAILABLE,(702) 799-8060
82509,320048000245,SMITHRIDGE S.T.E.M. ACADEMY,4801 NEIL ROAD,RENO,NV,89502,NOT AVAILABLE,(775) 689-2560
82806,320048000239,RENO HIGH SCHOOL,395 BOOTH STREET,RENO,NV,89509,NOT AVAILABLE,(775) 333-5050
86459,320048000482,I CAN DO ANYTHING CHARTER HIGH SCHOOL,1195 CORPORATE BLVD SUITE C,RENO,NV,89502,NOT AVAILABLE,(775) 857-1544
101381,320048000203,ANDERSON ELEMENTARY,1055 BERRUM LANE,RENO,NV,89509,NOT AVAILABLE,(775) 689-2500
105664,320000100938,SIGNATURE PREPARATORY,498 SO BOULDER HWY,HENDERSON,NV,89015,NOT AVAILABLE,(702) 224-2809
105684,320006000950,ACCELERATION ACADEMY,700 E FIFITH STREET,NORTH LAS VEGAS,NV,89032,NOT AVAILABLE,(702) 952-9773
21475,320009000124,ZEPHYR COVE ELEMENTARY SCHOOL,226 WARRIOR WAY,ZEPHYR COVE,NV,89448,NOT AVAILABLE,(775) 588-4574
23742,320006000657,JEFFERS JAY W ES,2320 CLIFFORD ST,LAS VEGAS,NV,89115,NOT AVAILABLE,(702) 799-2100
29734,320018000148,EUREKA COUNTY HIGH SCHOOL,1 VANDAL WAY,EUREKA,NV,89316,NOT AVAILABLE,(775) 237-5361
70966,320048000390,ALYCE TAYLOR ELEMENTARY,252 EGYPTIAN WAY,SPARKS,NV,89441,NOT AVAILABLE,(775) 425-7700
73150,320006000357,MENDOZA JOHN F ES,2000 S SLOAN LN,LAS VEGAS,NV,89142,NOT AVAILABLE,(702) 799-8680
74782,320048000322,NANCY GOMES ELEMENTARY,3870 LIMKIN STREET,RENO,NV,89506,NOT AVAILABLE,(775) 677-5440
61454,320012000579,JACKPOT HIGH SCHOOL,1601 KENO,JACKPOT,NV,89825,NOT AVAILABLE,(775) 755-2374
68324,320006000459,MORROW SUE H ES,1070 FEATHERWOOD AVE,HENDERSON,NV,89015,NOT AVAILABLE,(702) 799-3550
69502,320006000755,NORTHWEST CAREER-TECHNICAL ACADEMY HS,8200 W TROPICAL PKWY,LAS VEGAS,NV,89149,NOT AVAILABLE,(702) 799-4640
10396,320012000684,OWYHEE JR HIGH SCHOOL,100 ACADEMIC WAY,OWYHEE,NV,89832,NOT AVAILABLE,(775) 757-3400
12181,320039000281,CARSON MIDDLE SCHOOL,1140 W. KING ST.,CARSON CITY,NV,89703,NOT AVAILABLE,(775) 283-2800
30524,320006000707,EXPLORE KNOWLEDGE ACADEMY J-SHS,5871 MOUNTAIN VISTA ST,LAS VEGAS,NV,89120,NOT AVAILABLE,(702) 870-5032
34291,320006000371,LYNCH ANN ES,4850 KELL LN,LAS VEGAS,NV,89115,NOT AVAILABLE,(702) 799-8820
37883,320006000024,WENGERT CYRIL ES,2001 WINTERWOOD BLVD,LAS VEGAS,NV,89142,NOT AVAILABLE,(702) 799-8600
41922,320018000146,CRESCENT VALLEY ELEMENTARY,444 4TH STREET,CRESCENT VALLEY,NV,89821,NOT AVAILABLE,(775) 468-0213
44674,320006000806,TRIGGS VINCENT L ES,4470 W ROME BLVD,N LAS VEGAS,NV,89084,NOT AVAILABLE,(702) 799-1890
46761,320006000264,KAHRE MARC ES,7887 W GOWAN RD,LAS VEGAS,NV,89129,NOT AVAILABLE,(702) 799-4660
49095,320006000435,WILHELM ELIZABETH ES,609 W ALEXANDER RD,N LAS VEGAS,NV,89032,NOT AVAILABLE,(702) 799-1750
57104,320006000879,HEARD LOMIE G ES,4497 KELL LN,LAS VEGAS,NV,89110,NOT AVAILABLE,(702) 799-4920
58434,320006000080,LUNDY EARL B ES,4405 YELLOW PINE AVE,MT CHARLESTON,NV,89124,NOT AVAILABLE,(702) 872-5438
5167,320000100608,NEVADA STATE HIGH SCHOOL HENDERSON,233 N. STEPHANIE ST.,HENDERSON,NV,89074,NOT AVAILABLE,(702) 953-2600
5925,320000100902,MATER BONANZA,4760 EAST BONANZA ROAD,LAS VEGAS,NV,89110,NOT AVAILABLE,(702) 478-8318
5395,320048000525,CORAL ACADEMY HIGH SCHOOL,6275 NEIL RD,RENO,NV,89511,NOT AVAILABLE,(775) 829-4601
6094,320000100895,LEGACY TRADITIONAL SCHOOL NORTH VALLEY,5024 VALLEY DR,NORTH LAS VEGAS,NV,89031,NOT AVAILABLE,(702) 342-0880
40503,320006000619,VARIETY ES,2800 E STEWART AVE,LAS VEGAS,NV,89101,NOT AVAILABLE,(702) 799-7938
41610,320045000199,VIRGINIA CITY HIGH SCHOOL,95 SOUTH R STREET,VIRGINIA CITY,NV,89440,NOT AVAILABLE,(775) 847-0992
44139,320006000583,TAYLOR GLEN C ES,2655 SIENA HEIGHTS DR,HENDERSON,NV,89052,NOT AVAILABLE,(702) 799-6892
49382,320006000507,MARTINEZ REYNALDO L ES,350 E JUDSON AVE,N LAS VEGAS,NV,89030,NOT AVAILABLE,(702) 799-3800
71727,320006000032,ELDORADO HS,1139 N LINN LN,LAS VEGAS,NV,89110,NOT AVAILABLE,(702) 799-7200
74899,320006000037,GOODSPRINGS ES,385 W SAN PEDRO AVE,GOODSPRINGS,NV,89019,NOT AVAILABLE,(702) 874-1378
75102,320012000779,JUVENILE DETENTION,665 WEST SILVE STREET,ELKO,NV,89801,NOT AVAILABLE,(775) 777-1753
79736,320048000838,KENDYL DEPOALI MS PRESCHOOL,9300 WILBUR MAY PARKWAY,RENO,NV,89521,NOT AVAILABLE,(775) 852-6700
79937,320048000215,FRED W. TRANER MIDDLE SCHOOL,1700 CARVILLE DRIVE,RENO,NV,89512,NOT AVAILABLE,(775) 333-5130
54466,320002200884,DEMOCRACY PREP AT AGASSI MIDDLE,1201 W. LAKE MEAD BLVD,LAS VEGAS,NV,89106,NOT AVAILABLE,(702) 316-2410
59741,320006000329,COWAN SUNSET SOUTHEAST HS,5300 E RUSSELL RD,LAS VEGAS,NV,89122,NOT AVAILABLE,(702) 799-6370
80164,320006000276,DURANGO HS,7100 W DEWEY DR,LAS VEGAS,NV,89113,NOT AVAILABLE,(702) 799-5850
80663,320048000481,ESTHER BENNETT ELEMENTARY,5900 SIDEHILL DRIVE,SPARKS,NV,89433,NOT AVAILABLE,(775) 674-4444
84373,320048000545,SPANISH SPRINGS HIGH SCHOOL,1065 EAGLE CANYON DRIVE,SPARKS,NV,89441,NOT AVAILABLE,(775) 425-7733
11655,320006000094,GIBSON ROBERT O MS,3900 W WASHINGTON AVE,LAS VEGAS,NV,89107,NOT AVAILABLE,(702) 799-4700
14975,320006000489,DETWILER OLLIE ES,1960 FERRELL ST,LAS VEGAS,NV,89106,NOT AVAILABLE,(702) 799-1830
15850,320006000298,GRAY R GUILD ES,2825 S TORREY PINES DR,LAS VEGAS,NV,89146,NOT AVAILABLE,(702) 799-5950
16450,320027000170,PAHRANAGAT VALLEY ELEMENTARY SCHOOL,593 BROADWAY,ALAMO,NV,89001,NOT AVAILABLE,(775) 725-3351
18443,320006000072,HOGGARD MABEL ES,950 N TONOPAH DR,LAS VEGAS,NV,89106,NOT AVAILABLE,(702) 799-4740
92556,320006000113,LONG WALTER V ES,2000 S WALNUT RD,LAS VEGAS,NV,89104,NOT AVAILABLE,(702) 799-7456
65663,320006000717,INNOVATIONS INT'L CHARTER ES,1600 E OAKEY BLVD,LAS VEGAS,NV,89104,NOT AVAILABLE,(702) 216-4337
28322,320006000399,KING MARTHA P ES,888 ADAMS BLVD,BOULDER CITY,NV,89005,NOT AVAILABLE,(702) 799-8260
31250,320006000795,ADULT EDUCATION PROGRAMS,CLARK COUNTY NEVADA,LAS VEGAS,NV,89104,NOT AVAILABLE,(702) 799-8650
35433,320006000588,MILLER SANDY SEARLES ES,4851 E LAKE MEAD BLVD,LAS VEGAS,NV,89115,NOT AVAILABLE,(702) 799-8830
105672,320000100956,AMPLUS RAINBOW,7077 W PATRICK LANE,LAS VEGAS,NV,89118,NOT AVAILABLE,(702) 970-6800
105678,320006000933,JENKINS EARL N ES,6950 VEGAS VALLEY DR,LAS VEGAS,NV,89142,NOT AVAILABLE,(702) 799-3200
53249,320048000523,VAN GORDER ELEMENTARY,7650 CAMPELLO DRIVE,SPARKS,NV,89436,NOT AVAILABLE,(775) 425-7722
55337,320009000120,DOUGLAS HIGH SCHOOL,1670 HWY 88,MINDEN,NV,89423,NOT AVAILABLE,(775) 782-5136
57671,320036000862,NCSD ADULT EDUCATION,2000 S. MT. CHARLESTON WEST,PAHRUMP,NV,89048,NOT AVAILABLE,(775) 751-6822
59089,320000100784,ELKO INSTITUTE FOR ACADEMIC ACHIEVEMENT,1031 RAILROAD ST STE 107,ELKO,NV,89801,NOT AVAILABLE,(775) 738-3422
41909,320006000304,SANDY VALLEY J-SHS,HCR 31 BOX 111,SANDY VALLEY,NV,89019,NOT AVAILABLE,(702) 723-1800
48205,320048000257,GALENA HIGH SCHOOL,3600 BUTCH CASSIDY WAY,RENO,NV,89511,NOT AVAILABLE,(775) 851-5630
82759,320006000796,SOUTHEAST CAREER TECHNICAL ACADEMY HS,5710 MOUNTAIN VISTA,LAS VEGAS,NV,89120,NOT AVAILABLE,(702) 799-7500
87549,320006000445,MOJAVE HS,5302 GOLDFIELD ST,N LAS VEGAS,NV,89031,NOT AVAILABLE,(702) 799-0432
88932,320006000341,HINMAN EDNA F ES,450 MERLAYNE DR,HENDERSON,NV,89015,NOT AVAILABLE,(702) 799-8990
89734,320036000186,BEATTY ELEMENTARY SCHOOL,301 N 4TH ST,BEATTY,NV,89003,NOT AVAILABLE,(775) 553-2902
75215,320042000762,COAL CANYON HS,1200 PRISON ROA,LOVELOCK,NV,89419,NOT AVAILABLE,(775) 273-2625
78469,320006000616,SPRING VALLEY HS,3750 S BUFFALO DR,LAS VEGAS,NV,89147,NOT AVAILABLE,(702) 799-2580
91079,320006000041,DONDERO HARVEY N ES,4450 S RIDGEVILLE ST,LAS VEGAS,NV,89103,NOT AVAILABLE,(702) 799-5940
60105,320006000268,WIENER JR LOUIS ES,450 E ELDORADO LN,LAS VEGAS,NV,89123,NOT AVAILABLE,(702) 799-5760
34812,320006000096,MARTIN ROY W MS,200 N 28TH STREET,LAS VEGAS,NV,89101,NOT AVAILABLE,(702) 799-7922
35213,320048000682,CORAL ACADEMY ELEMENTARY,1701 VALLEY ROAD,RENO,NV,89512,NOT AVAILABLE,(775) 322-0274
35642,320006000033,HERRON FAY ES,2421 N KENNETH,N LAS VEGAS,NV,89030,NOT AVAILABLE,(702) 799-7123
36924,320006000663,BAILEY DR WILLIAM H MS,2500 N HOLLYWOOD BLVD,LAS VEGAS,NV,89156,NOT AVAILABLE,(702) 799-4811
38709,320048000202,ALICE MAXWELL ELEMENTARY,2300 NORTH ROCK BLVD,SPARKS,NV,89431,NOT AVAILABLE,(775) 353-5580
38821,320006000757,REEDOM CAROLYN S ES,10025 RUMRILL ST,LAS VEGAS,NV,89178,NOT AVAILABLE,(702) 799-5702
105692,320048000939,MARCE HERZ MIDDLE SCHOOL,13455 THOMAS CREEK RD,RENO,NV,89511,NOT AVAILABLE,(775) 851-5629
22447,320036000351,J G JOHNSON ELEMENTARY SCHOOL,900 E JACK RABBIT ST,PAHRUMP,NV,89048,NOT AVAILABLE,(775) 727-6619
26885,320009000447,PINON HILLS ELEMENTARY SCHOOL,1479 STEPHANIE WAY,MINDEN,NV,89423,NOT AVAILABLE,(775) 267-3622
27727,320006000670,100 ACADEMY OF EXCELLENCE ES,2341 COMSTOCK DR,N LAS VEGAS,NV,89032,NOT AVAILABLE,(702) 636-2551
28323,320048000225,INCLINE HIGH SCHOOL,499 VILLAGE BLVD,INCLINE VILLAGE,NV,89451,NOT AVAILABLE,(775) 832-4260
12588,320048000209,ECHO LODER ELEMENTARY SCHOOL,600 APPLE STREET,RENO,NV,89502,NOT AVAILABLE,(775) 689-2540
19301,320030000387,COTTONWOOD ELEMENTARY SCHOOL,925 FARM DISTRICT ROAD,FERNLEY,NV,89408,NOT AVAILABLE,(775) 575-3414
702,320024000866,ELEANOR LEMAIRE JUNIOR HIGH SCHOOL,985 W. HUMBOLDT,BATTLE MOUNTAIN,NV,89820,NOT AVAILABLE,(775) 635-8114
60021,320006000580,HUMMEL JOHN R ES,9800 PLACID ST,LAS VEGAS,NV,89183,NOT AVAILABLE,(702) 799-6810
61754,320048000391,BILLINGHURST MIDDLE SCHOOL,6685 CHESTERFIELD LANE,RENO,NV,89523,NOT AVAILABLE,(775) 746-5870
66474,320048000467,TED HUNSBERGER ELEMENTARY,2505 CROSSBOW,RENO,NV,89511,NOT AVAILABLE,(775) 851-7095
69420,320006000114,WESTERN HS,4601 W BONANZA RD,LAS VEGAS,NV,89107,NOT AVAILABLE,(702) 799-4080
100531,320048000546,NORTH VALLEYS HIGH SCHOOL,1470 EAST GOLDEN VALLEY ROAD,RENO,NV,89506,NOT AVAILABLE,(775) 677-5499
70157,320006000812,WEST CAREER & TECHNICAL ACADEMY HS,11945 W CHARLESTON BLVD,LAS VEGAS,NV,89135,NOT AVAILABLE,(702) 799-4340
74876,320006000375,FONG WING AND LILLY ES,2200 JAMES BILBRAY DR,LAS VEGAS,NV,89108,NOT AVAILABLE,(702) 799-4890
77445,320006000301,BROWN B MAHLON JHS,307 CANNES ST,HENDERSON,NV,89015,NOT AVAILABLE,(702) 799-8900
17415,320024000165,BATTLE MOUNTAIN ELEMENTARY SCHOOL,650 ALTENBURG AVENUE,BATTLE MOUNTAIN,NV,89820,NOT AVAILABLE,(775) 635-2889
17604,320033000811,HAWTHORNE ELEMENTARY,301 W. 9TH ST,HAWTHORNE,NV,89415,NOT AVAILABLE,(775) 945-1000
17638,320006000475,SILVESTRI CHARLES JHS,1055 SILVERADO RANCH BLVD,LAS VEGAS,NV,89123,NOT AVAILABLE,(702) 799-2240
18045,320039000285,FREMONT ELEMENTARY,1511 FIREBOX RD.,CARSON CITY,NV,89701,NOT AVAILABLE,(775) 283-1200
2962,320006000655,RIES ALDEANE COMITO ES,9805 S LINDELL RD,LAS VEGAS,NV,89141,NOT AVAILABLE,(702) 799-1240
5802,320000100888,DORAL ACADEMY CACTUS,9025 WEST CACTUS AVENUE,LAS VEGAS,NV,89178,NOT AVAILABLE,(702) 960-7500
6965,320015000143,DYER ELEMENTARY SCHOOL,HWY 264 M.M. 11,DYER,NV,89010,NOT AVAILABLE,(775) 572-3250
23698,320030000311,FERNLEY INTERMEDIATE SCHOOL,320 HWY 95A SOUTH,FERNLEY,NV,89408,NOT AVAILABLE,(775) 575-3390
23719,320048000560,MARIPOSA DUAL LANGUAGE ACADEMY,3875 GLEN STREET,RENO,NV,89502,NOT AVAILABLE,(775) 826-4040
30730,320006000402,GREENSPUN BARBARA & HANK JHS,140 N VALLE VERDE,HENDERSON,NV,89074,NOT AVAILABLE,(702) 799-0920
39440,320006000376,GIBSON JAMES ES,271 LEISURE CIR,HENDERSON,NV,89074,NOT AVAILABLE,(702) 799-8730
56636,320006000740,RAINBOW DREAMS ACADEMY ES,950 W LAKE MEAD BLVD,LAS VEGAS,NV,89106,NOT AVAILABLE,(702) 638-0222
57158,320006000580,JOHN R HUMMEL ELEMENTARY SCHOOL,9800 PLACID ST.,LAS VEGAS,NV,89183,NOT AVAILABLE,(702) 799-6810
57221,320006000874,JONES BLACKHURST JAN L ES,11141 S PIONEER WY,LAS VEGAS,NV,89179,NOT AVAILABLE,(702) 799-1252
80099,320006000061,PARK JOHN S ES,931 FRANKLIN AVE,LAS VEGAS,NV,89104,NOT AVAILABLE,(702) 799-7904
83496,320006000095,WARREN ROSE ES,6451 BRANDYWINE WAY,LAS VEGAS,NV,89107,NOT AVAILABLE,(702) 799-4233
92238,320006000536,MONACO MARIO C & JOANNE MS,1870 N LAMONT ST,LAS VEGAS,NV,89115,NOT AVAILABLE,(702) 799-3670
92909,320006000045,BARTLETT SELMA F ES,1961 WIGWAM PKWY,HENDERSON,NV,89074,NOT AVAILABLE,(702) 799-5750
93870,320006000383,TREEM HARRIET ES,1698 PATRICK LN,HENDERSON,NV,89014,NOT AVAILABLE,(702) 799-8760
98787,320048000204,ARCHIE CLAYTON PRE-A.P. ACADEMY,1295 WYOMING AVENUE,RENO,NV,89503,NOT AVAILABLE,(775) 746-5860
99452,320048000366,HIDDEN VALLEY ELEMENTARY,2115 ALPHABET DRIVE,RENO,NV,89502,NOT AVAILABLE,(775) 857-3150
71978,320048000226,JESSIE BECK ELEMENTARY,1900 SHARON WAY,RENO,NV,89509,NOT AVAILABLE,(775) 689-2520
72801,320009000307,JACKS VALLEY ELEMENTARY SCHOOL,701 JACKS VALLEY ROAD,CARSON CITY,NV,89705,NOT AVAILABLE,(775) 267-3267
76571,320003000431,NUMA ELEMENTARY SCHOOL,601 DISCOVERY WAY,FALLON,NV,89406,NOT AVAILABLE,(775) 428-1996
79520,320021000151,KINGS RIVER,134 KINGS RIVER ROAD,KINGS RIVER,NV,89425,NOT AVAILABLE,(866) 447-2983
98691,320048000230,LIBBY BOOTH ELEMENTARY,1450 STEWART ST,RENO,NV,89502,NOT AVAILABLE,(775) 333-5140
62055,320048000250,VERDI ELEMENTARY,250 BRIDGE STREET,VERDI,NV,89439,NOT AVAILABLE,(775) 345-8100
63618,320006000302,BOWLER GRANT ES,1415 W WHIPPLE RD,LOGANDALE,NV,89021,NOT AVAILABLE,(702) 398-3233
64455,320030000175,FERNLEY ELEMENTARY SCHOOL,450 HARDIE LANE,FERNLEY,NV,89408,NOT AVAILABLE,(775) 575-3420
67457,320048000317,ELIZABETH LENZ ELEMENTARY,2500 HOMELAND DRIVE,RENO,NV,89511,NOT AVAILABLE,(775) 851-5620
84572,320006000592,CHARLES ARTHUR HUGHES MIDDLE SCHOOL,550 HAFEN LN.,MESQUITE,NV,89027,NOT AVAILABLE,(702) 346-3250
86179,320006000091,BELL REX ES,2900 WILMINGTON WAY,LAS VEGAS,NV,89102,NOT AVAILABLE,(702) 799-5910
16941,320006000382,COX DAVID M ES,280 CLARK DR,HENDERSON,NV,89074,NOT AVAILABLE,(702) 799-5730
19398,320006000754,DESERT OASIS HS,6600 W ERIE AVE,LAS VEGAS,NV,89141,NOT AVAILABLE,(702) 799-6881
56474,320000100818,DISCOVERY CHARTER SCHOOL HILLPOINTE,8941 HILLPOINTE ROAD,LAS VEGAS,NV,89134,NOT AVAILABLE,(702) 240-0359
58126,320036000557,PATHWAYS HIGH SCHOOL,2000 S. MT. CHARLESTON WEST,PAHRUMP,NV,89048,NOT AVAILABLE,(775) 751-6822
26784,320006000551,IVERSON MERVIN ES,1575 S HOLLYWOOD BLVD,LAS VEGAS,NV,89142,NOT AVAILABLE,(702) 799-7260
29313,320036000412,ROSEMARY CLARKE MIDDLE SCHOOL,4201 N BLAGG RD,PAHRUMP,NV,89060,NOT AVAILABLE,(775) 727-5546
31763,320006000441,ARTURO CAMBEIRO ELEMENTARY SCHOOL,2851 E. HARRIS AVE.,LAS VEGAS,NV,89101,NOT AVAILABLE,(702) 799-1700
32373,320006000460,WEST PREPARATORY INSTITUTE J-SHS,2050 SAPHIRE STONE AVE,LAS VEGAS,NV,89106,NOT AVAILABLE,(702) 799-3120
3430,320048000432,BUD BEASLEY ELEMENTARY,2100 CANYON PARKWAY,SPARKS,NV,89436,NOT AVAILABLE,(775) 626-5250
6960,320006000384,MILLER JOHN F ES,3840 PECOS MCLEOD INTERCONNECT,LAS VEGAS,NV,89121,NOT AVAILABLE,(702) 799-7401
101843,320006000297,MACK NATE ES,3170 LAUREL AVE,HENDERSON,NV,89014,NOT AVAILABLE,(702) 799-7760
105671,320000100955,MATER ACADEMY EAST,3900 E. BONANZA RD.,LAS VEGAS,NV,89110,NOT AVAILABLE,(702) 431-6260
61106,320006000494,FOOTHILL HS,800 COLLEGE DR,HENDERSON,NV,89002,NOT AVAILABLE,(702) 799-3500
68646,320006000052,MANCH J E ES,4351 LAMONT ST,LAS VEGAS,NV,89115,NOT AVAILABLE,(702) 799-4900
11252,320006000109,VEGAS VERDES ES,4000 EL PARQUE AVE,LAS VEGAS,NV,89102,NOT AVAILABLE,(702) 799-5960
12861,320048000561,HIGH DESERT MONTESSORI,2590 OROVADA ST,RENO,NV,89512,NOT AVAILABLE,(775) 624-2800
16062,320012000130,ELKO HIGH SCHOOL,987 COLLEGE AVENUE,ELKO,NV,89801,NOT AVAILABLE,(775) 738-7281
19975,320021000150,DENIO,BOX BUTTE 76,DENIO,NV,89404,NOT AVAILABLE,(866) 447-3567
44319,320006000078,MOAPA VALLEY HS,2400 ST JOSEPH ST,OVERTON,NV,89040,NOT AVAILABLE,(702) 397-2611
44546,320015000145,SILVER PEAK ELEMENTARY SCHOOL,500 GALENA ST.,SILVER PEAK,NV,89047,NOT AVAILABLE,(775) 937-2261
21466,320027000172,PANACA ELEMENTARY SCHOOL,1000 EAST EDWARDS,PANACA,NV,89042,NOT AVAILABLE,(775) 728-4446
23154,320006000845,NV LEARNING ACADEMY J-SHS,3050 E FLAMINGO RD,LAS VEGAS,NV,89121,NOT AVAILABLE,(702) 855-8435
23851,320006000057,BRIDGER JIM MS,2505 N BRUCE ST,N LAS VEGAS,NV,89030,NOT AVAILABLE,(702) 799-7185
24680,320006000730,FAISS WILBUR & THERESA MS,9525 W MAULE AVE,LAS VEGAS,NV,89148,NOT AVAILABLE,(702) 799-6850
79676,320006000031,EDWARDS ELBERT ES,4551 DIAMOND HEAD,LAS VEGAS,NV,89110,NOT AVAILABLE,(702) 799-7320
703,320048000869,INNOVATIONS HIGH SCHOOL,777 WEST SECOND STREET,RENO,NV,89503,NOT AVAILABLE,(775) 333-5150
5490,320000100742,CORAL ACADEMY SANDY RIDGE,1051 SANDY RIDGE AVE,HENDERSON,NV,89052,NOT AVAILABLE,(702) 776-8800
32417,320006000744,WEST PREP ES,1950 PINK ROSE ST.,LAS VEGAS,NV,89106,NOT AVAILABLE,(702) 799-3120
33589,320006000008,RONZONE BERTHA ES,5701 STACEY AVE,LAS VEGAS,NV,89108,NOT AVAILABLE,(702) 799-4780
34993,320036000189,GABBS ELEMENTARY SCHOOL,511 EAST AVE,GABBS,NV,89409,NOT AVAILABLE,(775) 285-2692
39441,320006000406,CIMARRON-MEMORIAL HS,2301 N TENAYA WAY,LAS VEGAS,NV,89128,NOT AVAILABLE,(702) 799-4400
54407,320000100885,DISCOVERY CHARTER SCHOOL MESA VISTA,3883 E. MESA VISTA WAY,LAS VEGAS,NV,89120,NOT AVAILABLE,(702) 547-5682
55808,320006000069,CRAIG LOIS ES,2637 E GOWAN RD,N LAS VEGAS,NV,89030,NOT AVAILABLE,(702) 799-4910
57011,320006000877,VASSILIADIS BILLY & ROSEMARY ES,215 ANTELOPE RIDGE DR,LAS VEGAS,NV,89138,NOT AVAILABLE,(702) 799-1420
57212,320006000876,MATHIS DR. BEVERLY S ES,7950 ARVILLE ST,LAS VEGAS,NV,89139,NOT AVAILABLE,(702) 799-8170
57402,320051000857,STEPTOE VALLEY ADULT HIGH SCHOOL,700 AULTMAN STREET,ELY,NV,89301,NOT AVAILABLE,(775) 289-2999
81019,320006000017,WOODBURY C W MS,3875 E HARMON AVE,LAS VEGAS,NV,89121,NOT AVAILABLE,(702) 799-7660
82901,320006000621,TANAKA WAYNE N ES,9135 W MAULE AVE,LAS VEGAS,NV,89148,NOT AVAILABLE,(702) 799-2504
85673,320021000159,WINNEMUCCA JUNIOR HIGH SCHOOL,451 REINHART STREET,WINNEMUCCA,NV,89445,NOT AVAILABLE,(775) 623-8120
86578,320021000155,OROVADA SCHOOL,BOX BUTTE 85,OROVADA,NV,89425,NOT AVAILABLE,(866) 442-4615
88717,320006000086,P A DISKIN ELEMENTARY SCHOOL,4220 S. RAVENWOOD,LAS VEGAS,NV,89147,NOT AVAILABLE,(702) 799-5930
100111,320051000255,DAVID E NORMAN ELEMENTARY,1001 E 11TH ST,ELY,NV,89301,NOT AVAILABLE,(775) 289-4846
100968,320006000397,HERR HELEN ES,6475 EAGLE CREEK LN,LAS VEGAS,NV,89156,NOT AVAILABLE,(702) 799-8860
20354,590006100137,PYRAMID LAKE HIGH SCHOOL,711 STATE STREET,NIXON,NV,89424,NOT AVAILABLE,(775) 574-1016
26225,320006000612,SANDY VALLEY ES,HCR 31 BOX 111,SANDY VALLEY,NV,89019,NOT AVAILABLE,(702) 723-5344
27030,320006000010,BLUE DIAMOND ES,6 DIAMOND ST,BLUE DIAMOND,NV,89004,NOT AVAILABLE,(702) 875-4226
5130,320012000139,RUBY VALLEY ELEMENTARY SCHOOL,HC 60 BOX 620,RUBY VALLEY,NV,89833,NOT AVAILABLE,(775) 779-2289
6034,320000100907,CORAL ACADEMY NELLIS AFB,107 STAFFORD,LAS VEGAS,NV,89191,NOT AVAILABLE,(702) 643-5121
6249,320000100903,NEVADA STATE HIGH SCHOOL SUMMERLIN,850 SOUTH DURANGO STE 100,LAS VEGAS,NV,89145,NOT AVAILABLE,(702) 953-2600
6345,320012000326,ADOBE MIDDLE SCHOOL,3375 JENNINGS WAY,ELKO,NV,89801,NOT AVAILABLE,(775) 738-7236
10645,320039000315,EAGLE VALLEY MIDDLE SCHOOL,4151 E. FIFTH ST.,CARSON CITY,NV,89701,NOT AVAILABLE,(775) 283-2600
11444,320006000381,CUNNINGHAM CYNTHIA ES,4145 JIMMY DURANTE,LAS VEGAS,NV,89122,NOT AVAILABLE,(702) 799-8780
69709,320006000463,COLLEGE OF SO NV HS SOUTH,700 COLLEGE DR,HENDERSON,NV,89002,NOT AVAILABLE,(702) 651-3080
70740,320048000243,ROY GOMM ELEMENTARY,4000 MAYBERRY DR,RENO,NV,89519,NOT AVAILABLE,(775) 333-5000
72422,320012000568,CARLIN HIGH SCHOOL,552 8TH STREET,CARLIN,NV,89822,NOT AVAILABLE,(775) 754-6317
76360,320006000794,MCCLURE FLORENCE WOMEN'S CORR,4370 SMILEY RD,N LAS VEGAS,NV,89115,NOT AVAILABLE,(702) 651-7227
40446,320006000716,WRIGHT WILLIAM V ES,8425 BOB FISK AVENUE,LAS VEGAS,NV,89178,NOT AVAILABLE,(702) 799-5701
44429,320048000834,DOROTHY LEMELSON S.T.E.M. ACADEMY ES,2001 SOARING EAGLE DR,RENO,NV,89512,NOT AVAILABLE,(775) 333-5080
45502,320006000659,WEBB DEL E MS,2200 REUNION DR,HENDERSON,NV,89052,NOT AVAILABLE,(702) 799-1305
47302,320048000229,LENA JUNIPER ELEMENTARY,225 QUEEN WAY,SPARKS,NV,89431,NOT AVAILABLE,(775) 353-5540
80467,320006000339,REED DORIS M ES,2501 WINWOOD ST,LAS VEGAS,NV,89108,NOT AVAILABLE,(702) 799-4777
85270,320036000564,AMARGOSA VALLEY MIDDLE SCHOOL,1560 E. AMARGOSA FARM RD.,AMARGOSA,NV,89020,NOT AVAILABLE,(775) 372-5324
88593,320051000606,LUND HIGH SCHOOL,301 E 2ND NORTH,LUND,NV,89317,NOT AVAILABLE,(775) 289-5200
55034,320006000786,BOZARTH HENRY & EVELYN ES,7431 EGAN CREST DR,LAS VEGAS,NV,89149,NOT AVAILABLE,(702) 799-6608
58376,320012000839,NORTHEASTERN NEVADA VIRTUAL ACADEMY,850 ELM STREET,ELKO,NV,89801,NOT AVAILABLE,(775) 738-5196
90743,320006000679,HAYDEN DON E ES,150 W ROME BLVD,N LAS VEGAS,NV,89084,NOT AVAILABLE,(702) 799-3870
102172,320048000678,KENDYL DEPOALI MIDDLE SCHOOL,9300 WILBUR MAY PARKWAY,RENO,NV,89521,NOT AVAILABLE,(775) 852-6700
105666,320000100944,NEVADA STATE HIGH SCHOOL DOWNTOWN HENDERSON,303 S. WATER ST. STE 120,HENDERSON,NV,89015,NOT AVAILABLE,(702) 953-2600
105673,320006000915,ORTWEIN DENNIS ES,10926 DEAN MARTIN DRIVE,LAS VEGAS,NV,89141,NOT AVAILABLE,(702) 799-2680
105680,320006000940,TOLAND HELEN ANDERSON ES,700 E FIFITH STREET,CARSON CITY,NV,89701,NOT AVAILABLE,(775) 689-2500
105691,320048000936,NICK POULAKIDAS ELEMENTARY SCHOOL,9600 MOJAVE SKY DR,RENO,NV,89521,NOT AVAILABLE,(775) 852-6570
62067,320006000076,THORPE JIM ES,1650 PATRICK LN,HENDERSON,NV,89014,NOT AVAILABLE,(702) 799-0740
65215,320006000518,SUMMIT VIEW YOUTH J-SHS,5730 RANGE RD,LAS VEGAS,NV,89115,NOT AVAILABLE,(702) 799-0275
67682,320021000157,SONOMA HEIGHTS ELEMENTARY,1500 MELARKEY STREET,WINNEMUCCA,NV,89445,NOT AVAILABLE,(775) 623-8165
68822,320030000386,DAYTON INTERMEDIATE SCHOOL,315 DAYTON VALLEY ROAD,DAYTON,NV,89403,NOT AVAILABLE,(775) 246-6250
11124,320030000310,DAYTON HIGH SCHOOL,335 DAYTON VALLEY ROAD,DAYTON,NV,89403,NOT AVAILABLE,(775) 246-6240
84494,320048000316,EDWIN S. DODSON ELEMENTARY,4355 HOUSTON DR,RENO,NV,89502,NOT AVAILABLE,(775) 689-2530
88698,320006000689,SCHORR STEVE ES,11420 PLACID STREET,LAS VEGAS,NV,89183,NOT AVAILABLE,(702) 799-1380
4483,320036000871,WARM SPRINGS ELEMENTARY/MIDDLE SCHOOL,#2 TWIN SPRINGS RANCH RD,TONOPAH,NV,89049,NOT AVAILABLE,(775) 537-5019
6555,320000100890,CORAL ACADEMY TAMARUS,8185 TAMARUS ST,LAS VEGAS,NV,89123,NOT AVAILABLE,(702) 269-8512
6558,320000100910,SOMERSET ACADEMY STEPHANIE,50 N STEPHANIE STREET,HENDERSON,NV,89074,NOT AVAILABLE,(702) 998-0500
7494,320048000414,LOIS ALLEN ELEMENTARY,5155 MCGUFFY ROAD,SPARKS,NV,89433,NOT AVAILABLE,(775) 674-4430
30361,320006000111,VIRGIN VALLEY HS,820 VALLEY VIEW DR,MESQUITE,NV,89027,NOT AVAILABLE,(702) 346-2780
33207,320006000598,PETERSON ACADEMIC CENTER J-SHS,10250 W CENTENNIAL PKWY,LAS VEGAS,NV,89149,NOT AVAILABLE,(702) 799-6610
34500,320006000054,ULLOM J M ES,4869 E SUN VALLEY DR,LAS VEGAS,NV,89121,NOT AVAILABLE,(702) 799-7780
47926,320048000558,ROLLAN MELTON ELEMENTARY,6575 ARCHIMEDES LANE,RENO,NV,89523,NOT AVAILABLE,(775) 746-7440
55753,320048000433,LOU MENDIVE MIDDLE SCHOOL,1900 WHITEWOOD DRIVE,SPARKS,NV,89434,NOT AVAILABLE,(775) 353-5990
74350,320006000099,REID HARRY ES,300 MICHAEL WENDELL WAY,SEARCHLIGHT,NV,89046,NOT AVAILABLE,(702) 297-1224
76863,320006000093,TAYLOR ROBERT L ES,144 WESTMINSTER WAY,HENDERSON,NV,89015,NOT AVAILABLE,(702) 799-8950
21718,320030000424,SILVER STAGE MIDDLE SCHOOL,3800 W. SPRUCE AVENUE,SILVER SPRINGS,NV,89429,NOT AVAILABLE,(775) 577-5050
22325,320000100781,SILVER SANDS MONTESSORI,1841 WHITNEY MESA DRIVE,HENDERSON,NV,89014,NOT AVAILABLE,(702) 522-5220
24672,320033000184,SCHURZ ELEMENTARY,4048 S. HWY 95,SCHURZ,NV,89427,NOT AVAILABLE,(775) 773-2323
27125,320048000241,ROBERT MITCHELL ELEMENTARY,1216 PRATER WAY,SPARKS,NV,89431,NOT AVAILABLE,(775) 353-5590
100062,320048000232,MAMIE TOWLES ELEMENTARY,2800 KINGS ROW,RENO,NV,89503,NOT AVAILABLE,(775) 746-5820
101762,320006000265,KATZ EDYTHE & LLOYD ES,1800 ROCK SPRINGS DR,LAS VEGAS,NV,89128,NOT AVAILABLE,(702) 799-4330
